{"type":"FeatureCollection","features":[{"type":"Feature","id":"01001","properties":{"name":"Autauga","county_fips":"01001","state_abbr":"AL"},"geometry":{"type":"Polygon","coordinates":[[[-86.91684155741557,32.663948774277735],[-86.71225179981799,32.66137159520595],[-86.71584109381094,32.706042699116985],[-86.41434039840398,32.70776081849818],[-86.41075110441103,32.409667105861054],[-86.45741192631925,32.406230867098664],[-86.4610012203122,32.37788189730897],[-86.4968941602416,32.344378569375685],[-86.53278710017099,32.33836515154151],[-86.54355498214981,32.36327788256882],[-86.61534086200862,32.37444565854658],[-86.61893015600155,32.405371807408066],[-86.65482309593095,32.397640270192696],[-86.68353744787447,32.35296916628166],[-86.71225179981799,32.36070070349703],[-86.71943038780387,32.40279462833628],[-86.77685909169091,32.394204031430306],[-86.77326979769798,32.3409423306133],[-86.79839485564855,32.30829806237062],[-86.81634132561325,32.3409423306133],[-86.81634132561325,32.371009419784194],[-86.84505567755677,32.40021744926449],[-86.82351991359913,32.425130180291795],[-86.85941285352853,32.450901971009706],[-86.90607367543674,32.536807940069394],[-86.89889508745087,32.567734088930884],[-86.91684155741557,32.663948774277735]]]}},{"type":"Feature","id":"01003","properties":{"name":"Baldwin","county_fips":"01003","state_abbr":"AL"},"geometry":{"type":"Polygon","coordinates":[[[-88.00798693126931,30.684675247142465],[-88.02593340123401,30.753400022390217],[-87.98645116731167,30.811816081350806],[-87.9433796393964,30.827279155781554],[-87.9792725793258,30.861641543405426],[-87.98286187331873,30.88655427443274],[-87.92543316943168,30.935520676796763],[-87.96491540335403,30.968164945039447],[-87.96491540335403,31.008540750497502],[-87.93979034540345,31.04805749626496],[-87.97568328533285,31.089292361413605],[-87.93979034540345,31.146849360683603],[-87.9720939913399,31.162312435114345],[-87.93979034540345,31.163171494804942],[-87.94696893338933,31.193238583975834],[-87.91466528745288,31.18722516614166],[-87.86800446554466,31.215574135931355],[-87.82852223162232,31.27570831427314],[-87.78545070370703,31.282580791797912],[-87.81057576165762,31.30663446313463],[-87.7639149397494,31.297184806538063],[-87.71725411784118,31.303198224372238],[-87.67777188391884,31.261963359223586],[-87.61675388603885,31.24478216541165],[-87.61675388603885,30.99737297451974],[-87.59880741607415,30.99737297451974],[-87.58803953409534,30.964728706277057],[-87.63470035600356,30.865936841858414],[-87.62752176801767,30.846178468974685],[-87.54496800618006,30.77831275341753],[-87.53420012420123,30.743091306103054],[-87.4049855404554,30.674366530855302],[-87.39421765847658,30.615091412204116],[-87.44805706837069,30.527467323763233],[-87.43728918639187,30.480219040780405],[-87.36550330653306,30.43640699655996],[-87.43011059840597,30.406339907389068],[-87.4588249503495,30.33589701276012],[-87.49112859628596,30.323011117401165],[-87.46600353833539,30.302393684826846],[-87.51984294822948,30.280058132871325],[-87.65623611996119,30.249991043700433],[-87.7998078796788,30.229373611126107],[-88.00080834328342,30.225937372363717],[-87.9362010514105,30.261158819678194],[-87.89312952349523,30.238823267722672],[-87.76750423374233,30.26201787936879],[-87.75673635176351,30.291225908849086],[-87.81057576165762,30.332460773997738],[-87.83570081960819,30.369400340693403],[-87.90748669946699,30.409776146151458],[-87.93261175741758,30.487091518305178],[-87.90030811148111,30.55066193540935],[-87.91107599345993,30.615950471894713],[-87.9362010514105,30.657185337043366],[-88.00798693126931,30.684675247142465]]]}},{"type":"Feature","id":"01005","properties":{"name":"Barbour","county_fips":"01005","state_abbr":"AL"},"geometry":{"type":"Polygon","coordinates":[[[-85.65699936589365,31.88048633645336],[-85.64982077790778,31.911412485314848],[-85.60315995599956,31.96123794736947],[-85.59239207402074,31.993882215612153],[-85.51342760617605,31.99989563344633],[-85.51342760617605,32.01364058849588],[-85.4272845503455,32.01535870787707],[-85.4272845503455,32.13906330332303],[-85.4093380803808,32.1467948405384],[-85.25858773267733,32.147653900228995],[-85.18680185281852,32.06174793116931],[-85.05040868108681,32.062606990859905],[-85.06117656306563,31.990445976849763],[-85.07912303303033,31.939761455104545],[-85.12937314893149,31.877909157381566],[-85.1401410309103,31.839251471304706],[-85.12578385493855,31.77997635265352],[-85.12578385493855,31.762795158841584],[-85.14731961889619,31.773103875128747],[-85.20474832278323,31.742177726267258],[-85.21551620476204,31.7026609804998],[-85.41651666836668,31.70695627895278],[-85.41651666836668,31.619332190511898],[-85.74673171571716,31.6184731308213],[-85.7144280697807,31.66056705566055],[-85.71801736377364,31.698365682046813],[-85.696481599816,31.748191144101433],[-85.66417795387953,31.78341259141591],[-85.6785351298513,31.856432665116643],[-85.65699936589365,31.88048633645336]]]}},{"type":"Feature","id":"01007","properties":{"name":"Bibb","county_fips":"01007","state_abbr":"AL"},"geometry":{"type":"Polygon","coordinates":[[[-87.4229320104201,33.00327735206351],[-87.31884248462484,33.005854531135306],[-87.31166389663896,33.094337679266786],[-87.28294954469544,33.132995365343646],[-87.20039578285783,33.130418186271854],[-87.20039578285783,33.19656578244782],[-87.1537349609496,33.23264628945289],[-87.10348484504844,33.22147851347513],[-87.06400261112611,33.24725030419304],[-87.0281096711967,33.24639124450244],[-87.02452037720377,33.16563963358633],[-86.97068096730968,33.15790809637096],[-86.97068096730968,33.098632977719774],[-86.93478802738026,33.064270590095894],[-86.88094861748617,33.04966657535575],[-86.87735932349324,32.836619772087715],[-87.02093108321083,32.836619772087715],[-87.31884248462484,32.83146541394414],[-87.31884248462484,32.875277458164575],[-87.4229320104201,32.87441839847398],[-87.4229320104201,33.00327735206351]]]}},{"type":"Feature","id":"01009","properties":{"name":"Blount","county_fips":"01009","state_abbr":"AL"},"geometry":{"type":"Polygon","coordinates":[[[-86.96350237932378,33.85804174420743],[-86.92043085140851,33.87350481863818],[-86.92402014540146,33.90958532564325],[-86.88453791147911,33.91731686285862],[-86.8199306196062,33.957692668316675],[-86.79121626766268,33.9525383101731],[-86.70148391783917,34.03930333892338],[-86.70507321183212,34.08139726376263],[-86.66918027190272,34.08483350252502],[-86.66918027190272,34.08483350252502],[-86.65482309593095,34.107169054480536],[-86.60098368603686,34.119195890148895],[-86.51842992419924,34.25235014219142],[-86.45382263232632,34.25922261971619],[-86.41075110441103,34.20510185920859],[-86.30307228462284,34.099437517265166],[-86.33178663656636,34.04016239861398],[-86.33178663656636,33.98604163810638],[-86.3712688704887,33.93965241481414],[-86.32460804858049,33.94051147450474],[-86.34255451854519,33.88639071399714],[-86.4071618104181,33.83570619225192],[-86.57585862808628,33.80220286431864],[-86.57944792207921,33.76526329762297],[-86.64764450794507,33.76612235731357],[-86.75891262172621,33.8408605503955],[-86.88453791147911,33.84343772946729],[-86.95273449734496,33.81508875967759],[-86.96350237932378,33.85804174420743]]]}},{"type":"Feature","id":"01011","properties":{"name":"Bullock","county_fips":"01011","state_abbr":"AL"},"geometry":{"type":"Polygon","coordinates":[[[-85.91901782737827,32.274794734437336],[-85.87953559345593,32.29111686855868],[-85.8579998294983,32.231841749907495],[-85.43446313833138,32.23441892897928],[-85.4272845503455,32.1467948405384],[-85.4093380803808,32.1467948405384],[-85.4272845503455,32.13906330332303],[-85.4272845503455,32.01535870787707],[-85.51342760617605,32.01364058849588],[-85.51342760617605,31.99989563344633],[-85.59239207402074,31.993882215612153],[-85.60315995599956,31.96123794736947],[-85.64982077790778,31.911412485314848],[-85.65699936589365,31.88048633645336],[-85.78980324363243,31.88048633645336],[-85.78980324363243,31.967251365203644],[-85.88312488744887,31.967251365203644],[-85.8938927694277,32.04714391642916],[-85.99798229522295,32.051439214882144],[-85.99798229522295,32.25074106310063],[-85.98721441324413,32.27221755536555],[-85.91901782737827,32.274794734437336]]]}},{"type":"Feature","id":"01013","properties":{"name":"Butler","county_fips":"01013","state_abbr":"AL"},"geometry":{"type":"Polygon","coordinates":[[[-86.8558235595356,31.962097007060066],[-86.44664404434045,31.96467418613186],[-86.44664404434045,31.700942861118605],[-86.45023333833338,31.655412697516972],[-86.50048345423454,31.655412697516972],[-86.50048345423454,31.52569468423684],[-86.70148391783917,31.523976564855644],[-86.8378770895709,31.52483562454624],[-86.86659144151442,31.546312116811166],[-86.90607367543674,31.632218085870853],[-86.90607367543674,31.75334550224502],[-86.90607367543674,31.83066087439874],[-86.90966296942969,31.962097007060066],[-86.8558235595356,31.962097007060066]]]}},{"type":"Feature","id":"01015","properties":{"name":"Calhoun","county_fips":"01015","state_abbr":"AL"},"geometry":{"type":"Polygon","coordinates":[[[-86.0661788810888,33.84257866977669],[-85.99439300123001,33.864914221732214],[-85.96926794327943,33.914739683786834],[-85.90107135741357,33.906149086880866],[-85.90107135741357,33.94308865357653],[-85.84723194751948,33.95683360862608],[-85.73955312773127,33.93535711636116],[-85.73955312773127,33.968860444294435],[-85.52778478214782,33.95597454893549],[-85.53137407614076,33.941370534195336],[-85.53137407614076,33.88896789306892],[-85.60315995599956,33.88982695275952],[-85.63546360193601,33.87522293801938],[-85.63546360193601,33.84687396822968],[-85.58521348603486,33.84601490853908],[-85.58521348603486,33.80220286431864],[-85.63905289592896,33.77299483483834],[-85.63905289592896,33.64843117970179],[-85.65699936589365,33.62695468743687],[-85.74314242172422,33.60032383702836],[-85.74314242172422,33.55565273311733],[-85.79698183161831,33.556511792807925],[-85.79339253762538,33.58571982228822],[-85.99439300123001,33.58657888197882],[-86.02310735317353,33.60118289671896],[-86.02669664716647,33.6467130603206],[-86.0482324111241,33.6733439107291],[-86.14514334893349,33.67935732856328],[-86.14514334893349,33.70942441773417],[-86.04464311713117,33.76268611855118],[-86.0661788810888,33.84257866977669]]]}},{"type":"Feature","id":"01017","properties":{"name":"Chambers","county_fips":"01017","state_abbr":"AL"},"geometry":{"type":"Polygon","coordinates":[[[-85.59239207402074,33.10722357462574],[-85.23346267472674,33.10808263431634],[-85.18680185281852,32.870123100021],[-85.15449820688207,32.84263318992189],[-85.16885538285382,32.8117070410604],[-85.1221945609456,32.77304935498354],[-85.12937314893149,32.751572862718625],[-85.2837127906279,32.74555944488444],[-85.29448067260672,32.7309554301443],[-85.59239207402074,32.728378251072506],[-85.59239207402074,33.10722357462574]]]}},{"type":"Feature","id":"01019","properties":{"name":"Cherokee","county_fips":"01019","state_abbr":"AL"},"geometry":{"type":"Polygon","coordinates":[[[-85.51342760617605,34.52381300442004],[-85.4631774902749,34.28671252981529],[-85.42010596235961,34.080538204072035],[-85.39857019840198,33.96370608615086],[-85.49548113621135,33.95683360862608],[-85.53137407614076,33.941370534195336],[-85.52778478214782,33.95597454893549],[-85.73955312773127,33.968860444294435],[-85.73596383373834,33.98947787686876],[-85.79698183161831,34.10029657695576],[-85.78980324363243,34.12520930798308],[-85.8400533595336,34.11060529324293],[-85.84364265352653,34.199947501065004],[-85.84364265352653,34.24461860497605],[-85.80774971359713,34.23946424683246],[-85.67494583585835,34.34341046939469],[-85.63546360193601,34.3666050810408],[-85.57803489804898,34.43962515474154],[-85.57803489804898,34.48343719896199],[-85.51342760617605,34.52381300442004]]]}},{"type":"Feature","id":"01021","properties":{"name":"Chilton","county_fips":"01021","state_abbr":"AL"},"geometry":{"type":"Polygon","coordinates":[[[-87.02093108321083,32.836619772087715],[-86.87735932349324,32.836619772087715],[-86.88094861748617,33.04966657535575],[-86.88094861748617,33.072002127311265],[-86.82351991359913,33.06856588854888],[-86.61175156801568,33.07028400793008],[-86.55432286412864,33.01874042649426],[-86.51842992419924,33.02045854587546],[-86.5148406302063,32.92939821867218],[-86.4789476902769,32.87441839847398],[-86.45023333833338,32.864109682186815],[-86.45741192631925,32.814284220132194],[-86.37485816448164,32.75329098209981],[-86.41434039840398,32.75071380302803],[-86.41434039840398,32.70776081849818],[-86.71584109381094,32.706042699116985],[-86.71225179981799,32.66137159520595],[-86.91684155741557,32.663948774277735],[-87.0173417892179,32.66308971458714],[-87.0173417892179,32.729237310763104],[-87.02093108321083,32.836619772087715]]]}},{"type":"Feature","id":"01023","properties":{"name":"Choctaw","county_fips":"01023","state_abbr":"AL"},"geometry":{"type":"Polygon","coordinates":[[[-88.4745951503515,31.894231291502912],[-88.43152362243622,32.22754645145451],[-88.4207557404574,32.30829806237062],[-87.92902246342463,32.31087524144241],[-88.01875481324812,32.2851034507245],[-88.00798693126931,32.18545252661526],[-88.03670128321284,32.1450767211572],[-88.04387987119871,32.082365363743634],[-88.06900492914929,32.06174793116931],[-88.11925504505045,32.05315733426334],[-88.1156657510575,32.017076827258265],[-88.07259422314223,31.990445976849763],[-88.06900492914929,31.958660768297676],[-88.12284433904338,31.950070171391708],[-88.08695139911399,31.92172120160201],[-88.13002292702927,31.904540007790075],[-88.14079080900808,31.86416420233202],[-88.18027304293042,31.821211217802173],[-88.14438010300103,31.75248644255442],[-88.10489786907868,31.76107703946039],[-88.08695139911399,31.69922474173741],[-88.46382726837268,31.698365682046813],[-88.4745951503515,31.894231291502912]]]}},{"type":"Feature","id":"01025","properties":{"name":"Clarke","county_fips":"01025","state_abbr":"AL"},"geometry":{"type":"Polygon","coordinates":[[[-88.07259422314223,31.990445976849763],[-87.66700400194001,31.99130503654036],[-87.66700400194001,31.877909157381566],[-87.6203431800318,31.870177620166196],[-87.6203431800318,31.827224635636348],[-87.50189647826478,31.828942755017543],[-87.51984294822948,31.8143387402774],[-87.51625365423654,31.697506622356215],[-87.5665037701377,31.697506622356215],[-87.5665037701377,31.55318459433594],[-87.6203431800318,31.51452690825908],[-87.56291447614475,31.477587341563407],[-87.57727165211652,31.432057177961774],[-87.62393247402474,31.41058068569685],[-87.6382896499965,31.425184700437],[-87.70648623586236,31.401131029100284],[-87.72443270582706,31.343574029830293],[-87.75314705777058,31.362473343023424],[-87.78545070370703,31.328970015090142],[-87.7639149397494,31.297184806538063],[-87.81057576165762,31.30663446313463],[-87.78545070370703,31.282580791797912],[-87.82852223162232,31.27570831427314],[-87.86800446554466,31.215574135931355],[-87.91466528745288,31.18722516614166],[-87.94696893338933,31.193238583975834],[-87.9433796393964,31.243923105721052],[-87.98645116731167,31.259386180151793],[-87.9541475213752,31.26797677705777],[-87.9613261093611,31.316084119731194],[-87.90748669946699,31.322956597255967],[-87.89671881748818,31.381372656216556],[-87.9433796393964,31.37535923838238],[-87.91107599345993,31.424325640746403],[-87.90748669946699,31.49133229661296],[-87.9362010514105,31.52225844547445],[-88.01875481324812,31.55232553464534],[-88.07259422314223,31.59441945948459],[-88.09054069310693,31.658848936279355],[-88.08695139911399,31.69922474173741],[-88.10489786907868,31.76107703946039],[-88.14438010300103,31.75248644255442],[-88.18027304293042,31.821211217802173],[-88.14079080900808,31.86416420233202],[-88.13002292702927,31.904540007790075],[-88.08695139911399,31.92172120160201],[-88.12284433904338,31.950070171391708],[-88.06900492914929,31.958660768297676],[-88.07259422314223,31.990445976849763]]]}},{"type":"Feature","id":"01027","properties":{"name":"Clay","county_fips":"01027","state_abbr":"AL"},"geometry":{"type":"Polygon","coordinates":[[[-85.8508212415124,33.498954793537926],[-85.8687677114771,33.47661924158241],[-85.78262465564656,33.46974676405763],[-85.76467818568186,33.498954793537926],[-85.6426421899219,33.49551855477554],[-85.64982077790778,33.32456567634676],[-85.65341007190072,33.106364514935144],[-85.97644653126531,33.10550545524455],[-86.00875017720176,33.090042380813806],[-86.00875017720176,33.10464639555395],[-86.17385770087701,33.10464639555395],[-86.17385770087701,33.19570672275722],[-86.12001829098291,33.194847663066625],[-86.11642899698997,33.29621670655706],[-85.98003582525826,33.294498587175866],[-85.97644653126531,33.38212267561675],[-85.92260712137121,33.3958676306663],[-85.92260712137121,33.45428368962689],[-85.90466065140652,33.45428368962689],[-85.90466065140652,33.498954793537926],[-85.8508212415124,33.498954793537926]]]}},{"type":"Feature","id":"01029","properties":{"name":"Cleburne","county_fips":"01029","state_abbr":"AL"},"geometry":{"type":"Polygon","coordinates":[[[-85.8508212415124,33.498954793537926],[-85.79698183161831,33.556511792807925],[-85.74314242172422,33.55565273311733],[-85.74314242172422,33.60032383702836],[-85.65699936589365,33.62695468743687],[-85.63905289592896,33.64843117970179],[-85.63905289592896,33.77299483483834],[-85.58521348603486,33.80220286431864],[-85.58521348603486,33.84601490853908],[-85.63546360193601,33.84687396822968],[-85.63546360193601,33.87522293801938],[-85.60315995599956,33.88982695275952],[-85.53137407614076,33.88896789306892],[-85.53137407614076,33.941370534195336],[-85.49548113621135,33.95683360862608],[-85.39857019840198,33.96370608615086],[-85.38780231642316,33.90185378842788],[-85.337552200522,33.652726478154776],[-85.30524855458555,33.48263265941659],[-85.35190937649377,33.49208231601315],[-85.6426421899219,33.49551855477554],[-85.76467818568186,33.498954793537926],[-85.78262465564656,33.46974676405763],[-85.8687677114771,33.47661924158241],[-85.8508212415124,33.498954793537926]]]}},{"type":"Feature","id":"01031","properties":{"name":"Coffee","county_fips":"01031","state_abbr":"AL"},"geometry":{"type":"Polygon","coordinates":[[[-86.19539346483465,31.439788715177144],[-86.19539346483465,31.52998998268982],[-86.14514334893349,31.53772151990519],[-86.14514334893349,31.617614071130703],[-85.78980324363243,31.617614071130703],[-85.78980324363243,31.196674822738224],[-86.1918041708417,31.192379524285236],[-86.19539346483465,31.439788715177144]]]}},{"type":"Feature","id":"01033","properties":{"name":"Colbert","county_fips":"01033","state_abbr":"AL"},"geometry":{"type":"Polygon","coordinates":[[[-88.09771928109281,34.89234961168611],[-88.04029057720577,34.90695362642626],[-87.95055822738227,34.8674368806588],[-87.92184387543875,34.804725523245224],[-87.83570081960819,34.74115510614106],[-87.80698646766467,34.73170544954449],[-87.73161129381293,34.74545040459404],[-87.70648623586236,34.77294031469314],[-87.61316459204592,34.79871210541105],[-87.5844502401024,34.819329537985375],[-87.52343224222241,34.83221543334433],[-87.42652130441304,34.800430224792244],[-87.41575342243422,34.76778595654956],[-87.42652130441304,34.70936989758897],[-87.45164636236362,34.696484002230015],[-87.44446777437774,34.661262554915545],[-87.49830718427184,34.62604110760107],[-87.5306108302083,34.56676598894988],[-88.14079080900808,34.58137000369003],[-88.09771928109281,34.89234961168611]]]}},{"type":"Feature","id":"01035","properties":{"name":"Conecuh","county_fips":"01035","state_abbr":"AL"},"geometry":{"type":"Polygon","coordinates":[[[-86.90607367543674,31.75334550224502],[-86.90607367543674,31.632218085870853],[-86.86659144151442,31.546312116811166],[-86.8378770895709,31.52483562454624],[-86.70148391783917,31.523976564855644],[-86.70148391783917,31.43635247641476],[-86.6763588598886,31.43635247641476],[-86.66559097790977,31.369345820548197],[-86.70148391783917,31.345292149211488],[-86.70148391783917,31.192379524285236],[-86.76609120971209,31.182070807998073],[-86.76609120971209,31.261104299532988],[-87.42652130441304,31.26024523984239],[-87.39421765847658,31.300621045300446],[-87.35832471854718,31.31780223911239],[-87.29730672066721,31.401131029100284],[-87.22911013480135,31.454392729917295],[-87.2075743708437,31.458688028370275],[-87.16809213692136,31.519681266402657],[-87.13578849098491,31.64166774246742],[-87.05682402314022,31.677748249472486],[-87.04964543515435,31.71812405493054],[-86.98862743727437,31.71812405493054],[-86.90607367543674,31.75334550224502]]]}},{"type":"Feature","id":"01037","properties":{"name":"Coosa","county_fips":"01037","state_abbr":"AL"},"geometry":{"type":"Polygon","coordinates":[[[-86.51842992419924,33.02045854587546],[-86.51125133621336,33.08832426143261],[-86.48971557225572,33.102928276172754],[-86.17385770087701,33.10464639555395],[-86.00875017720176,33.10464639555395],[-86.00875017720176,33.090042380813806],[-86.00875017720176,32.75500910148101],[-86.37485816448164,32.75329098209981],[-86.45741192631925,32.814284220132194],[-86.45023333833338,32.864109682186815],[-86.4789476902769,32.87441839847398],[-86.5148406302063,32.92939821867218],[-86.51842992419924,33.02045854587546]]]}},{"type":"Feature","id":"01039","properties":{"name":"Covington","county_fips":"01039","state_abbr":"AL"},"geometry":{"type":"Polygon","coordinates":[[[-86.70148391783917,31.523976564855644],[-86.50048345423454,31.52569468423684],[-86.39998322243223,31.527412803618027],[-86.39639392843928,31.450956491154905],[-86.36409028250281,31.48703699815998],[-86.33896522455224,31.48703699815998],[-86.2815365206652,31.528271863308625],[-86.27794722667227,31.455251789607892],[-86.2635900507005,31.44150683455834],[-86.19539346483465,31.439788715177144],[-86.1918041708417,31.192379524285236],[-86.18821487684876,30.99393673575735],[-86.3892153404534,30.99393673575735],[-86.68712674186742,30.99479579544795],[-86.70148391783917,31.000809213282125],[-86.70148391783917,31.192379524285236],[-86.70148391783917,31.345292149211488],[-86.66559097790977,31.369345820548197],[-86.6763588598886,31.43635247641476],[-86.70148391783917,31.43635247641476],[-86.70148391783917,31.523976564855644]]]}},{"type":"Feature","id":"01041","properties":{"name":"Crenshaw","county_fips":"01041","state_abbr":"AL"},"geometry":{"type":"Polygon","coordinates":[[[-86.44664404434045,31.96467418613186],[-86.40357251642516,31.96381512644126],[-86.4071618104181,32.05058015519155],[-86.30307228462284,32.05058015519155],[-86.30307228462284,31.96467418613186],[-86.1918041708417,31.966392305513047],[-86.17385770087701,31.93031179850798],[-86.18462558285583,31.832378993779933],[-86.19898275882758,31.790285068940683],[-86.14873264292643,31.79114412863128],[-86.14873264292643,31.663144234732343],[-86.18103628886288,31.616755011440112],[-86.14514334893349,31.617614071130703],[-86.14514334893349,31.53772151990519],[-86.19539346483465,31.52998998268982],[-86.19539346483465,31.439788715177144],[-86.2635900507005,31.44150683455834],[-86.27794722667227,31.455251789607892],[-86.2815365206652,31.528271863308625],[-86.33896522455224,31.48703699815998],[-86.36409028250281,31.48703699815998],[-86.39639392843928,31.450956491154905],[-86.39998322243223,31.527412803618027],[-86.50048345423454,31.52569468423684],[-86.50048345423454,31.655412697516972],[-86.45023333833338,31.655412697516972],[-86.44664404434045,31.700942861118605],[-86.44664404434045,31.96467418613186]]]}},{"type":"Feature","id":"01043","properties":{"name":"Cullman","county_fips":"01043","state_abbr":"AL"},"geometry":{"type":"Polygon","coordinates":[[[-87.15014566695666,33.99291411563115],[-87.11066343303433,33.992055055940554],[-87.11066343303433,34.299598425174246],[-87.11066343303433,34.314202439914396],[-86.58303721607216,34.30475278331783],[-86.4789476902769,34.303034663936636],[-86.45382263232632,34.25922261971619],[-86.51842992419924,34.25235014219142],[-86.60098368603686,34.119195890148895],[-86.65482309593095,34.107169054480536],[-86.66918027190272,34.08483350252502],[-86.66918027190272,34.08483350252502],[-86.70507321183212,34.08139726376263],[-86.70148391783917,34.03930333892338],[-86.79121626766268,33.9525383101731],[-86.8199306196062,33.957692668316675],[-86.88453791147911,33.91731686285862],[-86.92402014540146,33.90958532564325],[-86.92043085140851,33.87350481863818],[-86.96350237932378,33.85804174420743],[-87.00657390723907,33.86577328142281],[-87.00657390723907,33.88896789306892],[-87.09271696306963,33.88982695275952],[-87.08194908109081,33.906149086880866],[-87.11066343303433,33.95941078769787],[-87.15014566695666,33.99291411563115]]]}},{"type":"Feature","id":"01045","properties":{"name":"Dale","county_fips":"01045","state_abbr":"AL"},"geometry":{"type":"Polygon","coordinates":[[[-85.78980324363243,31.617614071130703],[-85.74673171571716,31.6184731308213],[-85.41651666836668,31.619332190511898],[-85.41651666836668,31.315225060040596],[-85.41651666836668,31.286017030560302],[-85.48471325423255,31.2868760902509],[-85.48471325423255,31.246500284792845],[-85.60315995599956,31.27227207551075],[-85.66417795387953,31.26883583674836],[-85.71083877578775,31.19495670335703],[-85.78980324363243,31.196674822738224],[-85.78980324363243,31.617614071130703]]]}},{"type":"Feature","id":"01047","properties":{"name":"Dallas","county_fips":"01047","state_abbr":"AL"},"geometry":{"type":"Polygon","coordinates":[[[-87.47318212632126,32.30743900268002],[-87.4229320104201,32.30829806237062],[-87.4229320104201,32.48268717956179],[-87.11425272702726,32.48870059739597],[-87.08194908109081,32.536807940069394],[-87.08194908109081,32.570311268002676],[-87.04246684716847,32.59951929748297],[-87.04964543515435,32.620995789747894],[-87.0173417892179,32.729237310763104],[-87.0173417892179,32.66308971458714],[-86.91684155741557,32.663948774277735],[-86.89889508745087,32.567734088930884],[-86.90607367543674,32.536807940069394],[-86.85941285352853,32.450901971009706],[-86.82351991359913,32.425130180291795],[-86.84505567755677,32.40021744926449],[-86.81634132561325,32.371009419784194],[-86.81634132561325,32.3409423306133],[-86.84864497154972,32.328915494944944],[-86.82710920759207,32.305720883298825],[-86.85941285352853,32.2842443910339],[-86.8558235595356,32.2567544809348],[-86.80916273762737,32.224969272382715],[-86.90966296942969,32.224969272382715],[-86.90607367543674,32.048002976119754],[-87.17886001890018,32.04714391642916],[-87.189627900879,32.08580160250602],[-87.23269942879429,32.101264676936765],[-87.2614137807378,32.1467948405384],[-87.27936025070251,32.14421766146661],[-87.32602107261073,32.19919748166481],[-87.36550330653306,32.197479362283616],[-87.39062836448365,32.239573287122866],[-87.44446777437774,32.26878131660316],[-87.47318212632126,32.26534507784077],[-87.47318212632126,32.30743900268002]]]}},{"type":"Feature","id":"01049","properties":{"name":"DeKalb","county_fips":"01049","state_abbr":"AL"},"geometry":{"type":"Polygon","coordinates":[[[-86.05900029310293,34.47570566174661],[-86.00516088320883,34.4800009601996],[-85.78621394963949,34.62432298821987],[-85.69289230582305,34.74459134490344],[-85.6605886598866,34.754900061190604],[-85.62828501395013,34.83221543334433],[-85.58162419204191,34.86056440313403],[-85.5349633701337,34.62346392852928],[-85.52778478214782,34.5891015409054],[-85.51342760617605,34.52381300442004],[-85.57803489804898,34.48343719896199],[-85.57803489804898,34.43962515474154],[-85.63546360193601,34.3666050810408],[-85.67494583585835,34.34341046939469],[-85.80774971359713,34.23946424683246],[-85.84364265352653,34.24461860497605],[-85.84364265352653,34.199947501065004],[-86.10566111501115,34.2008065607556],[-86.10925040900409,34.427598319073184],[-86.05900029310293,34.47570566174661]]]}},{"type":"Feature","id":"01051","properties":{"name":"Elmore","county_fips":"01051","state_abbr":"AL"},"geometry":{"type":"Polygon","coordinates":[[[-86.37485816448164,32.75329098209981],[-86.00875017720176,32.75500910148101],[-85.87953559345593,32.75415004179041],[-85.91183923939239,32.67769372932729],[-85.88671418144182,32.647626640156396],[-85.8938927694277,32.602955536245354],[-85.88671418144182,32.49299589584895],[-85.87235700547005,32.47409658265582],[-85.8938927694277,32.447465732247316],[-85.97285723727236,32.45347915008149],[-86.02310735317353,32.41997582214822],[-86.04464311713117,32.406230867098664],[-86.12719687896879,32.43372077719776],[-86.1918041708417,32.436297956269556],[-86.21333993479935,32.474955642346416],[-86.2635900507005,32.501586492754925],[-86.32460804858049,32.443170433794336],[-86.31025087260872,32.41138522524225],[-86.34614381253812,32.43286171750717],[-86.39998322243223,32.42684829967299],[-86.41075110441103,32.409667105861054],[-86.41434039840398,32.70776081849818],[-86.41434039840398,32.75071380302803],[-86.37485816448164,32.75329098209981]]]}},{"type":"Feature","id":"01053","properties":{"name":"Escambia","county_fips":"01053","state_abbr":"AL"},"geometry":{"type":"Polygon","coordinates":[[[-87.61675388603885,31.24478216541165],[-87.55932518215182,31.227600971599713],[-87.48753930229302,31.26024523984239],[-87.42652130441304,31.26024523984239],[-86.76609120971209,31.261104299532988],[-86.76609120971209,31.182070807998073],[-86.70148391783917,31.192379524285236],[-86.70148391783917,31.000809213282125],[-86.68712674186742,30.99479579544795],[-86.7840376796768,30.99737297451974],[-87.16450284292843,30.999091093900937],[-87.59880741607415,30.99737297451974],[-87.61675388603885,30.99737297451974],[-87.61675388603885,31.24478216541165]]]}},{"type":"Feature","id":"01055","properties":{"name":"Etowah","county_fips":"01055","state_abbr":"AL"},"geometry":{"type":"Polygon","coordinates":[[[-86.30307228462284,34.099437517265166],[-86.18821487684876,34.18276630725307],[-86.10566111501115,34.18620254601545],[-86.10566111501115,34.2008065607556],[-85.84364265352653,34.199947501065004],[-85.8400533595336,34.11060529324293],[-85.78980324363243,34.12520930798308],[-85.79698183161831,34.10029657695576],[-85.73596383373834,33.98947787686876],[-85.73955312773127,33.968860444294435],[-85.73955312773127,33.93535711636116],[-85.84723194751948,33.95683360862608],[-85.90107135741357,33.94308865357653],[-85.90107135741357,33.906149086880866],[-85.96926794327943,33.914739683786834],[-85.99439300123001,33.864914221732214],[-86.0661788810888,33.84257866977669],[-86.09489323303232,33.861477982969824],[-86.11283970299702,33.903571907809074],[-86.14155405494054,33.899276609356086],[-86.16667911289113,33.926766519455185],[-86.16667911289113,33.96542420553205],[-86.19898275882758,33.988618817178164],[-86.25282216872168,33.96542420553205],[-86.27794722667227,33.98947787686876],[-86.32460804858049,33.94051147450474],[-86.3712688704887,33.93965241481414],[-86.33178663656636,33.98604163810638],[-86.33178663656636,34.04016239861398],[-86.30307228462284,34.099437517265166]]]}},{"type":"Feature","id":"01057","properties":{"name":"Fayette","county_fips":"01057","state_abbr":"AL"},"geometry":{"type":"Polygon","coordinates":[[[-87.95055822738227,33.91989404193041],[-87.63470035600356,33.91559874347743],[-87.63470035600356,33.87178669925699],[-87.5306108302083,33.867491400804],[-87.52702153621536,33.69224322392223],[-87.4229320104201,33.68880698515984],[-87.4229320104201,33.60204195640956],[-87.63111106201062,33.60977349362493],[-87.63111106201062,33.580565464144634],[-87.66700400194001,33.579706404454036],[-87.66700400194001,33.52129034549345],[-87.83929011360114,33.52472658425584],[-87.94696893338933,33.52386752456524],[-87.95055822738227,33.91989404193041]]]}},{"type":"Feature","id":"01059","properties":{"name":"Franklin","county_fips":"01059","state_abbr":"AL"},"geometry":{"type":"Polygon","coordinates":[[[-88.15514798497985,34.46281976638766],[-88.14079080900808,34.58137000369003],[-87.5306108302083,34.56676598894988],[-87.5306108302083,34.30475278331783],[-87.63470035600356,34.307329962389616],[-87.90748669946699,34.3124843205332],[-88.17309445494455,34.32107491743917],[-88.15514798497985,34.46281976638766]]]}},{"type":"Feature","id":"01061","properties":{"name":"Geneva","county_fips":"01061","state_abbr":"AL"},"geometry":{"type":"Polygon","coordinates":[[[-86.1918041708417,31.192379524285236],[-85.78980324363243,31.196674822738224],[-85.71083877578775,31.19495670335703],[-85.48471325423255,31.200111061500607],[-85.48830254822548,30.99737297451974],[-85.4990704302043,30.996513914829144],[-86.03387523515235,30.993077676066754],[-86.18821487684876,30.99393673575735],[-86.1918041708417,31.192379524285236]]]}},{"type":"Feature","id":"01063","properties":{"name":"Greene","county_fips":"01063","state_abbr":"AL"},"geometry":{"type":"Polygon","coordinates":[[[-88.17309445494455,32.99554581484814],[-88.14796939699397,33.03849879937799],[-88.04387987119871,33.03248538154381],[-88.02593340123401,33.0634115304053],[-87.96850469734697,33.07801554514545],[-87.93261175741758,33.11323699245992],[-87.83929011360114,33.15361279791797],[-87.83211152561525,33.017022307113066],[-87.71007552985529,33.017881366803664],[-87.71725411784118,33.0067135908259],[-87.73878988179881,32.937129755887554],[-87.77468282172822,32.92768009929099],[-87.76032564575645,32.90706266671666],[-87.80339717367173,32.8976130101201],[-87.83211152561525,32.8409150705407],[-87.82134364363644,32.794525847248465],[-87.87159375953759,32.76274063869638],[-87.80698646766467,32.752431922409215],[-87.83211152561525,32.71291517664176],[-87.79621858568585,32.71549235571355],[-87.78903999769997,32.65449911768117],[-87.74237917579175,32.651921938609384],[-87.75314705777058,32.63388168510684],[-87.81416505565055,32.63388168510684],[-87.7998078796788,32.61068707346073],[-87.74955776377763,32.612405192841926],[-87.73520058780588,32.58835152150521],[-87.78903999769997,32.582338103671034],[-87.81416505565055,32.524781104401036],[-87.85364728957289,32.532512641616414],[-87.89671881748818,32.59264681995819],[-87.86082587755877,32.590928700577],[-87.85723658356584,32.620995789747894],[-87.90389740547405,32.61498237191371],[-87.92902246342463,32.632163565725655],[-87.97568328533285,32.61068707346073],[-88.05464775317753,32.59264681995819],[-88.07977281112811,32.6192776703667],[-88.05823704717046,32.64333134170341],[-88.05464775317753,32.69659304252042],[-88.07977281112811,32.68370714716146],[-88.1156657510575,32.70088834097341],[-88.08695139911399,32.709478937879375],[-88.10848716307163,32.771331235602354],[-88.07618351713516,32.77476747436474],[-88.07259422314223,32.80483456353563],[-88.10489786907868,32.79882114570145],[-88.1336122210222,32.833183533325325],[-88.17668374893749,32.828888234872345],[-88.15514798497985,32.852941906209054],[-88.18027304293042,32.871841219402185],[-88.20898739487394,32.925102920219196],[-88.17668374893749,32.93197539774397],[-88.17309445494455,32.99554581484814]]]}},{"type":"Feature","id":"01065","properties":{"name":"Hale","county_fips":"01065","state_abbr":"AL"},"geometry":{"type":"Polygon","coordinates":[[[-87.71725411784118,33.0067135908259],[-87.4229320104201,33.00327735206351],[-87.4229320104201,32.87441839847398],[-87.4229320104201,32.83060635425354],[-87.47318212632126,32.83060635425354],[-87.47318212632126,32.656217237062364],[-87.52343224222241,32.65535817737177],[-87.52343224222241,32.481828119871196],[-87.72802199982,32.4809690601806],[-87.72802199982,32.524781104401036],[-87.81416505565055,32.524781104401036],[-87.78903999769997,32.582338103671034],[-87.73520058780588,32.58835152150521],[-87.74955776377763,32.612405192841926],[-87.7998078796788,32.61068707346073],[-87.81416505565055,32.63388168510684],[-87.75314705777058,32.63388168510684],[-87.74237917579175,32.651921938609384],[-87.78903999769997,32.65449911768117],[-87.79621858568585,32.71549235571355],[-87.83211152561525,32.71291517664176],[-87.80698646766467,32.752431922409215],[-87.87159375953759,32.76274063869638],[-87.82134364363644,32.794525847248465],[-87.83211152561525,32.8409150705407],[-87.80339717367173,32.8976130101201],[-87.76032564575645,32.90706266671666],[-87.77468282172822,32.92768009929099],[-87.73878988179881,32.937129755887554],[-87.71725411784118,33.0067135908259]]]}},{"type":"Feature","id":"01067","properties":{"name":"Henry","county_fips":"01067","state_abbr":"AL"},"geometry":{"type":"Polygon","coordinates":[[[-85.41651666836668,31.619332190511898],[-85.41651666836668,31.70695627895278],[-85.21551620476204,31.7026609804998],[-85.20474832278323,31.742177726267258],[-85.14731961889619,31.773103875128747],[-85.12578385493855,31.762795158841584],[-85.12578385493855,31.69492944328443],[-85.05758726907268,31.620191250202495],[-85.04681938709386,31.51710408733087],[-85.07194444504445,31.46813768496684],[-85.06476585705856,31.431198118271176],[-85.09348020900208,31.362473343023424],[-85.08989091500915,31.308352582515816],[-85.17962326483264,31.307493522825226],[-85.41651666836668,31.315225060040596],[-85.41651666836668,31.619332190511898]]]}},{"type":"Feature","id":"01069","properties":{"name":"Houston","county_fips":"01069","state_abbr":"AL"},"geometry":{"type":"Polygon","coordinates":[[[-85.41651666836668,31.315225060040596],[-85.17962326483264,31.307493522825226],[-85.08989091500915,31.308352582515816],[-85.11501597295972,31.276567373963736],[-85.09706950299503,31.23275532974329],[-85.10783738497385,31.18636610645106],[-85.03605150511505,31.108191674606744],[-85.02528362313623,31.07554740636406],[-85.00374785917859,31.000809213282125],[-85.48830254822548,30.99737297451974],[-85.48471325423255,31.200111061500607],[-85.71083877578775,31.19495670335703],[-85.66417795387953,31.26883583674836],[-85.60315995599956,31.27227207551075],[-85.48471325423255,31.246500284792845],[-85.48471325423255,31.2868760902509],[-85.41651666836668,31.286017030560302],[-85.41651666836668,31.315225060040596]]]}},{"type":"Feature","id":"01071","properties":{"name":"Jackson","county_fips":"01071","state_abbr":"AL"},"geometry":{"type":"Polygon","coordinates":[[[-86.31025087260872,34.99114147610476],[-85.86517841748417,34.988564297032966],[-85.60674924999249,34.98426899857998],[-85.58162419204191,34.86056440313403],[-85.62828501395013,34.83221543334433],[-85.6605886598866,34.754900061190604],[-85.69289230582305,34.74459134490344],[-85.78621394963949,34.62432298821987],[-86.00516088320883,34.4800009601996],[-86.05900029310293,34.47570566174661],[-86.08771464504645,34.46625600515004],[-86.09848252702527,34.52209488503885],[-86.14873264292643,34.52123582534825],[-86.14873264292643,34.59941025719257],[-86.32819734257342,34.59941025719257],[-86.36050098850988,34.63291358512585],[-86.35691169451694,34.735141688306875],[-86.33896522455224,34.76263159840598],[-86.34255451854519,34.81675235891358],[-86.32819734257342,34.83135637365373],[-86.34973310653106,34.873450298492976],[-86.29589369663697,34.94475225281252],[-86.26000075670757,34.94561131250312],[-86.31025087260872,34.99114147610476]]]}},{"type":"Feature","id":"01073","properties":{"name":"Jefferson","county_fips":"01073","state_abbr":"AL"},"geometry":{"type":"Polygon","coordinates":[[[-87.26859236872369,33.51269974858748],[-87.18603860688607,33.55565273311733],[-87.20398507685077,33.57884734476344],[-87.17886001890018,33.614068792077916],[-87.09271696306963,33.62781374712747],[-87.09271696306963,33.65702177660776],[-87.05682402314022,33.656162716917166],[-87.03887755317552,33.687088865778655],[-87.02452037720377,33.77299483483834],[-86.97068096730968,33.786739789887896],[-86.95273449734496,33.81508875967759],[-86.88453791147911,33.84343772946729],[-86.75891262172621,33.8408605503955],[-86.64764450794507,33.76612235731357],[-86.57944792207921,33.76526329762297],[-86.54355498214981,33.76526329762297],[-86.52560851218512,33.72145125340253],[-86.52560851218512,33.656162716917166],[-86.5507335701357,33.62008220991209],[-86.5507335701357,33.560807091260905],[-86.51842992419924,33.54620307652076],[-86.51842992419924,33.52386752456524],[-86.56150145211451,33.517854106731065],[-86.6045729800298,33.46716958498585],[-86.66918027190272,33.46631052529525],[-86.71943038780387,33.41648506324063],[-86.75173403374033,33.41562600355003],[-86.77685909169091,33.36665960118601],[-86.83069850158502,33.360646183351825],[-86.83069850158502,33.33229721356213],[-86.88094861748617,33.33229721356213],[-86.97068096730968,33.267867736767364],[-86.98144884928848,33.24639124450244],[-87.0281096711967,33.24639124450244],[-87.06400261112611,33.24725030419304],[-87.06400261112611,33.275599273982735],[-87.16091354893548,33.306525422844224],[-87.19680648886488,33.35806900428004],[-87.23269942879429,33.36580054149541],[-87.23269942879429,33.395008570975705],[-87.28294954469544,33.44053873457734],[-87.33678895458954,33.456001809008086],[-87.32961036660366,33.49208231601315],[-87.28653883868839,33.48606889817898],[-87.26859236872369,33.51269974858748]]]}},{"type":"Feature","id":"01075","properties":{"name":"Lamar","county_fips":"01075","state_abbr":"AL"},"geometry":{"type":"Polygon","coordinates":[[[-88.24846962879629,33.744645865048646],[-88.20898739487394,34.05820265211651],[-87.98645116731167,34.05218923428234],[-87.98645116731167,34.02298120480204],[-87.95055822738227,34.022122145111446],[-87.95055822738227,33.91989404193041],[-87.94696893338933,33.52386752456524],[-88.27359468674686,33.5341762408524],[-88.24846962879629,33.744645865048646]]]}},{"type":"Feature","id":"01077","properties":{"name":"Lauderdale","county_fips":"01077","state_abbr":"AL"},"geometry":{"type":"Polygon","coordinates":[[[-87.98645116731167,35.0057454908449],[-87.60598600406004,35.00402737146371],[-87.2255208408084,34.999732073010726],[-87.21116366483665,34.99887301332013],[-87.21475295882958,34.815893299222985],[-87.27936025070251,34.773799374383735],[-87.2614137807378,34.758336299952994],[-87.29730672066721,34.75060476273762],[-87.34396754257543,34.796134926339256],[-87.42652130441304,34.800430224792244],[-87.52343224222241,34.83221543334433],[-87.5844502401024,34.819329537985375],[-87.61316459204592,34.79871210541105],[-87.70648623586236,34.77294031469314],[-87.73161129381293,34.74545040459404],[-87.80698646766467,34.73170544954449],[-87.83570081960819,34.74115510614106],[-87.92184387543875,34.804725523245224],[-87.95055822738227,34.8674368806588],[-88.04029057720577,34.90695362642626],[-88.09771928109281,34.89234961168611],[-88.15514798497985,34.922416700857],[-88.20180880688807,34.99543677455774],[-88.20180880688807,35.008322669916694],[-87.98645116731167,35.0057454908449]]]}},{"type":"Feature","id":"01079","properties":{"name":"Lawrence","county_fips":"01079","state_abbr":"AL"},"geometry":{"type":"Polygon","coordinates":[[[-87.5306108302083,34.56676598894988],[-87.49830718427184,34.62604110760107],[-87.44446777437774,34.661262554915545],[-87.45164636236362,34.696484002230015],[-87.42652130441304,34.70936989758897],[-87.41575342243422,34.76778595654956],[-87.42652130441304,34.800430224792244],[-87.34396754257543,34.796134926339256],[-87.29730672066721,34.75060476273762],[-87.2614137807378,34.758336299952994],[-87.22193154681547,34.76349065809657],[-87.13937778497785,34.723973912329114],[-87.10348484504844,34.68617528594285],[-87.11066343303433,34.314202439914396],[-87.11066343303433,34.299598425174246],[-87.5306108302083,34.30475278331783],[-87.5306108302083,34.56676598894988]]]}},{"type":"Feature","id":"01081","properties":{"name":"Lee","county_fips":"01081","state_abbr":"AL"},"geometry":{"type":"Polygon","coordinates":[[[-85.59239207402074,32.728378251072506],[-85.29448067260672,32.7309554301443],[-85.2837127906279,32.74555944488444],[-85.12937314893149,32.751572862718625],[-85.1042480909809,32.645049461084604],[-85.08271232702327,32.60810989438894],[-85.02169432914329,32.54282135790357],[-85.00374785917859,32.51017708966089],[-85.06117656306563,32.5075999105891],[-85.05758726907268,32.47323752296522],[-85.33396290652907,32.46894222451224],[-85.33037361253612,32.41052616555165],[-85.43446313833138,32.409667105861054],[-85.43805243232433,32.49729119430194],[-85.48830254822548,32.49729119430194],[-85.6605886598866,32.567734088930884],[-85.696481599816,32.59608305872058],[-85.696481599816,32.69745210221102],[-85.6785351298513,32.71291517664176],[-85.61033854398543,32.713774236332355],[-85.59239207402074,32.728378251072506]]]}},{"type":"Feature","id":"01083","properties":{"name":"Limestone","county_fips":"01083","state_abbr":"AL"},"geometry":{"type":"Polygon","coordinates":[[[-87.21116366483665,34.99887301332013],[-86.8378770895709,34.99200053579535],[-86.7840376796768,34.99200053579535],[-86.7840376796768,34.80214834417344],[-86.79121626766268,34.55044385482854],[-86.90607367543674,34.57965188430884],[-87.10348484504844,34.68617528594285],[-87.13937778497785,34.723973912329114],[-87.22193154681547,34.76349065809657],[-87.2614137807378,34.758336299952994],[-87.27936025070251,34.773799374383735],[-87.21475295882958,34.815893299222985],[-87.21116366483665,34.99887301332013]]]}},{"type":"Feature","id":"01085","properties":{"name":"Lowndes","county_fips":"01085","state_abbr":"AL"},"geometry":{"type":"Polygon","coordinates":[[[-86.81634132561325,32.3409423306133],[-86.79839485564855,32.30829806237062],[-86.77326979769798,32.3409423306133],[-86.77685909169091,32.394204031430306],[-86.71943038780387,32.40279462833628],[-86.71225179981799,32.36070070349703],[-86.68353744787447,32.35296916628166],[-86.65482309593095,32.397640270192696],[-86.61893015600155,32.405371807408066],[-86.61534086200862,32.37444565854658],[-86.54355498214981,32.36327788256882],[-86.53278710017099,32.33836515154151],[-86.4968941602416,32.344378569375685],[-86.47535839628397,32.33149267401674],[-86.48612627826277,32.2842443910339],[-86.4071618104181,32.244727645266444],[-86.4071618104181,32.05058015519155],[-86.40357251642516,31.96381512644126],[-86.44664404434045,31.96467418613186],[-86.8558235595356,31.962097007060066],[-86.8558235595356,32.048002976119754],[-86.90607367543674,32.048002976119754],[-86.90966296942969,32.224969272382715],[-86.80916273762737,32.224969272382715],[-86.8558235595356,32.2567544809348],[-86.85941285352853,32.2842443910339],[-86.82710920759207,32.305720883298825],[-86.84864497154972,32.328915494944944],[-86.81634132561325,32.3409423306133]]]}},{"type":"Feature","id":"01087","properties":{"name":"Macon","county_fips":"01087","state_abbr":"AL"},"geometry":{"type":"Polygon","coordinates":[[[-86.02310735317353,32.41997582214822],[-85.97285723727236,32.45347915008149],[-85.8938927694277,32.447465732247316],[-85.87235700547005,32.47409658265582],[-85.88671418144182,32.49299589584895],[-85.79698183161831,32.49385495553955],[-85.79698183161831,32.58147904398044],[-85.7144280697807,32.58147904398044],[-85.696481599816,32.59608305872058],[-85.6605886598866,32.567734088930884],[-85.48830254822548,32.49729119430194],[-85.43805243232433,32.49729119430194],[-85.43446313833138,32.409667105861054],[-85.43446313833138,32.23441892897928],[-85.8579998294983,32.231841749907495],[-85.87953559345593,32.29111686855868],[-85.91901782737827,32.274794734437336],[-85.99080370723706,32.33578797246972],[-86.02310735317353,32.41997582214822]]]}},{"type":"Feature","id":"01089","properties":{"name":"Madison","county_fips":"01089","state_abbr":"AL"},"geometry":{"type":"Polygon","coordinates":[[[-86.7840376796768,34.99200053579535],[-86.3174294605946,34.99114147610476],[-86.31025087260872,34.99114147610476],[-86.26000075670757,34.94561131250312],[-86.29589369663697,34.94475225281252],[-86.34973310653106,34.873450298492976],[-86.32819734257342,34.83135637365373],[-86.34255451854519,34.81675235891358],[-86.33896522455224,34.76263159840598],[-86.35691169451694,34.735141688306875],[-86.36050098850988,34.63291358512585],[-86.32819734257342,34.59941025719257],[-86.30307228462284,34.57965188430884],[-86.33896522455224,34.51006804937049],[-86.39280463444634,34.51865864627646],[-86.4251082803828,34.4800009601996],[-86.46817980829807,34.47570566174661],[-86.53278710017099,34.50147745246452],[-86.5507335701357,34.546148556375556],[-86.5686800401004,34.57535658585585],[-86.61534086200862,34.577074705237045],[-86.66559097790977,34.55216197420974],[-86.6763588598886,34.57793376492764],[-86.72301968179681,34.58308812307123],[-86.75173403374033,34.55559821297212],[-86.79121626766268,34.55044385482854],[-86.7840376796768,34.80214834417344],[-86.7840376796768,34.99200053579535]]]}},{"type":"Feature","id":"01091","properties":{"name":"Marengo","county_fips":"01091","state_abbr":"AL"},"geometry":{"type":"Polygon","coordinates":[[[-87.92902246342463,32.31087524144241],[-87.9720939913399,32.344378569375685],[-88.04746916519164,32.37702283761837],[-88.03311198921989,32.43372077719776],[-87.9541475213752,32.47323752296522],[-87.91466528745288,32.51790862687626],[-87.85364728957289,32.51533144780447],[-87.85364728957289,32.532512641616414],[-87.81416505565055,32.524781104401036],[-87.72802199982,32.524781104401036],[-87.72802199982,32.4809690601806],[-87.52343224222241,32.481828119871196],[-87.52343224222241,32.30743900268002],[-87.47318212632126,32.30743900268002],[-87.47318212632126,32.26534507784077],[-87.52343224222241,32.25503636155361],[-87.52343224222241,32.13304988548885],[-87.62393247402474,32.132190825798254],[-87.62393247402474,32.005909051280504],[-87.66700400194001,31.99130503654036],[-88.07259422314223,31.990445976849763],[-88.1156657510575,32.017076827258265],[-88.11925504505045,32.05315733426334],[-88.06900492914929,32.06174793116931],[-88.04387987119871,32.082365363743634],[-88.03670128321284,32.1450767211572],[-88.00798693126931,32.18545252661526],[-88.01875481324812,32.2851034507245],[-87.92902246342463,32.31087524144241]]]}},{"type":"Feature","id":"01093","properties":{"name":"Marion","county_fips":"01093","state_abbr":"AL"},"geometry":{"type":"Polygon","coordinates":[[[-88.205398100881,34.08655162190621],[-88.17309445494455,34.32107491743917],[-87.90748669946699,34.3124843205332],[-87.63470035600356,34.307329962389616],[-87.63470035600356,34.00236377222772],[-87.63470035600356,33.91559874347743],[-87.95055822738227,33.91989404193041],[-87.95055822738227,34.022122145111446],[-87.98645116731167,34.02298120480204],[-87.98645116731167,34.05218923428234],[-88.20898739487394,34.05820265211651],[-88.205398100881,34.08655162190621]]]}},{"type":"Feature","id":"01095","properties":{"name":"Marshall","county_fips":"01095","state_abbr":"AL"},"geometry":{"type":"Polygon","coordinates":[[[-86.5507335701357,34.546148556375556],[-86.53278710017099,34.50147745246452],[-86.46817980829807,34.47570566174661],[-86.4251082803828,34.4800009601996],[-86.39280463444634,34.51865864627646],[-86.33896522455224,34.51006804937049],[-86.30307228462284,34.57965188430884],[-86.32819734257342,34.59941025719257],[-86.14873264292643,34.59941025719257],[-86.14873264292643,34.52123582534825],[-86.09848252702527,34.52209488503885],[-86.08771464504645,34.46625600515004],[-86.05900029310293,34.47570566174661],[-86.10925040900409,34.427598319073184],[-86.10566111501115,34.2008065607556],[-86.10566111501115,34.18620254601545],[-86.18821487684876,34.18276630725307],[-86.30307228462284,34.099437517265166],[-86.41075110441103,34.20510185920859],[-86.45382263232632,34.25922261971619],[-86.4789476902769,34.303034663936636],[-86.58303721607216,34.30475278331783],[-86.58303721607216,34.37090037949379],[-86.5507335701357,34.546148556375556]]]}},{"type":"Feature","id":"01097","properties":{"name":"Mobile","county_fips":"01097","state_abbr":"AL"},"geometry":{"type":"MultiPolygon","coordinates":[[[[-88.3310233906339,30.235387028960282],[-88.13002292702927,30.26201787936879],[-88.12643363303633,30.283494371633708],[-88.07618351713516,30.249131984009836],[-88.10848716307163,30.22507831267312],[-88.14438010300103,30.238823267722672],[-88.20898739487394,30.237105148341477],[-88.28077327473274,30.222501133601334],[-88.3310233906339,30.235387028960282]]],[[[-88.43152362243622,31.11420509244092],[-88.3310233906339,31.11420509244092],[-88.3310233906339,31.143413121921213],[-88.02593340123401,31.14427218161181],[-87.99004046130462,31.173480211092105],[-87.9720939913399,31.162312435114345],[-87.93979034540345,31.146849360683603],[-87.97568328533285,31.089292361413605],[-87.93979034540345,31.04805749626496],[-87.96491540335403,31.008540750497502],[-87.96491540335403,30.968164945039447],[-87.92543316943168,30.935520676796763],[-87.98286187331873,30.88655427443274],[-87.9792725793258,30.861641543405426],[-87.9433796393964,30.827279155781554],[-87.98645116731167,30.811816081350806],[-88.02593340123401,30.753400022390217],[-88.00798693126931,30.684675247142465],[-88.06182634116341,30.645158501375008],[-88.05464775317753,30.612514233132323],[-88.08695139911399,30.5635478307683],[-88.08336210512105,30.52832638345383],[-88.10489786907868,30.50083647335473],[-88.10848716307163,30.377131877908774],[-88.13720151501515,30.32043393832938],[-88.19104092490925,30.31699769956699],[-88.1874516309163,30.34792384842848],[-88.25923751077511,30.38228623605236],[-88.3130769206692,30.368541281002805],[-88.3310233906339,30.388299653886534],[-88.39563068250682,30.369400340693403],[-88.41357715247152,30.735359768887683],[-88.42434503445034,30.99823203421034],[-88.43152362243622,31.11420509244092]]]]}},{"type":"Feature","id":"01099","properties":{"name":"Monroe","county_fips":"01099","state_abbr":"AL"},"geometry":{"type":"Polygon","coordinates":[[[-87.50189647826478,31.828942755017543],[-87.2434673107731,31.831519934089336],[-87.21475295882958,31.828083695326946],[-86.90607367543674,31.83066087439874],[-86.90607367543674,31.75334550224502],[-86.98862743727437,31.71812405493054],[-87.04964543515435,31.71812405493054],[-87.05682402314022,31.677748249472486],[-87.13578849098491,31.64166774246742],[-87.16809213692136,31.519681266402657],[-87.2075743708437,31.458688028370275],[-87.22911013480135,31.454392729917295],[-87.29730672066721,31.401131029100284],[-87.35832471854718,31.31780223911239],[-87.39421765847658,31.300621045300446],[-87.42652130441304,31.26024523984239],[-87.48753930229302,31.26024523984239],[-87.55932518215182,31.227600971599713],[-87.61675388603885,31.24478216541165],[-87.67777188391884,31.261963359223586],[-87.71725411784118,31.303198224372238],[-87.7639149397494,31.297184806538063],[-87.78545070370703,31.328970015090142],[-87.75314705777058,31.362473343023424],[-87.72443270582706,31.343574029830293],[-87.70648623586236,31.401131029100284],[-87.6382896499965,31.425184700437],[-87.62393247402474,31.41058068569685],[-87.57727165211652,31.432057177961774],[-87.56291447614475,31.477587341563407],[-87.6203431800318,31.51452690825908],[-87.5665037701377,31.55318459433594],[-87.5665037701377,31.697506622356215],[-87.51625365423654,31.697506622356215],[-87.51984294822948,31.8143387402774],[-87.50189647826478,31.828942755017543]]]}},{"type":"Feature","id":"01101","properties":{"name":"Montgomery","county_fips":"01101","state_abbr":"AL"},"geometry":{"type":"Polygon","coordinates":[[[-86.41075110441103,32.409667105861054],[-86.39998322243223,32.42684829967299],[-86.34614381253812,32.43286171750717],[-86.31025087260872,32.41138522524225],[-86.32460804858049,32.443170433794336],[-86.2635900507005,32.501586492754925],[-86.21333993479935,32.474955642346416],[-86.1918041708417,32.436297956269556],[-86.12719687896879,32.43372077719776],[-86.04464311713117,32.406230867098664],[-86.02310735317353,32.41997582214822],[-85.99080370723706,32.33578797246972],[-85.91901782737827,32.274794734437336],[-85.98721441324413,32.27221755536555],[-85.99798229522295,32.25074106310063],[-85.99798229522295,32.051439214882144],[-85.99439300123001,31.967251365203644],[-86.1918041708417,31.966392305513047],[-86.30307228462284,31.96467418613186],[-86.30307228462284,32.05058015519155],[-86.4071618104181,32.05058015519155],[-86.4071618104181,32.244727645266444],[-86.48612627826277,32.2842443910339],[-86.47535839628397,32.33149267401674],[-86.4968941602416,32.344378569375685],[-86.4610012203122,32.37788189730897],[-86.45741192631925,32.406230867098664],[-86.41075110441103,32.409667105861054]]]}},{"type":"Feature","id":"01103","properties":{"name":"Morgan","county_fips":"01103","state_abbr":"AL"},"geometry":{"type":"Polygon","coordinates":[[[-87.10348484504844,34.68617528594285],[-86.90607367543674,34.57965188430884],[-86.79121626766268,34.55044385482854],[-86.75173403374033,34.55559821297212],[-86.72301968179681,34.58308812307123],[-86.6763588598886,34.57793376492764],[-86.66559097790977,34.55216197420974],[-86.61534086200862,34.577074705237045],[-86.5686800401004,34.57535658585585],[-86.5507335701357,34.546148556375556],[-86.58303721607216,34.37090037949379],[-86.58303721607216,34.30475278331783],[-87.11066343303433,34.314202439914396],[-87.10348484504844,34.68617528594285]]]}},{"type":"Feature","id":"01105","properties":{"name":"Perry","county_fips":"01105","state_abbr":"AL"},"geometry":{"type":"Polygon","coordinates":[[[-87.4229320104201,32.87441839847398],[-87.31884248462484,32.875277458164575],[-87.31884248462484,32.83146541394414],[-87.02093108321083,32.836619772087715],[-87.0173417892179,32.729237310763104],[-87.04964543515435,32.620995789747894],[-87.04246684716847,32.59951929748297],[-87.08194908109081,32.570311268002676],[-87.08194908109081,32.536807940069394],[-87.11425272702726,32.48870059739597],[-87.4229320104201,32.48268717956179],[-87.4229320104201,32.30829806237062],[-87.47318212632126,32.30743900268002],[-87.52343224222241,32.30743900268002],[-87.52343224222241,32.481828119871196],[-87.52343224222241,32.65535817737177],[-87.47318212632126,32.656217237062364],[-87.47318212632126,32.83060635425354],[-87.4229320104201,32.83060635425354],[-87.4229320104201,32.87441839847398]]]}},{"type":"Feature","id":"01107","properties":{"name":"Pickens","county_fips":"01107","state_abbr":"AL"},"geometry":{"type":"Polygon","coordinates":[[[-88.30589833268333,33.28848516934169],[-88.27359468674686,33.5341762408524],[-87.94696893338933,33.52386752456524],[-87.83929011360114,33.52472658425584],[-87.83929011360114,33.15361279791797],[-87.93261175741758,33.11323699245992],[-87.96850469734697,33.07801554514545],[-88.02593340123401,33.0634115304053],[-88.04387987119871,33.03248538154381],[-88.14796939699397,33.03849879937799],[-88.17309445494455,32.99554581484814],[-88.34179127261272,32.991250516395155],[-88.30589833268333,33.28848516934169]]]}},{"type":"Feature","id":"01109","properties":{"name":"Pike","county_fips":"01109","state_abbr":"AL"},"geometry":{"type":"Polygon","coordinates":[[[-86.1918041708417,31.966392305513047],[-85.99439300123001,31.967251365203644],[-85.99798229522295,32.051439214882144],[-85.8938927694277,32.04714391642916],[-85.88312488744887,31.967251365203644],[-85.78980324363243,31.967251365203644],[-85.78980324363243,31.88048633645336],[-85.65699936589365,31.88048633645336],[-85.6785351298513,31.856432665116643],[-85.66417795387953,31.78341259141591],[-85.696481599816,31.748191144101433],[-85.71801736377364,31.698365682046813],[-85.7144280697807,31.66056705566055],[-85.74673171571716,31.6184731308213],[-85.78980324363243,31.617614071130703],[-86.14514334893349,31.617614071130703],[-86.18103628886288,31.616755011440112],[-86.14873264292643,31.663144234732343],[-86.14873264292643,31.79114412863128],[-86.19898275882758,31.790285068940683],[-86.18462558285583,31.832378993779933],[-86.17385770087701,31.93031179850798],[-86.1918041708417,31.966392305513047]]]}},{"type":"Feature","id":"01111","properties":{"name":"Randolph","county_fips":"01111","state_abbr":"AL"},"geometry":{"type":"Polygon","coordinates":[[[-85.6426421899219,33.49551855477554],[-85.35190937649377,33.49208231601315],[-85.30524855458555,33.48263265941659],[-85.29448067260672,33.42765283921839],[-85.23705196871968,33.12955912658126],[-85.23346267472674,33.10808263431634],[-85.59239207402074,33.10722357462574],[-85.65341007190072,33.106364514935144],[-85.64982077790778,33.32456567634676],[-85.6426421899219,33.49551855477554]]]}},{"type":"Feature","id":"01113","properties":{"name":"Russell","county_fips":"01113","state_abbr":"AL"},"geometry":{"type":"Polygon","coordinates":[[[-85.43446313833138,32.409667105861054],[-85.33037361253612,32.41052616555165],[-85.33396290652907,32.46894222451224],[-85.05758726907268,32.47323752296522],[-85.06117656306563,32.5075999105891],[-85.00374785917859,32.51017708966089],[-84.99656927119271,32.45347915008149],[-84.96426562525625,32.42255300122001],[-84.98221209522094,32.37788189730897],[-85.00015856518564,32.32204301742017],[-84.93555127331273,32.297989346083455],[-84.89247974539745,32.26362695845958],[-84.92119409734097,32.2309826902169],[-84.96785491924919,32.21895585454854],[-84.96067633126331,32.19833842197421],[-85.01092644716447,32.18029816847168],[-85.05758726907268,32.13562706456064],[-85.05040868108681,32.062606990859905],[-85.18680185281852,32.06174793116931],[-85.25858773267733,32.147653900228995],[-85.4093380803808,32.1467948405384],[-85.4272845503455,32.1467948405384],[-85.43446313833138,32.23441892897928],[-85.43446313833138,32.409667105861054]]]}},{"type":"Feature","id":"01117","properties":{"name":"Shelby","county_fips":"01117","state_abbr":"AL"},"geometry":{"type":"Polygon","coordinates":[[[-87.0281096711967,33.24639124450244],[-86.98144884928848,33.24639124450244],[-86.97068096730968,33.267867736767364],[-86.88094861748617,33.33229721356213],[-86.83069850158502,33.33229721356213],[-86.83069850158502,33.360646183351825],[-86.77685909169091,33.36665960118601],[-86.75173403374033,33.41562600355003],[-86.71943038780387,33.41648506324063],[-86.66918027190272,33.46631052529525],[-86.6045729800298,33.46716958498585],[-86.56150145211451,33.517854106731065],[-86.51842992419924,33.52386752456524],[-86.51842992419924,33.54620307652076],[-86.48253698426984,33.54620307652076],[-86.48253698426984,33.50239103230032],[-86.37844745847458,33.50239103230032],[-86.37844745847458,33.39071327252272],[-86.34255451854519,33.352914646136455],[-86.36767957649576,33.33573345232452],[-86.35691169451694,33.295357646866464],[-86.39280463444634,33.275599273982735],[-86.43228686836868,33.28247175150751],[-86.42869757437575,33.24982748326482],[-86.46817980829807,33.22491475223752],[-86.4610012203122,33.202579200281995],[-86.50407274822747,33.179384588635884],[-86.4610012203122,33.125263828128276],[-86.48971557225572,33.102928276172754],[-86.51125133621336,33.08832426143261],[-86.51842992419924,33.02045854587546],[-86.55432286412864,33.01874042649426],[-86.61175156801568,33.07028400793008],[-86.82351991359913,33.06856588854888],[-86.88094861748617,33.072002127311265],[-86.88094861748617,33.04966657535575],[-86.93478802738026,33.064270590095894],[-86.97068096730968,33.098632977719774],[-86.97068096730968,33.15790809637096],[-87.02452037720377,33.16563963358633],[-87.0281096711967,33.24639124450244]]]}},{"type":"Feature","id":"01115","properties":{"name":"St. Clair","county_fips":"01115","state_abbr":"AL"},"geometry":{"type":"Polygon","coordinates":[[[-86.32460804858049,33.94051147450474],[-86.27794722667227,33.98947787686876],[-86.25282216872168,33.96542420553205],[-86.19898275882758,33.988618817178164],[-86.16667911289113,33.96542420553205],[-86.16667911289113,33.926766519455185],[-86.14155405494054,33.899276609356086],[-86.11283970299702,33.903571907809074],[-86.09489323303232,33.861477982969824],[-86.0661788810888,33.84257866977669],[-86.04464311713117,33.76268611855118],[-86.14514334893349,33.70942441773417],[-86.14514334893349,33.67935732856328],[-86.20616134681346,33.68966604485044],[-86.17385770087701,33.65959895567955],[-86.18462558285583,33.59345135950359],[-86.22051852278523,33.588297001360004],[-86.1918041708417,33.54362589744897],[-86.23487569875698,33.494659495084946],[-86.2815365206652,33.510981629206285],[-86.31025087260872,33.452565570245696],[-86.37844745847458,33.39071327252272],[-86.37844745847458,33.50239103230032],[-86.48253698426984,33.50239103230032],[-86.48253698426984,33.54620307652076],[-86.51842992419924,33.54620307652076],[-86.5507335701357,33.560807091260905],[-86.5507335701357,33.62008220991209],[-86.52560851218512,33.656162716917166],[-86.52560851218512,33.72145125340253],[-86.54355498214981,33.76526329762297],[-86.57944792207921,33.76526329762297],[-86.57585862808628,33.80220286431864],[-86.4071618104181,33.83570619225192],[-86.34255451854519,33.88639071399714],[-86.32460804858049,33.94051147450474]]]}},{"type":"Feature","id":"01119","properties":{"name":"Sumter","county_fips":"01119","state_abbr":"AL"},"geometry":{"type":"Polygon","coordinates":[[[-88.38845209452094,32.57804280521805],[-88.3669163305633,32.74727756426564],[-88.3489698605986,32.92939821867218],[-88.34179127261272,32.991250516395155],[-88.17309445494455,32.99554581484814],[-88.17668374893749,32.93197539774397],[-88.20898739487394,32.925102920219196],[-88.18027304293042,32.871841219402185],[-88.15514798497985,32.852941906209054],[-88.17668374893749,32.828888234872345],[-88.1336122210222,32.833183533325325],[-88.10489786907868,32.79882114570145],[-88.07259422314223,32.80483456353563],[-88.07618351713516,32.77476747436474],[-88.10848716307163,32.771331235602354],[-88.08695139911399,32.709478937879375],[-88.1156657510575,32.70088834097341],[-88.07977281112811,32.68370714716146],[-88.05464775317753,32.69659304252042],[-88.05823704717046,32.64333134170341],[-88.07977281112811,32.6192776703667],[-88.05464775317753,32.59264681995819],[-87.97568328533285,32.61068707346073],[-87.92902246342463,32.632163565725655],[-87.90389740547405,32.61498237191371],[-87.85723658356584,32.620995789747894],[-87.86082587755877,32.590928700577],[-87.89671881748818,32.59264681995819],[-87.85364728957289,32.532512641616414],[-87.85364728957289,32.51533144780447],[-87.91466528745288,32.51790862687626],[-87.9541475213752,32.47323752296522],[-88.03311198921989,32.43372077719776],[-88.04746916519164,32.37702283761837],[-87.9720939913399,32.344378569375685],[-87.92902246342463,32.31087524144241],[-88.4207557404574,32.30829806237062],[-88.38845209452094,32.57804280521805]]]}},{"type":"Feature","id":"01121","properties":{"name":"Talladega","county_fips":"01121","state_abbr":"AL"},"geometry":{"type":"Polygon","coordinates":[[[-86.37844745847458,33.39071327252272],[-86.31025087260872,33.452565570245696],[-86.2815365206652,33.510981629206285],[-86.23487569875698,33.494659495084946],[-86.1918041708417,33.54362589744897],[-86.22051852278523,33.588297001360004],[-86.18462558285583,33.59345135950359],[-86.17385770087701,33.65959895567955],[-86.20616134681346,33.68966604485044],[-86.14514334893349,33.67935732856328],[-86.0482324111241,33.6733439107291],[-86.02669664716647,33.6467130603206],[-86.02310735317353,33.60118289671896],[-85.99439300123001,33.58657888197882],[-85.79339253762538,33.58571982228822],[-85.79698183161831,33.556511792807925],[-85.8508212415124,33.498954793537926],[-85.90466065140652,33.498954793537926],[-85.90466065140652,33.45428368962689],[-85.92260712137121,33.45428368962689],[-85.92260712137121,33.3958676306663],[-85.97644653126531,33.38212267561675],[-85.98003582525826,33.294498587175866],[-86.11642899698997,33.29621670655706],[-86.12001829098291,33.194847663066625],[-86.17385770087701,33.19570672275722],[-86.17385770087701,33.10464639555395],[-86.48971557225572,33.102928276172754],[-86.4610012203122,33.125263828128276],[-86.50407274822747,33.179384588635884],[-86.4610012203122,33.202579200281995],[-86.46817980829807,33.22491475223752],[-86.42869757437575,33.24982748326482],[-86.43228686836868,33.28247175150751],[-86.39280463444634,33.275599273982735],[-86.35691169451694,33.295357646866464],[-86.36767957649576,33.33573345232452],[-86.34255451854519,33.352914646136455],[-86.37844745847458,33.39071327252272]]]}},{"type":"Feature","id":"01123","properties":{"name":"Tallapoosa","county_fips":"01123","state_abbr":"AL"},"geometry":{"type":"Polygon","coordinates":[[[-86.00875017720176,33.090042380813806],[-85.97644653126531,33.10550545524455],[-85.65341007190072,33.106364514935144],[-85.59239207402074,33.10722357462574],[-85.59239207402074,32.728378251072506],[-85.61033854398543,32.713774236332355],[-85.6785351298513,32.71291517664176],[-85.696481599816,32.69745210221102],[-85.696481599816,32.59608305872058],[-85.7144280697807,32.58147904398044],[-85.79698183161831,32.58147904398044],[-85.79698183161831,32.49385495553955],[-85.88671418144182,32.49299589584895],[-85.8938927694277,32.602955536245354],[-85.88671418144182,32.647626640156396],[-85.91183923939239,32.67769372932729],[-85.87953559345593,32.75415004179041],[-86.00875017720176,32.75500910148101],[-86.00875017720176,33.090042380813806]]]}},{"type":"Feature","id":"01125","properties":{"name":"Tuscaloosa","county_fips":"01125","state_abbr":"AL"},"geometry":{"type":"Polygon","coordinates":[[[-87.83929011360114,33.52472658425584],[-87.66700400194001,33.52129034549345],[-87.66700400194001,33.579706404454036],[-87.63111106201062,33.580565464144634],[-87.63111106201062,33.60977349362493],[-87.4229320104201,33.60204195640956],[-87.31884248462484,33.587437941669414],[-87.31884248462484,33.514417867968675],[-87.26859236872369,33.51269974858748],[-87.28653883868839,33.48606889817898],[-87.32961036660366,33.49208231601315],[-87.33678895458954,33.456001809008086],[-87.28294954469544,33.44053873457734],[-87.23269942879429,33.395008570975705],[-87.23269942879429,33.36580054149541],[-87.19680648886488,33.35806900428004],[-87.16091354893548,33.306525422844224],[-87.06400261112611,33.275599273982735],[-87.06400261112611,33.24725030419304],[-87.10348484504844,33.22147851347513],[-87.1537349609496,33.23264628945289],[-87.20039578285783,33.19656578244782],[-87.20039578285783,33.130418186271854],[-87.28294954469544,33.132995365343646],[-87.31166389663896,33.094337679266786],[-87.31884248462484,33.005854531135306],[-87.4229320104201,33.00327735206351],[-87.71725411784118,33.0067135908259],[-87.71007552985529,33.017881366803664],[-87.83211152561525,33.017022307113066],[-87.83929011360114,33.15361279791797],[-87.83929011360114,33.52472658425584]]]}},{"type":"Feature","id":"01127","properties":{"name":"Walker","county_fips":"01127","state_abbr":"AL"},"geometry":{"type":"Polygon","coordinates":[[[-87.63470035600356,34.00236377222772],[-87.49830718427184,33.996350354393535],[-87.15014566695666,33.99291411563115],[-87.11066343303433,33.95941078769787],[-87.08194908109081,33.906149086880866],[-87.09271696306963,33.88982695275952],[-87.00657390723907,33.88896789306892],[-87.00657390723907,33.86577328142281],[-86.96350237932378,33.85804174420743],[-86.95273449734496,33.81508875967759],[-86.97068096730968,33.786739789887896],[-87.02452037720377,33.77299483483834],[-87.03887755317552,33.687088865778655],[-87.05682402314022,33.656162716917166],[-87.09271696306963,33.65702177660776],[-87.09271696306963,33.62781374712747],[-87.17886001890018,33.614068792077916],[-87.20398507685077,33.57884734476344],[-87.18603860688607,33.55565273311733],[-87.26859236872369,33.51269974858748],[-87.31884248462484,33.514417867968675],[-87.31884248462484,33.587437941669414],[-87.4229320104201,33.60204195640956],[-87.4229320104201,33.68880698515984],[-87.52702153621536,33.69224322392223],[-87.5306108302083,33.867491400804],[-87.63470035600356,33.87178669925699],[-87.63470035600356,33.91559874347743],[-87.63470035600356,34.00236377222772]]]}},{"type":"Feature","id":"01129","properties":{"name":"Washington","county_fips":"01129","state_abbr":"AL"},"geometry":{"type":"Polygon","coordinates":[[[-88.46382726837268,31.698365682046813],[-88.08695139911399,31.69922474173741],[-88.09054069310693,31.658848936279355],[-88.07259422314223,31.59441945948459],[-88.01875481324812,31.55232553464534],[-87.9362010514105,31.52225844547445],[-87.90748669946699,31.49133229661296],[-87.91107599345993,31.424325640746403],[-87.9433796393964,31.37535923838238],[-87.89671881748818,31.381372656216556],[-87.90748669946699,31.322956597255967],[-87.9613261093611,31.316084119731194],[-87.9541475213752,31.26797677705777],[-87.98645116731167,31.259386180151793],[-87.9433796393964,31.243923105721052],[-87.94696893338933,31.193238583975834],[-87.93979034540345,31.163171494804942],[-87.9720939913399,31.162312435114345],[-87.99004046130462,31.173480211092105],[-88.02593340123401,31.14427218161181],[-88.3310233906339,31.143413121921213],[-88.3310233906339,31.11420509244092],[-88.43152362243622,31.11420509244092],[-88.44947009240092,31.435493416724164],[-88.46382726837268,31.698365682046813]]]}},{"type":"Feature","id":"01131","properties":{"name":"Wilcox","county_fips":"01131","state_abbr":"AL"},"geometry":{"type":"Polygon","coordinates":[[[-87.66700400194001,31.99130503654036],[-87.62393247402474,32.005909051280504],[-87.62393247402474,32.132190825798254],[-87.52343224222241,32.13304988548885],[-87.52343224222241,32.25503636155361],[-87.47318212632126,32.26534507784077],[-87.44446777437774,32.26878131660316],[-87.39062836448365,32.239573287122866],[-87.36550330653306,32.197479362283616],[-87.32602107261073,32.19919748166481],[-87.27936025070251,32.14421766146661],[-87.2614137807378,32.1467948405384],[-87.23269942879429,32.101264676936765],[-87.189627900879,32.08580160250602],[-87.17886001890018,32.04714391642916],[-86.90607367543674,32.048002976119754],[-86.8558235595356,32.048002976119754],[-86.8558235595356,31.962097007060066],[-86.90966296942969,31.962097007060066],[-86.90607367543674,31.83066087439874],[-87.21475295882958,31.828083695326946],[-87.2434673107731,31.831519934089336],[-87.50189647826478,31.828942755017543],[-87.6203431800318,31.827224635636348],[-87.6203431800318,31.870177620166196],[-87.66700400194001,31.877909157381566],[-87.66700400194001,31.99130503654036]]]}},{"type":"Feature","id":"01133","properties":{"name":"Winston","county_fips":"01133","state_abbr":"AL"},"geometry":{"type":"Polygon","coordinates":[[[-87.63470035600356,34.307329962389616],[-87.5306108302083,34.30475278331783],[-87.11066343303433,34.299598425174246],[-87.11066343303433,33.992055055940554],[-87.15014566695666,33.99291411563115],[-87.49830718427184,33.996350354393535],[-87.63470035600356,34.00236377222772],[-87.63470035600356,34.307329962389616]]]}}]}