{"type":"FeatureCollection","features":[{"type":"Feature","id":"05001","properties":{"name":"Arkansas","county_fips":"05001","state_abbr":"AR"},"geometry":{"type":"Polygon","coordinates":[[[-91.70495974399743,34.48257813927139],[-91.67624539205391,34.48171907958079],[-91.59728092420924,34.480860019890194],[-91.5936916302163,34.56762504864048],[-91.3783339906399,34.5633297501875],[-91.29219093480934,34.561611630806304],[-91.29936952279522,34.5341217207072],[-91.25988728887289,34.527249243182425],[-91.26347658286582,34.50147745246452],[-91.2168157609576,34.48687343772437],[-91.20604787897878,34.45594728886288],[-91.17374423304233,34.4507929307193],[-91.13067270512705,34.38120909578095],[-91.09477976519764,34.34426952908529],[-91.05529753127531,34.33653799186991],[-91.08042258922589,34.249772963119625],[-91.05888682526825,34.21712869487694],[-91.09477976519764,34.176752889418886],[-91.08042258922589,34.14410862117621],[-91.11631552915529,34.119195890148895],[-91.14861917509175,34.08741068159681],[-91.19527999699997,34.07194760716607],[-91.19527999699997,34.034148980779804],[-91.13426199911999,33.96198796676966],[-91.15220846908468,33.937934295432946],[-91.17015493904938,33.95855172800727],[-91.20963717297172,33.95511548924489],[-91.22758364293642,33.978310100891],[-91.35320893268933,33.95683360862608],[-91.32090528675286,33.999786593155925],[-91.39269116661166,33.98260539934399],[-91.42140551855518,34.014390607896075],[-91.44653057650576,34.080538204072035],[-91.45370916449164,34.133799904889045],[-91.51472716237161,34.14239050179501],[-91.52908433834338,34.215410575495746],[-91.5936916302163,34.2291555305453],[-91.71213833198331,34.234309888688884],[-91.70495974399743,34.48257813927139]]]}},{"type":"Feature","id":"05003","properties":{"name":"Ashley","county_fips":"05003","state_abbr":"AR"},"geometry":{"type":"Polygon","coordinates":[[[-91.9885139694397,33.398444809738095],[-91.45729845848459,33.38899515314153],[-91.46088775247752,33.005854531135306],[-92.06747843728436,33.0084317102071],[-92.1069606712067,33.03162632185321],[-92.12849643516435,33.07028400793008],[-92.12849643516435,33.1192504102941],[-92.11054996519965,33.15704903668036],[-92.13926431714317,33.16306245451454],[-92.13567502315023,33.19656578244782],[-92.04235337933379,33.27817645305453],[-91.97774608746087,33.30223012439124],[-91.9885139694397,33.3408878104681],[-91.95979961749617,33.37782737716377],[-91.9885139694397,33.398444809738095]]]}},{"type":"Feature","id":"05005","properties":{"name":"Baxter","county_fips":"05005","state_abbr":"AR"},"geometry":{"type":"Polygon","coordinates":[[[-92.53049736237362,36.498791233102324],[-92.15003219912198,36.498791233102324],[-92.15721078710787,36.26083169880698],[-92.1608000811008,36.174066670056696],[-92.21463949099491,36.174925729747294],[-92.1966930210302,36.132831804908044],[-92.1966930210302,36.05895267151671],[-92.3043718408184,36.0606707908979],[-92.30796113481135,35.973905762147616],[-92.41563995459954,35.97562388152881],[-92.4120506606066,36.0623889102791],[-92.40846136661366,36.13454992428924],[-92.48024724647246,36.193825042940425],[-92.45871148251481,36.21530153520535],[-92.47306865848658,36.256536400353994],[-92.54485453834538,36.263408877878774],[-92.52331877438775,36.298630325193244],[-92.5735688902889,36.306361862408615],[-92.53408665636655,36.35103296631966],[-92.57715818428184,36.34244236941369],[-92.5915153602536,36.35876450353503],[-92.53408665636655,36.38625441363413],[-92.53049736237362,36.498791233102324]]]}},{"type":"Feature","id":"05007","properties":{"name":"Benton","county_fips":"05007","state_abbr":"AR"},"geometry":{"type":"Polygon","coordinates":[[[-94.61946646626465,36.49965029279292],[-94.07748307333073,36.498791233102324],[-93.86571472774727,36.498791233102324],[-93.86212543375433,36.3390061306513],[-93.81546461184611,36.306361862408615],[-93.86930402174022,36.30722092209921],[-93.86930402174022,36.23505990808908],[-93.88725049170492,36.23505990808908],[-93.97339354753547,36.2281874305643],[-93.97339354753547,36.20413375922759],[-94.01646507545075,36.20842905768057],[-94.33232294682946,36.21444247551475],[-94.33591224082241,36.14228146150461],[-94.3897516507165,36.14228146150461],[-94.39334094470944,36.09932847697476],[-94.5512698803988,36.101905656046554],[-94.56203776237761,36.16203983438834],[-94.61946646626465,36.49965029279292]]]}},{"type":"Feature","id":"05009","properties":{"name":"Boone","county_fips":"05009","state_abbr":"AR"},"geometry":{"type":"Polygon","coordinates":[[[-93.29501698286983,36.497932173411726],[-92.85353382173821,36.497932173411726],[-92.85353382173821,36.46442884547845],[-92.88583746767468,36.49105969588695],[-92.88942676166761,36.11393249171491],[-92.94326617156172,36.11479155140551],[-93.3021955708557,36.12166402893028],[-93.29860627686277,36.17836196850968],[-93.29501698286983,36.497932173411726]]]}},{"type":"Feature","id":"05011","properties":{"name":"Bradley","county_fips":"05011","state_abbr":"AR"},"geometry":{"type":"Polygon","coordinates":[[[-92.32949689876898,33.707706298352974],[-91.97415679346793,33.70427005959059],[-91.97774608746087,33.529880942399416],[-92.00646043940439,33.52902188270882],[-91.9885139694397,33.398444809738095],[-91.95979961749617,33.37782737716377],[-91.9885139694397,33.3408878104681],[-91.97774608746087,33.30223012439124],[-92.04235337933379,33.27817645305453],[-92.13567502315023,33.19656578244782],[-92.13926431714317,33.16306245451454],[-92.22181807898079,33.209451677806776],[-92.22540737297372,33.253263722027214],[-92.32590760477605,33.26271337862378],[-92.35103266272662,33.298793885628854],[-92.37974701467014,33.31511601975019],[-92.3761577206772,33.378686436854366],[-92.31872901679016,33.468887704367035],[-92.31155042880428,33.50239103230032],[-92.32949689876898,33.61664597114971],[-92.31872901679016,33.68193450763507],[-92.32949689876898,33.707706298352974]]]}},{"type":"Feature","id":"05013","properties":{"name":"Calhoun","county_fips":"05013","state_abbr":"AR"},"geometry":{"type":"Polygon","coordinates":[[[-92.58433677226772,33.80220286431864],[-92.33308619276193,33.795330386793864],[-92.3402647807478,33.74292774566745],[-92.32949689876898,33.707706298352974],[-92.31872901679016,33.68193450763507],[-92.32949689876898,33.61664597114971],[-92.31155042880428,33.50239103230032],[-92.31872901679016,33.468887704367035],[-92.3761577206772,33.378686436854366],[-92.37974701467014,33.31511601975019],[-92.35103266272662,33.298793885628854],[-92.42999713057131,33.26958585614855],[-92.47306865848658,33.29363952748527],[-92.48024724647246,33.32800191510915],[-92.52331877438775,33.31683413913139],[-92.53408665636655,33.356350884898845],[-92.56639030230302,33.367518660876605],[-92.58433677226772,33.3975857500475],[-92.64176547615476,33.3958676306663],[-92.65253335813358,33.433666257052565],[-92.70637276802768,33.43108907798077],[-92.7171406500065,33.48177359972599],[-92.7530335899359,33.48435077879778],[-92.77456935389354,33.51012256951569],[-92.70996206202062,33.5908741804318],[-92.73149782597825,33.61578691145911],[-92.72431923799238,33.65186741846418],[-92.65253335813358,33.661317075060744],[-92.63458688816888,33.69310228361283],[-92.58433677226772,33.736914327833276],[-92.58433677226772,33.80220286431864]]]}},{"type":"Feature","id":"05015","properties":{"name":"Carroll","county_fips":"05015","state_abbr":"AR"},"geometry":{"type":"Polygon","coordinates":[[[-93.86571472774727,36.498791233102324],[-93.58574979629796,36.498791233102324],[-93.31655274682747,36.498791233102324],[-93.29501698286983,36.497932173411726],[-93.29860627686277,36.17836196850968],[-93.3021955708557,36.12166402893028],[-93.47807097650976,36.12510026769267],[-93.54985685636856,36.12595932738327],[-93.54985685636856,36.155167356863565],[-93.58574979629796,36.15602641655416],[-93.58574979629796,36.186093505725054],[-93.62164273622736,36.201556580155795],[-93.61805344223441,36.25911357942579],[-93.66471426414263,36.27543571354713],[-93.65753567615675,36.30292562364623],[-93.81546461184611,36.306361862408615],[-93.86212543375433,36.3390061306513],[-93.86571472774727,36.498791233102324]]]}},{"type":"Feature","id":"05017","properties":{"name":"Chicot","county_fips":"05017","state_abbr":"AR"},"geometry":{"type":"Polygon","coordinates":[[[-91.45729845848459,33.38899515314153],[-91.45370916449164,33.5633842703327],[-91.34961963869638,33.5633842703327],[-91.3244945807458,33.518713166421655],[-91.24553011290112,33.51699504704047],[-91.23117293692937,33.5616661509515],[-91.2168157609576,33.52902188270882],[-91.18451211502115,33.5075453904439],[-91.2347622309223,33.43882061519614],[-91.17015493904938,33.452565570245696],[-91.17374423304233,33.49637761446614],[-91.12349411714116,33.47318300282002],[-91.13785129311293,33.42679377952779],[-91.1988692909929,33.41820318262182],[-91.20963717297172,33.40188104850048],[-91.17374423304233,33.38126361592615],[-91.11272623516234,33.39329045159451],[-91.07683329523294,33.456001809008086],[-91.05888682526825,33.42851189890899],[-91.14144058710586,33.35119652675526],[-91.14144058710586,33.29621670655706],[-91.09836905919059,33.23780064759647],[-91.08760117721177,33.27388115460154],[-91.05170823728237,33.2850489305793],[-91.04452964929649,33.26529055769557],[-91.09119047120471,33.22061945378453],[-91.08401188321884,33.156189976989765],[-91.09477976519764,33.136431604106036],[-91.14502988109881,33.12955912658126],[-91.18451211502115,33.141585962249614],[-91.20245858498585,33.10808263431634],[-91.11990482314823,33.05482093349933],[-91.16656564505645,33.011008889278884],[-91.16656564505645,33.00413641175411],[-91.26347658286582,33.00499547144471],[-91.43576269452694,33.005854531135306],[-91.46088775247752,33.005854531135306],[-91.45729845848459,33.38899515314153]]]}},{"type":"Feature","id":"05019","properties":{"name":"Clark","county_fips":"05019","state_abbr":"AR"},"geometry":{"type":"Polygon","coordinates":[[[-93.47807097650976,34.3408332903229],[-93.4098743906439,34.3391151709417],[-93.3560349807498,34.3391151709417],[-93.3560349807498,34.280699111981114],[-93.19810604506044,34.277262873218724],[-93.19810604506044,34.24805484373843],[-93.09042722527225,34.24547766466664],[-93.03299852138521,34.23602800807007],[-93.02940922739226,34.16043075529755],[-92.88583746767468,34.15613545684456],[-92.89301605566055,33.983464459034586],[-92.9504447595476,33.98604163810638],[-92.93608758357583,33.937934295432946],[-92.89301605566055,33.902712848118476],[-92.91096252562525,33.89841754966549],[-92.88224817368173,33.85546456513565],[-92.89301605566055,33.80993440153401],[-92.91814111361113,33.821961237202366],[-92.93967687756877,33.80048474493744],[-93.03299852138521,33.76955859607595],[-93.06171287332873,33.786739789887896],[-93.104784401244,33.777290133291324],[-93.1406773411734,33.81508875967759],[-93.18015957509574,33.80048474493744],[-93.19451675106751,33.819384058130574],[-93.284249100891,33.84343772946729],[-93.284249100891,33.84343772946729],[-93.32373133481335,33.907867206262054],[-93.37398145071451,33.95683360862608],[-93.37757074470744,33.98604163810638],[-93.43499944859448,34.049612055210545],[-93.45653521255213,34.130363666126655],[-93.44217803658036,34.20853809797097],[-93.50319603446034,34.21369245611456],[-93.50319603446034,34.25406826157261],[-93.4816602705027,34.253209201882015],[-93.47807097650976,34.3408332903229]]]}},{"type":"Feature","id":"05021","properties":{"name":"Clay","county_fips":"05021","state_abbr":"AR"},"geometry":{"type":"Polygon","coordinates":[[[-90.78610048180481,36.498791233102324],[-90.5779214302143,36.498791233102324],[-90.2189920309203,36.497932173411726],[-90.15079544505444,36.497932173411726],[-90.13284897508974,36.436938935379345],[-90.14361685706857,36.4240530400204],[-90.0646523892239,36.38625441363413],[-90.0825988591886,36.27199947478474],[-90.11490250512504,36.26598605695057],[-90.12567038710387,36.229046490254895],[-90.19027767897678,36.2006975204652],[-90.31949226272262,36.2006975204652],[-90.31949226272262,36.25911357942579],[-90.4702426104261,36.259972639116384],[-90.71431460194601,36.267704176331755],[-90.80763624576245,36.26684511664116],[-90.80763624576245,36.28832160890608],[-90.75020754187541,36.28059007169071],[-90.75020754187541,36.412885264042636],[-90.77892189381893,36.43779799506994],[-90.76815401184011,36.48504627805278],[-90.78610048180481,36.498791233102324]]]}},{"type":"Feature","id":"05023","properties":{"name":"Cleburne","county_fips":"05023","state_abbr":"AR"},"geometry":{"type":"Polygon","coordinates":[[[-92.23976454894549,35.71189255651556],[-91.83776362173622,35.705020078990785],[-91.791102799828,35.71189255651556],[-91.79469209382093,35.534067200562],[-91.79469209382093,35.45589276871768],[-91.84853150371504,35.43613439583395],[-91.85212079770797,35.357959963989636],[-92.11054996519965,35.363114322133214],[-92.25412172491724,35.36397338182381],[-92.25053243092431,35.523758484274836],[-92.24335384293842,35.53836249901499],[-92.23976454894549,35.71189255651556]]]}},{"type":"Feature","id":"05025","properties":{"name":"Cleveland","county_fips":"05025","state_abbr":"AR"},"geometry":{"type":"Polygon","coordinates":[[[-92.33667548675486,34.05992077149771],[-92.23258596095961,34.0624979505695],[-91.9526210295103,34.064216069950696],[-91.9526210295103,33.9774510412004],[-91.97774608746087,33.9774510412004],[-91.97774608746087,33.791894148031474],[-91.97415679346793,33.70427005959059],[-92.32949689876898,33.707706298352974],[-92.3402647807478,33.74292774566745],[-92.33308619276193,33.795330386793864],[-92.33667548675486,33.82797465503654],[-92.3941041906419,33.88639071399714],[-92.40128277862779,33.91388062409624],[-92.45512218852188,33.972296683056825],[-92.47665795247953,33.972296683056825],[-92.47306865848658,34.057343592425916],[-92.33667548675486,34.05992077149771]]]}},{"type":"Feature","id":"05027","properties":{"name":"Columbia","county_fips":"05027","state_abbr":"AR"},"geometry":{"type":"Polygon","coordinates":[[[-93.48883885848858,33.01874042649426],[-93.4816602705027,33.26013619955199],[-93.44217803658036,33.2584180801708],[-93.42064227262273,33.328860974799746],[-93.36680286272862,33.444834033030325],[-93.21964180901809,33.44053873457734],[-93.21964180901809,33.45514274931749],[-93.11555228322283,33.452565570245696],[-93.11914157721577,33.380404556235554],[-92.97915911149111,33.37696831747317],[-92.98992699346994,33.017022307113066],[-93.23758827898278,33.017881366803664],[-93.48883885848858,33.01874042649426]]]}},{"type":"Feature","id":"05029","properties":{"name":"Conway","county_fips":"05029","state_abbr":"AR"},"geometry":{"type":"Polygon","coordinates":[[[-92.8966053496535,35.17068495143951],[-92.85353382173821,35.1724030708207],[-92.84994452774528,35.462765246242455],[-92.48024724647246,35.455033709027084],[-92.48024724647246,35.3682686802768],[-92.4838365404654,35.28064459183591],[-92.51614018640186,35.2565909204992],[-92.52690806838068,35.18958426463264],[-92.5017830104301,35.174121190201895],[-92.5197294803948,35.11484607155071],[-92.5556224203242,35.11312795216951],[-92.59869394823947,35.085638042070414],[-92.64535477014769,35.07618838547385],[-92.62381900619006,35.10883265371653],[-92.67406912209121,35.07876556454564],[-92.7171406500065,35.07189308702086],[-93.04017710937109,35.077047445164446],[-93.04017710937109,35.10883265371653],[-92.97915911149111,35.1182823103131],[-92.92531970159702,35.16810777236772],[-92.8966053496535,35.17068495143951]]]}},{"type":"Feature","id":"05031","properties":{"name":"Craighead","county_fips":"05031","state_abbr":"AR"},"geometry":{"type":"Polygon","coordinates":[[[-91.03376176731767,35.885422614016136],[-90.87224353763537,35.88112731556315],[-90.85070777367773,35.967892344313434],[-90.38768884858848,35.96445610555105],[-90.37692096660966,35.99538225441254],[-90.28718861678617,35.99624131410314],[-90.28718861678617,35.6998657208472],[-90.49895696236962,35.70759725806258],[-90.60304648816488,35.70416101930019],[-91.0373510613106,35.708456317753175],[-91.03376176731767,35.885422614016136]]]}},{"type":"Feature","id":"05033","properties":{"name":"Crawford","county_fips":"05033","state_abbr":"AR"},"geometry":{"type":"Polygon","coordinates":[[[-94.49384117651176,35.759140839498386],[-94.12414389523894,35.75055024259242],[-94.12414389523894,35.76429519764197],[-93.96262566555666,35.76085895887958],[-93.9123755496555,35.75999989918898],[-93.9123755496555,35.73079186970869],[-93.96262566555666,35.732509989089884],[-93.98416142951429,35.70416101930019],[-93.98416142951429,35.66120803477034],[-94.0738937793378,35.66206709446094],[-94.07748307333073,35.57530206571065],[-94.02364366343663,35.574443006020054],[-94.04159013340133,35.543516857158565],[-94.03441154541545,35.501422932319315],[-94.05235801538015,35.477369260982606],[-94.02723295742958,35.46104712686126],[-94.0738937793378,35.44558405243052],[-94.14209036520364,35.4498793508835],[-94.16003683516834,35.435275336143356],[-94.13491177721777,35.39919482913829],[-94.20310836308363,35.36053714306142],[-94.30360859488594,35.35280560584605],[-94.34309082880829,35.37170491903918],[-94.33950153481534,35.408644485734854],[-94.38616235672356,35.44816123150231],[-94.43641247262472,35.42840285861858],[-94.47230541255412,35.638872482814826],[-94.49384117651176,35.759140839498386]]]}},{"type":"Feature","id":"05035","properties":{"name":"Crittenden","county_fips":"05035","state_abbr":"AR"},"geometry":{"type":"Polygon","coordinates":[[[-90.50254625636256,35.44214781366813],[-90.28718861678617,35.438711574905746],[-90.14002756307562,35.43613439583395],[-90.16874191501914,35.4215303810938],[-90.17950979699796,35.382013635326345],[-90.13643826908269,35.37685927718277],[-90.12925968109681,35.41379884387843],[-90.0754202712027,35.38373175470754],[-90.10772391713917,35.343355949249485],[-90.10772391713917,35.304698263172625],[-90.16515262102621,35.29610766626666],[-90.15079544505444,35.2557318608086],[-90.09695603516035,35.24971844297443],[-90.0754202712027,35.22480571194711],[-90.11849179911799,35.18786614525145],[-90.0646523892239,35.13804068319683],[-90.10054532915329,35.1165641909319],[-90.14361685706857,35.13460444443444],[-90.17592050300503,35.112268892478916],[-90.20822414894148,35.02636292341923],[-90.29795649876499,35.03753069939699],[-90.3087243807438,34.99543677455774],[-90.24770638286383,34.94818849157491],[-90.24770638286383,34.90953080549805],[-90.31231367473674,34.87173217911179],[-90.30513508675087,34.86056440313403],[-90.34102802668026,34.86056440313403],[-90.40922461254613,34.83307449303492],[-90.40922461254613,34.904376447354466],[-90.40204602456024,35.14834939948399],[-90.50254625636256,35.144054101031],[-90.5061355503555,35.17841648865488],[-90.50254625636256,35.44214781366813]]]}},{"type":"Feature","id":"05037","properties":{"name":"Cross","county_fips":"05037","state_abbr":"AR"},"geometry":{"type":"Polygon","coordinates":[[[-91.04094035530355,35.354523725227246],[-91.04094035530355,35.44472499273992],[-90.92967224152241,35.44214781366813],[-90.61022507615075,35.44902029119291],[-90.61022507615075,35.44128875397753],[-90.50254625636256,35.44214781366813],[-90.5061355503555,35.17841648865488],[-90.50254625636256,35.144054101031],[-90.72149318993189,35.14834939948399],[-91.04094035530355,35.14834939948399],[-91.04094035530355,35.354523725227246]]]}},{"type":"Feature","id":"05039","properties":{"name":"Dallas","county_fips":"05039","state_abbr":"AR"},"geometry":{"type":"Polygon","coordinates":[[[-92.88583746767468,34.15613545684456],[-92.67765841608416,34.149262979319786],[-92.49460442244423,34.14410862117621],[-92.40487207262072,34.11575965138651],[-92.37256842668427,34.07538384592846],[-92.33667548675486,34.05992077149771],[-92.47306865848658,34.057343592425916],[-92.47665795247953,33.972296683056825],[-92.45512218852188,33.972296683056825],[-92.40128277862779,33.91388062409624],[-92.3941041906419,33.88639071399714],[-92.33667548675486,33.82797465503654],[-92.33308619276193,33.795330386793864],[-92.58433677226772,33.80220286431864],[-92.89301605566055,33.80993440153401],[-92.88224817368173,33.85546456513565],[-92.91096252562525,33.89841754966549],[-92.89301605566055,33.902712848118476],[-92.93608758357583,33.937934295432946],[-92.9504447595476,33.98604163810638],[-92.89301605566055,33.983464459034586],[-92.88583746767468,34.15613545684456]]]}},{"type":"Feature","id":"05041","properties":{"name":"Desha","county_fips":"05041","state_abbr":"AR"},"geometry":{"type":"Polygon","coordinates":[[[-91.42140551855518,34.014390607896075],[-91.39269116661166,33.98260539934399],[-91.32090528675286,33.999786593155925],[-91.35320893268933,33.95683360862608],[-91.22758364293642,33.978310100891],[-91.20963717297172,33.95511548924489],[-91.17015493904938,33.95855172800727],[-91.15220846908468,33.937934295432946],[-91.13426199911999,33.96198796676966],[-91.19527999699997,34.034148980779804],[-91.19527999699997,34.07194760716607],[-91.14861917509175,34.08741068159681],[-91.11631552915529,34.119195890148895],[-90.95479729947299,34.119195890148895],[-90.92249365353653,34.09428315912159],[-90.88301141961419,34.09686033819337],[-90.87224353763537,34.07624290561905],[-90.90095788957889,34.02384026449264],[-90.98710094540945,34.018685906349056],[-90.96197588745888,33.980028220272196],[-91.0014581213812,33.96628326522265],[-91.0194045913459,34.003222831918315],[-91.07683329523294,33.983464459034586],[-91.08760117721177,33.95855172800727],[-91.0086367093671,33.92934369852698],[-91.07324400124001,33.86233704266042],[-91.04811894328942,33.81508875967759],[-90.99069023940238,33.79275320772207],[-91.0265831793318,33.76354517824178],[-91.05529753127531,33.77900825267252],[-91.14144058710586,33.777290133291324],[-91.14502988109881,33.72660561154611],[-91.10913694116941,33.70427005959059],[-91.06247611926119,33.71629689525895],[-91.03376176731767,33.6733439107291],[-91.07683329523294,33.657880836298354],[-91.13426199911999,33.67678014949149],[-91.15938705707056,33.706847238662384],[-91.22040505495055,33.69310228361283],[-91.22758364293642,33.669048612276114],[-91.13785129311293,33.625236568055676],[-91.13067270512705,33.59688759826598],[-91.23117293692937,33.5616661509515],[-91.24553011290112,33.51699504704047],[-91.3244945807458,33.518713166421655],[-91.34961963869638,33.5633842703327],[-91.45370916449164,33.5633842703327],[-91.4501198704987,33.780726372053714],[-91.5577986902869,33.783303551125506],[-91.54703080830808,33.976591981509806],[-91.46447704647046,33.975732921819215],[-91.46447704647046,34.00494095129951],[-91.42140551855518,34.014390607896075]]]}},{"type":"Feature","id":"05043","properties":{"name":"Drew","county_fips":"05043","state_abbr":"AR"},"geometry":{"type":"Polygon","coordinates":[[[-91.97415679346793,33.70427005959059],[-91.97774608746087,33.791894148031474],[-91.66547751007509,33.791894148031474],[-91.5577986902869,33.783303551125506],[-91.4501198704987,33.780726372053714],[-91.45370916449164,33.5633842703327],[-91.45729845848459,33.38899515314153],[-91.9885139694397,33.398444809738095],[-92.00646043940439,33.52902188270882],[-91.97774608746087,33.529880942399416],[-91.97415679346793,33.70427005959059]]]}},{"type":"Feature","id":"05045","properties":{"name":"Faulkner","county_fips":"05045","state_abbr":"AR"},"geometry":{"type":"Polygon","coordinates":[[[-92.5556224203242,35.11312795216951],[-92.5197294803948,35.11484607155071],[-92.5017830104301,35.174121190201895],[-92.52690806838068,35.18958426463264],[-92.51614018640186,35.2565909204992],[-92.4838365404654,35.28064459183591],[-92.48024724647246,35.3682686802768],[-92.25412172491724,35.36397338182381],[-92.11054996519965,35.363114322133214],[-92.12131784717847,35.06673872887728],[-92.12131784717847,35.012617968369675],[-92.22899666696667,35.01433608775087],[-92.22899666696667,34.927571059000584],[-92.41922924859249,34.93186635745357],[-92.45153289452894,34.90094020859208],[-92.44076501255012,34.87001405973059],[-92.46230077650776,34.85712816437164],[-92.45153289452894,34.90609456673566],[-92.4838365404654,34.9507656706467],[-92.54485453834538,34.95334284971849],[-92.59869394823947,34.99543677455774],[-92.54485453834538,35.05557095289952],[-92.5556224203242,35.11312795216951]]]}},{"type":"Feature","id":"05047","properties":{"name":"Franklin","county_fips":"05047","state_abbr":"AR"},"geometry":{"type":"Polygon","coordinates":[[[-94.0738937793378,35.44558405243052],[-94.02723295742958,35.46104712686126],[-94.05235801538015,35.477369260982606],[-94.03441154541545,35.501422932319315],[-94.04159013340133,35.543516857158565],[-94.02364366343663,35.574443006020054],[-94.07748307333073,35.57530206571065],[-94.0738937793378,35.66206709446094],[-93.98416142951429,35.66120803477034],[-93.98416142951429,35.70416101930019],[-93.96262566555666,35.732509989089884],[-93.9123755496555,35.73079186970869],[-93.9123755496555,35.75999989918898],[-93.9123755496555,35.774603913929134],[-93.6970179100791,35.76859049609495],[-93.71137508605085,35.37514115780157],[-93.74726802598026,35.36483244151441],[-93.80828602386023,35.43012097799977],[-93.81187531785318,35.31328886007859],[-93.91596484364844,35.319302277912776],[-93.91955413764137,35.2291010104001],[-94.02723295742958,35.23081912978129],[-94.02723295742958,35.21363793596935],[-94.08107236732367,35.216215115041145],[-94.0738937793378,35.44558405243052]]]}},{"type":"Feature","id":"05049","properties":{"name":"Fulton","county_fips":"05049","state_abbr":"AR"},"geometry":{"type":"Polygon","coordinates":[[[-92.15003219912198,36.498791233102324],[-92.12131784717847,36.498791233102324],[-91.67265609806098,36.49965029279292],[-91.4501198704987,36.497932173411726],[-91.45370916449164,36.335569891888916],[-91.56497727827278,36.337288011270104],[-91.56497727827278,36.24966392282922],[-91.69060256802568,36.25310016159161],[-92.15721078710787,36.26083169880698],[-92.15003219912198,36.498791233102324]]]}},{"type":"Feature","id":"05051","properties":{"name":"Garland","county_fips":"05051","state_abbr":"AR"},"geometry":{"type":"Polygon","coordinates":[[[-93.39551721467214,34.74373228521284],[-93.39551721467214,34.77208125500255],[-93.28783839488395,34.77294031469314],[-93.07607004930048,34.77208125500255],[-92.96839122951229,34.77208125500255],[-92.97915911149111,34.63720888357883],[-92.87506958569585,34.635490764197634],[-92.8786588796888,34.5908196602866],[-92.80687299982999,34.5908196602866],[-92.79251582385824,34.561611630806304],[-92.79251582385824,34.503195571845716],[-92.9145518196182,34.5057727509175],[-92.9145518196182,34.44821575164751],[-92.94685546555465,34.44477951288512],[-92.94685546555465,34.388940632996324],[-93.40628509665096,34.396672170211694],[-93.40269580265802,34.685316226252255],[-93.39551721467214,34.74373228521284]]]}},{"type":"Feature","id":"05053","properties":{"name":"Grant","county_fips":"05053","state_abbr":"AR"},"geometry":{"type":"Polygon","coordinates":[[[-92.67047982809828,34.41385336402364],[-92.62381900619006,34.41299430433304],[-92.58792606626066,34.45594728886288],[-92.40487207262072,34.4516519904099],[-92.40487207262072,34.49546403463034],[-92.24694313693136,34.49374591524915],[-92.20746090300902,34.49288685555855],[-92.21463949099491,34.230014590235896],[-92.23258596095961,34.230873649926494],[-92.23258596095961,34.0624979505695],[-92.33667548675486,34.05992077149771],[-92.37256842668427,34.07538384592846],[-92.40487207262072,34.11575965138651],[-92.49460442244423,34.14410862117621],[-92.67765841608416,34.149262979319786],[-92.67047982809828,34.41385336402364]]]}},{"type":"Feature","id":"05055","properties":{"name":"Greene","county_fips":"05055","state_abbr":"AR"},"geometry":{"type":"Polygon","coordinates":[[[-90.8112255397554,36.14915393902938],[-90.80763624576245,36.26684511664116],[-90.71431460194601,36.267704176331755],[-90.4702426104261,36.259972639116384],[-90.31949226272262,36.25911357942579],[-90.31949226272262,36.2006975204652],[-90.19027767897678,36.2006975204652],[-90.2189920309203,36.18437538634386],[-90.236938500885,36.13970428243282],[-90.31949226272262,36.089878820378196],[-90.37692096660966,35.99538225441254],[-90.38768884858848,35.96445610555105],[-90.85070777367773,35.967892344313434],[-90.82199342173422,36.07957010409103],[-90.78968977579775,36.093315059140586],[-90.74661824788248,36.14915393902938],[-90.8112255397554,36.14915393902938]]]}},{"type":"Feature","id":"05057","properties":{"name":"Hempstead","county_fips":"05057","state_abbr":"AR"},"geometry":{"type":"Polygon","coordinates":[[[-93.95903637156371,33.75065928288282],[-93.82982178781788,33.74808210381103],[-93.822643199832,34.00923624975249],[-93.75085731997319,34.0066590706807],[-93.64676779417793,33.98260539934399],[-93.61805344223441,33.95941078769787],[-93.5713926203262,33.961128907079065],[-93.52832109241092,33.94308865357653],[-93.45653521255213,33.95683360862608],[-93.46012450654506,33.825397475964756],[-93.47089238852388,33.825397475964756],[-93.4816602705027,33.5633842703327],[-93.4816602705027,33.475760181891815],[-93.72214296802967,33.48177359972599],[-93.75444661396614,33.51613598734987],[-93.77239308393084,33.498095733847336],[-93.80110743587436,33.56510238971389],[-93.82623249382493,33.57712922538225],[-93.82623249382493,33.60977349362493],[-93.85135755177551,33.614068792077916],[-93.93032201962019,33.663894254132536],[-93.96621495954959,33.672484851038504],[-93.95903637156371,33.75065928288282]]]}},{"type":"Feature","id":"05059","properties":{"name":"Hot Spring","county_fips":"05059","state_abbr":"AR"},"geometry":{"type":"Polygon","coordinates":[[[-93.40628509665096,34.396672170211694],[-92.94685546555465,34.388940632996324],[-92.94685546555465,34.44477951288512],[-92.9145518196182,34.44821575164751],[-92.9145518196182,34.5057727509175],[-92.79251582385824,34.503195571845716],[-92.73867641396413,34.503195571845716],[-92.73867641396413,34.47398754236542],[-92.68483700407003,34.473128482674824],[-92.68483700407003,34.41471242371423],[-92.67047982809828,34.41385336402364],[-92.67765841608416,34.149262979319786],[-92.88583746767468,34.15613545684456],[-93.02940922739226,34.16043075529755],[-93.03299852138521,34.23602800807007],[-93.09042722527225,34.24547766466664],[-93.19810604506044,34.24805484373843],[-93.19810604506044,34.277262873218724],[-93.3560349807498,34.280699111981114],[-93.3560349807498,34.3391151709417],[-93.4098743906439,34.3391151709417],[-93.40628509665096,34.396672170211694]]]}},{"type":"Feature","id":"05061","properties":{"name":"Howard","county_fips":"05061","state_abbr":"AR"},"geometry":{"type":"Polygon","coordinates":[[[-93.93391131361314,34.350282946919464],[-93.93750060760607,34.26265885847858],[-93.92314343163432,34.26265885847858],[-93.92673272562725,34.18706160570605],[-93.81905390583906,34.183625366943666],[-93.822643199832,34.00923624975249],[-93.82982178781788,33.74808210381103],[-93.95903637156371,33.75065928288282],[-93.96980425354253,33.806498162771625],[-94.05235801538015,33.88639071399714],[-94.07030448534485,33.93879335512354],[-94.0559473093731,33.96800138460384],[-94.08825095530955,34.034148980779804],[-94.08107236732367,34.12606836767367],[-94.10619742527425,34.191356904159036],[-94.24259059700597,34.192215963849634],[-94.24259059700597,34.269531336003354],[-94.25694777297772,34.269531336003354],[-94.25335847898478,34.35543730506304],[-93.93391131361314,34.350282946919464]]]}},{"type":"Feature","id":"05063","properties":{"name":"Independence","county_fips":"05063","state_abbr":"AR"},"geometry":{"type":"Polygon","coordinates":[[[-91.84853150371504,35.8673823605136],[-91.75162056590565,35.94297961328613],[-91.71213833198331,35.94212055359553],[-91.46447704647046,35.93696619545195],[-91.46447704647046,35.89229509154091],[-91.35679822668226,35.890576972159714],[-91.1988692909929,35.889717912469116],[-91.20963717297172,35.84934210701106],[-91.24911940689407,35.83387903258032],[-91.23117293692937,35.8124025403154],[-91.31013740477404,35.766013317023166],[-91.35679822668226,35.69557042239422],[-91.3244945807458,35.63715436343363],[-91.36756610866108,35.639731542505416],[-91.37115540265403,35.52633566334663],[-91.58292374823748,35.53063096179961],[-91.79469209382093,35.534067200562],[-91.791102799828,35.71189255651556],[-91.83776362173622,35.705020078990785],[-91.83776362173622,35.74883212321122],[-91.86647797367974,35.771167675166744],[-91.87006726767267,35.8106844209342],[-91.84853150371504,35.8673823605136]]]}},{"type":"Feature","id":"05065","properties":{"name":"Izard","county_fips":"05065","state_abbr":"AR"},"geometry":{"type":"Polygon","coordinates":[[[-92.15721078710787,36.26083169880698],[-91.69060256802568,36.25310016159161],[-91.67265609806098,36.20842905768057],[-91.67983468604686,36.16461701346013],[-91.68342398003979,36.00053661255612],[-91.70854903799038,36.00053661255612],[-91.71213833198331,35.94212055359553],[-91.75162056590565,35.94297961328613],[-91.84853150371504,35.8673823605136],[-91.89519232562326,35.88284543494434],[-91.9526210295103,35.931811837308366],[-92.00646043940439,35.91978500164001],[-92.04594267332673,35.943838672976725],[-92.07824631926319,35.927516538855386],[-92.11413925919258,35.93696619545195],[-92.08542490724906,35.966174224932246],[-92.09978208322083,36.0056909706997],[-92.05671055530554,36.03489900018],[-92.11413925919258,36.06496608935089],[-92.13926431714317,36.11221437233372],[-92.18951443304432,36.105341894808944],[-92.1966930210302,36.132831804908044],[-92.21463949099491,36.174925729747294],[-92.1608000811008,36.174066670056696],[-92.15721078710787,36.26083169880698]]]}},{"type":"Feature","id":"05067","properties":{"name":"Jackson","county_fips":"05067","state_abbr":"AR"},"geometry":{"type":"Polygon","coordinates":[[[-91.58292374823748,35.53063096179961],[-91.37115540265403,35.52633566334663],[-91.36756610866108,35.639731542505416],[-91.3244945807458,35.63715436343363],[-91.35679822668226,35.69557042239422],[-91.31013740477404,35.766013317023166],[-91.23117293692937,35.8124025403154],[-91.24911940689407,35.83387903258032],[-91.20963717297172,35.84934210701106],[-91.1988692909929,35.889717912469116],[-91.03376176731767,35.885422614016136],[-91.0373510613106,35.708456317753175],[-91.04094035530355,35.44472499273992],[-91.04094035530355,35.354523725227246],[-91.252708700887,35.357959963989636],[-91.252708700887,35.44558405243052],[-91.34603034470344,35.438711574905746],[-91.58292374823748,35.44214781366813],[-91.58292374823748,35.53063096179961]]]}},{"type":"Feature","id":"05069","properties":{"name":"Jefferson","county_fips":"05069","state_abbr":"AR"},"geometry":{"type":"Polygon","coordinates":[[[-92.20746090300902,34.49288685555855],[-92.03158549735497,34.48945061679616],[-91.70495974399743,34.48257813927139],[-91.71213833198331,34.234309888688884],[-91.5936916302163,34.2291555305453],[-91.52908433834338,34.215410575495746],[-91.51472716237161,34.14239050179501],[-91.45370916449164,34.133799904889045],[-91.44653057650576,34.080538204072035],[-91.5039592803928,34.07366572654726],[-91.55062010230102,34.10630999478994],[-91.58292374823748,34.089128800978],[-91.60804880618805,34.102873756027556],[-91.58292374823748,34.12520930798308],[-91.64394174611746,34.138095203342026],[-91.69419186201861,34.17073947158471],[-91.72649550795508,34.1741757103471],[-91.72649550795508,34.06507512964129],[-91.74444197791978,34.09428315912159],[-91.9526210295103,34.09342409943099],[-91.9526210295103,34.064216069950696],[-92.23258596095961,34.0624979505695],[-92.23258596095961,34.230873649926494],[-92.21463949099491,34.230014590235896],[-92.20746090300902,34.49288685555855]]]}},{"type":"Feature","id":"05071","properties":{"name":"Johnson","county_fips":"05071","state_abbr":"AR"},"geometry":{"type":"Polygon","coordinates":[[[-93.6970179100791,35.76859049609495],[-93.5175532104321,35.76343613795137],[-93.52114250442504,35.73422810847108],[-93.37398145071451,35.72993281001809],[-93.16580239912399,35.729073750327494],[-93.16939169311692,35.59763761766617],[-93.21964180901809,35.59935573704736],[-93.22323110301103,35.46877866407664],[-93.29501698286983,35.469637723767235],[-93.29860627686277,35.327033815128146],[-93.33449921679217,35.34163782986829],[-93.42064227262273,35.327892874818744],[-93.41346368463684,35.36483244151441],[-93.43499944859448,35.427543798927985],[-93.49601744647445,35.396617650066496],[-93.52832109241092,35.408644485734854],[-93.59292838428384,35.38373175470754],[-93.63958920619206,35.38630893377933],[-93.66830355813558,35.405208246972464],[-93.71137508605085,35.37514115780157],[-93.6970179100791,35.76859049609495]]]}},{"type":"Feature","id":"05073","properties":{"name":"Lafayette","county_fips":"05073","state_abbr":"AR"},"geometry":{"type":"Polygon","coordinates":[[[-93.72214296802967,33.48177359972599],[-93.4816602705027,33.475760181891815],[-93.48524956449565,33.44741121210212],[-93.36680286272862,33.444834033030325],[-93.42064227262273,33.328860974799746],[-93.44217803658036,33.2584180801708],[-93.4816602705027,33.26013619955199],[-93.48883885848858,33.01874042649426],[-93.52114250442504,33.01874042649426],[-93.80469672986729,33.01959948618486],[-93.8585361397614,33.090901440504396],[-93.85494684576845,33.13557254441544],[-93.79751814188141,33.16563963358633],[-93.78675025990259,33.14416314132141],[-93.74726802598026,33.18110270801707],[-93.70419649806497,33.24553218481184],[-93.72932155601555,33.279035512745125],[-93.68266073410733,33.29020328872288],[-93.6970179100791,33.31597507944079],[-93.66830355813558,33.33487439263392],[-93.70778579205792,33.35377370582705],[-93.67548214612145,33.38469985468854],[-93.70060720407204,33.38813609345093],[-93.74726802598026,33.430230018290175],[-93.72214296802967,33.48177359972599]]]}},{"type":"Feature","id":"05075","properties":{"name":"Lawrence","county_fips":"05075","state_abbr":"AR"},"geometry":{"type":"Polygon","coordinates":[[[-91.25988728887289,36.25825451973519],[-91.24194081890819,36.22561025149251],[-91.1629763510635,36.20585187860878],[-91.14144058710586,36.166335132841326],[-91.06606541325412,36.14314052119521],[-91.04452964929649,36.151731118101175],[-90.8112255397554,36.14915393902938],[-90.74661824788248,36.14915393902938],[-90.78968977579775,36.093315059140586],[-90.82199342173422,36.07957010409103],[-90.85070777367773,35.967892344313434],[-90.87224353763537,35.88112731556315],[-91.03376176731767,35.885422614016136],[-91.1988692909929,35.889717912469116],[-91.35679822668226,35.890576972159714],[-91.34961963869638,36.23076460963609],[-91.33167316873168,36.24450956468564],[-91.25988728887289,36.243650504995045],[-91.25988728887289,36.25825451973519]]]}},{"type":"Feature","id":"05077","properties":{"name":"Lee","county_fips":"05077","state_abbr":"AR"},"geometry":{"type":"Polygon","coordinates":[[[-91.09836905919059,34.8674368806588],[-91.09836905919059,34.91210798456984],[-90.95120800548005,34.90695362642626],[-90.40922461254613,34.904376447354466],[-90.40922461254613,34.83307449303492],[-90.43793896448965,34.88461807447074],[-90.47742119841197,34.88633619385193],[-90.48459978639787,34.861423462824625],[-90.45588543445434,34.823624836438356],[-90.47383190441904,34.80214834417344],[-90.4522961404614,34.74029604645046],[-90.50254625636256,34.723973912329114],[-90.52049272632726,34.75318194180941],[-90.51331413834139,34.80214834417344],[-90.54920707827078,34.77895373252732],[-90.54202849028489,34.74888664335643],[-90.56715354823548,34.73685980768807],[-90.54561778427784,34.7024974200642],[-90.47383190441904,34.700779300683],[-90.46665331643317,34.674148450274494],[-90.51690343233432,34.63119546574465],[-90.55638566625666,34.646658540175395],[-90.55279637226371,34.688752465014645],[-90.58868931219311,34.67071221151211],[-90.58510001820018,34.64150418203182],[-91.05170823728237,34.6457994804848],[-91.04811894328942,34.73428262861628],[-91.10195835318353,34.735141688306875],[-91.09836905919059,34.8674368806588]]]}},{"type":"Feature","id":"05079","properties":{"name":"Lincoln","county_fips":"05079","state_abbr":"AR"},"geometry":{"type":"Polygon","coordinates":[[[-91.9526210295103,34.064216069950696],[-91.9526210295103,34.09342409943099],[-91.74444197791978,34.09428315912159],[-91.72649550795508,34.06507512964129],[-91.72649550795508,34.1741757103471],[-91.69419186201861,34.17073947158471],[-91.64394174611746,34.138095203342026],[-91.58292374823748,34.12520930798308],[-91.60804880618805,34.102873756027556],[-91.58292374823748,34.089128800978],[-91.55062010230102,34.10630999478994],[-91.5039592803928,34.07366572654726],[-91.44653057650576,34.080538204072035],[-91.42140551855518,34.014390607896075],[-91.46447704647046,34.00494095129951],[-91.46447704647046,33.975732921819215],[-91.54703080830808,33.976591981509806],[-91.5577986902869,33.783303551125506],[-91.66547751007509,33.791894148031474],[-91.97774608746087,33.791894148031474],[-91.97774608746087,33.9774510412004],[-91.9526210295103,33.9774510412004],[-91.9526210295103,34.064216069950696]]]}},{"type":"Feature","id":"05081","properties":{"name":"Little River","county_fips":"05081","state_abbr":"AR"},"geometry":{"type":"Polygon","coordinates":[[[-94.47589470654707,33.94051147450474],[-94.41128741467415,33.925907459764595],[-94.37898376873768,33.93277993728937],[-94.3897516507165,33.894981310903106],[-94.33950153481534,33.88295447523475],[-94.33232294682946,33.860618923279226],[-94.23900130301303,33.80220286431864],[-94.18516189311893,33.80993440153401],[-94.18875118711186,33.78931696895968],[-94.04159013340133,33.78244449143491],[-94.04159013340133,33.753236461954614],[-93.95903637156371,33.75065928288282],[-93.96621495954959,33.672484851038504],[-93.93032201962019,33.663894254132536],[-93.85135755177551,33.614068792077916],[-93.82623249382493,33.60977349362493],[-93.8585361397614,33.61149161300612],[-93.89801837368373,33.571974867238666],[-93.93032201962019,33.583142643216426],[-93.95185778357784,33.549639315283144],[-93.96621495954959,33.58142452383523],[-93.98775072350723,33.533317181161806],[-93.99851860548605,33.564243330023295],[-94.04517942739427,33.55221649435494],[-94.04517942739427,33.55135743466434],[-94.10260813128131,33.57025674785747],[-94.12414389523894,33.55221649435494],[-94.14209036520364,33.57798828507285],[-94.18516189311893,33.59259229981299],[-94.22464412704127,33.553075554045535],[-94.300019300893,33.57627016569165],[-94.31078718287182,33.55135743466434],[-94.33950153481534,33.56682050909509],[-94.35744800478004,33.54362589744897],[-94.39334094470944,33.55135743466434],[-94.38616235672356,33.58228358352583],[-94.41846600266003,33.57712922538225],[-94.45794823658237,33.59860571764717],[-94.45794823658237,33.644994940939405],[-94.48666258852587,33.638122463414625],[-94.47589470654707,33.94051147450474]]]}},{"type":"Feature","id":"05083","properties":{"name":"Logan","county_fips":"05083","state_abbr":"AR"},"geometry":{"type":"Polygon","coordinates":[[[-94.14209036520364,35.09938299711997],[-94.13850107121071,35.143195041340405],[-94.0308222514225,35.14061786226862],[-94.02723295742958,35.21363793596935],[-94.02723295742958,35.23081912978129],[-93.91955413764137,35.2291010104001],[-93.91596484364844,35.319302277912776],[-93.81187531785318,35.31328886007859],[-93.80828602386023,35.43012097799977],[-93.74726802598026,35.36483244151441],[-93.71137508605085,35.37514115780157],[-93.66830355813558,35.405208246972464],[-93.63958920619206,35.38630893377933],[-93.59292838428384,35.38373175470754],[-93.52832109241092,35.408644485734854],[-93.49601744647445,35.396617650066496],[-93.43499944859448,35.427543798927985],[-93.41346368463684,35.36483244151441],[-93.42064227262273,35.327892874818744],[-93.33449921679217,35.34163782986829],[-93.29860627686277,35.327033815128146],[-93.27707051290513,35.31758415853158],[-93.28065980689806,35.212778876278755],[-93.45653521255213,35.21535605535055],[-93.52832109241092,35.1457722204122],[-93.66471426414263,35.14834939948399],[-93.70778579205792,35.13460444443444],[-93.70419649806497,35.019490445894455],[-94.0738937793378,35.02636292341923],[-94.0738937793378,35.05385283351833],[-94.14209036520364,35.05557095289952],[-94.14209036520364,35.09938299711997]]]}},{"type":"Feature","id":"05085","properties":{"name":"Lonoke","county_fips":"05085","state_abbr":"AR"},"geometry":{"type":"Polygon","coordinates":[[[-92.12131784717847,35.06673872887728],[-92.01363902739027,35.07618838547385],[-91.9526210295103,35.04526223661236],[-91.87724585565856,35.02464480403803],[-91.80187068180682,35.030658221872216],[-91.80545997579975,34.92155764116641],[-91.69419186201861,34.919839521785214],[-91.70137045000449,34.672430330893306],[-91.63676315813157,34.62604110760107],[-91.66547751007509,34.57965188430884],[-91.63317386413864,34.553021033900336],[-91.66906680406804,34.51865864627646],[-91.67624539205391,34.48171907958079],[-91.70495974399743,34.48257813927139],[-92.03158549735497,34.48945061679616],[-92.02799620336204,34.62088674945749],[-92.11413925919258,34.622604868838685],[-92.09260349523495,34.711088016970166],[-92.07824631926319,34.7299873301633],[-92.07106773127731,35.011758908679084],[-92.12131784717847,35.012617968369675],[-92.12131784717847,35.06673872887728]]]}},{"type":"Feature","id":"05087","properties":{"name":"Madison","county_fips":"05087","state_abbr":"AR"},"geometry":{"type":"Polygon","coordinates":[[[-93.88725049170492,36.23505990808908],[-93.86930402174022,36.23505990808908],[-93.86930402174022,36.30722092209921],[-93.81546461184611,36.306361862408615],[-93.65753567615675,36.30292562364623],[-93.66471426414263,36.27543571354713],[-93.61805344223441,36.25911357942579],[-93.62164273622736,36.201556580155795],[-93.58574979629796,36.186093505725054],[-93.58574979629796,36.15602641655416],[-93.54985685636856,36.155167356863565],[-93.54985685636856,36.12595932738327],[-93.47807097650976,36.12510026769267],[-93.4816602705027,36.08128822347223],[-93.4457673305733,36.08042916378163],[-93.44935662456624,35.967892344313434],[-93.48524956449565,35.95328832957329],[-93.50678532845328,35.88112731556315],[-93.52473179841797,35.881986375253746],[-93.5175532104321,35.76343613795137],[-93.6970179100791,35.76859049609495],[-93.9123755496555,35.774603913929134],[-93.9123755496555,35.75999989918898],[-93.96262566555666,35.76085895887958],[-93.94826848958489,35.890576972159714],[-93.94467919559195,36.090737880068794],[-93.88725049170492,36.23505990808908]]]}},{"type":"Feature","id":"05089","properties":{"name":"Marion","county_fips":"05089","state_abbr":"AR"},"geometry":{"type":"Polygon","coordinates":[[[-92.85353382173821,36.497932173411726],[-92.7709800599006,36.497932173411726],[-92.53049736237362,36.498791233102324],[-92.53408665636655,36.38625441363413],[-92.5915153602536,36.35876450353503],[-92.57715818428184,36.34244236941369],[-92.53408665636655,36.35103296631966],[-92.5735688902889,36.306361862408615],[-92.52331877438775,36.298630325193244],[-92.54485453834538,36.263408877878774],[-92.47306865848658,36.256536400353994],[-92.45871148251481,36.21530153520535],[-92.48024724647246,36.193825042940425],[-92.40846136661366,36.13454992428924],[-92.4120506606066,36.0623889102791],[-92.83558735177351,36.07012044749447],[-92.83558735177351,36.11393249171491],[-92.88942676166761,36.11393249171491],[-92.88583746767468,36.49105969588695],[-92.85353382173821,36.46442884547845],[-92.85353382173821,36.497932173411726]]]}},{"type":"Feature","id":"05091","properties":{"name":"Miller","county_fips":"05091","state_abbr":"AR"},"geometry":{"type":"Polygon","coordinates":[[[-94.04517942739427,33.55221649435494],[-93.99851860548605,33.564243330023295],[-93.98775072350723,33.533317181161806],[-93.96621495954959,33.58142452383523],[-93.95185778357784,33.549639315283144],[-93.93032201962019,33.583142643216426],[-93.89801837368373,33.571974867238666],[-93.8585361397614,33.61149161300612],[-93.82623249382493,33.60977349362493],[-93.82623249382493,33.57712922538225],[-93.80110743587436,33.56510238971389],[-93.77239308393084,33.498095733847336],[-93.75444661396614,33.51613598734987],[-93.72214296802967,33.48177359972599],[-93.74726802598026,33.430230018290175],[-93.70060720407204,33.38813609345093],[-93.67548214612145,33.38469985468854],[-93.70778579205792,33.35377370582705],[-93.66830355813558,33.33487439263392],[-93.6970179100791,33.31597507944079],[-93.68266073410733,33.29020328872288],[-93.72932155601555,33.279035512745125],[-93.70419649806497,33.24553218481184],[-93.74726802598026,33.18110270801707],[-93.78675025990259,33.14416314132141],[-93.79751814188141,33.16563963358633],[-93.85494684576845,33.13557254441544],[-93.8585361397614,33.090901440504396],[-93.80469672986729,33.01959948618486],[-93.81546461184611,33.01959948618486],[-94.04159013340133,33.01959948618486],[-94.04159013340133,33.297934825938256],[-94.04159013340133,33.541907778067774],[-94.04517942739427,33.55135743466434],[-94.04517942739427,33.55221649435494]]]}},{"type":"Feature","id":"05093","properties":{"name":"Mississippi","county_fips":"05093","state_abbr":"AR"},"geometry":{"type":"Polygon","coordinates":[[[-90.28718861678617,35.99624131410314],[-89.96056286342863,35.99881849317492],[-89.73443734187342,36.00053661255612],[-89.72008016590165,35.967892344313434],[-89.65547287402873,35.92579841947419],[-89.64470499204991,35.90432192720927],[-89.65547287402873,35.88714073339733],[-89.7416159298593,35.90689910628106],[-89.77391957579576,35.86480518144181],[-89.70213369593695,35.83387903258032],[-89.7416159298593,35.80553006279062],[-89.78109816378164,35.804671003100026],[-89.81340180971809,35.75999989918898],[-89.87441980759807,35.74110058599585],[-89.90672345353452,35.759140839498386],[-89.96056286342863,35.723919392183916],[-89.93902709947099,35.66550333322333],[-89.90672345353452,35.65089931848318],[-89.86365192561925,35.670657691366905],[-89.85288404364043,35.63801342312423],[-89.94620568745687,35.601932916119154],[-89.95697356943569,35.58131548354483],[-89.91031274752747,35.53836249901499],[-89.92108062950629,35.51344976798767],[-90.00004509735096,35.5615571106611],[-90.03234874328743,35.55382557344573],[-90.05029521325213,35.50400011139111],[-90.01799156731568,35.46791960438604],[-90.05029521325213,35.407785426044256],[-90.057473801238,35.40349012759127],[-90.08618815318152,35.4790873803638],[-90.14002756307562,35.43613439583395],[-90.28718861678617,35.438711574905746],[-90.28718861678617,35.6998657208472],[-90.28718861678617,35.99624131410314]]]}},{"type":"Feature","id":"05095","properties":{"name":"Monroe","county_fips":"05095","state_abbr":"AR"},"geometry":{"type":"Polygon","coordinates":[[[-91.36756610866108,34.912967044260434],[-91.29578022880229,34.91210798456984],[-91.29219093480934,34.985128058270575],[-91.23835152491525,34.985128058270575],[-91.23835152491525,35.00402737146371],[-91.14861917509175,35.00230925208251],[-91.15220846908468,34.91210798456984],[-91.11631552915529,34.91210798456984],[-91.11631552915529,34.8674368806588],[-91.09836905919059,34.8674368806588],[-91.10195835318353,34.735141688306875],[-91.04811894328942,34.73428262861628],[-91.05170823728237,34.6457994804848],[-91.05529753127531,34.47055130360303],[-91.0014581213812,34.469692243912434],[-91.0014581213812,34.33653799186991],[-91.05529753127531,34.33653799186991],[-91.09477976519764,34.34426952908529],[-91.13067270512705,34.38120909578095],[-91.17374423304233,34.4507929307193],[-91.20604787897878,34.45594728886288],[-91.2168157609576,34.48687343772437],[-91.26347658286582,34.50147745246452],[-91.25988728887289,34.527249243182425],[-91.29936952279522,34.5341217207072],[-91.29219093480934,34.561611630806304],[-91.3783339906399,34.5633297501875],[-91.3783339906399,34.59253777966779],[-91.44653057650576,34.60885991378913],[-91.44653057650576,34.66727597274972],[-91.37474469664696,34.665557853368526],[-91.37115540265403,34.82448389612895],[-91.3424410507105,34.873450298492976],[-91.36756610866108,34.912967044260434]]]}},{"type":"Feature","id":"05097","properties":{"name":"Montgomery","county_fips":"05097","state_abbr":"AR"},"geometry":{"type":"Polygon","coordinates":[[[-93.93032201962019,34.665557853368526],[-93.8764826097261,34.665557853368526],[-93.86930402174022,34.71280613635136],[-93.81546461184611,34.711088016970166],[-93.78316096590966,34.73256450923509],[-93.71137508605085,34.74545040459404],[-93.39551721467214,34.74373228521284],[-93.40269580265802,34.685316226252255],[-93.40628509665096,34.396672170211694],[-93.4098743906439,34.3391151709417],[-93.47807097650976,34.3408332903229],[-93.93391131361314,34.350282946919464],[-93.93032201962019,34.665557853368526]]]}},{"type":"Feature","id":"05099","properties":{"name":"Nevada","county_fips":"05099","state_abbr":"AR"},"geometry":{"type":"Polygon","coordinates":[[[-93.4816602705027,33.475760181891815],[-93.4816602705027,33.5633842703327],[-93.47089238852388,33.825397475964756],[-93.46012450654506,33.825397475964756],[-93.45653521255213,33.95683360862608],[-93.37398145071451,33.95683360862608],[-93.32373133481335,33.907867206262054],[-93.284249100891,33.84343772946729],[-93.284249100891,33.84343772946729],[-93.19451675106751,33.819384058130574],[-93.18015957509574,33.80048474493744],[-93.1406773411734,33.81508875967759],[-93.104784401244,33.777290133291324],[-93.11555228322283,33.452565570245696],[-93.21964180901809,33.45514274931749],[-93.21964180901809,33.44053873457734],[-93.36680286272862,33.444834033030325],[-93.48524956449565,33.44741121210212],[-93.4816602705027,33.475760181891815]]]}},{"type":"Feature","id":"05101","properties":{"name":"Newton","county_fips":"05101","state_abbr":"AR"},"geometry":{"type":"Polygon","coordinates":[[[-93.47807097650976,36.12510026769267],[-93.3021955708557,36.12166402893028],[-92.94326617156172,36.11479155140551],[-92.93967687756877,35.990227896268955],[-92.9504447595476,35.72477845187451],[-93.16580239912399,35.729073750327494],[-93.37398145071451,35.72993281001809],[-93.52114250442504,35.73422810847108],[-93.5175532104321,35.76343613795137],[-93.52473179841797,35.881986375253746],[-93.50678532845328,35.88112731556315],[-93.48524956449565,35.95328832957329],[-93.44935662456624,35.967892344313434],[-93.4457673305733,36.08042916378163],[-93.4816602705027,36.08128822347223],[-93.47807097650976,36.12510026769267]]]}},{"type":"Feature","id":"05103","properties":{"name":"Ouachita","county_fips":"05103","state_abbr":"AR"},"geometry":{"type":"Polygon","coordinates":[[[-93.11555228322283,33.452565570245696],[-93.104784401244,33.777290133291324],[-93.06171287332873,33.786739789887896],[-93.03299852138521,33.76955859607595],[-92.93967687756877,33.80048474493744],[-92.91814111361113,33.821961237202366],[-92.89301605566055,33.80993440153401],[-92.58433677226772,33.80220286431864],[-92.58433677226772,33.736914327833276],[-92.63458688816888,33.69310228361283],[-92.65253335813358,33.661317075060744],[-92.72431923799238,33.65186741846418],[-92.73149782597825,33.61578691145911],[-92.70996206202062,33.5908741804318],[-92.77456935389354,33.51012256951569],[-92.7530335899359,33.48435077879778],[-92.7171406500065,33.48177359972599],[-92.70637276802768,33.43108907798077],[-92.65253335813358,33.433666257052565],[-92.64176547615476,33.3958676306663],[-92.58433677226772,33.3975857500475],[-92.56639030230302,33.367518660876605],[-92.59510465424654,33.37353207871078],[-92.65971194611946,33.35549182520825],[-92.76021217792177,33.38813609345093],[-92.80328370583706,33.37267301902018],[-92.97915911149111,33.37696831747317],[-93.11914157721577,33.380404556235554],[-93.11555228322283,33.452565570245696]]]}},{"type":"Feature","id":"05105","properties":{"name":"Perry","county_fips":"05105","state_abbr":"AR"},"geometry":{"type":"Polygon","coordinates":[[[-93.04017710937109,35.077047445164446],[-92.7171406500065,35.07189308702086],[-92.67406912209121,35.07876556454564],[-92.62381900619006,35.10883265371653],[-92.64535477014769,35.07618838547385],[-92.59869394823947,35.085638042070414],[-92.5556224203242,35.11312795216951],[-92.54485453834538,35.05557095289952],[-92.59869394823947,34.99543677455774],[-92.54485453834538,34.95334284971849],[-92.54485453834538,34.93616165590655],[-92.64894406414064,34.93959789466894],[-92.64894406414064,34.91038986518865],[-92.7530335899359,34.911248924879246],[-92.75662288392884,34.85369192560925],[-92.73867641396413,34.85369192560925],[-92.74226570795707,34.82792013489134],[-92.82840876378764,34.85541004499044],[-93.07248075530755,34.857987224062235],[-93.07607004930048,34.77208125500255],[-93.28783839488395,34.77294031469314],[-93.28783839488395,34.86056440313403],[-93.26989192491925,34.90351738766387],[-93.21605251502514,34.93272541714416],[-93.104784401244,35.01777232651326],[-93.04017710937109,35.077047445164446]]]}},{"type":"Feature","id":"05107","properties":{"name":"Phillips","county_fips":"05107","state_abbr":"AR"},"geometry":{"type":"Polygon","coordinates":[[[-91.05529753127531,34.33653799186991],[-91.0014581213812,34.33653799186991],[-91.0014581213812,34.469692243912434],[-91.05529753127531,34.47055130360303],[-91.05170823728237,34.6457994804848],[-90.58510001820018,34.64150418203182],[-90.58868931219311,34.615732391313905],[-90.54561778427784,34.5633297501875],[-90.57074284222841,34.52467206411063],[-90.58868931219311,34.496323094320935],[-90.56715354823548,34.42502114000139],[-90.65688589805897,34.37605473763737],[-90.65688589805897,34.32193397712977],[-90.69277883798837,34.322793036820364],[-90.68201095600956,34.369182260112595],[-90.75020754187541,34.368323200422],[-90.76815401184011,34.34512858877588],[-90.73943965989659,34.30647090269902],[-90.76456471784718,34.280699111981114],[-90.83276130371303,34.26781321662216],[-90.8471184796848,34.20681997858978],[-90.90454718357184,34.24375954528545],[-90.93685082950829,34.218846814258136],[-90.88660071360714,34.18190724756247],[-90.81481483374833,34.18276630725307],[-90.80763624576245,34.161289814988145],[-90.85429706767067,34.13723614365143],[-90.91172577155771,34.165585113441125],[-90.95479729947299,34.12005494983949],[-90.95479729947299,34.119195890148895],[-91.11631552915529,34.119195890148895],[-91.08042258922589,34.14410862117621],[-91.09477976519764,34.176752889418886],[-91.05888682526825,34.21712869487694],[-91.08042258922589,34.249772963119625],[-91.05529753127531,34.33653799186991]]]}},{"type":"Feature","id":"05109","properties":{"name":"Pike","county_fips":"05109","state_abbr":"AR"},"geometry":{"type":"Polygon","coordinates":[[[-93.93391131361314,34.350282946919464],[-93.47807097650976,34.3408332903229],[-93.4816602705027,34.253209201882015],[-93.50319603446034,34.25406826157261],[-93.50319603446034,34.21369245611456],[-93.44217803658036,34.20853809797097],[-93.45653521255213,34.130363666126655],[-93.43499944859448,34.049612055210545],[-93.37757074470744,33.98604163810638],[-93.37398145071451,33.95683360862608],[-93.45653521255213,33.95683360862608],[-93.52832109241092,33.94308865357653],[-93.5713926203262,33.961128907079065],[-93.61805344223441,33.95941078769787],[-93.64676779417793,33.98260539934399],[-93.75085731997319,34.0066590706807],[-93.822643199832,34.00923624975249],[-93.81905390583906,34.183625366943666],[-93.92673272562725,34.18706160570605],[-93.92314343163432,34.26265885847858],[-93.93750060760607,34.26265885847858],[-93.93391131361314,34.350282946919464]]]}},{"type":"Feature","id":"05111","properties":{"name":"Poinsett","county_fips":"05111","state_abbr":"AR"},"geometry":{"type":"Polygon","coordinates":[[[-91.0373510613106,35.708456317753175],[-90.60304648816488,35.70416101930019],[-90.49895696236962,35.70759725806258],[-90.28718861678617,35.6998657208472],[-90.28718861678617,35.438711574905746],[-90.50254625636256,35.44214781366813],[-90.61022507615075,35.44128875397753],[-90.61022507615075,35.44902029119291],[-90.92967224152241,35.44214781366813],[-91.04094035530355,35.44472499273992],[-91.0373510613106,35.708456317753175]]]}},{"type":"Feature","id":"05113","properties":{"name":"Polk","county_fips":"05113","state_abbr":"AR"},"geometry":{"type":"Polygon","coordinates":[[[-94.4615375305753,34.507490870298696],[-94.45435894258942,34.7291282704727],[-94.31796577085771,34.72655109140091],[-94.31796577085771,34.69734306192061],[-94.01646507545075,34.692188703777035],[-93.93032201962019,34.68016186810868],[-93.93032201962019,34.665557853368526],[-93.93391131361314,34.350282946919464],[-94.25335847898478,34.35543730506304],[-94.25694777297772,34.269531336003354],[-94.24259059700597,34.269531336003354],[-94.24259059700597,34.192215963849634],[-94.46871611856118,34.18963878477784],[-94.4615375305753,34.507490870298696]]]}},{"type":"Feature","id":"05115","properties":{"name":"Pope","county_fips":"05115","state_abbr":"AR"},"geometry":{"type":"Polygon","coordinates":[[[-93.16580239912399,35.729073750327494],[-92.9504447595476,35.72477845187451],[-92.81046229382294,35.72220127280272],[-92.81405158781587,35.54867121530215],[-92.84994452774528,35.54953027499274],[-92.84994452774528,35.462765246242455],[-92.85353382173821,35.1724030708207],[-92.8966053496535,35.17068495143951],[-92.92531970159702,35.17583930958309],[-93.02223063940639,35.162953414224134],[-93.04735569735696,35.1182823103131],[-93.08324863728637,35.127731966909664],[-93.0868379312793,35.181852727417265],[-93.1299094591946,35.18013460803608],[-93.15503451714517,35.235114428234276],[-93.20169533905339,35.27205399492994],[-93.24476686696866,35.277208353073526],[-93.27707051290513,35.31758415853158],[-93.29860627686277,35.327033815128146],[-93.29501698286983,35.469637723767235],[-93.22323110301103,35.46877866407664],[-93.21964180901809,35.59935573704736],[-93.16939169311692,35.59763761766617],[-93.16580239912399,35.729073750327494]]]}},{"type":"Feature","id":"05117","properties":{"name":"Prairie","county_fips":"05117","state_abbr":"AR"},"geometry":{"type":"Polygon","coordinates":[[[-91.80187068180682,35.030658221872216],[-91.76597774187742,35.050416594755944],[-91.70137045000449,35.06330249011489],[-91.64394174611746,35.04268505754057],[-91.64035245212452,35.027221983109825],[-91.58651304223042,35.02550386372863],[-91.58292374823748,35.09165145990459],[-91.46447704647046,35.089074280832804],[-91.46088775247752,35.05213471413713],[-91.36397681466815,35.05213471413713],[-91.36756610866108,34.912967044260434],[-91.3424410507105,34.873450298492976],[-91.37115540265403,34.82448389612895],[-91.37474469664696,34.665557853368526],[-91.44653057650576,34.66727597274972],[-91.44653057650576,34.60885991378913],[-91.3783339906399,34.59253777966779],[-91.3783339906399,34.5633297501875],[-91.5936916302163,34.56762504864048],[-91.59728092420924,34.480860019890194],[-91.67624539205391,34.48171907958079],[-91.66906680406804,34.51865864627646],[-91.63317386413864,34.553021033900336],[-91.66547751007509,34.57965188430884],[-91.63676315813157,34.62604110760107],[-91.70137045000449,34.672430330893306],[-91.69419186201861,34.919839521785214],[-91.80545997579975,34.92155764116641],[-91.80187068180682,35.030658221872216]]]}},{"type":"Feature","id":"05119","properties":{"name":"Pulaski","county_fips":"05119","state_abbr":"AR"},"geometry":{"type":"Polygon","coordinates":[[[-92.54485453834538,34.95334284971849],[-92.4838365404654,34.9507656706467],[-92.45153289452894,34.90609456673566],[-92.46230077650776,34.85712816437164],[-92.44076501255012,34.87001405973059],[-92.45153289452894,34.90094020859208],[-92.41922924859249,34.93186635745357],[-92.22899666696667,34.927571059000584],[-92.22899666696667,35.01433608775087],[-92.12131784717847,35.012617968369675],[-92.07106773127731,35.011758908679084],[-92.07824631926319,34.7299873301633],[-92.09260349523495,34.711088016970166],[-92.11413925919258,34.622604868838685],[-92.02799620336204,34.62088674945749],[-92.03158549735497,34.48945061679616],[-92.20746090300902,34.49288685555855],[-92.24694313693136,34.49374591524915],[-92.24335384293842,34.580510943999435],[-92.34744336873368,34.58222906338063],[-92.35103266272662,34.62604110760107],[-92.44435430654306,34.626900167291666],[-92.44435430654306,34.672430330893306],[-92.5017830104301,34.673289390583896],[-92.55203312633125,34.68961152470524],[-92.55203312633125,34.761772538715384],[-92.65253335813358,34.76434971778717],[-92.65253335813358,34.85197380622806],[-92.73867641396413,34.85369192560925],[-92.75662288392884,34.85369192560925],[-92.7530335899359,34.911248924879246],[-92.64894406414064,34.91038986518865],[-92.64894406414064,34.93959789466894],[-92.54485453834538,34.93616165590655],[-92.54485453834538,34.95334284971849]]]}},{"type":"Feature","id":"05121","properties":{"name":"Randolph","county_fips":"05121","state_abbr":"AR"},"geometry":{"type":"Polygon","coordinates":[[[-91.12708341113411,36.497932173411726],[-90.78610048180481,36.498791233102324],[-90.76815401184011,36.48504627805278],[-90.77892189381893,36.43779799506994],[-90.75020754187541,36.412885264042636],[-90.75020754187541,36.28059007169071],[-90.80763624576245,36.28832160890608],[-90.80763624576245,36.26684511664116],[-90.8112255397554,36.14915393902938],[-91.04452964929649,36.151731118101175],[-91.06606541325412,36.14314052119521],[-91.14144058710586,36.166335132841326],[-91.1629763510635,36.20585187860878],[-91.24194081890819,36.22561025149251],[-91.25988728887289,36.25825451973519],[-91.25988728887289,36.33127459343593],[-91.27424446484464,36.374227577965776],[-91.31013740477404,36.38969065239652],[-91.31013740477404,36.42061680125801],[-91.34961963869638,36.42061680125801],[-91.35679822668226,36.46528790516905],[-91.40704834258342,36.49707311372113],[-91.12708341113411,36.497932173411726]]]}},{"type":"Feature","id":"05125","properties":{"name":"Saline","county_fips":"05125","state_abbr":"AR"},"geometry":{"type":"Polygon","coordinates":[[[-92.73867641396413,34.85369192560925],[-92.65253335813358,34.85197380622806],[-92.65253335813358,34.76434971778717],[-92.55203312633125,34.761772538715384],[-92.55203312633125,34.68961152470524],[-92.5017830104301,34.673289390583896],[-92.44435430654306,34.672430330893306],[-92.44435430654306,34.626900167291666],[-92.35103266272662,34.62604110760107],[-92.34744336873368,34.58222906338063],[-92.24335384293842,34.580510943999435],[-92.24694313693136,34.49374591524915],[-92.40487207262072,34.49546403463034],[-92.40487207262072,34.4516519904099],[-92.58792606626066,34.45594728886288],[-92.62381900619006,34.41299430433304],[-92.67047982809828,34.41385336402364],[-92.68483700407003,34.41471242371423],[-92.68483700407003,34.473128482674824],[-92.73867641396413,34.47398754236542],[-92.73867641396413,34.503195571845716],[-92.79251582385824,34.503195571845716],[-92.79251582385824,34.561611630806304],[-92.80687299982999,34.5908196602866],[-92.8786588796888,34.5908196602866],[-92.87506958569585,34.635490764197634],[-92.97915911149111,34.63720888357883],[-92.96839122951229,34.77208125500255],[-93.07607004930048,34.77208125500255],[-93.07248075530755,34.857987224062235],[-92.82840876378764,34.85541004499044],[-92.74226570795707,34.82792013489134],[-92.73867641396413,34.85369192560925]]]}},{"type":"Feature","id":"05127","properties":{"name":"Scott","county_fips":"05127","state_abbr":"AR"},"geometry":{"type":"Polygon","coordinates":[[[-94.44718035460355,34.93358447683476],[-94.4076981206812,34.949906610956106],[-94.29643000690007,34.95248379002789],[-94.23182271502715,34.96880592414924],[-94.2282334210342,35.05643001259012],[-94.24976918499185,35.065879669186685],[-94.14209036520364,35.09938299711997],[-94.14209036520364,35.05557095289952],[-94.0738937793378,35.05385283351833],[-94.0738937793378,35.02636292341923],[-93.70419649806497,35.019490445894455],[-93.71137508605085,34.74545040459404],[-93.78316096590966,34.73256450923509],[-93.81546461184611,34.711088016970166],[-93.86930402174022,34.71280613635136],[-93.8764826097261,34.665557853368526],[-93.93032201962019,34.665557853368526],[-93.93032201962019,34.68016186810868],[-94.01646507545075,34.692188703777035],[-94.31796577085771,34.69734306192061],[-94.31796577085771,34.72655109140091],[-94.45435894258942,34.7291282704727],[-94.44718035460355,34.93358447683476]]]}},{"type":"Feature","id":"05129","properties":{"name":"Searcy","county_fips":"05129","state_abbr":"AR"},"geometry":{"type":"Polygon","coordinates":[[[-92.94326617156172,36.11479155140551],[-92.88942676166761,36.11393249171491],[-92.83558735177351,36.11393249171491],[-92.83558735177351,36.07012044749447],[-92.4120506606066,36.0623889102791],[-92.41563995459954,35.97562388152881],[-92.41563995459954,35.78834886897868],[-92.63099759417594,35.79092604805047],[-92.63099759417594,35.71876503404033],[-92.81046229382294,35.72220127280272],[-92.9504447595476,35.72477845187451],[-92.93967687756877,35.990227896268955],[-92.94326617156172,36.11479155140551]]]}},{"type":"Feature","id":"05131","properties":{"name":"Sebastian","county_fips":"05131","state_abbr":"AR"},"geometry":{"type":"Polygon","coordinates":[[[-94.43282317863178,35.38630893377933],[-94.43641247262472,35.42840285861858],[-94.38616235672356,35.44816123150231],[-94.33950153481534,35.408644485734854],[-94.34309082880829,35.37170491903918],[-94.30360859488594,35.35280560584605],[-94.20310836308363,35.36053714306142],[-94.13491177721777,35.39919482913829],[-94.16003683516834,35.435275336143356],[-94.14209036520364,35.4498793508835],[-94.0738937793378,35.44558405243052],[-94.08107236732367,35.216215115041145],[-94.02723295742958,35.21363793596935],[-94.0308222514225,35.14061786226862],[-94.13850107121071,35.143195041340405],[-94.14209036520364,35.09938299711997],[-94.24976918499185,35.065879669186685],[-94.2282334210342,35.05643001259012],[-94.23182271502715,34.96880592414924],[-94.29643000690007,34.95248379002789],[-94.4076981206812,34.949906610956106],[-94.44718035460355,34.93358447683476],[-94.43282317863178,35.38630893377933]]]}},{"type":"Feature","id":"05133","properties":{"name":"Sevier","county_fips":"05133","state_abbr":"AR"},"geometry":{"type":"Polygon","coordinates":[[[-94.46871611856118,34.18963878477784],[-94.24259059700597,34.192215963849634],[-94.10619742527425,34.191356904159036],[-94.08107236732367,34.12606836767367],[-94.08825095530955,34.034148980779804],[-94.0559473093731,33.96800138460384],[-94.07030448534485,33.93879335512354],[-94.05235801538015,33.88639071399714],[-93.96980425354253,33.806498162771625],[-93.95903637156371,33.75065928288282],[-94.04159013340133,33.753236461954614],[-94.04159013340133,33.78244449143491],[-94.18875118711186,33.78931696895968],[-94.18516189311893,33.80993440153401],[-94.23900130301303,33.80220286431864],[-94.33232294682946,33.860618923279226],[-94.33950153481534,33.88295447523475],[-94.3897516507165,33.894981310903106],[-94.37898376873768,33.93277993728937],[-94.41128741467415,33.925907459764595],[-94.47589470654707,33.94051147450474],[-94.46871611856118,34.18963878477784]]]}},{"type":"Feature","id":"05135","properties":{"name":"Sharp","county_fips":"05135","state_abbr":"AR"},"geometry":{"type":"Polygon","coordinates":[[[-91.69060256802568,36.25310016159161],[-91.56497727827278,36.24966392282922],[-91.56497727827278,36.337288011270104],[-91.45370916449164,36.335569891888916],[-91.4501198704987,36.497932173411726],[-91.40704834258342,36.49707311372113],[-91.35679822668226,36.46528790516905],[-91.34961963869638,36.42061680125801],[-91.31013740477404,36.42061680125801],[-91.31013740477404,36.38969065239652],[-91.27424446484464,36.374227577965776],[-91.25988728887289,36.33127459343593],[-91.25988728887289,36.25825451973519],[-91.25988728887289,36.243650504995045],[-91.33167316873168,36.24450956468564],[-91.34961963869638,36.23076460963609],[-91.35679822668226,35.890576972159714],[-91.46447704647046,35.89229509154091],[-91.46447704647046,35.93696619545195],[-91.71213833198331,35.94212055359553],[-91.70854903799038,36.00053661255612],[-91.68342398003979,36.00053661255612],[-91.67983468604686,36.16461701346013],[-91.67265609806098,36.20842905768057],[-91.69060256802568,36.25310016159161]]]}},{"type":"Feature","id":"05123","properties":{"name":"St. Francis","county_fips":"05123","state_abbr":"AR"},"geometry":{"type":"Polygon","coordinates":[[[-91.14861917509175,35.00230925208251],[-91.04452964929649,35.00145019239192],[-91.04094035530355,35.14834939948399],[-90.72149318993189,35.14834939948399],[-90.50254625636256,35.144054101031],[-90.40204602456024,35.14834939948399],[-90.40922461254613,34.904376447354466],[-90.95120800548005,34.90695362642626],[-91.09836905919059,34.91210798456984],[-91.09836905919059,34.8674368806588],[-91.11631552915529,34.8674368806588],[-91.11631552915529,34.91210798456984],[-91.15220846908468,34.91210798456984],[-91.14861917509175,35.00230925208251]]]}},{"type":"Feature","id":"05137","properties":{"name":"Stone","county_fips":"05137","state_abbr":"AR"},"geometry":{"type":"Polygon","coordinates":[[[-92.41563995459954,35.78834886897868],[-92.41563995459954,35.97562388152881],[-92.30796113481135,35.973905762147616],[-92.3043718408184,36.0606707908979],[-92.1966930210302,36.05895267151671],[-92.1966930210302,36.132831804908044],[-92.18951443304432,36.105341894808944],[-92.13926431714317,36.11221437233372],[-92.11413925919258,36.06496608935089],[-92.05671055530554,36.03489900018],[-92.09978208322083,36.0056909706997],[-92.08542490724906,35.966174224932246],[-92.11413925919258,35.93696619545195],[-92.07824631926319,35.927516538855386],[-92.04594267332673,35.943838672976725],[-92.00646043940439,35.91978500164001],[-91.9526210295103,35.931811837308366],[-91.89519232562326,35.88284543494434],[-91.84853150371504,35.8673823605136],[-91.87006726767267,35.8106844209342],[-91.86647797367974,35.771167675166744],[-91.83776362173622,35.74883212321122],[-91.83776362173622,35.705020078990785],[-92.23976454894549,35.71189255651556],[-92.41922924859249,35.716187854968545],[-92.41563995459954,35.78834886897868]]]}},{"type":"Feature","id":"05139","properties":{"name":"Union","county_fips":"05139","state_abbr":"AR"},"geometry":{"type":"Polygon","coordinates":[[[-92.97915911149111,33.37696831747317],[-92.80328370583706,33.37267301902018],[-92.76021217792177,33.38813609345093],[-92.65971194611946,33.35549182520825],[-92.59510465424654,33.37353207871078],[-92.56639030230302,33.367518660876605],[-92.53408665636655,33.356350884898845],[-92.52331877438775,33.31683413913139],[-92.48024724647246,33.32800191510915],[-92.47306865848658,33.29363952748527],[-92.42999713057131,33.26958585614855],[-92.35103266272662,33.298793885628854],[-92.32590760477605,33.26271337862378],[-92.22540737297372,33.253263722027214],[-92.22181807898079,33.209451677806776],[-92.13926431714317,33.16306245451454],[-92.11054996519965,33.15704903668036],[-92.12849643516435,33.1192504102941],[-92.12849643516435,33.07028400793008],[-92.1069606712067,33.03162632185321],[-92.06747843728436,33.0084317102071],[-92.72431923799238,33.014445128041274],[-92.98992699346994,33.017022307113066],[-92.97915911149111,33.37696831747317]]]}},{"type":"Feature","id":"05141","properties":{"name":"Van Buren","county_fips":"05141","state_abbr":"AR"},"geometry":{"type":"Polygon","coordinates":[[[-92.81046229382294,35.72220127280272],[-92.63099759417594,35.71876503404033],[-92.63099759417594,35.79092604805047],[-92.41563995459954,35.78834886897868],[-92.41922924859249,35.716187854968545],[-92.23976454894549,35.71189255651556],[-92.24335384293842,35.53836249901499],[-92.25053243092431,35.523758484274836],[-92.25412172491724,35.36397338182381],[-92.48024724647246,35.3682686802768],[-92.48024724647246,35.455033709027084],[-92.84994452774528,35.462765246242455],[-92.84994452774528,35.54953027499274],[-92.81405158781587,35.54867121530215],[-92.81046229382294,35.72220127280272]]]}},{"type":"Feature","id":"05143","properties":{"name":"Washington","county_fips":"05143","state_abbr":"AR"},"geometry":{"type":"Polygon","coordinates":[[[-94.5512698803988,36.101905656046554],[-94.39334094470944,36.09932847697476],[-94.3897516507165,36.14228146150461],[-94.33591224082241,36.14228146150461],[-94.33232294682946,36.21444247551475],[-94.01646507545075,36.20842905768057],[-93.97339354753547,36.20413375922759],[-93.97339354753547,36.2281874305643],[-93.88725049170492,36.23505990808908],[-93.94467919559195,36.090737880068794],[-93.94826848958489,35.890576972159714],[-93.96262566555666,35.76085895887958],[-94.12414389523894,35.76429519764197],[-94.12414389523894,35.75055024259242],[-94.49384117651176,35.759140839498386],[-94.5512698803988,36.101905656046554]]]}},{"type":"Feature","id":"05145","properties":{"name":"White","county_fips":"05145","state_abbr":"AR"},"geometry":{"type":"Polygon","coordinates":[[[-92.11054996519965,35.363114322133214],[-91.85212079770797,35.357959963989636],[-91.84853150371504,35.43613439583395],[-91.79469209382093,35.45589276871768],[-91.79469209382093,35.534067200562],[-91.58292374823748,35.53063096179961],[-91.58292374823748,35.44214781366813],[-91.34603034470344,35.438711574905746],[-91.35679822668226,35.407785426044256],[-91.43935198851987,35.3691277399674],[-91.41063763657637,35.26518151740517],[-91.3783339906399,35.21535605535055],[-91.40704834258342,35.212778876278755],[-91.42140551855518,35.17927554834548],[-91.46088775247752,35.15522187700876],[-91.43935198851987,35.1174232506225],[-91.46447704647046,35.089074280832804],[-91.58292374823748,35.09165145990459],[-91.58651304223042,35.02550386372863],[-91.64035245212452,35.027221983109825],[-91.64394174611746,35.04268505754057],[-91.70137045000449,35.06330249011489],[-91.76597774187742,35.050416594755944],[-91.80187068180682,35.030658221872216],[-91.87724585565856,35.02464480403803],[-91.9526210295103,35.04526223661236],[-92.01363902739027,35.07618838547385],[-92.12131784717847,35.06673872887728],[-92.11054996519965,35.363114322133214]]]}},{"type":"Feature","id":"05147","properties":{"name":"Woodruff","county_fips":"05147","state_abbr":"AR"},"geometry":{"type":"Polygon","coordinates":[[[-91.46447704647046,35.089074280832804],[-91.43935198851987,35.1174232506225],[-91.46088775247752,35.15522187700876],[-91.42140551855518,35.17927554834548],[-91.40704834258342,35.212778876278755],[-91.3783339906399,35.21535605535055],[-91.41063763657637,35.26518151740517],[-91.43935198851987,35.3691277399674],[-91.35679822668226,35.407785426044256],[-91.34603034470344,35.438711574905746],[-91.252708700887,35.44558405243052],[-91.252708700887,35.357959963989636],[-91.04094035530355,35.354523725227246],[-91.04094035530355,35.14834939948399],[-91.04452964929649,35.00145019239192],[-91.14861917509175,35.00230925208251],[-91.23835152491525,35.00402737146371],[-91.23835152491525,34.985128058270575],[-91.29219093480934,34.985128058270575],[-91.29578022880229,34.91210798456984],[-91.36756610866108,34.912967044260434],[-91.36397681466815,35.05213471413713],[-91.46088775247752,35.05213471413713],[-91.46447704647046,35.089074280832804]]]}},{"type":"Feature","id":"05149","properties":{"name":"Yell","county_fips":"05149","state_abbr":"AR"},"geometry":{"type":"Polygon","coordinates":[[[-93.70419649806497,35.019490445894455],[-93.70778579205792,35.13460444443444],[-93.66471426414263,35.14834939948399],[-93.52832109241092,35.1457722204122],[-93.45653521255213,35.21535605535055],[-93.28065980689806,35.212778876278755],[-93.27707051290513,35.31758415853158],[-93.24476686696866,35.277208353073526],[-93.20169533905339,35.27205399492994],[-93.15503451714517,35.235114428234276],[-93.1299094591946,35.18013460803608],[-93.0868379312793,35.181852727417265],[-93.08324863728637,35.127731966909664],[-93.04735569735696,35.1182823103131],[-93.02223063940639,35.162953414224134],[-92.92531970159702,35.17583930958309],[-92.8966053496535,35.17068495143951],[-92.92531970159702,35.16810777236772],[-92.97915911149111,35.1182823103131],[-93.04017710937109,35.10883265371653],[-93.04017710937109,35.077047445164446],[-93.104784401244,35.01777232651326],[-93.21605251502514,34.93272541714416],[-93.26989192491925,34.90351738766387],[-93.28783839488395,34.86056440313403],[-93.28783839488395,34.77294031469314],[-93.39551721467214,34.77208125500255],[-93.39551721467214,34.74373228521284],[-93.71137508605085,34.74545040459404],[-93.70419649806497,35.019490445894455]]]}}]}