{"type":"FeatureCollection","features":[{"type":"Feature","id":"60010","properties":{"name":"Eastern","county_fips":"60010","state_abbr":"AS"},"geometry":{"type":"Polygon","coordinates":[[[-170.70532052860528,-14.330911599825997],[-170.74480276252763,-14.288817674986749],[-170.6730168826688,-14.229542556335563],[-170.65865970669705,-14.2467237501475],[-170.56174876888767,-14.245005630766308],[-170.54739159291591,-14.28280425715257],[-170.5725166508665,-14.271636481174811],[-170.67660617666175,-14.297408271892717],[-170.70532052860528,-14.330911599825997]]]}},{"type":"Feature","id":"60020","properties":{"name":"Manu'a","county_fips":"60020","state_abbr":"AS"},"geometry":{"type":"MultiPolygon","coordinates":[[[[-169.5208535109351,-14.220951959429593],[-169.42753186711866,-14.211502302833027],[-169.42394257312571,-14.255314347053469],[-169.45624621906217,-14.248441869528694],[-169.4849605710057,-14.272495540865409],[-169.5208535109351,-14.220951959429593]]],[[[-169.68596103461033,-14.164254019850198],[-169.6105858607586,-14.157381542325423],[-169.62494303673034,-14.175421795827958],[-169.67160385863858,-14.18573051211512],[-169.68596103461033,-14.164254019850198]]]]}},{"type":"Feature","id":"60050","properties":{"name":"Western","county_fips":"60050","state_abbr":"AS"},"geometry":{"type":"Polygon","coordinates":[[[-170.74480276252763,-14.288817674986749],[-170.70532052860528,-14.330911599825997],[-170.75915993849938,-14.373864584355843],[-170.79864217242172,-14.333488778897788],[-170.84530299432993,-14.319743823848238],[-170.79864217242172,-14.289676734677347],[-170.74480276252763,-14.288817674986749]]]}}]}