{"type":"FeatureCollection","features":[{"type":"Feature","id":"04001","properties":{"name":"Apache","county_fips":"04001","state_abbr":"AZ"},"geometry":{"type":"Polygon","coordinates":[[[-109.99959122601226,36.99790491333913],[-109.6263046507465,36.99790491333913],[-109.04483902389023,36.998763973029725],[-109.04483902389023,36.00311379162791],[-109.04483902389023,35.54609403623036],[-109.04842831788318,35.34249688955889],[-109.04483902389023,35.31672509884098],[-109.04483902389023,34.96021532724327],[-109.04483902389023,34.57965188430884],[-109.04842831788318,33.999786593155925],[-109.04483902389023,33.87522293801938],[-109.04842831788318,33.77814919298192],[-109.34633971929719,33.777290133291324],[-109.35351830728307,33.72488749216492],[-109.44325065710656,33.71286065649656],[-109.47914359703596,33.691384164231636],[-109.49709006700067,33.652726478154776],[-109.52939371293712,33.622659388983884],[-109.60117959279592,33.61320973238732],[-109.62271535675356,33.583142643216426],[-109.6621975906759,33.584001702907024],[-109.68373335463355,33.54362589744897],[-109.73039417654176,33.52129034549345],[-109.74834064650646,33.48520983848838],[-109.81294793837938,33.483491719107185],[-109.83448370233701,33.535035300543],[-109.89191240622405,33.567679568785685],[-109.89191240622405,33.77814919298192],[-109.8596087602876,33.777290133291324],[-109.8596087602876,34.12606836767367],[-109.84884087830878,34.12606836767367],[-109.84884087830878,34.488591557105565],[-109.86678734827348,34.55989351142511],[-109.84884087830878,34.64751759986599],[-109.85243017230172,34.82276577674776],[-109.84525158431583,34.82276577674776],[-109.8416622903229,35.17068495143951],[-109.84525158431583,35.51774506644066],[-109.82730511435113,35.51774506644066],[-109.82730511435113,35.66206709446094],[-109.99959122601226,35.662926154151535],[-109.99959122601226,36.99790491333913]]]}},{"type":"Feature","id":"04003","properties":{"name":"Cochise","county_fips":"04003","state_abbr":"AZ"},"geometry":{"type":"Polygon","coordinates":[[[-110.45184226912268,31.731009950289497],[-110.44825297512975,32.24988200341003],[-110.45184226912268,32.42770735936359],[-110.17187733767337,32.42598923998239],[-109.22789301753016,32.4242711206012],[-109.1130356097561,32.42598923998239],[-109.04842831788318,32.42598923998239],[-109.04842831788318,31.332406253852533],[-109.27814313343133,31.334124373233728],[-109.99959122601226,31.33326531354313],[-110.45902085710857,31.332406253852533],[-110.4626101511015,31.469855804348036],[-110.45902085710857,31.61417783236832],[-110.45184226912268,31.61417783236832],[-110.45184226912268,31.731009950289497]]]}},{"type":"Feature","id":"04005","properties":{"name":"Coconino","county_fips":"04005","state_abbr":"AZ"},"geometry":{"type":"Polygon","coordinates":[[[-112.61618654686546,36.729019230182296],[-112.61618654686546,36.729019230182296],[-112.60900795887959,36.80032118450184],[-112.60900795887959,36.80032118450184],[-112.57311501895018,36.89224057139571],[-112.5300434910349,36.952374749737494],[-112.53722207902078,37.00048209241092],[-111.34916576735766,37.00134115210152],[-110.7497536705367,37.003059271482705],[-110.7497536705367,34.26351791816918],[-110.78923590445903,34.30904808177081],[-110.84666460834607,34.265236037550366],[-110.89691472424724,34.30217560424604],[-110.94716484014839,34.31763867867678],[-111.0189507200072,34.36316884227842],[-111.09791518785187,34.396672170211694],[-111.14816530375303,34.37519567794677],[-111.15175459774598,34.39409499113991],[-111.209183301633,34.40869900588005],[-111.24866553555535,34.453370109791095],[-111.30968353343533,34.427598319073184],[-111.3527550613506,34.44134327412274],[-111.39941588325883,34.42845737876378],[-111.41736235322352,34.376913797327965],[-111.43530882318822,34.446497632266315],[-111.46402317513174,34.40955806557065],[-111.5501662309623,34.419007722167215],[-111.47120176311762,34.457665408244075],[-111.55375552495525,34.47141036329363],[-111.55375552495525,34.80214834417344],[-111.77629175251752,34.80300740386403],[-111.77629175251752,34.980832759817595],[-111.80859539845397,34.97653746136461],[-112.33622161541615,34.97310122260222],[-112.33622161541615,35.14834939948399],[-112.44390043520434,35.14920845917459],[-112.44031114121141,35.26088621895218],[-112.47261478714786,35.238550666996666],[-112.57670431294312,35.243705025140244],[-112.69515101471013,35.3115707406974],[-112.75616901259012,35.30641638255382],[-112.79565124651246,35.32273851667516],[-112.94640159421594,35.35280560584605],[-112.97511594615945,35.393181411304106],[-113.0863840599406,35.45331558964589],[-113.14740205782057,35.4782283206732],[-113.17611640976409,35.5065772904629],[-113.26225946559465,35.52977190210901],[-113.33404534545345,35.528053782727824],[-113.33404534545345,35.82013407753077],[-113.30892028750287,35.88370449463494],[-113.33404534545345,35.912912524115235],[-113.31609887548875,35.96187892647926],[-113.34122393343932,35.98507353812538],[-113.35199181541815,36.05036207461074],[-113.30892028750287,36.09932847697476],[-113.23354511365113,36.089878820378196],[-113.20124146771467,36.120804969239686],[-113.20124146771467,36.15087205841058],[-113.1581699397994,36.174066670056696],[-113.13663417584175,36.166335132841326],[-113.03254465004649,36.23076460963609],[-112.98229453414534,36.23162366932669],[-112.90333006630065,36.25395922128221],[-112.86743712637126,36.282308191071905],[-112.79565124651246,36.2840263104531],[-112.72027607266072,36.34759672755727],[-112.66284736877368,36.351892026010255],[-112.62336513485134,36.40687184620845],[-112.64490089880898,36.460133547025464],[-112.62336513485134,36.48418721836218],[-112.6556687807878,36.51425430753307],[-112.6556687807878,36.55720729206291],[-112.6197758408584,36.60101933628336],[-112.63772231082311,36.6740394099841],[-112.61618654686546,36.729019230182296]]]}},{"type":"Feature","id":"04007","properties":{"name":"Gila","county_fips":"04007","state_abbr":"AZ"},"geometry":{"type":"Polygon","coordinates":[[[-111.55375552495525,34.47141036329363],[-111.47120176311762,34.457665408244075],[-111.5501662309623,34.419007722167215],[-111.46402317513174,34.40955806557065],[-111.43530882318822,34.446497632266315],[-111.41736235322352,34.376913797327965],[-111.39941588325883,34.42845737876378],[-111.3527550613506,34.44134327412274],[-111.30968353343533,34.427598319073184],[-111.24866553555535,34.453370109791095],[-111.209183301633,34.40869900588005],[-111.15175459774598,34.39409499113991],[-111.14816530375303,34.37519567794677],[-111.09791518785187,34.396672170211694],[-111.0189507200072,34.36316884227842],[-110.94716484014839,34.31763867867678],[-110.89691472424724,34.30217560424604],[-110.84666460834607,34.265236037550366],[-110.78923590445903,34.30904808177081],[-110.7497536705367,34.26351791816918],[-110.7497536705367,33.999786593155925],[-109.99959122601226,33.999786593155925],[-109.99959122601226,33.57712922538225],[-109.99959122601226,33.48864607725076],[-110.0570199298993,33.46631052529525],[-110.14316298572984,33.46545146560465],[-110.21494886558865,33.43796155550555],[-110.27596686346862,33.44053873457734],[-110.34057415534154,33.42679377952779],[-110.34775274332743,33.40875352602526],[-110.41594932919328,33.398444809738095],[-110.45184226912268,33.36322336242362],[-110.4446636811368,33.2575590204802],[-110.40518144721446,33.19742484213842],[-110.44825297512975,33.194847663066625],[-110.50568167901679,33.18625706616066],[-110.59182473484734,33.133854425034244],[-110.63130696876968,33.14244502194021],[-110.6779677906779,33.11151887307872],[-110.69232496664966,33.07715648545485],[-110.72462861258612,33.07028400793008],[-110.72821790657906,33.02733102340023],[-110.78205731647316,32.98437803887038],[-110.94716484014839,33.24982748326482],[-110.97587919209191,33.341746870158694],[-111.04048648396483,33.46631052529525],[-111.15175459774598,33.67763920918209],[-111.209183301633,33.633827164961644],[-111.22354047760477,33.60204195640956],[-111.26302271152711,33.622659388983884],[-111.33121929739296,33.687947925469246],[-111.33839788537885,33.718874074330735],[-111.38505870728707,33.749800223192224],[-111.38864800128,33.803061924009235],[-111.3707015313153,33.82367935658356],[-111.41377305923059,33.88467259461594],[-111.4065944712447,33.91989404193041],[-111.44966599915999,33.91989404193041],[-111.44607670516704,34.00150471253712],[-111.49632682106821,33.999786593155925],[-111.49273752707526,34.038444279232785],[-111.46402317513174,34.072806666856664],[-111.49273752707526,34.133799904889045],[-111.47838035110351,34.15098109870098],[-111.7116844606446,34.15098109870098],[-111.6937379906799,34.18104818787187],[-111.70091657866578,34.24032330652306],[-111.66502363873639,34.28585347012469],[-111.66143434474344,34.38636345392453],[-111.55375552495525,34.43962515474154],[-111.55375552495525,34.47141036329363]]]}},{"type":"Feature","id":"04009","properties":{"name":"Graham","county_fips":"04009","state_abbr":"AZ"},"geometry":{"type":"Polygon","coordinates":[[[-109.99959122601226,33.57712922538225],[-109.89191240622405,33.567679568785685],[-109.83448370233701,33.535035300543],[-109.81294793837938,33.483491719107185],[-109.74834064650646,33.48520983848838],[-109.73039417654176,33.52129034549345],[-109.68373335463355,33.54362589744897],[-109.6621975906759,33.584001702907024],[-109.62271535675356,33.583142643216426],[-109.60117959279592,33.61320973238732],[-109.52939371293712,33.622659388983884],[-109.49709006700067,33.652726478154776],[-109.49709006700067,33.07801554514545],[-109.33198254332542,32.84349224961249],[-109.31762536735367,32.84263318992189],[-109.24583948749486,32.74212320612205],[-109.21353584155841,32.68027090839908],[-109.20994654756547,32.58405622305222],[-109.22430372353723,32.529076402854024],[-109.1130356097561,32.42598923998239],[-109.22789301753016,32.4242711206012],[-110.17187733767337,32.42598923998239],[-110.45184226912268,32.42770735936359],[-110.45184226912268,32.513613328423276],[-110.44825297512975,32.51962674625746],[-110.44825297512975,33.194847663066625],[-110.40518144721446,33.19742484213842],[-110.4446636811368,33.2575590204802],[-110.45184226912268,33.36322336242362],[-110.41594932919328,33.398444809738095],[-110.34775274332743,33.40875352602526],[-110.34057415534154,33.42679377952779],[-110.27596686346862,33.44053873457734],[-110.21494886558865,33.43796155550555],[-110.14316298572984,33.46545146560465],[-110.0570199298993,33.46631052529525],[-109.99959122601226,33.48864607725076],[-109.99959122601226,33.57712922538225]]]}},{"type":"Feature","id":"04011","properties":{"name":"Greenlee","county_fips":"04011","state_abbr":"AZ"},"geometry":{"type":"Polygon","coordinates":[[[-109.49709006700067,33.652726478154776],[-109.47914359703596,33.691384164231636],[-109.44325065710656,33.71286065649656],[-109.35351830728307,33.72488749216492],[-109.34633971929719,33.777290133291324],[-109.04842831788318,33.77814919298192],[-109.04842831788318,33.20859261811618],[-109.04842831788318,32.77820371312713],[-109.04842831788318,32.42598923998239],[-109.1130356097561,32.42598923998239],[-109.22430372353723,32.529076402854024],[-109.20994654756547,32.58405622305222],[-109.21353584155841,32.68027090839908],[-109.24583948749486,32.74212320612205],[-109.31762536735367,32.84263318992189],[-109.33198254332542,32.84349224961249],[-109.49709006700067,33.07801554514545],[-109.49709006700067,33.652726478154776]]]}},{"type":"Feature","id":"04012","properties":{"name":"La Paz","county_fips":"04012","state_abbr":"AZ"},"geometry":{"type":"Polygon","coordinates":[[[-114.62619118291182,33.433666257052565],[-114.62260188891888,33.45686086869868],[-114.55799459704596,33.53159906178061],[-114.52569095110951,33.55221649435494],[-114.54004812708126,33.591733240122394],[-114.52569095110951,33.68622980608806],[-114.49697659916599,33.69653852237522],[-114.50415518715187,33.76010893947939],[-114.52928024510244,33.81508875967759],[-114.52569095110951,33.85890080389803],[-114.50415518715187,33.864055162041616],[-114.51133377513774,33.911303445024444],[-114.53645883308832,33.92848463883638],[-114.435958601286,34.02813556294562],[-114.435958601286,34.07967914438144],[-114.42160142531425,34.10373281571815],[-114.32469048750487,34.13637708396083],[-114.28879754757547,34.17073947158471],[-114.22777954969548,34.188779725087244],[-114.22419025570255,34.20510185920859],[-114.13445790587905,34.260940739097386],[-114.13804719987199,34.303034663936636],[-114.08779708397083,34.29873936548365],[-114.03395767407673,34.25922261971619],[-113.92627885428854,34.24891390342903],[-113.8509036804368,34.25063202281022],[-113.84013579845798,34.22486023209232],[-113.73963556665566,34.24032330652306],[-113.67861756877568,34.21025621735217],[-113.58529592495924,34.24290048559485],[-113.53504580905809,34.30904808177081],[-113.36275969739697,34.29444406703067],[-113.33404534545345,34.31763867867678],[-113.33404534545345,33.99892753346533],[-113.33404534545345,33.37782737716377],[-113.95858250022499,33.37782737716377],[-113.95858250022499,33.464592405914054],[-114.26726178361783,33.46373334622346],[-114.26726178361783,33.02990820247202],[-114.51492306913069,33.02733102340023],[-114.57594106701066,33.036780679996795],[-114.60106612496125,33.025612904019034],[-114.64772694686947,33.04708939628396],[-114.65849482884828,33.03248538154381],[-114.70874494474944,33.090901440504396],[-114.68361988679887,33.148458439774394],[-114.67644129881297,33.27044491583915],[-114.73028070870708,33.30566636315363],[-114.69797706277062,33.36150524304242],[-114.72669141471414,33.40531728726287],[-114.64413765287652,33.41648506324063],[-114.62619118291182,33.433666257052565]]]}},{"type":"Feature","id":"04013","properties":{"name":"Maricopa","county_fips":"04013","state_abbr":"AZ"},"geometry":{"type":"Polygon","coordinates":[[[-113.33404534545345,33.37782737716377],[-113.33404534545345,33.99892753346533],[-112.7454011306113,33.999786593155925],[-112.27520361753616,33.88209541554415],[-112.24289997159971,33.90529002719027],[-112.24289997159971,33.941370534195336],[-112.1962391496915,33.97487386212862],[-112.16393550375503,34.04789393582935],[-111.72604163661636,33.999786593155925],[-111.49632682106821,33.999786593155925],[-111.44607670516704,34.00150471253712],[-111.44966599915999,33.91989404193041],[-111.4065944712447,33.91989404193041],[-111.41377305923059,33.88467259461594],[-111.3707015313153,33.82367935658356],[-111.38864800128,33.803061924009235],[-111.38505870728707,33.749800223192224],[-111.33839788537885,33.718874074330735],[-111.33121929739296,33.687947925469246],[-111.26302271152711,33.622659388983884],[-111.22354047760477,33.60204195640956],[-111.209183301633,33.633827164961644],[-111.15175459774598,33.67763920918209],[-111.04048648396483,33.46631052529525],[-111.57888058290582,33.46545146560465],[-111.58246987689876,33.20515637935379],[-112.08497103591036,33.20429731966319],[-112.14957832778327,33.25412278171781],[-112.19264985569855,33.26529055769557],[-112.20341773767737,33.310820721297205],[-112.20341773767737,32.5067408508985],[-113.10791982389823,32.50502273151731],[-113.33404534545345,32.50502273151731],[-113.33404534545345,33.37782737716377]]]}},{"type":"Feature","id":"04015","properties":{"name":"Mohave","county_fips":"04015","state_abbr":"AZ"},"geometry":{"type":"Polygon","coordinates":[[[-114.05190414404143,36.84327416903169],[-114.05190414404143,37.00048209241092],[-113.33404534545345,37.00048209241092],[-112.89974077230772,37.00048209241092],[-112.53722207902078,37.00048209241092],[-112.5300434910349,36.952374749737494],[-112.57311501895018,36.89224057139571],[-112.60900795887959,36.80032118450184],[-112.60900795887959,36.80032118450184],[-112.61618654686546,36.729019230182296],[-112.61618654686546,36.729019230182296],[-112.63772231082311,36.6740394099841],[-112.6197758408584,36.60101933628336],[-112.6556687807878,36.55720729206291],[-112.6556687807878,36.51425430753307],[-112.62336513485134,36.48418721836218],[-112.64490089880898,36.460133547025464],[-112.62336513485134,36.40687184620845],[-112.66284736877368,36.351892026010255],[-112.72027607266072,36.34759672755727],[-112.79565124651246,36.2840263104531],[-112.86743712637126,36.282308191071905],[-112.90333006630065,36.25395922128221],[-112.98229453414534,36.23162366932669],[-113.03254465004649,36.23076460963609],[-113.13663417584175,36.166335132841326],[-113.1581699397994,36.174066670056696],[-113.20124146771467,36.15087205841058],[-113.20124146771467,36.120804969239686],[-113.23354511365113,36.089878820378196],[-113.30892028750287,36.09932847697476],[-113.35199181541815,36.05036207461074],[-113.34122393343932,35.98507353812538],[-113.31609887548875,35.96187892647926],[-113.33404534545345,35.912912524115235],[-113.30892028750287,35.88370449463494],[-113.33404534545345,35.82013407753077],[-113.33404534545345,35.528053782727824],[-113.33404534545345,34.31763867867678],[-113.36275969739697,34.29444406703067],[-113.53504580905809,34.30904808177081],[-113.58529592495924,34.24290048559485],[-113.67861756877568,34.21025621735217],[-113.73963556665566,34.24032330652306],[-113.84013579845798,34.22486023209232],[-113.8509036804368,34.25063202281022],[-113.92627885428854,34.24891390342903],[-114.03395767407673,34.25922261971619],[-114.08779708397083,34.29873936548365],[-114.13804719987199,34.303034663936636],[-114.17752943379433,34.349423887228866],[-114.22777954969548,34.365746021350205],[-114.33904766347663,34.4516519904099],[-114.38570848538485,34.457665408244075],[-114.37852989739896,34.507490870298696],[-114.4718515412154,34.71280613635136],[-114.55440530305303,34.76692689685896],[-114.5795303610036,34.82620201551015],[-114.63695906489065,34.87516841787417],[-114.6333697708977,35.00145019239192],[-114.61183400694006,35.08306086299862],[-114.64772694686947,35.10196017619175],[-114.57235177301773,35.138899742887425],[-114.57235177301773,35.2007520406104],[-114.60465541895418,35.35366466553665],[-114.62619118291182,35.40950354542545],[-114.66567341683417,35.4498793508835],[-114.68003059280592,35.49970481293812],[-114.65849482884828,35.53063096179961],[-114.65849482884828,35.61911410993109],[-114.69079847478474,35.651758378173774],[-114.68003059280592,35.685261706107056],[-114.7051556507565,35.71189255651556],[-114.69438776877769,35.755704600736],[-114.71233423874239,35.80638912248122],[-114.69797706277062,35.85449646515465],[-114.66567341683417,35.87511389772897],[-114.70156635676356,35.901744748137475],[-114.74463788467884,35.98507353812538],[-114.73028070870708,36.02201310482104],[-114.75540576665766,36.090737880068794],[-114.66567341683417,36.117368730477295],[-114.6333697708977,36.14228146150461],[-114.615423300933,36.13025462583625],[-114.57235177301773,36.151731118101175],[-114.51133377513774,36.15087205841058],[-114.50415518715187,36.129395566145654],[-114.4180121313213,36.145717700267],[-114.37135130941309,36.14314052119521],[-114.30674401754017,36.082147283162826],[-114.31392260552605,36.05809361182611],[-114.2385474316743,36.01428156760567],[-114.15240437584376,36.02373122420224],[-114.0662613200132,36.18093914758147],[-114.0483148500485,36.193825042940425],[-114.04472555605555,36.39140877177771],[-114.05190414404143,36.62507300762007],[-114.05190414404143,36.84327416903169]]]}},{"type":"Feature","id":"04017","properties":{"name":"Navajo","county_fips":"04017","state_abbr":"AZ"},"geometry":{"type":"Polygon","coordinates":[[[-110.7497536705367,37.003059271482705],[-110.49132450304502,37.0039183311733],[-110.46978873908739,36.99790491333913],[-109.99959122601226,36.99790491333913],[-109.99959122601226,35.662926154151535],[-109.82730511435113,35.66206709446094],[-109.82730511435113,35.51774506644066],[-109.84525158431583,35.51774506644066],[-109.8416622903229,35.17068495143951],[-109.84525158431583,34.82276577674776],[-109.85243017230172,34.82276577674776],[-109.84884087830878,34.64751759986599],[-109.86678734827348,34.55989351142511],[-109.84884087830878,34.488591557105565],[-109.84884087830878,34.12606836767367],[-109.8596087602876,34.12606836767367],[-109.8596087602876,33.777290133291324],[-109.89191240622405,33.77814919298192],[-109.89191240622405,33.567679568785685],[-109.99959122601226,33.57712922538225],[-109.99959122601226,33.999786593155925],[-110.7497536705367,33.999786593155925],[-110.7497536705367,34.26351791816918],[-110.7497536705367,37.003059271482705]]]}},{"type":"Feature","id":"04019","properties":{"name":"Pima","county_fips":"04019","state_abbr":"AZ"},"geometry":{"type":"Polygon","coordinates":[[[-113.33404534545345,32.50502273151731],[-113.10791982389823,32.50502273151731],[-112.20341773767737,32.5067408508985],[-111.568112700927,32.5067408508985],[-111.3527550613506,32.501586492754925],[-111.15893318573185,32.501586492754925],[-111.15893318573185,32.51103614935149],[-110.8574324903249,32.51103614935149],[-110.84666460834607,32.513613328423276],[-110.45184226912268,32.513613328423276],[-110.45184226912268,32.42770735936359],[-110.44825297512975,32.24988200341003],[-110.45184226912268,31.731009950289497],[-110.85384319633195,31.731869009980095],[-110.85384319633195,31.72671465183651],[-111.16252247972479,31.72585559214592],[-111.16252247972479,31.52139938578385],[-111.36711223732237,31.52139938578385],[-111.36711223732237,31.426043760127598],[-112.36493596735967,31.74131866657666],[-113.12586629386293,31.97240572334723],[-113.33404534545345,32.03855331952319],[-113.33404534545345,32.50502273151731]]]}},{"type":"Feature","id":"04021","properties":{"name":"Pinal","county_fips":"04021","state_abbr":"AZ"},"geometry":{"type":"Polygon","coordinates":[[[-111.04048648396483,33.46631052529525],[-110.97587919209191,33.341746870158694],[-110.94716484014839,33.24982748326482],[-110.78205731647316,32.98437803887038],[-110.72821790657906,33.02733102340023],[-110.72462861258612,33.07028400793008],[-110.69232496664966,33.07715648545485],[-110.6779677906779,33.11151887307872],[-110.63130696876968,33.14244502194021],[-110.59182473484734,33.133854425034244],[-110.50568167901679,33.18625706616066],[-110.44825297512975,33.194847663066625],[-110.44825297512975,32.51962674625746],[-110.45184226912268,32.513613328423276],[-110.84666460834607,32.513613328423276],[-110.8574324903249,32.51103614935149],[-111.15893318573185,32.51103614935149],[-111.15893318573185,32.501586492754925],[-111.3527550613506,32.501586492754925],[-111.568112700927,32.5067408508985],[-112.20341773767737,32.5067408508985],[-112.20341773767737,33.310820721297205],[-112.19264985569855,33.26529055769557],[-112.14957832778327,33.25412278171781],[-112.08497103591036,33.20429731966319],[-111.58246987689876,33.20515637935379],[-111.57888058290582,33.46545146560465],[-111.04048648396483,33.46631052529525]]]}},{"type":"Feature","id":"04023","properties":{"name":"Santa Cruz","county_fips":"04023","state_abbr":"AZ"},"geometry":{"type":"Polygon","coordinates":[[[-110.45184226912268,31.731009950289497],[-110.45184226912268,31.61417783236832],[-110.45902085710857,31.61417783236832],[-110.4626101511015,31.469855804348036],[-110.45902085710857,31.332406253852533],[-111.07637942389424,31.332406253852533],[-111.36711223732237,31.426043760127598],[-111.36711223732237,31.52139938578385],[-111.16252247972479,31.52139938578385],[-111.16252247972479,31.72585559214592],[-110.85384319633195,31.72671465183651],[-110.85384319633195,31.731869009980095],[-110.45184226912268,31.731009950289497]]]}},{"type":"Feature","id":"04025","properties":{"name":"Yavapai","county_fips":"04025","state_abbr":"AZ"},"geometry":{"type":"Polygon","coordinates":[[[-113.33404534545345,35.528053782727824],[-113.26225946559465,35.52977190210901],[-113.17611640976409,35.5065772904629],[-113.14740205782057,35.4782283206732],[-113.0863840599406,35.45331558964589],[-112.97511594615945,35.393181411304106],[-112.94640159421594,35.35280560584605],[-112.79565124651246,35.32273851667516],[-112.75616901259012,35.30641638255382],[-112.69515101471013,35.3115707406974],[-112.57670431294312,35.243705025140244],[-112.47261478714786,35.238550666996666],[-112.44031114121141,35.26088621895218],[-112.44390043520434,35.14920845917459],[-112.33622161541615,35.14834939948399],[-112.33622161541615,34.97310122260222],[-111.80859539845397,34.97653746136461],[-111.77629175251752,34.980832759817595],[-111.77629175251752,34.80300740386403],[-111.55375552495525,34.80214834417344],[-111.55375552495525,34.47141036329363],[-111.55375552495525,34.43962515474154],[-111.66143434474344,34.38636345392453],[-111.66502363873639,34.28585347012469],[-111.70091657866578,34.24032330652306],[-111.6937379906799,34.18104818787187],[-111.7116844606446,34.15098109870098],[-111.47838035110351,34.15098109870098],[-111.49273752707526,34.133799904889045],[-111.46402317513174,34.072806666856664],[-111.49273752707526,34.038444279232785],[-111.49632682106821,33.999786593155925],[-111.72604163661636,33.999786593155925],[-112.16393550375503,34.04789393582935],[-112.1962391496915,33.97487386212862],[-112.24289997159971,33.941370534195336],[-112.24289997159971,33.90529002719027],[-112.27520361753616,33.88209541554415],[-112.7454011306113,33.999786593155925],[-113.33404534545345,33.99892753346533],[-113.33404534545345,34.31763867867678],[-113.33404534545345,35.528053782727824]]]}},{"type":"Feature","id":"04027","properties":{"name":"Yuma","county_fips":"04027","state_abbr":"AZ"},"geometry":{"type":"Polygon","coordinates":[[[-114.71951282672826,32.71892859447594],[-114.70156635676356,32.74555944488444],[-114.615423300933,32.73439166890668],[-114.52569095110951,32.7567272208622],[-114.53286953909539,32.79108960848608],[-114.46826224722247,32.84521036899368],[-114.46467295322952,32.91307608455084],[-114.48261942319422,32.93541163650636],[-114.51492306913069,33.02733102340023],[-114.26726178361783,33.02990820247202],[-114.26726178361783,33.46373334622346],[-113.95858250022499,33.464592405914054],[-113.95858250022499,33.37782737716377],[-113.33404534545345,33.37782737716377],[-113.33404534545345,32.50502273151731],[-113.33404534545345,32.03855331952319],[-113.4919742811428,32.08923784126841],[-114.8128344705447,32.49385495553955],[-114.79488800058,32.55055289511895],[-114.8128344705447,32.56515690985909],[-114.80924517655176,32.61670049129491],[-114.78053082460823,32.63044544634446],[-114.71951282672826,32.71892859447594]]]}}]}