{"type":"FeatureCollection","features":[{"type":"Feature","id":"09001","properties":{"name":"Fairfield","county_fips":"09001","state_abbr":"CT"},"geometry":{"type":"Polygon","coordinates":[[[-73.5431321397214,41.36622344002439],[-73.52877496374964,41.526867602166014],[-73.51800708177082,41.66689433173331],[-73.49647131781317,41.63854536194361],[-73.44622120191201,41.522572303713034],[-73.44263190791908,41.491646154851544],[-73.38520320403204,41.514840766497656],[-73.37443532205322,41.48906897577975],[-73.3098280301803,41.468451543205425],[-73.18779203442034,41.40831736486364],[-73.11600615456155,41.33186105240052],[-73.06934533265333,41.30093490353903],[-73.10882756657567,41.229632949219486],[-73.12318474254742,41.17894842747427],[-73.10882756657567,41.168639711187105],[-73.1303633305333,41.14716321892218],[-73.17702415244152,41.16692159180591],[-73.26316720827208,41.11709612975129],[-73.28829226622265,41.12826390572905],[-73.37084602806028,41.10421023439234],[-73.35289955809557,41.0853109211992],[-73.38879249802498,41.0578210111001],[-73.49288202382024,41.04837135450354],[-73.57184649166491,41.00198213121131],[-73.60415013760138,41.01486802657026],[-73.65798954749548,40.98480093739937],[-73.65440025350253,41.01314990718907],[-73.72618613336134,41.10077399562995],[-73.48211414184142,41.21245175540755],[-73.55031072770727,41.295780545395445],[-73.5431321397214,41.36622344002439]]]}},{"type":"Feature","id":"09003","properties":{"name":"Hartford","county_fips":"09003","state_abbr":"CT"},"geometry":{"type":"Polygon","coordinates":[[[-73.00832733477334,42.03886717776177],[-72.81450545915459,42.03628999868998],[-72.81809475314753,41.99763231261312],[-72.76784463724637,42.0027866707567],[-72.75707675526755,42.03628999868998],[-72.60632640756407,42.031135640546395],[-72.5094154697547,42.034571879308785],[-72.49146899979,41.9478068505585],[-72.51300476374763,41.94522967148671],[-72.51659405774058,41.85674652335523],[-72.49505829378293,41.861041821808215],[-72.50582617576175,41.8094982403724],[-72.47711182381823,41.81293447913478],[-72.44839747187471,41.672048689876895],[-72.40891523795237,41.63081382472824],[-72.40891523795237,41.60246485493854],[-72.46634394183941,41.58356554174541],[-72.50582617576175,41.64713595884958],[-72.71400522735227,41.62737758596585],[-72.71400522735227,41.604182974319734],[-72.75348746127462,41.57927024329243],[-72.80014828318284,41.573256825458245],[-72.84321981109811,41.54490785566855],[-72.8791127510275,41.56294810917108],[-72.94730933689337,41.556934691336906],[-72.9329521609216,41.607619213082124],[-72.94013074890749,41.64455877977779],[-72.98320227682277,41.63940442163421],[-73.01550592275923,41.79833046439464],[-72.94730933689337,41.80606200161001],[-72.95448792487925,41.854169344283434],[-72.94013074890749,41.89540420943209],[-72.9150056909569,41.89712232881328],[-72.88629133901338,41.97271958158581],[-73.02986309873098,41.96670616375163],[-73.00832733477334,42.03886717776177]]]}},{"type":"Feature","id":"09005","properties":{"name":"Litchfield","county_fips":"09005","state_abbr":"CT"},"geometry":{"type":"Polygon","coordinates":[[[-73.48570343583435,42.050034953739534],[-73.43186402594026,42.050894013430124],[-73.05498815668156,42.03972623745237],[-73.00832733477334,42.03886717776177],[-73.02986309873098,41.96670616375163],[-72.88629133901338,41.97271958158581],[-72.9150056909569,41.89712232881328],[-72.94013074890749,41.89540420943209],[-72.95448792487925,41.854169344283434],[-72.94730933689337,41.80606200161001],[-73.01550592275923,41.79833046439464],[-72.98320227682277,41.63940442163421],[-73.0585774506745,41.60676015339153],[-73.0944703906039,41.56982058669586],[-73.1662562704627,41.556934691336906],[-73.15548838848389,41.51569982618825],[-73.32059591215912,41.503672990519895],[-73.3098280301803,41.468451543205425],[-73.37443532205322,41.48906897577975],[-73.38520320403204,41.514840766497656],[-73.44263190791908,41.491646154851544],[-73.44622120191201,41.522572303713034],[-73.49647131781317,41.63854536194361],[-73.51800708177082,41.66689433173331],[-73.48570343583435,42.050034953739534]]]}},{"type":"Feature","id":"09007","properties":{"name":"Middlesex","county_fips":"09007","state_abbr":"CT"},"geometry":{"type":"Polygon","coordinates":[[[-72.46634394183941,41.58356554174541],[-72.43404029590296,41.5320219603096],[-72.32277218212182,41.534599139381385],[-72.30482571215713,41.43666633465334],[-72.43404029590296,41.42378043929438],[-72.42327241392414,41.39027711136111],[-72.3837901800018,41.38512275321752],[-72.38020088600886,41.34990130590305],[-72.3478972400724,41.32412951518514],[-72.34071865208652,41.280317470964704],[-72.38737947399474,41.26141815777157],[-72.39814735597356,41.27859935158351],[-72.45198676586766,41.27859935158351],[-72.53812982169822,41.25540473993739],[-72.5453084096841,41.280317470964704],[-72.61350499554996,41.330142933019324],[-72.61350499554996,41.38598181290812],[-72.65298722947229,41.438384454034534],[-72.74630887328873,41.42292137960379],[-72.73554099130992,41.48563273701736],[-72.75348746127462,41.57927024329243],[-72.71400522735227,41.604182974319734],[-72.71400522735227,41.62737758596585],[-72.50582617576175,41.64713595884958],[-72.46634394183941,41.58356554174541]]]}},{"type":"Feature","id":"09009","properties":{"name":"New Haven","county_fips":"09009","state_abbr":"CT"},"geometry":{"type":"Polygon","coordinates":[[[-72.98320227682277,41.63940442163421],[-72.94013074890749,41.64455877977779],[-72.9329521609216,41.607619213082124],[-72.94730933689337,41.556934691336906],[-72.8791127510275,41.56294810917108],[-72.84321981109811,41.54490785566855],[-72.80014828318284,41.573256825458245],[-72.75348746127462,41.57927024329243],[-72.73554099130992,41.48563273701736],[-72.74630887328873,41.42292137960379],[-72.65298722947229,41.438384454034534],[-72.61350499554996,41.38598181290812],[-72.61350499554996,41.330142933019324],[-72.5453084096841,41.280317470964704],[-72.53812982169822,41.25540473993739],[-72.57043346763467,41.268290635296346],[-72.66375511145111,41.26914969498694],[-72.6888801694017,41.24681414303142],[-72.75348746127462,41.26657251591515],[-72.8970592209922,41.24337790426904],[-72.90782710297103,41.29492148570485],[-72.94013074890749,41.280317470964704],[-73.00832733477334,41.20987457633576],[-73.05139886268863,41.20987457633576],[-73.10882756657567,41.168639711187105],[-73.12318474254742,41.17894842747427],[-73.10882756657567,41.229632949219486],[-73.06934533265333,41.30093490353903],[-73.11600615456155,41.33186105240052],[-73.18779203442034,41.40831736486364],[-73.3098280301803,41.468451543205425],[-73.32059591215912,41.503672990519895],[-73.15548838848389,41.51569982618825],[-73.1662562704627,41.556934691336906],[-73.0944703906039,41.56982058669586],[-73.0585774506745,41.60676015339153],[-72.98320227682277,41.63940442163421]]]}},{"type":"Feature","id":"09011","properties":{"name":"New London","county_fips":"09011","state_abbr":"CT"},"geometry":{"type":"Polygon","coordinates":[[[-72.46634394183941,41.58356554174541],[-72.40891523795237,41.60246485493854],[-72.32636147611476,41.60504203401033],[-72.33354006410065,41.64369972008719],[-72.26534347823478,41.67720304802047],[-72.24021842028421,41.71414261471614],[-72.15766465844658,41.657444675136745],[-72.1504860704607,41.66775339142391],[-71.94948560685607,41.634250063490626],[-71.85616396303963,41.64455877977779],[-71.78796737717377,41.64026348132481],[-71.78796737717377,41.59645143710436],[-71.7987352591526,41.41690796176961],[-71.84180678706787,41.41003548424484],[-71.83103890508904,41.34474694775947],[-71.85975325703257,41.31983421673216],[-71.88487831498315,41.3361563508535],[-71.94589631286313,41.337874470234695],[-72.02127148671487,41.31725703766037],[-72.08587877858778,41.31983421673216],[-72.132539600496,41.299216784157835],[-72.18996830438304,41.32327045549455],[-72.21150406834069,41.291485246942464],[-72.34071865208652,41.280317470964704],[-72.3478972400724,41.32412951518514],[-72.38020088600886,41.34990130590305],[-72.3837901800018,41.38512275321752],[-72.42327241392414,41.39027711136111],[-72.43404029590296,41.42378043929438],[-72.30482571215713,41.43666633465334],[-72.32277218212182,41.534599139381385],[-72.43404029590296,41.5320219603096],[-72.46634394183941,41.58356554174541]]]}},{"type":"Feature","id":"09013","properties":{"name":"Tolland","county_fips":"09013","state_abbr":"CT"},"geometry":{"type":"Polygon","coordinates":[[[-72.5094154697547,42.034571879308785],[-72.13612889448895,42.030276580855805],[-72.10382524855248,42.02855846147461],[-72.10023595455954,41.95897462653626],[-72.21868265632656,41.95811556684566],[-72.21868265632656,41.8352700310903],[-72.16484324643247,41.8352700310903],[-72.15766465844658,41.753659360483596],[-72.24021842028421,41.71414261471614],[-72.26534347823478,41.67720304802047],[-72.33354006410065,41.64369972008719],[-72.32636147611476,41.60504203401033],[-72.40891523795237,41.60246485493854],[-72.40891523795237,41.63081382472824],[-72.44839747187471,41.672048689876895],[-72.47711182381823,41.81293447913478],[-72.50582617576175,41.8094982403724],[-72.49505829378293,41.861041821808215],[-72.51659405774058,41.85674652335523],[-72.51300476374763,41.94522967148671],[-72.49146899979,41.9478068505585],[-72.5094154697547,42.034571879308785]]]}},{"type":"Feature","id":"09015","properties":{"name":"Windham","county_fips":"09015","state_abbr":"CT"},"geometry":{"type":"Polygon","coordinates":[[[-72.10382524855248,42.02855846147461],[-71.80232455314552,42.023404103331025],[-71.7987352591526,42.007941028900284],[-71.7987352591526,41.91602164200641],[-71.78796737717377,41.7253103906939],[-71.78796737717377,41.64026348132481],[-71.85616396303963,41.64455877977779],[-71.94948560685607,41.634250063490626],[-72.1504860704607,41.66775339142391],[-72.15766465844658,41.657444675136745],[-72.24021842028421,41.71414261471614],[-72.15766465844658,41.753659360483596],[-72.16484324643247,41.8352700310903],[-72.21868265632656,41.8352700310903],[-72.21868265632656,41.95811556684566],[-72.10023595455954,41.95897462653626],[-72.10382524855248,42.02855846147461]]]}}]}