{"type":"FeatureCollection","features":[{"type":"Feature","id":"11001","properties":{"name":"District of Columbia","county_fips":"11001","state_abbr":"DC"},"geometry":{"type":"Polygon","coordinates":[[[-77.11806895668957,38.934225455944556],[-77.04269378283783,38.99435963428633],[-77.00321154891549,38.96515160480604],[-76.90988990509905,38.892990590795904],[-77.03910448884488,38.79162154730547],[-77.04269378283783,38.83972888997889],[-77.03910448884488,38.87151409853098],[-77.11806895668957,38.934225455944556]]]}}]}