{"type":"FeatureCollection","features":[{"type":"Feature","id":"10001","properties":{"name":"Kent","county_fips":"10001","state_abbr":"DE"},"geometry":{"type":"Polygon","coordinates":[[[-75.76131582735827,39.29674864537645],[-75.66440488954889,39.29073522754227],[-75.58544042170422,39.308775481044805],[-75.55313677576775,39.35430564464644],[-75.51365454184541,39.3654734206242],[-75.43827936799367,39.313070779497785],[-75.40238642806428,39.2546547205372],[-75.39161854608545,39.204829258482576],[-75.40956501605015,39.174762169311684],[-75.40238642806428,39.066520648296475],[-75.34495772417723,39.02528578314782],[-75.31265407824078,38.94625229161291],[-75.38085066410665,38.961715366043656],[-75.40238642806428,38.91876238151381],[-75.48494018990189,38.904158366773665],[-75.5208331298313,38.85605102410023],[-75.5567260697607,38.835433591525906],[-75.72183359343593,38.83027923338233],[-75.7469586513865,39.142976960759604],[-75.75772653336533,39.24606412363123],[-75.76131582735827,39.29674864537645]]]}},{"type":"Feature","id":"10003","properties":{"name":"New Castle","county_fips":"10003","state_abbr":"DE"},"geometry":{"type":"MultiPolygon","coordinates":[[[[-75.56031536375363,39.63006380532805],[-75.5567260697607,39.60601013399133],[-75.56031536375363,39.63006380532805],[-75.56031536375363,39.63006380532805]]],[[[-75.7900301793018,39.72198319222191],[-75.71824429944299,39.79242608685086],[-75.66440488954889,39.821634116331154],[-75.59620830368303,39.8370971907619],[-75.49929736587366,39.83366095199951],[-75.41674360403604,39.801875743447425],[-75.4131543100431,39.794144206232055],[-75.45981513195132,39.76579523644236],[-75.47776160191601,39.713392595315945],[-75.51006524785248,39.685902685216845],[-75.53160101181011,39.69191610305102],[-75.6105654796548,39.62233226811267],[-75.60338689166892,39.5888289401794],[-75.56390465774658,39.56219808977089],[-75.56031536375363,39.520104164931645],[-75.58902971569715,39.49605049359493],[-75.58902971569715,39.46082904628046],[-75.538779599796,39.416157942369416],[-75.51365454184541,39.3654734206242],[-75.55313677576775,39.35430564464644],[-75.58544042170422,39.308775481044805],[-75.66440488954889,39.29073522754227],[-75.76131582735827,39.29674864537645],[-75.76849441534415,39.37750025629256],[-75.7900301793018,39.64810405883058],[-75.7900301793018,39.72198319222191]]]]}},{"type":"Feature","id":"10005","properties":{"name":"Sussex","county_fips":"10005","state_abbr":"DE"},"geometry":{"type":"Polygon","coordinates":[[[-75.72183359343593,38.83027923338233],[-75.5567260697607,38.835433591525906],[-75.5208331298313,38.85605102410023],[-75.48494018990189,38.904158366773665],[-75.40238642806428,38.91876238151381],[-75.38085066410665,38.961715366043656],[-75.31265407824078,38.94625229161291],[-75.3054754902549,38.91274896367963],[-75.19061808248082,38.80708462173621],[-75.13318937859378,38.7821718907089],[-75.09729643866439,38.80278932328323],[-75.08293926269262,38.77186317442174],[-75.06499279272792,38.66104447433474],[-75.05063561675617,38.45143390982909],[-75.3413684301843,38.45229296951969],[-75.69311924149241,38.46002450673506],[-75.70029782947829,38.5605344905349],[-75.70747641746418,38.63527268361683],[-75.72183359343593,38.83027923338233]]]}}]}