{"type":"FeatureCollection","features":[{"type":"Feature","id":"12001","properties":{"name":"Alachua","county_fips":"12001","state_abbr":"FL"},"geometry":{"type":"Polygon","coordinates":[[[-82.65993888178882,29.829910854998545],[-82.58815300193001,29.86685042169421],[-82.5773851199512,29.914957764367635],[-82.53072429804298,29.940729555085547],[-82.41945618426183,29.922689301583013],[-82.3979204203042,29.887467854268536],[-82.33690242242422,29.878877257362568],[-82.2722951305513,29.8427967503575],[-82.18974136871368,29.84795110850108],[-82.13231266482664,29.83592427283272],[-82.11077690086901,29.782662572015717],[-82.07847325493255,29.775790094490937],[-82.0569374909749,29.718233095220945],[-82.05334819698197,29.669266692856922],[-82.0569374909749,29.470823904329038],[-82.0569374909749,29.43989775546755],[-82.13590195881959,29.43474339732397],[-82.19333066270663,29.420998442274417],[-82.21127713267133,29.430448098870983],[-82.21127713267133,29.483709799687993],[-82.40509900829008,29.48542791906919],[-82.55584935599356,29.480273560925603],[-82.55584935599356,29.537830560195594],[-82.65634958779587,29.53525338112381],[-82.65634958779587,29.564461410604103],[-82.65634958779587,29.822179317783174],[-82.65993888178882,29.829910854998545]]]}},{"type":"Feature","id":"12003","properties":{"name":"Baker","county_fips":"12003","state_abbr":"FL"},"geometry":{"type":"Polygon","coordinates":[[[-82.45893841818418,30.584165263342626],[-82.41945618426183,30.581588084270834],[-82.21486642666426,30.568702188911885],[-82.23281289662896,30.556675353243527],[-82.22563430864308,30.507708950879504],[-82.2005092506925,30.485373398923983],[-82.21127713267133,30.4243801608916],[-82.17179489874898,30.35909162440624],[-82.10359831288312,30.368541281002805],[-82.04975890298903,30.362527863168623],[-82.04975890298903,30.273185655346545],[-82.04975890298903,30.187279686286857],[-82.04975890298903,30.143467642066412],[-82.14308054680546,30.143467642066412],[-82.45893841818418,30.13659516454164],[-82.45893841818418,30.584165263342626]]]}},{"type":"Feature","id":"12005","properties":{"name":"Bay","county_fips":"12005","state_abbr":"FL"},"geometry":{"type":"Polygon","coordinates":[[[-85.99439300123001,30.38915871357713],[-85.96567864928649,30.410635205842055],[-85.88312488744887,30.410635205842055],[-85.85441053550535,30.440702295012947],[-85.48830254822548,30.43640699655996],[-85.48471325423255,30.567843129221288],[-85.43446313833138,30.567843129221288],[-85.38421302243022,30.56698406953069],[-85.39139161041611,30.20102464133641],[-85.38780231642316,29.924407420964208],[-85.4272845503455,29.950179211682112],[-85.48830254822548,29.961346987659873],[-85.54214195811957,29.995709375283745],[-85.59957066200661,30.056702613316126],[-85.696481599816,30.09707841877418],[-85.77544606766067,30.156353537425368],[-85.92260712137121,30.237964208032075],[-85.99439300123001,30.268890356893564],[-85.99439300123001,30.38915871357713]]]}},{"type":"Feature","id":"12007","properties":{"name":"Bradford","county_fips":"12007","state_abbr":"FL"},"geometry":{"type":"Polygon","coordinates":[[[-82.41945618426183,29.922689301583013],[-82.3081880704807,29.956192629516288],[-82.26152724857248,30.02835364352643],[-82.22563430864308,30.034367061360605],[-82.14666984079841,30.109964314133137],[-82.14308054680546,30.143467642066412],[-82.04975890298903,30.143467642066412],[-82.04616960899608,29.74744112470124],[-82.04975890298903,29.719092154911543],[-82.0569374909749,29.718233095220945],[-82.07847325493255,29.775790094490937],[-82.11077690086901,29.782662572015717],[-82.13231266482664,29.83592427283272],[-82.18974136871368,29.84795110850108],[-82.2722951305513,29.8427967503575],[-82.33690242242422,29.878877257362568],[-82.3979204203042,29.887467854268536],[-82.41945618426183,29.922689301583013]]]}},{"type":"Feature","id":"12009","properties":{"name":"Brevard","county_fips":"12009","state_abbr":"FL"},"geometry":{"type":"Polygon","coordinates":[[[-80.73248800758007,28.791307689066883],[-80.71095224362243,28.75694530144301],[-80.57455907189072,28.585133363323628],[-80.56020189591895,28.53101260281602],[-80.52430895598955,28.459710648496483],[-80.58891624786247,28.41074424613246],[-80.60327342383424,28.364355022840222],[-80.60686271782717,28.289616829758295],[-80.58891624786247,28.177939069980695],[-80.56738048390484,28.09546933968339],[-80.5099517800178,27.970905684546842],[-80.44534448814488,27.860946044150438],[-80.4920053100531,27.854932626316256],[-80.5099517800178,27.82228835807358],[-80.86888117931178,27.82228835807358],[-80.86888117931178,28.08430156370563],[-80.86170259132591,28.092033100921007],[-80.86170259132591,28.347173829028286],[-80.90118482524825,28.433079798087974],[-80.87247047330473,28.471737484164834],[-80.8796490612906,28.50352269271692],[-80.9334884711847,28.540462259412593],[-80.95143494114942,28.604891736207357],[-80.98732788107881,28.612623273422727],[-80.96579211712117,28.612623273422727],[-80.96938141111411,28.790448629376286],[-80.73248800758007,28.791307689066883]]]}},{"type":"Feature","id":"12011","properties":{"name":"Broward","county_fips":"12011","state_abbr":"FL"},"geometry":{"type":"Polygon","coordinates":[[[-80.8796490612906,26.333537914269137],[-80.29818343443434,26.334396973959734],[-80.29818343443434,26.35501440653406],[-80.2048617906179,26.32752449643496],[-80.07564720687206,26.32065201891018],[-80.09000438284383,26.2321688707787],[-80.11871873478735,25.975310023290227],[-80.2945941404414,25.97015566514665],[-80.30895131641316,25.957269769787693],[-80.67864859768598,25.957269769787693],[-80.67864859768598,25.978746262052617],[-80.87247047330473,25.979605321743215],[-80.8796490612906,26.259658780877807],[-80.8796490612906,26.333537914269137]]]}},{"type":"Feature","id":"12013","properties":{"name":"Calhoun","county_fips":"12013","state_abbr":"FL"},"geometry":{"type":"Polygon","coordinates":[[[-85.38421302243022,30.56698406953069],[-85.17244467684677,30.564406890458898],[-85.16885538285382,30.608218934679343],[-84.9319619793198,30.606500815298148],[-84.98939068320684,30.52489014469144],[-85.00015856518564,30.45616536944369],[-84.98221209522094,30.441561354703545],[-85.03246221112211,30.42008486243862],[-85.01451574115741,30.40891708646086],[-85.08271232702327,30.22851455143551],[-85.11501597295972,30.200165581645813],[-85.39139161041611,30.20102464133641],[-85.38421302243022,30.56698406953069]]]}},{"type":"Feature","id":"12015","properties":{"name":"Charlotte","county_fips":"12015","state_abbr":"FL"},"geometry":{"type":"Polygon","coordinates":[[[-82.37638465634656,26.946047473664734],[-82.2543486605866,26.945188413974137],[-82.2543486605866,27.03281250241502],[-82.0569374909749,27.031953442724422],[-81.98156231712316,27.035389681486812],[-81.56161491994919,27.033671562105617],[-81.56520421394214,26.769940237092364],[-82.06052678496785,26.77079929678296],[-82.05334819698197,26.802584505335048],[-82.06052678496785,26.876463638726385],[-82.08924113691137,26.888490474394736],[-82.08924113691137,26.922852862018615],[-82.06052678496785,26.931443458924583],[-82.0748839609396,26.958074309333085],[-82.11795548885489,26.954638070570702],[-82.13590195881959,26.926289100781005],[-82.17538419274193,26.91683944418444],[-82.14666984079841,26.789698609976092],[-82.2184557206572,26.769081177401766],[-82.2722951305513,26.789698609976092],[-82.290241600516,26.827497236362362],[-82.37638465634656,26.946047473664734]]]}},{"type":"Feature","id":"12017","properties":{"name":"Citrus","county_fips":"12017","state_abbr":"FL"},"geometry":{"type":"Polygon","coordinates":[[[-82.53431359203591,29.044730297792974],[-82.45893841818418,29.047307476864766],[-82.41945618426183,29.012945089240887],[-82.34049171641716,28.98803235821358],[-82.31177736447364,28.960542448114474],[-82.2722951305513,28.896972031010307],[-82.1825627807278,28.821374778237775],[-82.16820560475604,28.79302580844808],[-82.18974136871368,28.758663420824206],[-82.25075936659367,28.717428555675554],[-82.26152724857248,28.667603093620933],[-82.41945618426183,28.665884974239738],[-82.41945618426183,28.695093003720032],[-82.6671174697747,28.694233944029435],[-82.71377829168291,28.720864794437936],[-82.69942111571116,28.75694530144301],[-82.73172476164761,28.85058280771807],[-82.68865323373234,28.905562627916275],[-82.73531405564056,28.97342834347343],[-82.76043911359113,28.993186716357158],[-82.71377829168291,29.03098534274342],[-82.68865323373234,29.033562521815213],[-82.6132780598806,29.009508850478497],[-82.5953315899159,29.030126283052823],[-82.53431359203591,29.044730297792974]]]}},{"type":"Feature","id":"12019","properties":{"name":"Clay","county_fips":"12019","state_abbr":"FL"},"geometry":{"type":"Polygon","coordinates":[[[-82.04975890298903,30.187279686286857],[-81.68006162171622,30.190715925049247],[-81.68006162171622,30.121132090110898],[-81.69082950369503,30.04295765826658],[-81.68365091570915,30.01632680785807],[-81.60468644786448,29.96220604735047],[-81.60827574185741,29.915816824058233],[-81.57956138991389,29.840219571285708],[-81.81286549945499,29.836783332523318],[-81.86311561535615,29.799843765827653],[-81.90977643726437,29.793830347993477],[-81.93849078920789,29.74744112470124],[-82.00668737507375,29.73970958748587],[-82.04975890298903,29.719092154911543],[-82.04616960899608,29.74744112470124],[-82.04975890298903,30.143467642066412],[-82.04975890298903,30.187279686286857]]]}},{"type":"Feature","id":"12021","properties":{"name":"Collier","county_fips":"12021","state_abbr":"FL"},"geometry":{"type":"Polygon","coordinates":[[[-81.84516914539145,26.330101675506754],[-81.82004408744088,26.3163567204572],[-81.65852585775858,26.317215780147798],[-81.65852585775858,26.42116200271002],[-81.56161491994919,26.422880122091215],[-81.56520421394214,26.51308138960389],[-81.27088210652106,26.517376688056878],[-81.26729281252813,26.252786303353027],[-80.8796490612906,26.259658780877807],[-80.87247047330473,25.979605321743215],[-80.87247047330473,25.80521620455204],[-81.46829327613275,25.803498085170844],[-81.4718825701257,25.817243040220397],[-81.54725774397744,25.84988730846308],[-81.62263291782918,25.89713559144591],[-81.66211515175152,25.88596781546815],[-81.69082950369503,25.852464487534874],[-81.74825820758207,25.960706008550083],[-81.80209761747618,26.087846842758424],[-81.82004408744088,26.236464169231688],[-81.84516914539145,26.330101675506754]]]}},{"type":"Feature","id":"12023","properties":{"name":"Columbia","county_fips":"12023","state_abbr":"FL"},"geometry":{"type":"Polygon","coordinates":[[[-82.79992134751348,29.93213895817958],[-82.76043911359113,29.965642286112853],[-82.7927427595276,29.98625971868718],[-82.79633205352053,30.33675607245072],[-82.74608193761938,30.31699769956699],[-82.68865323373234,30.33331983368833],[-82.64558170581705,30.395172131411307],[-82.66352817578175,30.453588190371896],[-82.69942111571116,30.47506468263682],[-82.72813546765467,30.55925253231532],[-82.68865323373234,30.59791021839218],[-82.58456370793708,30.591896800557997],[-82.45893841818418,30.584165263342626],[-82.45893841818418,30.13659516454164],[-82.45534912419124,30.10566901568015],[-82.51995641606416,30.075601926509258],[-82.54508147401474,30.01976304662046],[-82.5773851199512,29.990555017140167],[-82.53072429804298,29.940729555085547],[-82.5773851199512,29.914957764367635],[-82.58815300193001,29.86685042169421],[-82.65993888178882,29.829910854998545],[-82.73531405564056,29.859977944169437],[-82.76761770157701,29.8969175108651],[-82.77120699556995,29.92784365972659],[-82.79992134751348,29.93213895817958]]]}},{"type":"Feature","id":"12027","properties":{"name":"DeSoto","county_fips":"12027","state_abbr":"FL"},"geometry":{"type":"Polygon","coordinates":[[[-82.0569374909749,27.208060679296786],[-82.0569374909749,27.338637752267516],[-81.56520421394214,27.34035587164871],[-81.56161491994919,27.033671562105617],[-81.98156231712316,27.035389681486812],[-82.0569374909749,27.031953442724422],[-82.0569374909749,27.208060679296786]]]}},{"type":"Feature","id":"12029","properties":{"name":"Dixie","county_fips":"12029","state_abbr":"FL"},"geometry":{"type":"Polygon","coordinates":[[[-83.4136906203062,29.66668951378513],[-83.36702979839798,29.665830454094532],[-83.33831544645446,29.760327020060195],[-83.32036897648976,29.77836727356273],[-83.32036897648976,29.82303837747377],[-82.92195734327343,29.82389743716437],[-82.92195734327343,29.794689407684075],[-82.95067169521695,29.75431360222602],[-82.93990381323813,29.70105190140901],[-82.97220745917458,29.624595588945887],[-82.95426098920989,29.58593790286902],[-82.93631451924519,29.591092261012605],[-82.97579675316753,29.541266798957984],[-82.9829753411534,29.470823904329038],[-83.0260468690687,29.42013938258382],[-83.02245757507575,29.399521950009493],[-83.06552910299102,29.37289109960099],[-83.06193980899809,29.349696487954873],[-83.11936851288513,29.317052219712195],[-83.14090427684276,29.32392469723697],[-83.16602933479335,29.28870324992249],[-83.17679721677216,29.344542129811295],[-83.20192227472275,29.394367591865915],[-83.24140450864509,29.433025277942775],[-83.29524391853919,29.438179636086353],[-83.31319038850388,29.475978262472623],[-83.39933344433445,29.517213127621268],[-83.39933344433445,29.61256875327753],[-83.4136906203062,29.66668951378513]]]}},{"type":"Feature","id":"12031","properties":{"name":"Duval","county_fips":"12031","state_abbr":"FL"},"geometry":{"type":"Polygon","coordinates":[[[-82.04975890298903,30.273185655346545],[-81.83081196941968,30.46733314542145],[-81.76261538355384,30.535198860978603],[-81.73749032560325,30.534339801288006],[-81.7231331496315,30.57213842767427],[-81.6692937397374,30.560970651696515],[-81.60468644786448,30.585024323033224],[-81.61186503585036,30.554098174171735],[-81.58315068390684,30.564406890458898],[-81.57597209592096,30.537776040050396],[-81.52931127401274,30.526608264072635],[-81.51495409804097,30.56698406953069],[-81.44316821818218,30.510286129951297],[-81.41086457224571,30.4819371601616],[-81.39650739627396,30.400326489554892],[-81.39291810228102,30.303252744517437],[-81.37856092630926,30.252568222772226],[-81.4359896301963,30.252568222772226],[-81.43240033620336,30.10566901568015],[-81.54007915599156,30.103950896298954],[-81.54007915599156,30.1202730304203],[-81.62263291782918,30.134017985469846],[-81.68006162171622,30.121132090110898],[-81.68006162171622,30.190715925049247],[-82.04975890298903,30.187279686286857],[-82.04975890298903,30.273185655346545]]]}},{"type":"Feature","id":"12033","properties":{"name":"Escambia","county_fips":"12033","state_abbr":"FL"},"geometry":{"type":"Polygon","coordinates":[[[-87.59880741607415,30.99737297451974],[-87.16450284292843,30.999091093900937],[-87.22911013480135,30.961292467514667],[-87.25423519275192,30.931225378343775],[-87.28653883868839,30.9252119605096],[-87.28294954469544,30.888272393813935],[-87.3152531906319,30.847037528665282],[-87.29371742667426,30.812675141041403],[-87.31166389663896,30.7869033503235],[-87.30089601466014,30.719037634766345],[-87.27218166271662,30.71731951538515],[-87.25782448674487,30.611655173441726],[-87.21116366483665,30.554957233862332],[-87.15732425494255,30.535198860978603],[-87.12502060900609,30.499977413664134],[-87.1537349609496,30.40548084769847],[-87.22911013480135,30.384004355433547],[-87.23269942879429,30.348782908119077],[-87.17886001890018,30.334178893378926],[-87.07477049310492,30.362527863168623],[-86.92043085140851,30.38658153450534],[-86.92043085140851,30.370259400384],[-87.1537349609496,30.32816547554475],[-87.26859236872369,30.315279580185795],[-87.29371742667426,30.323870177091763],[-87.51984294822948,30.280058132871325],[-87.46600353833539,30.302393684826846],[-87.49112859628596,30.323011117401165],[-87.4588249503495,30.33589701276012],[-87.43011059840597,30.406339907389068],[-87.36550330653306,30.43640699655996],[-87.43728918639187,30.480219040780405],[-87.44805706837069,30.527467323763233],[-87.39421765847658,30.615091412204116],[-87.4049855404554,30.674366530855302],[-87.53420012420123,30.743091306103054],[-87.54496800618006,30.77831275341753],[-87.62752176801767,30.846178468974685],[-87.63470035600356,30.865936841858414],[-87.58803953409534,30.964728706277057],[-87.59880741607415,30.99737297451974]]]}},{"type":"Feature","id":"12035","properties":{"name":"Flagler","county_fips":"12035","state_abbr":"FL"},"geometry":{"type":"Polygon","coordinates":[[[-81.52213268602685,29.622018409874094],[-81.32472151641517,29.625454648636484],[-81.26729281252813,29.663253275022747],[-81.21345340263403,29.670984812238117],[-81.10218528885288,29.427011860108593],[-81.15602469874699,29.410689725987254],[-81.1488461107611,29.266367697966977],[-81.4180431602316,29.261213339823392],[-81.42163245422454,29.399521950009493],[-81.43240033620336,29.398662890318896],[-81.47547186411863,29.3969447709377],[-81.48623974609745,29.44591117330173],[-81.52213268602685,29.500031933809332],[-81.52213268602685,29.622018409874094]]]}},{"type":"Feature","id":"12037","properties":{"name":"Franklin","county_fips":"12037","state_abbr":"FL"},"geometry":{"type":"MultiPolygon","coordinates":[[[[-84.66994351783518,29.794689407684075],[-84.56585399203992,29.835065213142123],[-84.56585399203992,29.810152482114816],[-84.62328269592696,29.77836727356273],[-84.66276492984929,29.77321291541915],[-84.66994351783518,29.794689407684075]]],[[[-85.02528362313623,29.971655703947036],[-85.00733715317153,30.013749628786286],[-84.54431822808228,30.011172449714493],[-84.51560387613875,29.988836897758972],[-84.46894305423054,30.001722793117928],[-84.43663940829408,29.976810062090614],[-84.3397284704847,29.960487927969275],[-84.34331776447765,29.899494689936894],[-84.37921070440704,29.89348127210272],[-84.43305011430114,29.906367167461667],[-84.45099658426584,29.92870271941719],[-84.5371396400964,29.909803406224057],[-84.64840775387754,29.84709204881048],[-84.88171186341863,29.733696169651694],[-84.90324762737627,29.73541428903288],[-84.87812256942568,29.77321291541915],[-84.9140155093551,29.783521631706314],[-84.93914056730567,29.750018303773032],[-84.99297997719977,29.714796856458563],[-85.1221945609456,29.715655916149153],[-85.07553373903738,29.67356199130991],[-85.0683551510515,29.640917723067226],[-85.01092644716447,29.622018409874094],[-84.90324762737627,29.667548573475727],[-84.79915810158101,29.701910961099607],[-84.70224716377163,29.77407197510975],[-84.69147928179281,29.762904199131988],[-84.77762233762337,29.69246130450304],[-84.87812256942568,29.655521737807376],[-85.00374785917859,29.598823798227976],[-85.04681938709386,29.586796962559617],[-85.08271232702327,29.61514593234932],[-85.1401410309103,29.634045245542453],[-85.22628408674086,29.67785728976289],[-85.20474832278323,29.711360617696172],[-85.10783738497385,29.776649154181534],[-85.03964079910799,29.780085392943924],[-85.02169432914329,29.807575303043023],[-85.05399797507975,29.910662465914655],[-85.01810503515034,29.95103827137271],[-85.02528362313623,29.971655703947036]]]]}},{"type":"Feature","id":"12039","properties":{"name":"Gadsden","county_fips":"12039","state_abbr":"FL"},"geometry":{"type":"Polygon","coordinates":[[[-84.86376539345393,30.711306097550967],[-84.37921070440704,30.68982960528605],[-84.28229976659766,30.685534306833063],[-84.33613917649176,30.596192099010985],[-84.37203211642117,30.580729024580243],[-84.38997858638587,30.529185443144428],[-84.38997858638587,30.529185443144428],[-84.39715717437174,30.483655279542788],[-84.41869293832939,30.46389690665906],[-84.5191931701317,30.451870070990708],[-84.64481845988459,30.388299653886534],[-84.680711399814,30.388299653886534],[-84.680711399814,30.41750768336683],[-84.71301504575045,30.41750768336683],[-84.71301504575045,30.460460667896676],[-84.78121163161632,30.45960160820608],[-84.78121163161632,30.518876726857265],[-84.81710457154571,30.53348074159741],[-84.88171186341863,30.53348074159741],[-84.88171186341863,30.60564175560755],[-84.9319619793198,30.606500815298148],[-84.9068369213692,30.619386710657103],[-84.86376539345393,30.711306097550967]]]}},{"type":"Feature","id":"12041","properties":{"name":"Gilchrist","county_fips":"12041","state_abbr":"FL"},"geometry":{"type":"Polygon","coordinates":[[[-82.92195734327343,29.82389743716437],[-82.89324299132991,29.826474616236155],[-82.87888581535815,29.88660879457794],[-82.86452863938639,29.910662465914655],[-82.79992134751348,29.93213895817958],[-82.77120699556995,29.92784365972659],[-82.76761770157701,29.8969175108651],[-82.73531405564056,29.859977944169437],[-82.65993888178882,29.829910854998545],[-82.65634958779587,29.822179317783174],[-82.65634958779587,29.564461410604103],[-82.75684981959819,29.56274329122291],[-82.77120699556995,29.58507884317843],[-82.93631451924519,29.591092261012605],[-82.95426098920989,29.58593790286902],[-82.97220745917458,29.624595588945887],[-82.93990381323813,29.70105190140901],[-82.95067169521695,29.75431360222602],[-82.92195734327343,29.794689407684075],[-82.92195734327343,29.82389743716437]]]}},{"type":"Feature","id":"12043","properties":{"name":"Glades","county_fips":"12043","state_abbr":"FL"},"geometry":{"type":"Polygon","coordinates":[[[-81.56161491994919,27.033671562105617],[-81.26729281252813,27.03281250241502],[-81.26729281252813,27.1212956505465],[-81.16679258072581,27.122154710237098],[-81.17038187471874,27.20977879867798],[-80.94425635316352,27.210637858368578],[-80.91195270722707,27.17455735136351],[-80.87247047330473,27.154798978479782],[-80.88682764927648,26.958933369023683],[-80.94425635316352,26.769081177401766],[-81.56520421394214,26.769940237092364],[-81.56161491994919,27.033671562105617]]]}},{"type":"Feature","id":"12045","properties":{"name":"Gulf","county_fips":"12045","state_abbr":"FL"},"geometry":{"type":"Polygon","coordinates":[[[-85.38780231642316,29.924407420964208],[-85.39139161041611,30.20102464133641],[-85.11501597295972,30.200165581645813],[-85.15449820688207,30.091924060630603],[-85.13655173691737,30.08591064279642],[-85.13655173691737,30.04295765826658],[-85.11501597295972,30.02319928538285],[-85.02887291712916,29.987118778377777],[-85.02528362313623,29.971655703947036],[-85.01810503515034,29.95103827137271],[-85.05399797507975,29.910662465914655],[-85.02169432914329,29.807575303043023],[-85.03964079910799,29.780085392943924],[-85.10783738497385,29.776649154181534],[-85.20474832278323,29.711360617696172],[-85.22628408674086,29.67785728976289],[-85.29089137861378,29.683870707597073],[-85.35190937649377,29.659817036260357],[-85.39857019840198,29.740568647176467],[-85.41651666836668,29.8427967503575],[-85.38780231642316,29.878877257362568],[-85.38780231642316,29.788675989849892],[-85.36626655246552,29.710501558005575],[-85.34114149451494,29.691602244812444],[-85.30524855458555,29.725105572745726],[-85.3016592605926,29.80843436273362],[-85.38780231642316,29.924407420964208]]]}},{"type":"Feature","id":"12047","properties":{"name":"Hamilton","county_fips":"12047","state_abbr":"FL"},"geometry":{"type":"Polygon","coordinates":[[[-83.27370815458154,30.632272606016052],[-83.13731498284983,30.623682009110084],[-82.68865323373234,30.59791021839218],[-82.72813546765467,30.55925253231532],[-82.69942111571116,30.47506468263682],[-82.66352817578175,30.453588190371896],[-82.64558170581705,30.395172131411307],[-82.68865323373234,30.33331983368833],[-82.74608193761938,30.31699769956699],[-82.79633205352053,30.33675607245072],[-82.88247510935109,30.365105042240415],[-82.96502887118871,30.41750768336683],[-83.0009218111181,30.429534519035187],[-83.07629698496984,30.426098280272797],[-83.08347557295572,30.438125115941155],[-83.15526145281453,30.41750768336683],[-83.16961862878628,30.384863415124144],[-83.1803865107651,30.409776146151458],[-83.22345803868038,30.423521101201004],[-83.2162794506945,30.45616536944369],[-83.24499380263802,30.473346563255625],[-83.23781521465214,30.515440488094875],[-83.27370815458154,30.632272606016052]]]}},{"type":"Feature","id":"12049","properties":{"name":"Hardee","county_fips":"12049","state_abbr":"FL"},"geometry":{"type":"Polygon","coordinates":[[[-82.05334819698197,27.646181121501208],[-81.56161491994919,27.647040181191805],[-81.56520421394214,27.34035587164871],[-82.0569374909749,27.338637752267516],[-82.05334819698197,27.646181121501208]]]}},{"type":"Feature","id":"12051","properties":{"name":"Hendry","county_fips":"12051","state_abbr":"FL"},"geometry":{"type":"Polygon","coordinates":[[[-81.56520421394214,26.769940237092364],[-80.94425635316352,26.769081177401766],[-80.88682764927648,26.958933369023683],[-80.88682764927648,26.74416844637446],[-80.8796490612906,26.333537914269137],[-80.8796490612906,26.259658780877807],[-81.26729281252813,26.252786303353027],[-81.27088210652106,26.517376688056878],[-81.56520421394214,26.51308138960389],[-81.56520421394214,26.769940237092364]]]}},{"type":"Feature","id":"12053","properties":{"name":"Hernando","county_fips":"12053","state_abbr":"FL"},"geometry":{"type":"Polygon","coordinates":[[[-82.6671174697747,28.694233944029435],[-82.41945618426183,28.695093003720032],[-82.41945618426183,28.665884974239738],[-82.26152724857248,28.667603093620933],[-82.27588442454424,28.656435317643172],[-82.21127713267133,28.573965587345867],[-82.13949125281252,28.5653749904399],[-82.09641972489725,28.524999184981844],[-82.05334819698197,28.521562946219454],[-82.05334819698197,28.478609961689614],[-82.25075936659367,28.478609961689614],[-82.2543486605866,28.43479791746917],[-82.67788535175352,28.433079798087974],[-82.66352817578175,28.48462337952379],[-82.67070676376764,28.519844826838266],[-82.65276029380294,28.591146781157804],[-82.67429605776057,28.647844720737204],[-82.6671174697747,28.694233944029435]]]}},{"type":"Feature","id":"12055","properties":{"name":"Highlands","county_fips":"12055","state_abbr":"FL"},"geometry":{"type":"Polygon","coordinates":[[[-81.56161491994919,27.647040181191805],[-81.14166752277522,27.643603942429422],[-81.14166752277522,27.598073778827782],[-81.21345340263403,27.528489943889433],[-81.20627481464814,27.489832257812573],[-81.13807822878229,27.433993377923777],[-81.14166752277522,27.411657825968256],[-81.09859599485995,27.37901355772557],[-81.08064952489525,27.385886035250344],[-81.03398870298703,27.359255184841842],[-81.04834587895878,27.34035587164871],[-81.02322082100821,27.30169818557185],[-80.99809576305763,27.294825708047078],[-80.99450646906469,27.251013663826633],[-80.94425635316352,27.210637858368578],[-81.17038187471874,27.20977879867798],[-81.16679258072581,27.122154710237098],[-81.26729281252813,27.1212956505465],[-81.26729281252813,27.03281250241502],[-81.56161491994919,27.033671562105617],[-81.56520421394214,27.34035587164871],[-81.56161491994919,27.647040181191805]]]}},{"type":"Feature","id":"12057","properties":{"name":"Hillsborough","county_fips":"12057","state_abbr":"FL"},"geometry":{"type":"Polygon","coordinates":[[[-82.65276029380294,28.173643771527708],[-82.41227759627596,28.171066592455922],[-82.10718760687607,28.17192565214652],[-82.0569374909749,28.17192565214652],[-82.0569374909749,27.927093640326397],[-82.05334819698197,27.90733526744267],[-82.05334819698197,27.646181121501208],[-82.55584935599356,27.64532206181061],[-82.52354571005709,27.693429404484043],[-82.47688488814887,27.722637433964337],[-82.48406347613476,27.742395806848066],[-82.4338133602336,27.76473135880358],[-82.39433112631126,27.836892372813722],[-82.41227759627596,27.901321849608493],[-82.49124206412064,27.919362103111027],[-82.47329559415594,27.82228835807358],[-82.55226006200061,27.848060148791483],[-82.53072429804298,27.877268178271777],[-82.53431359203591,27.93310705816058],[-82.55226006200061,27.966610386093855],[-82.6312245298453,27.99839559464594],[-82.64917099981,28.020731146601463],[-82.65276029380294,28.173643771527708]]]}},{"type":"Feature","id":"12059","properties":{"name":"Holmes","county_fips":"12059","state_abbr":"FL"},"geometry":{"type":"Polygon","coordinates":[[[-86.03387523515235,30.993077676066754],[-85.4990704302043,30.996513914829144],[-85.52778478214782,30.974178362873623],[-85.59598136801368,30.85906436433364],[-85.59957066200661,30.830715394543937],[-85.62110642596426,30.77058121620216],[-85.61751713197131,30.74395036579365],[-85.73596383373834,30.746527544865444],[-85.75032100971009,30.78948052939529],[-85.82210688956889,30.79119864877648],[-85.82210688956889,30.738796007650073],[-85.84364265352653,30.702715500645],[-86.03746452914528,30.704433620026194],[-86.03387523515235,30.993077676066754]]]}},{"type":"Feature","id":"12061","properties":{"name":"Indian River","county_fips":"12061","state_abbr":"FL"},"geometry":{"type":"Polygon","coordinates":[[[-80.86888117931178,27.82228835807358],[-80.5099517800178,27.82228835807358],[-80.4920053100531,27.854932626316256],[-80.44534448814488,27.860946044150438],[-80.3843264902649,27.739818627776273],[-80.31971919839198,27.557697973369727],[-80.67864859768598,27.558557033060325],[-80.77555953549535,27.558557033060325],[-80.77914882948829,27.643603942429422],[-80.87247047330473,27.641885823048227],[-80.88323835528355,27.82228835807358],[-80.86888117931178,27.82228835807358]]]}},{"type":"Feature","id":"12063","properties":{"name":"Jackson","county_fips":"12063","state_abbr":"FL"},"geometry":{"type":"Polygon","coordinates":[[[-85.4990704302043,30.996513914829144],[-85.48830254822548,30.99737297451974],[-85.00374785917859,31.000809213282125],[-84.98221209522094,30.93294349772497],[-84.94272986129862,30.888272393813935],[-84.93555127331273,30.81697043949439],[-84.9140155093551,30.75254096269962],[-84.87453327543275,30.727628231672313],[-84.86376539345393,30.711306097550967],[-84.9068369213692,30.619386710657103],[-84.9319619793198,30.606500815298148],[-85.16885538285382,30.608218934679343],[-85.17244467684677,30.564406890458898],[-85.38421302243022,30.56698406953069],[-85.43446313833138,30.567843129221288],[-85.43087384433844,30.785185230942304],[-85.4811239602396,30.7860442906329],[-85.4811239602396,30.829856334853346],[-85.59957066200661,30.830715394543937],[-85.59598136801368,30.85906436433364],[-85.52778478214782,30.974178362873623],[-85.4990704302043,30.996513914829144]]]}},{"type":"Feature","id":"12065","properties":{"name":"Jefferson","county_fips":"12065","state_abbr":"FL"},"geometry":{"type":"Polygon","coordinates":[[[-84.07412071500714,30.274044715037142],[-84.07412071500714,30.434688877178765],[-84.04181706907069,30.473346563255625],[-84.04181706907069,30.522312965619648],[-83.97720977719777,30.522312965619648],[-84.00592412914129,30.60907799436994],[-84.00592412914129,30.67178935178351],[-83.74390566765668,30.658044396733963],[-83.6111017899179,30.65117191920919],[-83.60392320193202,30.581588084270834],[-83.63622684786847,30.55238005479054],[-83.67211978779787,30.553239114481137],[-83.7367270796708,30.507708950879504],[-83.72236990369903,30.434688877178765],[-83.75826284362843,30.38572247481474],[-83.79415578355783,30.38572247481474],[-83.80492366553665,30.353078206572057],[-83.78697719557195,30.33160171430714],[-83.81928084150842,30.303252744517437],[-83.83722731147311,30.280917192561922],[-83.91619177931778,30.245695745247446],[-83.93054895528955,30.188997805668052],[-83.9520847192472,30.18642062659626],[-83.99156695316952,30.084192523415226],[-84.02387059910599,30.103091836608364],[-84.07771000900009,30.095360299392986],[-84.07412071500714,30.274044715037142]]]}},{"type":"Feature","id":"12067","properties":{"name":"Lafayette","county_fips":"12067","state_abbr":"FL"},"geometry":{"type":"Polygon","coordinates":[[[-83.36702979839798,30.260299759987596],[-83.24858309663097,30.260299759987596],[-83.24858309663097,30.183843447524467],[-83.22704733267332,30.113400552895527],[-83.18397580475805,30.09450123970239],[-83.15885074680746,30.109964314133137],[-83.06911839698397,30.08161534434344],[-83.06552910299102,30.065293210222094],[-83.01168969309693,30.03178988228882],[-83.00451110511105,30.011172449714493],[-82.96143957719578,29.99313219621196],[-82.92913593125931,29.957051689206885],[-82.92554663726636,29.920971182201818],[-82.87888581535815,29.88660879457794],[-82.89324299132991,29.826474616236155],[-82.92195734327343,29.82389743716437],[-83.32036897648976,29.82303837747377],[-83.35267262242623,29.822179317783174],[-83.35267262242623,29.887467854268536],[-83.37061909239092,29.888326913959133],[-83.36702979839798,30.260299759987596]]]}},{"type":"Feature","id":"12069","properties":{"name":"Lake","county_fips":"12069","state_abbr":"FL"},"geometry":{"type":"Polygon","coordinates":[[[-81.95284796517964,28.959683388423876],[-81.65852585775858,28.960542448114474],[-81.65852585775858,29.048166536555364],[-81.63699009380093,29.048166536555364],[-81.64057938779388,29.27667641425414],[-81.6154543298433,29.206233519625194],[-81.56161491994919,29.20022010179101],[-81.53290056800567,29.1770254901449],[-81.50059692206922,29.097991998609984],[-81.46470398213982,29.09627387922879],[-81.45752539415393,29.063629610986105],[-81.35343586835869,28.98459611945119],[-81.35343586835869,28.896972031010307],[-81.36779304433044,28.878931777507773],[-81.4180431602316,28.824811017000165],[-81.41445386623866,28.785294271232708],[-81.64775797577975,28.786153330923305],[-81.65852585775858,28.767254017730174],[-81.65852585775858,28.347173829028286],[-81.79132973549736,28.34631476933769],[-81.79132973549736,28.36177784376843],[-81.85593702737027,28.36177784376843],[-81.85593702737027,28.34631476933769],[-81.95643725917259,28.34545570964709],[-81.95284796517964,28.551630035390346],[-81.95284796517964,28.959683388423876]]]}},{"type":"Feature","id":"12071","properties":{"name":"Lee","county_fips":"12071","state_abbr":"FL"},"geometry":{"type":"MultiPolygon","coordinates":[[[[-82.06052678496785,26.77079929678296],[-81.56520421394214,26.769940237092364],[-81.56520421394214,26.51308138960389],[-81.56161491994919,26.422880122091215],[-81.65852585775858,26.42116200271002],[-81.65852585775858,26.317215780147798],[-81.82004408744088,26.3163567204572],[-81.84516914539145,26.330101675506754],[-81.87029420334203,26.379068077870777],[-81.97079443514434,26.476141822908225],[-82.01027666906668,26.483873360123596],[-82.01386596305963,26.52854446403464],[-82.0569374909749,26.548302836918367],[-82.0569374909749,26.49332301672016],[-82.10718760687607,26.483873360123596],[-82.11077690086901,26.54057129970299],[-82.13949125281252,26.637645044740445],[-82.1825627807278,26.681457088960883],[-82.17179489874898,26.70207452153521],[-82.12513407684077,26.699497342463417],[-82.0928304309043,26.665994014530142],[-82.06052678496785,26.77079929678296]]],[[[-82.26511654256542,26.698638282772826],[-82.24717007260072,26.683175208342078],[-82.17897348673486,26.50191361362613],[-82.15025913479134,26.47785994228942],[-82.08924113691137,26.4555243903339],[-82.0641160789608,26.470128405074043],[-82.01386596305963,26.45208815157151],[-82.0641160789608,26.425457301163007],[-82.09641972489725,26.42459824147241],[-82.17179489874898,26.467551226002257],[-82.19691995669956,26.491604897338966],[-82.24358077860778,26.59039676175761],[-82.26511654256542,26.65568529824298],[-82.26511654256542,26.698638282772826]]],[[[-82.2722951305513,26.789698609976092],[-82.2184557206572,26.769081177401766],[-82.25075936659367,26.76306775956759],[-82.26870583655837,26.720114775037743],[-82.2722951305513,26.789698609976092]]]]}},{"type":"Feature","id":"12073","properties":{"name":"Leon","county_fips":"12073","state_abbr":"FL"},"geometry":{"type":"Polygon","coordinates":[[[-84.64481845988459,30.388299653886534],[-84.5191931701317,30.451870070990708],[-84.41869293832939,30.46389690665906],[-84.39715717437174,30.483655279542788],[-84.38997858638587,30.529185443144428],[-84.38997858638587,30.529185443144428],[-84.37203211642117,30.580729024580243],[-84.33613917649176,30.596192099010985],[-84.28229976659766,30.685534306833063],[-84.08488859698596,30.676084650236497],[-84.00592412914129,30.67178935178351],[-84.00592412914129,30.60907799436994],[-83.97720977719777,30.522312965619648],[-84.04181706907069,30.522312965619648],[-84.04181706907069,30.473346563255625],[-84.07412071500714,30.434688877178765],[-84.07412071500714,30.274044715037142],[-84.24281753267532,30.274044715037142],[-84.25358541465414,30.303252744517437],[-84.71301504575045,30.299816505755054],[-84.7166043397434,30.33331983368833],[-84.64481845988459,30.388299653886534]]]}},{"type":"Feature","id":"12075","properties":{"name":"Levy","county_fips":"12075","state_abbr":"FL"},"geometry":{"type":"Polygon","coordinates":[[[-83.16602933479335,29.28870324992249],[-83.14090427684276,29.32392469723697],[-83.11936851288513,29.317052219712195],[-83.06193980899809,29.349696487954873],[-83.06552910299102,29.37289109960099],[-83.02245757507575,29.399521950009493],[-83.0260468690687,29.42013938258382],[-82.9829753411534,29.470823904329038],[-82.97579675316753,29.541266798957984],[-82.93631451924519,29.591092261012605],[-82.77120699556995,29.58507884317843],[-82.75684981959819,29.56274329122291],[-82.65634958779587,29.564461410604103],[-82.65634958779587,29.53525338112381],[-82.55584935599356,29.537830560195594],[-82.55584935599356,29.480273560925603],[-82.40509900829008,29.48542791906919],[-82.40150971429713,29.21568317622176],[-82.53431359203591,29.21482411653116],[-82.53431359203591,29.044730297792974],[-82.5953315899159,29.030126283052823],[-82.6132780598806,29.009508850478497],[-82.68865323373234,29.033562521815213],[-82.71377829168291,29.03098534274342],[-82.76043911359113,28.993186716357158],[-82.76043911359113,29.05417995438954],[-82.81786781747817,29.07651550634506],[-82.79992134751348,29.104864476134757],[-82.8035106415064,29.146958400974007],[-82.828635699457,29.15812617695176],[-82.99733251712517,29.17788454983549],[-83.02963616306162,29.134072505615052],[-83.05476122101221,29.13063626685266],[-83.08706486694867,29.216542235912357],[-83.07629698496984,29.255199921989217],[-83.12654710087101,29.282689832088316],[-83.16602933479335,29.28870324992249]]]}},{"type":"Feature","id":"12077","properties":{"name":"Liberty","county_fips":"12077","state_abbr":"FL"},"geometry":{"type":"Polygon","coordinates":[[[-85.11501597295972,30.200165581645813],[-85.08271232702327,30.22851455143551],[-85.01451574115741,30.40891708646086],[-85.03246221112211,30.42008486243862],[-84.98221209522094,30.441561354703545],[-85.00015856518564,30.45616536944369],[-84.98939068320684,30.52489014469144],[-84.9319619793198,30.606500815298148],[-84.88171186341863,30.60564175560755],[-84.88171186341863,30.53348074159741],[-84.81710457154571,30.53348074159741],[-84.78121163161632,30.518876726857265],[-84.78121163161632,30.45960160820608],[-84.71301504575045,30.460460667896676],[-84.71301504575045,30.41750768336683],[-84.680711399814,30.41750768336683],[-84.680711399814,30.388299653886534],[-84.64481845988459,30.388299653886534],[-84.7166043397434,30.33331983368833],[-84.71301504575045,30.299816505755054],[-84.73814010370103,30.265454118131174],[-84.6986578697787,30.244836685556848],[-84.66994351783518,30.18212532814328],[-84.66994351783518,30.12800456763567],[-84.62687198991989,30.06271603115031],[-84.5909790499905,30.029212703217027],[-84.54431822808228,30.011172449714493],[-85.00733715317153,30.013749628786286],[-85.02528362313623,29.971655703947036],[-85.02887291712916,29.987118778377777],[-85.11501597295972,30.02319928538285],[-85.13655173691737,30.04295765826658],[-85.13655173691737,30.08591064279642],[-85.15449820688207,30.091924060630603],[-85.11501597295972,30.200165581645813]]]}},{"type":"Feature","id":"12079","properties":{"name":"Madison","county_fips":"12079","state_abbr":"FL"},"geometry":{"type":"Polygon","coordinates":[[[-83.6111017899179,30.65117191920919],[-83.35626191641916,30.637426964159637],[-83.27370815458154,30.632272606016052],[-83.23781521465214,30.515440488094875],[-83.24499380263802,30.473346563255625],[-83.2162794506945,30.45616536944369],[-83.22345803868038,30.423521101201004],[-83.1803865107651,30.409776146151458],[-83.16961862878628,30.384863415124144],[-83.21269015670157,30.34448760966609],[-83.20910086270862,30.311843341423412],[-83.24858309663097,30.260299759987596],[-83.36702979839798,30.260299759987596],[-83.4675300302003,30.260299759987596],[-83.4675300302003,30.304111804208034],[-83.81928084150842,30.303252744517437],[-83.78697719557195,30.33160171430714],[-83.80492366553665,30.353078206572057],[-83.79415578355783,30.38572247481474],[-83.75826284362843,30.38572247481474],[-83.72236990369903,30.434688877178765],[-83.7367270796708,30.507708950879504],[-83.67211978779787,30.553239114481137],[-83.63622684786847,30.55238005479054],[-83.60392320193202,30.581588084270834],[-83.6111017899179,30.65117191920919]]]}},{"type":"Feature","id":"12081","properties":{"name":"Manatee","county_fips":"12081","state_abbr":"FL"},"geometry":{"type":"Polygon","coordinates":[[[-82.55584935599356,27.64532206181061],[-82.05334819698197,27.646181121501208],[-82.0569374909749,27.338637752267516],[-82.0569374909749,27.208060679296786],[-82.2543486605866,27.210637858368578],[-82.25075936659367,27.385886035250344],[-82.64199241182412,27.389322274012734],[-82.69224252772527,27.43742961668616],[-82.70659970369704,27.48725507874078],[-82.74249264362643,27.539657719867193],[-82.70659970369704,27.523335585745855],[-82.70301040970409,27.497563795027943],[-82.64917099981,27.523335585745855],[-82.6132780598806,27.585187883468826],[-82.57020653196531,27.609241554805543],[-82.55584935599356,27.64532206181061]]]}},{"type":"Feature","id":"12083","properties":{"name":"Marion","county_fips":"12083","state_abbr":"FL"},"geometry":{"type":"Polygon","coordinates":[[[-82.40509900829008,29.48542791906919],[-82.21127713267133,29.483709799687993],[-82.21127713267133,29.430448098870983],[-82.19333066270663,29.420998442274417],[-82.13590195881959,29.43474339732397],[-82.0569374909749,29.43989775546755],[-82.0569374909749,29.470823904329038],[-82.00309808108081,29.501750053190527],[-81.93131220122201,29.51635406793067],[-81.8415798513985,29.520649366383658],[-81.8415798513985,29.486286978759786],[-81.77697255952559,29.487146038450376],[-81.77338326553266,29.429589039180385],[-81.74107961959619,29.429589039180385],[-81.74107961959619,29.371172980219797],[-81.6692937397374,29.372032039910394],[-81.65493656376563,29.337669652286515],[-81.68006162171622,29.324783756927566],[-81.64057938779388,29.27667641425414],[-81.63699009380093,29.048166536555364],[-81.65852585775858,29.048166536555364],[-81.65852585775858,28.960542448114474],[-81.95284796517964,28.959683388423876],[-82.31177736447364,28.960542448114474],[-82.34049171641716,28.98803235821358],[-82.41945618426183,29.012945089240887],[-82.45893841818418,29.047307476864766],[-82.53431359203591,29.044730297792974],[-82.53431359203591,29.21482411653116],[-82.40150971429713,29.21568317622176],[-82.40509900829008,29.48542791906919]]]}},{"type":"Feature","id":"12085","properties":{"name":"Martin","county_fips":"12085","state_abbr":"FL"},"geometry":{"type":"Polygon","coordinates":[[[-80.67864859768598,27.206342559915598],[-80.28382625846258,27.206342559915598],[-80.28382625846258,27.26389955918559],[-80.19768320263202,27.26304049949499],[-80.16179026270262,27.192597604866044],[-80.14025449874498,27.111845993949935],[-80.1151294407944,27.072329248182477],[-80.07923650086501,26.970101145001443],[-80.14025449874498,26.97096020469204],[-80.14025449874498,26.956356189951897],[-80.88682764927648,26.958933369023683],[-80.67864859768598,27.1212956505465],[-80.67864859768598,27.206342559915598]]]}},{"type":"Feature","id":"12086","properties":{"name":"Miami-Dade","county_fips":"12086","state_abbr":"FL"},"geometry":{"type":"MultiPolygon","coordinates":[[[[-80.26946908249083,25.352491747607473],[-80.20127249662497,25.48564599964999],[-80.17614743867438,25.520867446964466],[-80.17614743867438,25.48564599964999],[-80.2048617906179,25.414344045330452],[-80.25152261252612,25.34218303132031],[-80.26946908249083,25.352491747607473]]],[[[-80.87247047330473,25.80521620455204],[-80.87247047330473,25.979605321743215],[-80.67864859768598,25.978746262052617],[-80.67864859768598,25.957269769787693],[-80.30895131641316,25.957269769787693],[-80.2945941404414,25.97015566514665],[-80.11871873478735,25.975310023290227],[-80.11871873478735,25.841296711557113],[-80.12948661676616,25.77257193630936],[-80.15461167471675,25.702988101371012],[-80.15461167471675,25.665189474984743],[-80.17614743867438,25.68494784786847],[-80.16537955669557,25.728759892088917],[-80.18332602666027,25.745941085900853],[-80.24075473054731,25.72446459363593],[-80.2766476704767,25.636840505195046],[-80.29818343443434,25.622236490454902],[-80.30177272842728,25.567256670256697],[-80.3304870803708,25.532894282632824],[-80.33766566835668,25.46588762676626],[-80.31971919839198,25.437538656976564],[-80.32689778637786,25.398021911209106],[-80.30536202242023,25.38427695615956],[-80.33407637436375,25.33874679255792],[-80.37714790227902,25.306102524315236],[-80.39509437224372,25.25369988318883],[-80.4202194301943,25.236518689376886],[-80.49559460404603,25.22706903278032],[-80.49559460404603,25.19957912268122],[-80.52071966199662,25.221914674636743],[-80.54225542595425,25.206451600205995],[-80.66429142171421,25.187552287012863],[-80.71454153761537,25.152330839698394],[-80.74684518355183,25.14717648155481],[-80.81145247542476,25.18583416763167],[-80.85811329733298,25.176384511035103],[-80.86170259132591,25.36451858327583],[-80.87247047330473,25.363659523585234],[-80.87247047330473,25.80521620455204]]]]}},{"type":"Feature","id":"12087","properties":{"name":"Monroe","county_fips":"12087","state_abbr":"FL"},"geometry":{"type":"MultiPolygon","coordinates":[[[[-80.49559460404603,25.19957912268122],[-80.49559460404603,25.22706903278032],[-80.4202194301943,25.236518689376886],[-80.39509437224372,25.25369988318883],[-80.37714790227902,25.306102524315236],[-80.33766566835668,25.289780390193897],[-80.29100484644846,25.31898841967419],[-80.26946908249083,25.352491747607473],[-80.25152261252612,25.34218303132031],[-80.32689778637786,25.223632794017938],[-80.35920143231432,25.15318989938899],[-80.44893378213781,25.07329734816348],[-80.57096977789777,24.95388805117051],[-80.65711283372833,24.897190111591108],[-80.66788071570716,24.90749882787827],[-80.5458447199472,25.012304110131097],[-80.49559460404603,25.04666649775497],[-80.47046954609546,25.09219666135661],[-80.45970166411664,25.16178049629496],[-80.44175519415194,25.18927040639406],[-80.46329095810958,25.209028779277787],[-80.49559460404603,25.19957912268122]]],[[[-80.75043447754477,24.85767336582365],[-80.70018436164361,24.909216947259466],[-80.68223789167891,24.88086797746977],[-80.73248800758007,24.843069351083507],[-80.75043447754477,24.85767336582365]]],[[[-80.85093470934709,24.80355260531605],[-80.81863106341063,24.83705593324933],[-80.77914882948829,24.840492172011714],[-80.79709529945299,24.812143202222018],[-80.85093470934709,24.80355260531605]]],[[[-81.12372105281052,24.7073379199692],[-80.93707776517765,24.78465329212292],[-80.91554200122,24.758881501405007],[-81.0770602309023,24.690156726157255],[-81.12372105281052,24.7073379199692]]],[[[-81.46829327613275,25.803498085170844],[-80.87247047330473,25.80521620455204],[-80.87247047330473,25.363659523585234],[-80.86170259132591,25.36451858327583],[-80.85811329733298,25.176384511035103],[-80.90118482524825,25.16178049629496],[-80.90118482524825,25.139444944339438],[-80.99809576305763,25.123981869908697],[-81.08064952489525,25.11882751176511],[-81.14166752277522,25.163498615676154],[-81.17038187471874,25.221914674636743],[-81.16320328673287,25.289780390193897],[-81.14166752277522,25.341323971629713],[-81.12013175881758,25.33874679255792],[-81.12731034680347,25.38084071739717],[-81.17038187471874,25.464169507385073],[-81.20986410864109,25.50454531284312],[-81.20268552065521,25.533753342323422],[-81.23139987259873,25.587015043140426],[-81.27088210652106,25.614504953239525],[-81.28882857648576,25.687525026940264],[-81.3103643404434,25.702988101371012],[-81.34984657436574,25.690102206012057],[-81.3821502203022,25.776867234762342],[-81.46829327613275,25.803498085170844]]],[[[-81.81286549945499,24.56902930978309],[-81.74466891358914,24.660089636986363],[-81.67288303373033,24.69960638275382],[-81.58315068390684,24.736545949449493],[-81.57238280192801,24.75630432233322],[-81.44316821818218,24.813002261912615],[-81.30677504645047,24.755445262642624],[-81.2924178704787,24.71077415873158],[-81.24216775457754,24.673834592035917],[-81.2565249305493,24.66438493543935],[-81.4000966902669,24.6231500702907],[-81.41086457224571,24.646344681936817],[-81.5077755100551,24.64204938348383],[-81.51854339203392,24.621431950909503],[-81.68365091570915,24.558720593495927],[-81.81286549945499,24.54583469813698],[-81.81286549945499,24.56902930978309]]],[[[-82.01386596305963,24.543257519065186],[-81.87388349733497,24.563874951639512],[-81.90977643726437,24.526935384943847],[-81.97079443514434,24.51490854927549],[-82.01745525705256,24.521781026800262],[-82.01386596305963,24.543257519065186]]],[[[-82.16461631076311,24.563015891948915],[-82.14308054680546,24.593082981119807],[-82.10000901889019,24.58449238421384],[-82.11795548885489,24.54927093689936],[-82.16461631076311,24.563015891948915]]],[[[-82.93272522525226,24.632599726887264],[-82.87888581535815,24.643767502865025],[-82.86452863938639,24.624009129981296],[-82.93631451924519,24.615418533075328],[-82.93272522525226,24.632599726887264]]]]}},{"type":"Feature","id":"12089","properties":{"name":"Nassau","county_fips":"12089","state_abbr":"FL"},"geometry":{"type":"Polygon","coordinates":[[[-81.9025978492785,30.82040667825678],[-81.87029420334203,30.792916768157674],[-81.80927620546206,30.79033958908589],[-81.74466891358914,30.766285917749173],[-81.71954385563855,30.74480942548425],[-81.60109715387154,30.72848729136291],[-81.54007915599156,30.713024216932162],[-81.4898290400904,30.725910112291118],[-81.44316821818218,30.70958797816978],[-81.42881104221041,30.69842020219202],[-81.44316821818218,30.60134645715457],[-81.44316821818218,30.510286129951297],[-81.51495409804097,30.56698406953069],[-81.52931127401274,30.526608264072635],[-81.57597209592096,30.537776040050396],[-81.58315068390684,30.564406890458898],[-81.61186503585036,30.554098174171735],[-81.60468644786448,30.585024323033224],[-81.6692937397374,30.560970651696515],[-81.7231331496315,30.57213842767427],[-81.73749032560325,30.534339801288006],[-81.76261538355384,30.535198860978603],[-81.83081196941968,30.46733314542145],[-82.04975890298903,30.273185655346545],[-82.04975890298903,30.362527863168623],[-82.03540172701727,30.384863415124144],[-82.0389910210102,30.434688877178765],[-82.01745525705256,30.47506468263682],[-82.00668737507375,30.577292785817853],[-82.04975890298903,30.65546721766217],[-82.03540172701727,30.707010799097986],[-82.0389910210102,30.749104723937236],[-82.01027666906668,30.762849678986782],[-82.02463384503845,30.78346711156111],[-81.98156231712316,30.776594634036336],[-81.94925867118671,30.827279155781554],[-81.9025978492785,30.82040667825678]]]}},{"type":"Feature","id":"12091","properties":{"name":"Okaloosa","county_fips":"12091","state_abbr":"FL"},"geometry":{"type":"Polygon","coordinates":[[[-86.7840376796768,30.99737297451974],[-86.68712674186742,30.99479579544795],[-86.3892153404534,30.99393673575735],[-86.39639392843928,30.37884999728997],[-86.63328733197332,30.396031191101905],[-86.79839485564855,30.38658153450534],[-86.7840376796768,30.99737297451974]]]}},{"type":"Feature","id":"12093","properties":{"name":"Okeechobee","county_fips":"12093","state_abbr":"FL"},"geometry":{"type":"Polygon","coordinates":[[[-81.14166752277522,27.643603942429422],[-80.87247047330473,27.641885823048227],[-80.77914882948829,27.643603942429422],[-80.77555953549535,27.558557033060325],[-80.67864859768598,27.558557033060325],[-80.67864859768598,27.206342559915598],[-80.67864859768598,27.1212956505465],[-80.88682764927648,26.958933369023683],[-80.87247047330473,27.154798978479782],[-80.91195270722707,27.17455735136351],[-80.94425635316352,27.210637858368578],[-80.99450646906469,27.251013663826633],[-80.99809576305763,27.294825708047078],[-81.02322082100821,27.30169818557185],[-81.04834587895878,27.34035587164871],[-81.03398870298703,27.359255184841842],[-81.08064952489525,27.385886035250344],[-81.09859599485995,27.37901355772557],[-81.14166752277522,27.411657825968256],[-81.13807822878229,27.433993377923777],[-81.20627481464814,27.489832257812573],[-81.21345340263403,27.528489943889433],[-81.14166752277522,27.598073778827782],[-81.14166752277522,27.643603942429422]]]}},{"type":"Feature","id":"12095","properties":{"name":"Orange","county_fips":"12095","state_abbr":"FL"},"geometry":{"type":"Polygon","coordinates":[[[-81.41445386623866,28.785294271232708],[-81.42163245422454,28.737186928559282],[-81.46111468814688,28.713992316913163],[-81.45752539415393,28.640113183521834],[-81.3283108104081,28.639254123831236],[-81.3283108104081,28.610046094350942],[-80.98732788107881,28.612623273422727],[-80.95143494114942,28.604891736207357],[-80.9334884711847,28.540462259412593],[-80.8796490612906,28.50352269271692],[-80.87247047330473,28.471737484164834],[-80.90118482524825,28.433079798087974],[-80.86170259132591,28.347173829028286],[-81.65852585775858,28.347173829028286],[-81.65852585775858,28.767254017730174],[-81.64775797577975,28.786153330923305],[-81.41445386623866,28.785294271232708]]]}},{"type":"Feature","id":"12097","properties":{"name":"Osceola","county_fips":"12097","state_abbr":"FL"},"geometry":{"type":"Polygon","coordinates":[[[-81.65852585775858,28.347173829028286],[-80.86170259132591,28.347173829028286],[-80.86170259132591,28.092033100921007],[-80.86888117931178,28.08430156370563],[-80.86888117931178,27.82228835807358],[-80.88323835528355,27.82228835807358],[-80.87247047330473,27.641885823048227],[-81.14166752277522,27.643603942429422],[-81.14525681676817,27.71061059829598],[-81.20986410864109,27.82142929838298],[-81.23139987259873,27.842046730957307],[-81.30318575245752,27.861805103841036],[-81.3103643404434,27.92193928218282],[-81.37497163231632,27.978637221762213],[-81.38573951429514,28.00354995278952],[-81.41445386623866,27.99839559464594],[-81.46111468814688,28.051657295462952],[-81.39291810228102,28.027603624126236],[-81.3821502203022,28.012140549695495],[-81.36779304433044,28.061966011750116],[-81.3462572803728,28.08430156370563],[-81.45752539415393,28.085160623396227],[-81.45752539415393,28.143576682356816],[-81.5257219800198,28.14271762266622],[-81.5257219800198,28.201133681626814],[-81.55802562595626,28.259549740587403],[-81.65852585775858,28.259549740587403],[-81.65852585775858,28.347173829028286]]]}},{"type":"Feature","id":"12099","properties":{"name":"Palm Beach","county_fips":"12099","state_abbr":"FL"},"geometry":{"type":"Polygon","coordinates":[[[-80.88682764927648,26.958933369023683],[-80.14025449874498,26.956356189951897],[-80.14025449874498,26.97096020469204],[-80.07923650086501,26.970101145001443],[-80.03257567895679,26.796571087500872],[-80.03616497294972,26.594692060210598],[-80.06129003090031,26.44435661435614],[-80.07564720687206,26.32065201891018],[-80.2048617906179,26.32752449643496],[-80.29818343443434,26.35501440653406],[-80.29818343443434,26.334396973959734],[-80.8796490612906,26.333537914269137],[-80.88682764927648,26.74416844637446],[-80.88682764927648,26.958933369023683]]]}},{"type":"Feature","id":"12101","properties":{"name":"Pasco","county_fips":"12101","state_abbr":"FL"},"geometry":{"type":"MultiPolygon","coordinates":[[[[-82.67788535175352,28.433079798087974],[-82.2543486605866,28.43479791746917],[-82.25075936659367,28.478609961689614],[-82.05334819698197,28.478609961689614],[-82.0569374909749,28.312811441404406],[-82.0569374909749,28.258690680896805],[-82.10718760687607,28.259549740587403],[-82.10718760687607,28.17192565214652],[-82.41227759627596,28.171066592455922],[-82.65276029380294,28.173643771527708],[-82.8035106415064,28.17192565214652],[-82.76402840758408,28.219173935129348],[-82.76043911359113,28.254395382443818],[-82.73172476164761,28.29219400883008],[-82.73172476164761,28.324838277072764],[-82.70659970369704,28.367791261602612],[-82.70659970369704,28.401294589535887],[-82.67788535175352,28.433079798087974]]],[[[-82.828635699457,28.17192565214652],[-82.86093934539345,28.17192565214652],[-82.86093934539345,28.217455815748153],[-82.828635699457,28.21831487543875],[-82.828635699457,28.17192565214652]]]]}},{"type":"Feature","id":"12103","properties":{"name":"Pinellas","county_fips":"12103","state_abbr":"FL"},"geometry":{"type":"Polygon","coordinates":[[[-82.828635699457,28.17192565214652],[-82.81427852348523,28.061966011750116],[-82.78197487754878,28.055952593915933],[-82.78915346553465,28.15216727926279],[-82.8035106415064,28.17192565214652],[-82.65276029380294,28.173643771527708],[-82.64917099981,28.020731146601463],[-82.68865323373234,28.027603624126236],[-82.6850639397394,27.97176474423744],[-82.72454617366174,27.947711072900724],[-82.6850639397394,27.915925864348637],[-82.62763523585235,27.91077150620506],[-82.58815300193001,27.816274940239396],[-82.62404594185942,27.78019443323433],[-82.62404594185942,27.726932732417318],[-82.63840311783117,27.703738120771206],[-82.71377829168291,27.69858376262762],[-82.72454617366174,27.67109385252852],[-82.69942111571116,27.638449584285837],[-82.73172476164761,27.612677793567933],[-82.74608193761938,27.647040181191805],[-82.73890334963349,27.71834213551135],[-82.78915346553465,27.79136220921209],[-82.8214571114711,27.81369776116761],[-82.85017146341463,27.86352322322223],[-82.828635699457,28.019872086910866],[-82.8465821694217,28.07657002649026],[-82.86093934539345,28.17192565214652],[-82.828635699457,28.17192565214652]]]}},{"type":"Feature","id":"12105","properties":{"name":"Polk","county_fips":"12105","state_abbr":"FL"},"geometry":{"type":"Polygon","coordinates":[[[-82.0569374909749,28.312811441404406],[-82.0210445510455,28.323979217382167],[-81.95643725917259,28.308516142951426],[-81.95643725917259,28.34545570964709],[-81.85593702737027,28.34631476933769],[-81.85593702737027,28.36177784376843],[-81.79132973549736,28.36177784376843],[-81.79132973549736,28.34631476933769],[-81.65852585775858,28.347173829028286],[-81.65852585775858,28.259549740587403],[-81.55802562595626,28.259549740587403],[-81.5257219800198,28.201133681626814],[-81.5257219800198,28.14271762266622],[-81.45752539415393,28.143576682356816],[-81.45752539415393,28.085160623396227],[-81.3462572803728,28.08430156370563],[-81.36779304433044,28.061966011750116],[-81.3821502203022,28.012140549695495],[-81.39291810228102,28.027603624126236],[-81.46111468814688,28.051657295462952],[-81.41445386623866,27.99839559464594],[-81.38573951429514,28.00354995278952],[-81.37497163231632,27.978637221762213],[-81.3103643404434,27.92193928218282],[-81.30318575245752,27.861805103841036],[-81.23139987259873,27.842046730957307],[-81.20986410864109,27.82142929838298],[-81.14525681676817,27.71061059829598],[-81.14166752277522,27.643603942429422],[-81.56161491994919,27.647040181191805],[-82.05334819698197,27.646181121501208],[-82.05334819698197,27.90733526744267],[-82.0569374909749,27.927093640326397],[-82.0569374909749,28.17192565214652],[-82.10718760687607,28.17192565214652],[-82.10718760687607,28.259549740587403],[-82.0569374909749,28.258690680896805],[-82.0569374909749,28.312811441404406]]]}},{"type":"Feature","id":"12107","properties":{"name":"Putnam","county_fips":"12107","state_abbr":"FL"},"geometry":{"type":"Polygon","coordinates":[[[-82.0569374909749,29.718233095220945],[-82.04975890298903,29.719092154911543],[-82.00668737507375,29.73970958748587],[-81.93849078920789,29.74744112470124],[-81.90977643726437,29.793830347993477],[-81.86311561535615,29.799843765827653],[-81.81286549945499,29.836783332523318],[-81.57956138991389,29.840219571285708],[-81.56520421394214,29.803280004590043],[-81.5257219800198,29.759467960369598],[-81.52213268602685,29.622018409874094],[-81.52213268602685,29.500031933809332],[-81.48623974609745,29.44591117330173],[-81.47547186411863,29.3969447709377],[-81.43240033620336,29.398662890318896],[-81.44675751217513,29.379763577125765],[-81.68006162171622,29.324783756927566],[-81.65493656376563,29.337669652286515],[-81.6692937397374,29.372032039910394],[-81.74107961959619,29.371172980219797],[-81.74107961959619,29.429589039180385],[-81.77338326553266,29.429589039180385],[-81.77697255952559,29.487146038450376],[-81.8415798513985,29.486286978759786],[-81.8415798513985,29.520649366383658],[-81.93131220122201,29.51635406793067],[-82.00309808108081,29.501750053190527],[-82.0569374909749,29.470823904329038],[-82.05334819698197,29.669266692856922],[-82.0569374909749,29.718233095220945]]]}},{"type":"Feature","id":"12113","properties":{"name":"Santa Rosa","county_fips":"12113","state_abbr":"FL"},"geometry":{"type":"Polygon","coordinates":[[[-87.16450284292843,30.999091093900937],[-86.7840376796768,30.99737297451974],[-86.79839485564855,30.38658153450534],[-86.92043085140851,30.370259400384],[-86.92043085140851,30.38658153450534],[-87.07477049310492,30.362527863168623],[-87.17886001890018,30.334178893378926],[-87.23269942879429,30.348782908119077],[-87.22911013480135,30.384004355433547],[-87.1537349609496,30.40548084769847],[-87.12502060900609,30.499977413664134],[-87.15732425494255,30.535198860978603],[-87.21116366483665,30.554957233862332],[-87.25782448674487,30.611655173441726],[-87.27218166271662,30.71731951538515],[-87.30089601466014,30.719037634766345],[-87.31166389663896,30.7869033503235],[-87.29371742667426,30.812675141041403],[-87.3152531906319,30.847037528665282],[-87.28294954469544,30.888272393813935],[-87.28653883868839,30.9252119605096],[-87.25423519275192,30.931225378343775],[-87.22911013480135,30.961292467514667],[-87.16450284292843,30.999091093900937]]]}},{"type":"Feature","id":"12115","properties":{"name":"Sarasota","county_fips":"12115","state_abbr":"FL"},"geometry":{"type":"Polygon","coordinates":[[[-82.64199241182412,27.389322274012734],[-82.25075936659367,27.385886035250344],[-82.2543486605866,27.210637858368578],[-82.0569374909749,27.208060679296786],[-82.0569374909749,27.031953442724422],[-82.2543486605866,27.03281250241502],[-82.2543486605866,26.945188413974137],[-82.37638465634656,26.946047473664734],[-82.44458124221242,27.06030241251412],[-82.47688488814887,27.14105402343023],[-82.54508147401474,27.261322380113796],[-82.64199241182412,27.389322274012734]]]}},{"type":"Feature","id":"12117","properties":{"name":"Seminole","county_fips":"12117","state_abbr":"FL"},"geometry":{"type":"Polygon","coordinates":[[[-81.41445386623866,28.785294271232708],[-81.4180431602316,28.824811017000165],[-81.36779304433044,28.878931777507773],[-81.35702516235162,28.848005628646284],[-81.32113222242222,28.83426067359673],[-81.22422128461284,28.832542554215536],[-81.21704269662696,28.808488882878827],[-81.17756046270462,28.781858032470318],[-81.13807822878229,28.791307689066883],[-81.10577458284583,28.828247255762555],[-81.06629234892348,28.812784181331807],[-81.05193517295173,28.77326743556435],[-81.06270305493055,28.75007282391823],[-81.01604223302233,28.693374884338837],[-81.01963152701526,28.674475571145706],[-80.98732788107881,28.612623273422727],[-81.3283108104081,28.610046094350942],[-81.3283108104081,28.639254123831236],[-81.45752539415393,28.640113183521834],[-81.46111468814688,28.713992316913163],[-81.42163245422454,28.737186928559282],[-81.41445386623866,28.785294271232708]]]}},{"type":"Feature","id":"12109","properties":{"name":"St. Johns","county_fips":"12109","state_abbr":"FL"},"geometry":{"type":"Polygon","coordinates":[[[-81.68006162171622,30.121132090110898],[-81.62263291782918,30.134017985469846],[-81.54007915599156,30.1202730304203],[-81.54007915599156,30.103950896298954],[-81.43240033620336,30.10566901568015],[-81.4359896301963,30.252568222772226],[-81.37856092630926,30.252568222772226],[-81.3103643404434,29.969078524875243],[-81.26370351853518,29.85825982478824],[-81.26370351853518,29.814447780567804],[-81.21345340263403,29.670984812238117],[-81.26729281252813,29.663253275022747],[-81.32472151641517,29.625454648636484],[-81.52213268602685,29.622018409874094],[-81.5257219800198,29.759467960369598],[-81.56520421394214,29.803280004590043],[-81.57956138991389,29.840219571285708],[-81.60827574185741,29.915816824058233],[-81.60468644786448,29.96220604735047],[-81.68365091570915,30.01632680785807],[-81.69082950369503,30.04295765826658],[-81.68006162171622,30.121132090110898]]]}},{"type":"Feature","id":"12111","properties":{"name":"St. Lucie","county_fips":"12111","state_abbr":"FL"},"geometry":{"type":"Polygon","coordinates":[[[-80.67864859768598,27.558557033060325],[-80.31971919839198,27.557697973369727],[-80.2945941404414,27.500140974099736],[-80.25511190651906,27.37987261741617],[-80.19768320263202,27.26304049949499],[-80.28382625846258,27.26389955918559],[-80.28382625846258,27.206342559915598],[-80.67864859768598,27.206342559915598],[-80.67864859768598,27.558557033060325]]]}},{"type":"Feature","id":"12119","properties":{"name":"Sumter","county_fips":"12119","state_abbr":"FL"},"geometry":{"type":"Polygon","coordinates":[[[-82.31177736447364,28.960542448114474],[-81.95284796517964,28.959683388423876],[-81.95284796517964,28.551630035390346],[-81.95643725917259,28.34545570964709],[-81.95643725917259,28.308516142951426],[-82.0210445510455,28.323979217382167],[-82.0569374909749,28.312811441404406],[-82.05334819698197,28.478609961689614],[-82.05334819698197,28.521562946219454],[-82.09641972489725,28.524999184981844],[-82.13949125281252,28.5653749904399],[-82.21127713267133,28.573965587345867],[-82.27588442454424,28.656435317643172],[-82.26152724857248,28.667603093620933],[-82.25075936659367,28.717428555675554],[-82.18974136871368,28.758663420824206],[-82.16820560475604,28.79302580844808],[-82.1825627807278,28.821374778237775],[-82.2722951305513,28.896972031010307],[-82.31177736447364,28.960542448114474]]]}},{"type":"Feature","id":"12121","properties":{"name":"Suwannee","county_fips":"12121","state_abbr":"FL"},"geometry":{"type":"Polygon","coordinates":[[[-83.24858309663097,30.260299759987596],[-83.20910086270862,30.311843341423412],[-83.21269015670157,30.34448760966609],[-83.16961862878628,30.384863415124144],[-83.15526145281453,30.41750768336683],[-83.08347557295572,30.438125115941155],[-83.07629698496984,30.426098280272797],[-83.0009218111181,30.429534519035187],[-82.96502887118871,30.41750768336683],[-82.88247510935109,30.365105042240415],[-82.79633205352053,30.33675607245072],[-82.7927427595276,29.98625971868718],[-82.76043911359113,29.965642286112853],[-82.79992134751348,29.93213895817958],[-82.86452863938639,29.910662465914655],[-82.87888581535815,29.88660879457794],[-82.92554663726636,29.920971182201818],[-82.92913593125931,29.957051689206885],[-82.96143957719578,29.99313219621196],[-83.00451110511105,30.011172449714493],[-83.01168969309693,30.03178988228882],[-83.06552910299102,30.065293210222094],[-83.06911839698397,30.08161534434344],[-83.15885074680746,30.109964314133137],[-83.18397580475805,30.09450123970239],[-83.22704733267332,30.113400552895527],[-83.24858309663097,30.183843447524467],[-83.24858309663097,30.260299759987596]]]}},{"type":"Feature","id":"12123","properties":{"name":"Taylor","county_fips":"12123","state_abbr":"FL"},"geometry":{"type":"Polygon","coordinates":[[[-83.81928084150842,30.303252744517437],[-83.4675300302003,30.304111804208034],[-83.4675300302003,30.260299759987596],[-83.36702979839798,30.260299759987596],[-83.37061909239092,29.888326913959133],[-83.35267262242623,29.887467854268536],[-83.35267262242623,29.822179317783174],[-83.32036897648976,29.82303837747377],[-83.32036897648976,29.77836727356273],[-83.33831544645446,29.760327020060195],[-83.36702979839798,29.665830454094532],[-83.4136906203062,29.66668951378513],[-83.45676214822149,29.676139170381695],[-83.49265508815088,29.70878343862438],[-83.5393159100591,29.72338745336453],[-83.58597673196732,29.775790094490937],[-83.58597673196732,29.81187060149601],[-83.61828037790377,29.841937690666903],[-83.63622684786847,29.88574973488734],[-83.68647696376964,29.92354836127361],[-83.78697719557195,29.976810062090614],[-83.93054895528955,30.038662359813593],[-83.99156695316952,30.084192523415226],[-83.9520847192472,30.18642062659626],[-83.93054895528955,30.188997805668052],[-83.91619177931778,30.245695745247446],[-83.83722731147311,30.280917192561922],[-83.81928084150842,30.303252744517437]]]}},{"type":"Feature","id":"12125","properties":{"name":"Union","county_fips":"12125","state_abbr":"FL"},"geometry":{"type":"Polygon","coordinates":[[[-82.45893841818418,30.13659516454164],[-82.14308054680546,30.143467642066412],[-82.14666984079841,30.109964314133137],[-82.22563430864308,30.034367061360605],[-82.26152724857248,30.02835364352643],[-82.3081880704807,29.956192629516288],[-82.41945618426183,29.922689301583013],[-82.53072429804298,29.940729555085547],[-82.5773851199512,29.990555017140167],[-82.54508147401474,30.01976304662046],[-82.51995641606416,30.075601926509258],[-82.45534912419124,30.10566901568015],[-82.45893841818418,30.13659516454164]]]}},{"type":"Feature","id":"12127","properties":{"name":"Volusia","county_fips":"12127","state_abbr":"FL"},"geometry":{"type":"Polygon","coordinates":[[[-81.68006162171622,29.324783756927566],[-81.44675751217513,29.379763577125765],[-81.43240033620336,29.398662890318896],[-81.42163245422454,29.399521950009493],[-81.4180431602316,29.261213339823392],[-81.1488461107611,29.266367697966977],[-81.15602469874699,29.410689725987254],[-81.10218528885288,29.427011860108593],[-81.04834587895878,29.307602563115623],[-80.94425635316352,29.110877893968933],[-80.73248800758007,28.791307689066883],[-80.96938141111411,28.790448629376286],[-80.96579211712117,28.612623273422727],[-80.98732788107881,28.612623273422727],[-81.01963152701526,28.674475571145706],[-81.01604223302233,28.693374884338837],[-81.06270305493055,28.75007282391823],[-81.05193517295173,28.77326743556435],[-81.06629234892348,28.812784181331807],[-81.10577458284583,28.828247255762555],[-81.13807822878229,28.791307689066883],[-81.17756046270462,28.781858032470318],[-81.21704269662696,28.808488882878827],[-81.22422128461284,28.832542554215536],[-81.32113222242222,28.83426067359673],[-81.35702516235162,28.848005628646284],[-81.36779304433044,28.878931777507773],[-81.35343586835869,28.896972031010307],[-81.35343586835869,28.98459611945119],[-81.45752539415393,29.063629610986105],[-81.46470398213982,29.09627387922879],[-81.50059692206922,29.097991998609984],[-81.53290056800567,29.1770254901449],[-81.56161491994919,29.20022010179101],[-81.6154543298433,29.206233519625194],[-81.64057938779388,29.27667641425414],[-81.68006162171622,29.324783756927566]]]}},{"type":"Feature","id":"12129","properties":{"name":"Wakulla","county_fips":"12129","state_abbr":"FL"},"geometry":{"type":"Polygon","coordinates":[[[-84.71301504575045,30.299816505755054],[-84.25358541465414,30.303252744517437],[-84.24281753267532,30.274044715037142],[-84.07412071500714,30.274044715037142],[-84.07771000900009,30.095360299392986],[-84.15667447684477,30.073024747437472],[-84.2679425906259,30.09793747846478],[-84.27153188461884,30.067870389293887],[-84.36485352843528,30.0085952706427],[-84.3397284704847,29.960487927969275],[-84.43663940829408,29.976810062090614],[-84.46894305423054,30.001722793117928],[-84.51560387613875,29.988836897758972],[-84.54431822808228,30.011172449714493],[-84.5909790499905,30.029212703217027],[-84.62687198991989,30.06271603115031],[-84.66994351783518,30.12800456763567],[-84.66994351783518,30.18212532814328],[-84.6986578697787,30.244836685556848],[-84.73814010370103,30.265454118131174],[-84.71301504575045,30.299816505755054]]]}},{"type":"Feature","id":"12131","properties":{"name":"Walton","county_fips":"12131","state_abbr":"FL"},"geometry":{"type":"Polygon","coordinates":[[[-86.3892153404534,30.99393673575735],[-86.18821487684876,30.99393673575735],[-86.03387523515235,30.993077676066754],[-86.03746452914528,30.704433620026194],[-85.84364265352653,30.702715500645],[-85.8687677114771,30.66319875487754],[-85.91542853338532,30.63656790446904],[-85.91542853338532,30.597051158701582],[-85.87953559345593,30.55581629355293],[-85.88671418144182,30.519735786547862],[-85.8579998294983,30.490527757067568],[-85.90107135741357,30.44413853377533],[-85.96208935529354,30.43984323532235],[-85.99439300123001,30.38915871357713],[-85.99439300123001,30.268890356893564],[-86.09130393903939,30.303252744517437],[-86.2994829906299,30.36338692285922],[-86.39639392843928,30.37884999728997],[-86.3892153404534,30.99393673575735]]]}},{"type":"Feature","id":"12133","properties":{"name":"Washington","county_fips":"12133","state_abbr":"FL"},"geometry":{"type":"Polygon","coordinates":[[[-85.84364265352653,30.702715500645],[-85.82210688956889,30.738796007650073],[-85.82210688956889,30.79119864877648],[-85.75032100971009,30.78948052939529],[-85.73596383373834,30.746527544865444],[-85.61751713197131,30.74395036579365],[-85.62110642596426,30.77058121620216],[-85.59957066200661,30.830715394543937],[-85.4811239602396,30.829856334853346],[-85.4811239602396,30.7860442906329],[-85.43087384433844,30.785185230942304],[-85.43446313833138,30.567843129221288],[-85.48471325423255,30.567843129221288],[-85.48830254822548,30.43640699655996],[-85.85441053550535,30.440702295012947],[-85.88312488744887,30.410635205842055],[-85.96567864928649,30.410635205842055],[-85.99439300123001,30.38915871357713],[-85.96208935529354,30.43984323532235],[-85.90107135741357,30.44413853377533],[-85.8579998294983,30.490527757067568],[-85.88671418144182,30.519735786547862],[-85.87953559345593,30.55581629355293],[-85.91542853338532,30.597051158701582],[-85.91542853338532,30.63656790446904],[-85.8687677114771,30.66319875487754],[-85.84364265352653,30.702715500645]]]}}]}