{"type":"FeatureCollection","features":[{"type":"Feature","id":"66010","properties":{"name":"Guam","county_fips":"66010","state_abbr":"GU"},"geometry":{"type":"MultiPolygon","coordinates":[[[[144.62133533915335,13.451937853768534],[144.63928180911807,13.46482374912749],[144.76131780487805,13.47856870417704],[144.8366929787298,13.596259881788814],[144.8582287426874,13.652098761677614],[144.88335380063796,13.642649105081048],[144.90847885858858,13.60570953838538],[144.9587289744897,13.596259881788814],[144.9228360345603,13.520662629016286],[144.80797862678622,13.427025122741224],[144.77567498084977,13.389226496354961],[144.76849639286388,13.293870870698704],[144.72542486494865,13.245763528025279],[144.6608175730757,13.271535318743183],[144.63569251512513,13.358300347493472],[144.66440686706864,13.401253332023316],[144.62133533915335,13.451937853768534]]]]}}]}