{"type":"FeatureCollection","features":[{"type":"Feature","id":"15001","properties":{"name":"Hawaii","county_fips":"15001","state_abbr":"HI"},"geometry":{"type":"Polygon","coordinates":[[[-156.05741174341742,19.742831968009675],[-156.05023315543156,19.780630594395937],[-155.98203656956568,19.845919130881306],[-155.93896504165042,19.85193254871548],[-155.8923042197422,19.931825099940994],[-155.83487551585515,19.976496203852037],[-155.82410763387634,20.026321665906657],[-155.8851256317563,20.107073276822767],[-155.89948280772808,20.145730962899627],[-155.903072101721,20.235932230412303],[-155.8743577497775,20.267717438964382],[-155.80975045790456,20.259985901749012],[-155.74514316603165,20.232495991649913],[-155.73437528405282,20.205006081550813],[-155.65541081620816,20.16720745516455],[-155.60157140631406,20.126831649706496],[-155.55849987839878,20.131986007850074],[-155.46876752857528,20.104496097750975],[-155.3287850628506,20.038348501575015],[-155.2821242409424,20.02202636745367],[-155.20315977309772,19.969623726327256],[-155.14573106921068,19.920657323963233],[-155.0847130713307,19.85536878747787],[-155.09548095330953,19.814992982019817],[-155.0918916593166,19.737677609866097],[-155.06317730737305,19.72908701296013],[-155.005748603486,19.739395729247292],[-154.98062354553545,19.69042932688326],[-154.98421283952837,19.64146292451924],[-154.9052483716837,19.571020029890292],[-154.82628390383903,19.537516701957017],[-154.80833743387433,19.519476448454483],[-154.82269460984608,19.481677822068214],[-154.86935543175431,19.437865777847776],[-154.93037342963427,19.39748997238972],[-154.98062354553545,19.349382629716295],[-155.06317730737305,19.31673836147361],[-155.13496318723185,19.276362556015556],[-155.20674906709067,19.260899481584815],[-155.2641777709777,19.273785376943763],[-155.29648141691416,19.266053839728393],[-155.36108870878707,19.209355900149],[-155.4185174126741,19.187879407884076],[-155.46517823458234,19.146644542735423],[-155.5154283504835,19.13289958768587],[-155.55849987839878,19.08221506594066],[-155.55491058440583,19.053866096150955],[-155.58362493634934,19.022080887598875],[-155.60157140631406,18.971396365853657],[-155.67335728617286,18.91727560534605],[-155.72719669606695,18.969678246472462],[-155.80616116391164,19.014349350383497],[-155.8851256317563,19.03926208141081],[-155.9210185716857,19.12087275201752],[-155.903072101721,19.217946497054967],[-155.88871492574924,19.3476645103351],[-155.92460786567864,19.438724837538373],[-155.9210185716857,19.47824158330583],[-155.95332221762217,19.488550299592994],[-155.97126868758687,19.58648310432104],[-155.99639374553743,19.643181043900434],[-156.0286973914739,19.650053521425214],[-156.05741174341742,19.742831968009675]]]}},{"type":"Feature","id":"15003","properties":{"name":"Honolulu","county_fips":"15003","state_abbr":"HI"},"geometry":{"type":"Polygon","coordinates":[[[-158.27918472504723,21.578642526815266],[-158.1248450833508,21.586374064030636],[-158.0781842614426,21.628467988869886],[-158.06382708547085,21.658535078040778],[-158.01716626356261,21.69976994318943],[-157.96691614766146,21.71265583854838],[-157.94538038370382,21.689461226902267],[-157.92384461974618,21.629327048560484],[-157.85205873988738,21.55716603455034],[-157.83770156391563,21.5124949306393],[-157.85205873988738,21.49960903528035],[-157.84129085790858,21.459233229822296],[-157.77668356603564,21.411984946839468],[-157.76591568405684,21.46095134920349],[-157.72284415614155,21.459233229822296],[-157.7372013321133,21.40425340962409],[-157.7084869801698,21.383635977049764],[-157.71207627416274,21.358723246022457],[-157.65105827628275,21.298589067680673],[-157.69412980419804,21.266803859128586],[-157.73361203812038,21.282266933559335],[-157.80898721197212,21.25735420253202],[-157.83052297592974,21.279689754487542],[-157.89154097380973,21.306320604896044],[-157.98127332363322,21.31577026149261],[-158.0889521434214,21.298589067680673],[-158.114077201372,21.302025306443063],[-158.1392022593226,21.374186320453198],[-158.17868449324493,21.403394349933492],[-158.18227378723788,21.430025200342],[-158.23252390313903,21.487582199611992],[-158.23252390313903,21.539984840738406],[-158.27918472504723,21.578642526815266]]]}},{"type":"Feature","id":"15005","properties":{"name":"Kalawao","county_fips":"15005","state_abbr":"HI"},"geometry":{"type":"Polygon","coordinates":[[[-157.0157532395324,21.18519318852188],[-156.9619138296383,21.211824038930388],[-156.94755665366654,21.175743531925313],[-156.918842301723,21.168011994709943],[-156.89730653776536,21.147394562135617],[-156.918842301723,21.129354308633083],[-156.94037806568065,21.160280457494572],[-157.0157532395324,21.18519318852188]]]}},{"type":"Feature","id":"15007","properties":{"name":"Kauai","county_fips":"15007","state_abbr":"HI"},"geometry":{"type":"MultiPolygon","coordinates":[[[[-159.78668820208202,22.030507924069234],[-159.78309890808907,22.064870311693113],[-159.74361667416673,22.097514579935797],[-159.72925949819498,22.13960850477504],[-159.61081279642795,22.20146080249802],[-159.58209844448444,22.22379635445354],[-159.4995446826468,22.2083332800228],[-159.488776800668,22.229809772287716],[-159.43134809678097,22.22036011569115],[-159.40263374483743,22.23238695135951],[-159.34879433494334,22.215205757547572],[-159.31290139501394,22.183420548995485],[-159.29495492504924,22.144762862918626],[-159.29495492504924,22.105246117151168],[-159.33443715897158,22.05112535664356],[-159.33084786497864,21.960065029440287],[-159.3452050409504,21.936011358103578],[-159.44570527275272,21.86900470223702],[-159.47441962469622,21.88189059759597],[-159.6036342084421,21.892199313883133],[-159.668241500315,21.953192551915514],[-159.75438455614554,21.978105282942828],[-159.78668820208202,22.030507924069234]]],[[[-160.24611783317832,21.849246329353292],[-160.23176065720656,21.886185896048957],[-160.18868912929128,21.92398452243522],[-160.12049254342543,21.96264220851208],[-160.11331395543954,21.995286476754764],[-160.0738317215172,22.003018013970134],[-160.06665313353133,21.976387163561633],[-160.08459960349603,21.92742076119761],[-160.07742101551014,21.89649461233612],[-160.14920689536893,21.872440940999404],[-160.20663559925597,21.78911215101151],[-160.24970712717126,21.814883941729413],[-160.24611783317832,21.849246329353292]]]]}},{"type":"Feature","id":"15009","properties":{"name":"Maui","county_fips":"15009","state_abbr":"HI"},"geometry":{"type":"MultiPolygon","coordinates":[[[[-156.69989536815368,20.920602803818035],[-156.68194889818898,20.97987792246922],[-156.64246666426664,21.027985265142647],[-156.59221654836546,21.03313962328623],[-156.54555572645725,21.004790653496528],[-156.50966278652785,20.93778399762997],[-156.47376984659846,20.894831013100124],[-156.3876267907679,20.919743744127437],[-156.32301949889498,20.94981083329833],[-156.22969785507854,20.931770579795796],[-156.22969785507854,20.918025624746242],[-156.16867985719855,20.874213580525804],[-156.13278691726916,20.86132768516685],[-156.11484044730446,20.82696529754297],[-156.00357233352332,20.795180088990882],[-155.98562586355862,20.767690178891783],[-155.98562586355862,20.723019074980748],[-156.01434021550216,20.686079508285076],[-156.06100103741036,20.651717120661203],[-156.082536801368,20.654294299732996],[-156.14355479924797,20.623368150871507],[-156.19380491514914,20.631958747777475],[-156.30148373493734,20.586428584175835],[-156.37685890878907,20.578697046960464],[-156.43787690666906,20.601032598915985],[-156.46300196461965,20.781435133941336],[-156.4881270225702,20.798616327753273],[-156.53837713847136,20.777998895178946],[-156.6316987822878,20.820951879708794],[-156.67835960419603,20.870777341763414],[-156.69989536815368,20.920602803818035]]],[[[-156.70348466214662,20.532307823668233],[-156.67835960419603,20.55722055469554],[-156.5778593723937,20.606186957059563],[-156.5419664324643,20.58041516634166],[-156.55632360843606,20.542616539955397],[-156.53837713847136,20.528012525215246],[-156.5850379603796,20.511690391093907],[-156.6029844303443,20.524576286452863],[-156.6675917222172,20.504817913569134],[-156.70348466214662,20.532307823668233]]],[[[-157.0624140614406,20.904280669696696],[-157.03728900349003,20.927475281342808],[-156.9906281815818,20.931770579795796],[-156.89730653776536,20.91544844567445],[-156.8362885398854,20.86390486423864],[-156.80757418794187,20.820092820018196],[-156.83987783387832,20.7642539401294],[-156.9080744197442,20.739341209102086],[-156.96909241762415,20.735045910649106],[-156.99421747557474,20.786589492084914],[-157.00498535755355,20.84930084949849],[-157.05523547345473,20.87679075959759],[-157.0624140614406,20.904280669696696]]],[[[-157.0157532395324,21.18519318852188],[-156.94037806568065,21.160280457494572],[-156.918842301723,21.129354308633083],[-156.89730653776536,21.147394562135617],[-156.918842301723,21.168011994709943],[-156.86859218582185,21.164575755947553],[-156.77168124801247,21.1800388303783],[-156.71066325013248,21.158562338113377],[-156.73937760207602,21.11131405513055],[-156.80398489394892,21.067502010910104],[-156.87577077380772,21.04946175740757],[-157.00139606356063,21.07695166750667],[-157.09471770737707,21.10358251791518],[-157.14855711727117,21.09155568224682],[-157.2526466430664,21.087260383793833],[-157.31007534695345,21.101864398533984],[-157.2885395829958,21.14653550244502],[-157.25623593705936,21.171448233472333],[-157.26341452504525,21.221273695526953],[-157.20239652716526,21.21955557614576],[-157.19162864518643,21.2075287404774],[-157.0157532395324,21.18519318852188]]]]}}]}