{"type":"FeatureCollection","features":[{"type":"Feature","id":"19001","properties":{"name":"Adair","county_fips":"19001","state_abbr":"IA"},"geometry":{"type":"Polygon","coordinates":[[[-94.70202022810227,41.50453205021049],[-94.24259059700597,41.503672990519895],[-94.24259059700597,41.157471935209344],[-94.47230541255412,41.157471935209344],[-94.70202022810227,41.15833099489994],[-94.69843093410934,41.33100199270992],[-94.70202022810227,41.50453205021049]]]}},{"type":"Feature","id":"19003","properties":{"name":"Adams","county_fips":"19003","state_abbr":"IA"},"geometry":{"type":"Polygon","coordinates":[[[-94.92814574965749,41.15833099489994],[-94.70202022810227,41.15833099489994],[-94.47230541255412,41.157471935209344],[-94.47230541255412,40.89975402803027],[-94.92814574965749,40.90061308772087],[-94.92814574965749,41.15833099489994]]]}},{"type":"Feature","id":"19005","properties":{"name":"Allamakee","county_fips":"19005","state_abbr":"IA"},"geometry":{"type":"Polygon","coordinates":[[[-91.611638100181,43.50012771146711],[-91.2168157609576,43.50012771146711],[-91.2347622309223,43.455456607556066],[-91.20604787897878,43.42281233931339],[-91.20245858498585,43.34893320592205],[-91.10554764717646,43.31371175860758],[-91.05888682526825,43.24842322212221],[-91.12349411714116,43.1968796406864],[-91.14502988109881,43.15220853677536],[-91.17733352703527,43.131591104201036],[-91.17733352703527,43.08004752276522],[-91.60445951219512,43.081765642146415],[-91.611638100181,43.34206072839728],[-91.611638100181,43.50012771146711]]]}},{"type":"Feature","id":"19007","properties":{"name":"Appanoose","county_fips":"19007","state_abbr":"IA"},"geometry":{"type":"Polygon","coordinates":[[[-93.09760581325813,40.89803590864908],[-92.63817618216181,40.898894968339675],[-92.63817618216181,40.590492539415386],[-92.71355135601355,40.58963347972479],[-93.09760581325813,40.58362006189061],[-93.09760581325813,40.89803590864908]]]}},{"type":"Feature","id":"19009","properties":{"name":"Audubon","county_fips":"19009","state_abbr":"IA"},"geometry":{"type":"Polygon","coordinates":[[[-95.09325327333273,41.86361900088],[-94.74509175601756,41.8627599411894],[-94.74509175601756,41.60246485493854],[-94.70202022810227,41.60246485493854],[-94.70202022810227,41.50453205021049],[-95.03941386343863,41.50453205021049],[-95.03941386343863,41.60246485493854],[-95.09325327333273,41.60246485493854],[-95.09325327333273,41.86361900088]]]}},{"type":"Feature","id":"19011","properties":{"name":"Benton","county_fips":"19011","state_abbr":"IA"},"geometry":{"type":"Polygon","coordinates":[[[-92.29719325283253,42.29744414463144],[-92.06388914329143,42.29744414463144],[-91.83058503375034,42.29916226401264],[-91.83417432774327,41.949524969939695],[-91.83058503375034,41.861900881498805],[-92.29719325283253,41.8627599411894],[-92.29719325283253,42.29744414463144]]]}},{"type":"Feature","id":"19013","properties":{"name":"Black Hawk","county_fips":"19013","state_abbr":"IA"},"geometry":{"type":"Polygon","coordinates":[[[-92.5556224203242,42.6419270805608],[-92.08183561325613,42.6419270805608],[-92.08183561325613,42.46839702306023],[-92.06388914329143,42.46839702306023],[-92.06388914329143,42.29744414463144],[-92.29719325283253,42.29744414463144],[-92.53408665636655,42.296585084940844],[-92.53408665636655,42.46925608275082],[-92.5556224203242,42.46925608275082],[-92.5556224203242,42.55602111150111],[-92.5556224203242,42.6419270805608]]]}},{"type":"Feature","id":"19015","properties":{"name":"Boone","county_fips":"19015","state_abbr":"IA"},"geometry":{"type":"Polygon","coordinates":[[[-94.16362612916129,42.20982005619055],[-93.93032201962019,42.20982005619055],[-93.6970179100791,42.20896099649996],[-93.6970179100791,41.86361900088],[-93.81546461184611,41.86361900088],[-94.16362612916129,41.86361900088],[-94.16362612916129,42.20982005619055]]]}},{"type":"Feature","id":"19017","properties":{"name":"Bremer","county_fips":"19017","state_abbr":"IA"},"geometry":{"type":"Polygon","coordinates":[[[-92.5556224203242,42.90737652495524],[-92.08183561325613,42.90737652495524],[-92.08183561325613,42.6419270805608],[-92.5556224203242,42.6419270805608],[-92.5556224203242,42.90737652495524]]]}},{"type":"Feature","id":"19019","properties":{"name":"Buchanan","county_fips":"19019","state_abbr":"IA"},"geometry":{"type":"Polygon","coordinates":[[[-92.08183561325613,42.6419270805608],[-91.60804880618805,42.64364519994199],[-91.60804880618805,42.46925608275082],[-91.59728092420924,42.46925608275082],[-91.59728092420924,42.296585084940844],[-91.83058503375034,42.29916226401264],[-92.06388914329143,42.29744414463144],[-92.06388914329143,42.46839702306023],[-92.08183561325613,42.46839702306023],[-92.08183561325613,42.6419270805608]]]}},{"type":"Feature","id":"19021","properties":{"name":"Buena Vista","county_fips":"19021","state_abbr":"IA"},"geometry":{"type":"Polygon","coordinates":[[[-95.3875753807538,42.90995370402703],[-94.91378857368574,42.90995370402703],[-94.91378857368574,42.56031640995409],[-95.3875753807538,42.562034529335286],[-95.3875753807538,42.90995370402703]]]}},{"type":"Feature","id":"19023","properties":{"name":"Butler","county_fips":"19023","state_abbr":"IA"},"geometry":{"type":"Polygon","coordinates":[[[-93.02581993339933,42.90737652495524],[-92.5556224203242,42.90737652495524],[-92.5556224203242,42.6419270805608],[-92.5556224203242,42.55602111150111],[-93.02581993339933,42.55688017119171],[-93.02581993339933,42.90737652495524]]]}},{"type":"Feature","id":"19025","properties":{"name":"Calhoun","county_fips":"19025","state_abbr":"IA"},"geometry":{"type":"Polygon","coordinates":[[[-94.91378857368574,42.56031640995409],[-94.4435910606106,42.558598290572895],[-94.4435910606106,42.473551381203805],[-94.39693023870238,42.473551381203805],[-94.39693023870238,42.20896099649996],[-94.63023434824348,42.20982005619055],[-94.85994916379164,42.20982005619055],[-94.8563598697987,42.4744104408944],[-94.91378857368574,42.4744104408944],[-94.91378857368574,42.56031640995409]]]}},{"type":"Feature","id":"19027","properties":{"name":"Carroll","county_fips":"19027","state_abbr":"IA"},"geometry":{"type":"Polygon","coordinates":[[[-95.08966397933979,42.21067911588115],[-94.85994916379164,42.20982005619055],[-94.63023434824348,42.20982005619055],[-94.63023434824348,41.8627599411894],[-94.74509175601756,41.8627599411894],[-95.09325327333273,41.86361900088],[-95.08966397933979,42.21067911588115]]]}},{"type":"Feature","id":"19029","properties":{"name":"Cass","county_fips":"19029","state_abbr":"IA"},"geometry":{"type":"Polygon","coordinates":[[[-95.1542712712127,41.50539110990109],[-95.03941386343863,41.50453205021049],[-94.70202022810227,41.50453205021049],[-94.69843093410934,41.33100199270992],[-94.70202022810227,41.15833099489994],[-94.92814574965749,41.15833099489994],[-95.1542712712127,41.15919005459054],[-95.1542712712127,41.50539110990109]]]}},{"type":"Feature","id":"19031","properties":{"name":"Cedar","county_fips":"19031","state_abbr":"IA"},"geometry":{"type":"Polygon","coordinates":[[[-91.36756610866108,41.86018276211762],[-91.36756610866108,41.9478068505585],[-90.89736859558595,41.946088731177305],[-90.89736859558595,41.77169961398613],[-90.90095788957889,41.59731049679496],[-91.36756610866108,41.59816955648556],[-91.36756610866108,41.86018276211762]]]}},{"type":"Feature","id":"19033","properties":{"name":"Cerro Gordo","county_fips":"19033","state_abbr":"IA"},"geometry":{"type":"Polygon","coordinates":[[[-93.49601744647445,43.255295699646986],[-93.02581993339933,43.255295699646986],[-93.02581993339933,43.21320177480774],[-93.02581993339933,42.90737652495524],[-93.4996067404674,42.90823558464584],[-93.49601744647445,43.255295699646986]]]}},{"type":"Feature","id":"19035","properties":{"name":"Cherokee","county_fips":"19035","state_abbr":"IA"},"geometry":{"type":"Polygon","coordinates":[[[-95.85777289382894,42.909094644336434],[-95.3875753807538,42.90995370402703],[-95.3875753807538,42.562034529335286],[-95.74291548605486,42.56117546964469],[-95.86136218782187,42.56031640995409],[-95.85777289382894,42.909094644336434]]]}},{"type":"Feature","id":"19037","properties":{"name":"Chickasaw","county_fips":"19037","state_abbr":"IA"},"geometry":{"type":"Polygon","coordinates":[[[-92.5556224203242,43.21320177480774],[-92.08183561325613,43.21320177480774],[-92.08183561325613,43.08262470183701],[-92.08183561325613,42.90737652495524],[-92.5556224203242,42.90737652495524],[-92.5556224203242,43.21320177480774]]]}},{"type":"Feature","id":"19039","properties":{"name":"Clarke","county_fips":"19039","state_abbr":"IA"},"geometry":{"type":"Polygon","coordinates":[[[-94.01287578145781,41.156612875518746],[-93.79033955389554,41.16176723366233],[-93.55703544435444,41.160908173971734],[-93.55703544435444,40.89803590864908],[-94.01646507545075,40.89717684895848],[-94.01287578145781,41.156612875518746]]]}},{"type":"Feature","id":"19041","properties":{"name":"Clay","county_fips":"19041","state_abbr":"IA"},"geometry":{"type":"Polygon","coordinates":[[[-95.3875753807538,43.255295699646986],[-94.91378857368574,43.255295699646986],[-94.91378857368574,42.90995370402703],[-95.3875753807538,42.90995370402703],[-95.3875753807538,43.255295699646986]]]}},{"type":"Feature","id":"19043","properties":{"name":"Clayton","county_fips":"19043","state_abbr":"IA"},"geometry":{"type":"Polygon","coordinates":[[[-91.60445951219512,43.081765642146415],[-91.17733352703527,43.08004752276522],[-91.15579776307763,42.98812813587135],[-91.14502988109881,42.904799345883454],[-91.10195835318353,42.88332285361853],[-91.06606541325412,42.751027661266605],[-90.97992235742358,42.69862502014019],[-90.89736859558595,42.67543040849408],[-90.89736859558595,42.64536331932319],[-91.13426199911999,42.646222379013786],[-91.60804880618805,42.64364519994199],[-91.60445951219512,43.081765642146415]]]}},{"type":"Feature","id":"19045","properties":{"name":"Clinton","county_fips":"19045","state_abbr":"IA"},"geometry":{"type":"Polygon","coordinates":[[[-90.89736859558595,42.03371281961819],[-90.15438473904739,42.03285375992759],[-90.14002756307562,42.00880008859088],[-90.16515262102621,41.95639744746447],[-90.15079544505444,41.92890753736537],[-90.18309909099091,41.84471968768687],[-90.17950979699796,41.8094982403724],[-90.24411708887088,41.78286738996389],[-90.31590296872969,41.72874662945629],[-90.40922461254613,41.72960568914689],[-90.4702426104261,41.773417733367324],[-90.53843919629196,41.77599491243912],[-90.5779214302143,41.75881371862718],[-90.67483236802367,41.76139089769897],[-90.71431460194601,41.734760047290465],[-90.78610048180481,41.77169961398613],[-90.89736859558595,41.77169961398613],[-90.89736859558595,41.946088731177305],[-90.89736859558595,42.03371281961819]]]}},{"type":"Feature","id":"19047","properties":{"name":"Crawford","county_fips":"19047","state_abbr":"IA"},"geometry":{"type":"Polygon","coordinates":[[[-95.67112960619606,42.21153817557175],[-95.32296808888088,42.21067911588115],[-95.08966397933979,42.21067911588115],[-95.09325327333273,41.86361900088],[-95.55627219842198,41.86361900088],[-95.67112960619606,41.8627599411894],[-95.67112960619606,42.21153817557175]]]}},{"type":"Feature","id":"19049","properties":{"name":"Dallas","county_fips":"19049","state_abbr":"IA"},"geometry":{"type":"Polygon","coordinates":[[[-94.2820728309283,41.8627599411894],[-94.16362612916129,41.86361900088],[-93.81546461184611,41.86361900088],[-93.81546461184611,41.60074673555735],[-93.79033955389554,41.60074673555735],[-93.79033955389554,41.51226358742587],[-93.89801837368373,41.502813930829305],[-94.24259059700597,41.503672990519895],[-94.24259059700597,41.60074673555735],[-94.27848353693537,41.60160579524795],[-94.2820728309283,41.8627599411894]]]}},{"type":"Feature","id":"19051","properties":{"name":"Davis","county_fips":"19051","state_abbr":"IA"},"geometry":{"type":"Polygon","coordinates":[[[-92.63817618216181,40.898894968339675],[-92.1787465510655,40.89975402803027],[-92.1787465510655,40.60080125570255],[-92.35103266272662,40.59736501694016],[-92.63817618216181,40.590492539415386],[-92.63817618216181,40.898894968339675]]]}},{"type":"Feature","id":"19053","properties":{"name":"Decatur","county_fips":"19053","state_abbr":"IA"},"geometry":{"type":"Polygon","coordinates":[[[-94.01646507545075,40.89717684895848],[-93.55703544435444,40.89803590864908],[-93.55703544435444,40.58018382312822],[-93.77598237792378,40.57760664405643],[-94.01646507545075,40.57417040529405],[-94.01646507545075,40.89717684895848]]]}},{"type":"Feature","id":"19055","properties":{"name":"Delaware","county_fips":"19055","state_abbr":"IA"},"geometry":{"type":"Polygon","coordinates":[[[-91.60804880618805,42.64364519994199],[-91.13426199911999,42.646222379013786],[-91.13067270512705,42.29572602525025],[-91.36397681466815,42.296585084940844],[-91.59728092420924,42.296585084940844],[-91.59728092420924,42.46925608275082],[-91.60804880618805,42.46925608275082],[-91.60804880618805,42.64364519994199]]]}},{"type":"Feature","id":"19057","properties":{"name":"Des Moines","county_fips":"19057","state_abbr":"IA"},"geometry":{"type":"Polygon","coordinates":[[[-91.37115540265403,41.07414314522145],[-90.94761871148711,41.07242502584025],[-90.94761871148711,41.06984784676846],[-90.94402941749416,41.01229084749847],[-90.96556518145181,40.9212305202952],[-91.00504741537415,40.90490838617386],[-91.05529753127531,40.84821044659446],[-91.09119047120471,40.825015834948346],[-91.11272623516234,40.69615688135881],[-91.28142305283052,40.752854820938204],[-91.29219093480934,40.77261319382193],[-91.41063763657637,40.81298899927999],[-91.37115540265403,40.81298899927999],[-91.37115540265403,41.07414314522145]]]}},{"type":"Feature","id":"19059","properties":{"name":"Dickinson","county_fips":"19059","state_abbr":"IA"},"geometry":{"type":"Polygon","coordinates":[[[-95.3875753807538,43.50012771146711],[-94.91378857368574,43.50012771146711],[-94.91378857368574,43.255295699646986],[-95.3875753807538,43.255295699646986],[-95.3875753807538,43.50012771146711]]]}},{"type":"Feature","id":"19061","properties":{"name":"Dubuque","county_fips":"19061","state_abbr":"IA"},"geometry":{"type":"Polygon","coordinates":[[[-91.13426199911999,42.646222379013786],[-90.89736859558595,42.64536331932319],[-90.89736859558595,42.67543040849408],[-90.70713601396014,42.63419554334543],[-90.64252872208722,42.54055803707036],[-90.64252872208722,42.508772828518275],[-90.64252872208722,42.46839702306023],[-90.56356425424254,42.438329933889335],[-90.55638566625666,42.415994381933814],[-90.47383190441904,42.381631994309934],[-90.66406448604485,42.38249105400053],[-90.66406448604485,42.29486696555965],[-90.89736859558595,42.29486696555965],[-91.13067270512705,42.29572602525025],[-91.13426199911999,42.646222379013786]]]}},{"type":"Feature","id":"19063","properties":{"name":"Emmet","county_fips":"19063","state_abbr":"IA"},"geometry":{"type":"Polygon","coordinates":[[[-94.91378857368574,43.50012771146711],[-94.85277057580575,43.500986771157706],[-94.4435910606106,43.500986771157706],[-94.4435910606106,43.255295699646986],[-94.91378857368574,43.255295699646986],[-94.91378857368574,43.50012771146711]]]}},{"type":"Feature","id":"19065","properties":{"name":"Fayette","county_fips":"19065","state_abbr":"IA"},"geometry":{"type":"Polygon","coordinates":[[[-92.08183561325613,42.90737652495524],[-92.08183561325613,43.08262470183701],[-91.60445951219512,43.081765642146415],[-91.60804880618805,42.64364519994199],[-92.08183561325613,42.6419270805608],[-92.08183561325613,42.90737652495524]]]}},{"type":"Feature","id":"19067","properties":{"name":"Floyd","county_fips":"19067","state_abbr":"IA"},"geometry":{"type":"Polygon","coordinates":[[[-93.02581993339933,43.21320177480774],[-92.5556224203242,43.21320177480774],[-92.5556224203242,42.90737652495524],[-93.02581993339933,42.90737652495524],[-93.02581993339933,43.21320177480774]]]}},{"type":"Feature","id":"19069","properties":{"name":"Franklin","county_fips":"19069","state_abbr":"IA"},"geometry":{"type":"Polygon","coordinates":[[[-93.4996067404674,42.90823558464584],[-93.02581993339933,42.90737652495524],[-93.02581993339933,42.55688017119171],[-93.4996067404674,42.557739230882305],[-93.4996067404674,42.90823558464584]]]}},{"type":"Feature","id":"19071","properties":{"name":"Fremont","county_fips":"19071","state_abbr":"IA"},"geometry":{"type":"Polygon","coordinates":[[[-95.83264783587835,40.78378096979969],[-95.84700501185011,40.81127087989879],[-95.83982642386424,40.872264117931174],[-95.81470136591365,40.90147214741147],[-95.38398608676086,40.90147214741147],[-95.38398608676086,40.72880114960149],[-95.3696289107891,40.72794208991089],[-95.37321820478205,40.58018382312822],[-95.7644512500125,40.58533818127181],[-95.75009407404073,40.60939185260852],[-95.78598701397013,40.65749919528194],[-95.83264783587835,40.671244150331496],[-95.88648724577246,40.72106961238612],[-95.87930865778657,40.752854820938204],[-95.83264783587835,40.78378096979969]]]}},{"type":"Feature","id":"19073","properties":{"name":"Greene","county_fips":"19073","state_abbr":"IA"},"geometry":{"type":"Polygon","coordinates":[[[-94.63023434824348,42.20982005619055],[-94.39693023870238,42.20896099649996],[-94.16362612916129,42.20982005619055],[-94.16362612916129,41.86361900088],[-94.2820728309283,41.8627599411894],[-94.63023434824348,41.8627599411894],[-94.63023434824348,42.20982005619055]]]}},{"type":"Feature","id":"19075","properties":{"name":"Grundy","county_fips":"19075","state_abbr":"IA"},"geometry":{"type":"Polygon","coordinates":[[[-93.02581993339933,42.55688017119171],[-92.5556224203242,42.55602111150111],[-92.5556224203242,42.46925608275082],[-92.53408665636655,42.46925608275082],[-92.53408665636655,42.296585084940844],[-92.76739076590765,42.296585084940844],[-92.76739076590765,42.20982005619055],[-93.00069487544874,42.20896099649996],[-93.00428416944169,42.47097420213201],[-93.02581993339933,42.47097420213201],[-93.02581993339933,42.55688017119171]]]}},{"type":"Feature","id":"19077","properties":{"name":"Guthrie","county_fips":"19077","state_abbr":"IA"},"geometry":{"type":"Polygon","coordinates":[[[-94.74509175601756,41.8627599411894],[-94.63023434824348,41.8627599411894],[-94.2820728309283,41.8627599411894],[-94.27848353693537,41.60160579524795],[-94.24259059700597,41.60074673555735],[-94.24259059700597,41.503672990519895],[-94.70202022810227,41.50453205021049],[-94.70202022810227,41.60246485493854],[-94.74509175601756,41.60246485493854],[-94.74509175601756,41.8627599411894]]]}},{"type":"Feature","id":"19079","properties":{"name":"Hamilton","county_fips":"19079","state_abbr":"IA"},"geometry":{"type":"Polygon","coordinates":[[[-93.96980425354253,42.557739230882305],[-93.4996067404674,42.557739230882305],[-93.4996067404674,42.47097420213201],[-93.463713800538,42.47097420213201],[-93.463713800538,42.20896099649996],[-93.6970179100791,42.20896099649996],[-93.93032201962019,42.20982005619055],[-93.93032201962019,42.47183326182261],[-93.97339354753547,42.47183326182261],[-93.96980425354253,42.557739230882305]]]}},{"type":"Feature","id":"19081","properties":{"name":"Hancock","county_fips":"19081","state_abbr":"IA"},"geometry":{"type":"Polygon","coordinates":[[[-93.96980425354253,43.255295699646986],[-93.49601744647445,43.255295699646986],[-93.4996067404674,42.90823558464584],[-93.96980425354253,42.90737652495524],[-93.96980425354253,43.255295699646986]]]}},{"type":"Feature","id":"19083","properties":{"name":"Hardin","county_fips":"19083","state_abbr":"IA"},"geometry":{"type":"Polygon","coordinates":[[[-93.4996067404674,42.557739230882305],[-93.02581993339933,42.55688017119171],[-93.02581993339933,42.47097420213201],[-93.00428416944169,42.47097420213201],[-93.00069487544874,42.20896099649996],[-93.23040969099691,42.20896099649996],[-93.463713800538,42.20896099649996],[-93.463713800538,42.47097420213201],[-93.4996067404674,42.47097420213201],[-93.4996067404674,42.557739230882305]]]}},{"type":"Feature","id":"19085","properties":{"name":"Harrison","county_fips":"19085","state_abbr":"IA"},"geometry":{"type":"Polygon","coordinates":[[[-96.13773782527825,41.86619617995179],[-95.67112960619606,41.8627599411894],[-95.55627219842198,41.86361900088],[-95.55986149241492,41.60246485493854],[-95.49884349453494,41.60246485493854],[-95.49884349453494,41.50625016959169],[-95.9977553595536,41.507109229282285],[-95.9977553595536,41.53889443783437],[-96.03005900549005,41.53975349752497],[-96.03723759347594,41.50796828897288],[-96.09107700337003,41.5320219603096],[-96.08030912139121,41.580129302983025],[-96.11979135531355,41.6136326309163],[-96.09466629736296,41.64713595884958],[-96.12338064930648,41.68321646585465],[-96.08389841538416,41.6978204805948],[-96.10543417934178,41.74420970388703],[-96.07671982739826,41.76139089769897],[-96.06595194541946,41.80090764346643],[-96.10902347333473,41.82066601635016],[-96.13773782527825,41.86619617995179]]]}},{"type":"Feature","id":"19087","properties":{"name":"Henry","county_fips":"19087","state_abbr":"IA"},"geometry":{"type":"Polygon","coordinates":[[[-91.7193169199692,40.90147214741147],[-91.71572762597626,41.16262629335293],[-91.4860128104281,41.16262629335293],[-91.37115540265403,41.160908173971734],[-91.37115540265403,41.07414314522145],[-91.37115540265403,40.81298899927999],[-91.41063763657637,40.81298899927999],[-91.7193169199692,40.813848058970585],[-91.7193169199692,40.90147214741147]]]}},{"type":"Feature","id":"19089","properties":{"name":"Howard","county_fips":"19089","state_abbr":"IA"},"geometry":{"type":"Polygon","coordinates":[[[-92.55203312633125,43.50012771146711],[-92.44794360053601,43.50012771146711],[-92.07824631926319,43.500986771157706],[-92.08183561325613,43.21320177480774],[-92.5556224203242,43.21320177480774],[-92.55203312633125,43.50012771146711]]]}},{"type":"Feature","id":"19091","properties":{"name":"Humboldt","county_fips":"19091","state_abbr":"IA"},"geometry":{"type":"Polygon","coordinates":[[[-94.4435910606106,42.90823558464584],[-93.96980425354253,42.90737652495524],[-93.97339354753547,42.64450425963259],[-94.4435910606106,42.64536331932319],[-94.4435910606106,42.90823558464584]]]}},{"type":"Feature","id":"19093","properties":{"name":"Ida","county_fips":"19093","state_abbr":"IA"},"geometry":{"type":"Polygon","coordinates":[[[-95.74291548605486,42.56117546964469],[-95.3875753807538,42.562034529335286],[-95.3875753807538,42.4744104408944],[-95.32296808888088,42.4744104408944],[-95.32296808888088,42.21067911588115],[-95.67112960619606,42.21153817557175],[-95.66754031220312,42.4744104408944],[-95.74291548605486,42.475269500585],[-95.74291548605486,42.56117546964469]]]}},{"type":"Feature","id":"19095","properties":{"name":"Iowa","county_fips":"19095","state_abbr":"IA"},"geometry":{"type":"Polygon","coordinates":[[[-92.29719325283253,41.8627599411894],[-91.83058503375034,41.861900881498805],[-91.8269957397574,41.60074673555735],[-91.83058503375034,41.51140452773527],[-91.9454424415244,41.510545468044675],[-92.29719325283253,41.50968640835408],[-92.30078254682546,41.77599491243912],[-92.29719325283253,41.8627599411894]]]}},{"type":"Feature","id":"19097","properties":{"name":"Jackson","county_fips":"19097","state_abbr":"IA"},"geometry":{"type":"Polygon","coordinates":[[[-90.89736859558595,42.29486696555965],[-90.66406448604485,42.29486696555965],[-90.66406448604485,42.38249105400053],[-90.47383190441904,42.381631994309934],[-90.41999249452495,42.33008841287412],[-90.43076037650376,42.27854483143831],[-90.37692096660966,42.21497441433414],[-90.31949226272262,42.19349792206921],[-90.20822414894148,42.15226305692056],[-90.16156332703326,42.11704160960609],[-90.16874191501914,42.07580674445744],[-90.15438473904739,42.03285375992759],[-90.89736859558595,42.03371281961819],[-90.89736859558595,42.29486696555965]]]}},{"type":"Feature","id":"19099","properties":{"name":"Jasper","county_fips":"19099","state_abbr":"IA"},"geometry":{"type":"Polygon","coordinates":[[[-93.34885639276392,41.8627599411894],[-93.23040969099691,41.8627599411894],[-92.76739076590765,41.8627599411894],[-92.76739076590765,41.60160579524795],[-92.75662288392884,41.60160579524795],[-92.75662288392884,41.50882734866348],[-92.87148029170291,41.50882734866348],[-93.32732062880629,41.50796828897288],[-93.32732062880629,41.60074673555735],[-93.34885639276392,41.60074673555735],[-93.34885639276392,41.8627599411894]]]}},{"type":"Feature","id":"19101","properties":{"name":"Jefferson","county_fips":"19101","state_abbr":"IA"},"geometry":{"type":"Polygon","coordinates":[[[-92.1787465510655,41.16262629335293],[-91.9454424415244,41.16348535304353],[-91.71572762597626,41.16262629335293],[-91.7193169199692,40.90147214741147],[-92.1787465510655,40.89975402803027],[-92.1787465510655,41.16262629335293]]]}},{"type":"Feature","id":"19103","properties":{"name":"Johnson","county_fips":"19103","state_abbr":"IA"},"geometry":{"type":"Polygon","coordinates":[[[-91.83058503375034,41.861900881498805],[-91.36756610866108,41.86018276211762],[-91.36756610866108,41.59816955648556],[-91.36756610866108,41.42292137960379],[-91.48242351643516,41.42378043929438],[-91.51472716237161,41.46931060289602],[-91.51831645636456,41.51140452773527],[-91.83058503375034,41.51140452773527],[-91.8269957397574,41.60074673555735],[-91.83058503375034,41.861900881498805]]]}},{"type":"Feature","id":"19105","properties":{"name":"Jones","county_fips":"19105","state_abbr":"IA"},"geometry":{"type":"Polygon","coordinates":[[[-91.36397681466815,42.296585084940844],[-91.13067270512705,42.29572602525025],[-90.89736859558595,42.29486696555965],[-90.89736859558595,42.03371281961819],[-90.89736859558595,41.946088731177305],[-91.36756610866108,41.9478068505585],[-91.36397681466815,42.296585084940844]]]}},{"type":"Feature","id":"19107","properties":{"name":"Keokuk","county_fips":"19107","state_abbr":"IA"},"geometry":{"type":"Polygon","coordinates":[[[-92.4120506606066,41.50968640835408],[-92.29719325283253,41.50968640835408],[-91.9454424415244,41.510545468044675],[-91.9454424415244,41.16348535304353],[-92.1787465510655,41.16262629335293],[-92.40846136661366,41.16176723366233],[-92.4120506606066,41.50968640835408]]]}},{"type":"Feature","id":"19109","properties":{"name":"Kossuth","county_fips":"19109","state_abbr":"IA"},"geometry":{"type":"Polygon","coordinates":[[[-94.4435910606106,43.500986771157706],[-94.2461798909989,43.50012771146711],[-93.96980425354253,43.49926865177651],[-93.96980425354253,43.255295699646986],[-93.96980425354253,42.90737652495524],[-94.4435910606106,42.90823558464584],[-94.4435910606106,43.255295699646986],[-94.4435910606106,43.500986771157706]]]}},{"type":"Feature","id":"19111","properties":{"name":"Lee","county_fips":"19111","state_abbr":"IA"},"geometry":{"type":"Polygon","coordinates":[[[-91.7193169199692,40.813848058970585],[-91.41063763657637,40.81298899927999],[-91.29219093480934,40.77261319382193],[-91.28142305283052,40.752854820938204],[-91.11272623516234,40.69615688135881],[-91.11990482314823,40.67296226971269],[-91.18451211502115,40.637740822398214],[-91.24911940689407,40.63859988208881],[-91.3603875206752,40.60166031539315],[-91.40704834258342,40.54238519674196],[-91.36756610866108,40.51231810757107],[-91.38192328463285,40.43500273541735],[-91.37474469664696,40.3920497508875],[-91.41781622456224,40.37830479583795],[-91.4860128104281,40.38431821367213],[-91.52549504435044,40.41094906408063],[-91.52908433834338,40.45905640675406],[-91.56497727827278,40.46077452613525],[-91.62240598215982,40.509740928499276],[-91.61881668816687,40.540667077360766],[-91.68342398003979,40.552693913029124],[-91.71572762597626,40.59822407663076],[-91.7193169199692,40.813848058970585]]]}},{"type":"Feature","id":"19113","properties":{"name":"Linn","county_fips":"19113","state_abbr":"IA"},"geometry":{"type":"Polygon","coordinates":[[[-91.83058503375034,42.29916226401264],[-91.59728092420924,42.296585084940844],[-91.36397681466815,42.296585084940844],[-91.36756610866108,41.9478068505585],[-91.36756610866108,41.86018276211762],[-91.83058503375034,41.861900881498805],[-91.83417432774327,41.949524969939695],[-91.83058503375034,42.29916226401264]]]}},{"type":"Feature","id":"19115","properties":{"name":"Louisa","county_fips":"19115","state_abbr":"IA"},"geometry":{"type":"Polygon","coordinates":[[[-91.48242351643516,41.42378043929438],[-91.36756610866108,41.42292137960379],[-91.36756610866108,41.3361563508535],[-91.07324400124001,41.333579171781714],[-91.11272623516234,41.23908260581605],[-91.04094035530355,41.16606253211531],[-90.99427953339533,41.160908173971734],[-90.94761871148711,41.09647869717696],[-90.94761871148711,41.07242502584025],[-91.37115540265403,41.07414314522145],[-91.37115540265403,41.160908173971734],[-91.4860128104281,41.16262629335293],[-91.48242351643516,41.42378043929438]]]}},{"type":"Feature","id":"19117","properties":{"name":"Lucas","county_fips":"19117","state_abbr":"IA"},"geometry":{"type":"Polygon","coordinates":[[[-93.55703544435444,41.160908173971734],[-93.32732062880629,41.160908173971734],[-93.09760581325813,41.160908173971734],[-93.09760581325813,40.89803590864908],[-93.55703544435444,40.89803590864908],[-93.55703544435444,41.160908173971734]]]}},{"type":"Feature","id":"19119","properties":{"name":"Lyon","county_fips":"19119","state_abbr":"IA"},"geometry":{"type":"Polygon","coordinates":[[[-96.59716745637456,43.50012771146711],[-96.45359569665696,43.50012771146711],[-96.05159476944769,43.50012771146711],[-95.86136218782187,43.50012771146711],[-95.86136218782187,43.25787287871878],[-96.09825559135591,43.25701381902818],[-96.55409592845928,43.25959099809997],[-96.57922098640987,43.29567150510504],[-96.5289708705087,43.29996680355803],[-96.52538157651576,43.394463369523685],[-96.60434604436044,43.44944318972189],[-96.57922098640987,43.48122839827398],[-96.59716745637456,43.50012771146711]]]}},{"type":"Feature","id":"19121","properties":{"name":"Madison","county_fips":"19121","state_abbr":"IA"},"geometry":{"type":"Polygon","coordinates":[[[-94.24259059700597,41.503672990519895],[-93.89801837368373,41.502813930829305],[-93.79033955389554,41.51226358742587],[-93.79033955389554,41.16176723366233],[-94.01287578145781,41.156612875518746],[-94.24259059700597,41.157471935209344],[-94.24259059700597,41.503672990519895]]]}},{"type":"Feature","id":"19123","properties":{"name":"Mahaska","county_fips":"19123","state_abbr":"IA"},"geometry":{"type":"Polygon","coordinates":[[[-92.87148029170291,41.50882734866348],[-92.75662288392884,41.50882734866348],[-92.4120506606066,41.50968640835408],[-92.40846136661366,41.16176723366233],[-92.64176547615476,41.160908173971734],[-92.87148029170291,41.160908173971734],[-92.87148029170291,41.50882734866348]]]}},{"type":"Feature","id":"19125","properties":{"name":"Marion","county_fips":"19125","state_abbr":"IA"},"geometry":{"type":"Polygon","coordinates":[[[-93.32732062880629,41.50796828897288],[-92.87148029170291,41.50882734866348],[-92.87148029170291,41.160908173971734],[-93.09760581325813,41.160908173971734],[-93.32732062880629,41.160908173971734],[-93.32732062880629,41.49078709516095],[-93.32732062880629,41.50796828897288]]]}},{"type":"Feature","id":"19127","properties":{"name":"Marshall","county_fips":"19127","state_abbr":"IA"},"geometry":{"type":"Polygon","coordinates":[[[-93.23040969099691,42.20896099649996],[-93.00069487544874,42.20896099649996],[-92.76739076590765,42.20982005619055],[-92.76739076590765,41.8627599411894],[-93.23040969099691,41.8627599411894],[-93.23040969099691,42.20896099649996]]]}},{"type":"Feature","id":"19129","properties":{"name":"Mills","county_fips":"19129","state_abbr":"IA"},"geometry":{"type":"Polygon","coordinates":[[[-95.87930865778657,41.160049114281136],[-95.38398608676086,41.160049114281136],[-95.38398608676086,40.90147214741147],[-95.81470136591365,40.90147214741147],[-95.83982642386424,40.94012983348833],[-95.82905854188542,40.97792845987459],[-95.86136218782187,40.995109653686534],[-95.87930865778657,41.05352571264712],[-95.86495148181481,41.080156563055624],[-95.87930865778657,41.160049114281136]]]}},{"type":"Feature","id":"19131","properties":{"name":"Mitchell","county_fips":"19131","state_abbr":"IA"},"geometry":{"type":"Polygon","coordinates":[[[-93.02581993339933,43.49926865177651],[-92.55203312633125,43.50012771146711],[-92.5556224203242,43.21320177480774],[-93.02581993339933,43.21320177480774],[-93.02581993339933,43.255295699646986],[-93.02581993339933,43.49926865177651]]]}},{"type":"Feature","id":"19133","properties":{"name":"Monona","county_fips":"19133","state_abbr":"IA"},"geometry":{"type":"Polygon","coordinates":[[[-96.35668475884758,42.21497441433414],[-95.67112960619606,42.21153817557175],[-95.67112960619606,41.8627599411894],[-96.13773782527825,41.86619617995179],[-96.16286288322883,41.90571292571925],[-96.14132711927118,41.915162582315816],[-96.13055923729237,41.97186052189521],[-96.1879879411794,41.977014880038794],[-96.18439864718647,42.0027866707567],[-96.23823805708057,42.012236327353264],[-96.22029158711587,42.02598128240282],[-96.27413099700996,42.04745777466774],[-96.27054170301703,42.118759728987285],[-96.3495061708617,42.16686707166071],[-96.35668475884758,42.21497441433414]]]}},{"type":"Feature","id":"19135","properties":{"name":"Monroe","county_fips":"19135","state_abbr":"IA"},"geometry":{"type":"Polygon","coordinates":[[[-93.09760581325813,41.160908173971734],[-92.87148029170291,41.160908173971734],[-92.64176547615476,41.160908173971734],[-92.63817618216181,40.898894968339675],[-93.09760581325813,40.89803590864908],[-93.09760581325813,41.160908173971734]]]}},{"type":"Feature","id":"19137","properties":{"name":"Montgomery","county_fips":"19137","state_abbr":"IA"},"geometry":{"type":"Polygon","coordinates":[[[-95.38398608676086,41.160049114281136],[-95.1542712712127,41.15919005459054],[-94.92814574965749,41.15833099489994],[-94.92814574965749,40.90061308772087],[-95.38398608676086,40.90147214741147],[-95.38398608676086,41.160049114281136]]]}},{"type":"Feature","id":"19139","properties":{"name":"Muscatine","county_fips":"19139","state_abbr":"IA"},"geometry":{"type":"Polygon","coordinates":[[[-91.36756610866108,41.42292137960379],[-91.36756610866108,41.59816955648556],[-90.90095788957889,41.59731049679496],[-90.78251118781188,41.59645143710436],[-90.78610048180481,41.452988468774684],[-90.8471184796848,41.45556564784647],[-90.92967224152241,41.4212032602226],[-90.97633306343063,41.434089155581546],[-91.04452964929649,41.41604890207901],[-91.07324400124001,41.333579171781714],[-91.36756610866108,41.3361563508535],[-91.36756610866108,41.42292137960379]]]}},{"type":"Feature","id":"19141","properties":{"name":"O'Brien","county_fips":"19141","state_abbr":"IA"},"geometry":{"type":"Polygon","coordinates":[[[-95.86136218782187,43.25787287871878],[-95.3875753807538,43.255295699646986],[-95.3875753807538,42.90995370402703],[-95.85777289382894,42.909094644336434],[-95.86136218782187,42.99671873277732],[-95.86136218782187,43.25787287871878]]]}},{"type":"Feature","id":"19143","properties":{"name":"Osceola","county_fips":"19143","state_abbr":"IA"},"geometry":{"type":"Polygon","coordinates":[[[-95.86136218782187,43.50012771146711],[-95.45577196661966,43.500986771157706],[-95.3875753807538,43.50012771146711],[-95.3875753807538,43.255295699646986],[-95.86136218782187,43.25787287871878],[-95.86136218782187,43.50012771146711]]]}},{"type":"Feature","id":"19145","properties":{"name":"Page","county_fips":"19145","state_abbr":"IA"},"geometry":{"type":"Polygon","coordinates":[[[-95.38398608676086,40.90147214741147],[-94.92814574965749,40.90061308772087],[-94.92814574965749,40.72708303022029],[-94.91378857368574,40.72708303022029],[-94.91378857368574,40.575029464984645],[-95.20093209312093,40.57846570374703],[-95.37321820478205,40.58018382312822],[-95.3696289107891,40.72794208991089],[-95.38398608676086,40.72880114960149],[-95.38398608676086,40.90147214741147]]]}},{"type":"Feature","id":"19147","properties":{"name":"Palo Alto","county_fips":"19147","state_abbr":"IA"},"geometry":{"type":"Polygon","coordinates":[[[-94.91378857368574,43.255295699646986],[-94.4435910606106,43.255295699646986],[-94.4435910606106,42.90823558464584],[-94.91378857368574,42.90995370402703],[-94.91378857368574,43.255295699646986]]]}},{"type":"Feature","id":"19149","properties":{"name":"Plymouth","county_fips":"19149","state_abbr":"IA"},"geometry":{"type":"Polygon","coordinates":[[[-96.53614945849458,42.909094644336434],[-95.85777289382894,42.909094644336434],[-95.86136218782187,42.56031640995409],[-96.50025651856518,42.56117546964469],[-96.51461369453695,42.63075930458304],[-96.57563169241692,42.68230288601885],[-96.62947110231102,42.70549749766497],[-96.63306039630396,42.77078603415033],[-96.59357816238162,42.793121586105855],[-96.5828102804028,42.83779269001689],[-96.54332804648045,42.85153764506644],[-96.53614945849458,42.909094644336434]]]}},{"type":"Feature","id":"19151","properties":{"name":"Pocahontas","county_fips":"19151","state_abbr":"IA"},"geometry":{"type":"Polygon","coordinates":[[[-94.91378857368574,42.90995370402703],[-94.4435910606106,42.90823558464584],[-94.4435910606106,42.64536331932319],[-94.4435910606106,42.558598290572895],[-94.91378857368574,42.56031640995409],[-94.91378857368574,42.90995370402703]]]}},{"type":"Feature","id":"19153","properties":{"name":"Polk","county_fips":"19153","state_abbr":"IA"},"geometry":{"type":"Polygon","coordinates":[[[-93.81546461184611,41.86361900088],[-93.6970179100791,41.86361900088],[-93.34885639276392,41.8627599411894],[-93.34885639276392,41.60074673555735],[-93.32732062880629,41.60074673555735],[-93.32732062880629,41.50796828897288],[-93.32732062880629,41.49078709516095],[-93.41346368463684,41.49250521454214],[-93.44217803658036,41.50796828897288],[-93.79033955389554,41.51226358742587],[-93.79033955389554,41.60074673555735],[-93.81546461184611,41.60074673555735],[-93.81546461184611,41.86361900088]]]}},{"type":"Feature","id":"19155","properties":{"name":"Pottawattamie","county_fips":"19155","state_abbr":"IA"},"geometry":{"type":"Polygon","coordinates":[[[-95.9977553595536,41.507109229282285],[-95.49884349453494,41.50625016959169],[-95.1542712712127,41.50539110990109],[-95.1542712712127,41.15919005459054],[-95.38398608676086,41.160049114281136],[-95.87930865778657,41.160049114281136],[-95.83982642386424,41.17465312902128],[-95.92238018570185,41.190975263142626],[-95.91161230372303,41.22705577014769],[-95.92955877368773,41.2811765306553],[-95.88289795177951,41.31639797796977],[-95.9546838316383,41.33959258961589],[-95.93673736167361,41.391136171051706],[-95.93314806768068,41.46415624475244],[-96.00493394753947,41.47274684165841],[-95.9977553595536,41.507109229282285]]]}},{"type":"Feature","id":"19157","properties":{"name":"Poweshiek","county_fips":"19157","state_abbr":"IA"},"geometry":{"type":"Polygon","coordinates":[[[-92.76739076590765,41.8627599411894],[-92.29719325283253,41.8627599411894],[-92.30078254682546,41.77599491243912],[-92.29719325283253,41.50968640835408],[-92.4120506606066,41.50968640835408],[-92.75662288392884,41.50882734866348],[-92.75662288392884,41.60160579524795],[-92.76739076590765,41.60160579524795],[-92.76739076590765,41.8627599411894]]]}},{"type":"Feature","id":"19159","properties":{"name":"Ringgold","county_fips":"19159","state_abbr":"IA"},"geometry":{"type":"Polygon","coordinates":[[[-94.47230541255412,40.89975402803027],[-94.01646507545075,40.89717684895848],[-94.01646507545075,40.57417040529405],[-94.23182271502715,40.571593226222255],[-94.47230541255412,40.57073416653166],[-94.47230541255412,40.89975402803027]]]}},{"type":"Feature","id":"19161","properties":{"name":"Sac","county_fips":"19161","state_abbr":"IA"},"geometry":{"type":"Polygon","coordinates":[[[-95.3875753807538,42.562034529335286],[-94.91378857368574,42.56031640995409],[-94.91378857368574,42.4744104408944],[-94.8563598697987,42.4744104408944],[-94.85994916379164,42.20982005619055],[-95.08966397933979,42.21067911588115],[-95.32296808888088,42.21067911588115],[-95.32296808888088,42.4744104408944],[-95.3875753807538,42.4744104408944],[-95.3875753807538,42.562034529335286]]]}},{"type":"Feature","id":"19163","properties":{"name":"Scott","county_fips":"19163","state_abbr":"IA"},"geometry":{"type":"Polygon","coordinates":[[[-90.89736859558595,41.77169961398613],[-90.78610048180481,41.77169961398613],[-90.71431460194601,41.734760047290465],[-90.67483236802367,41.76139089769897],[-90.5779214302143,41.75881371862718],[-90.53843919629196,41.77599491243912],[-90.4702426104261,41.773417733367324],[-90.40922461254613,41.72960568914689],[-90.31590296872969,41.72874662945629],[-90.31231367473674,41.6978204805948],[-90.34461732067321,41.64713595884958],[-90.34102802668026,41.59043801927019],[-90.3984567305673,41.572397765767654],[-90.46306402244022,41.523431363403624],[-90.55638566625666,41.52429042309422],[-90.59227860618606,41.51312264711646],[-90.6497073100731,41.465015304443035],[-90.73585036590366,41.45041128970289],[-90.78610048180481,41.452988468774684],[-90.78251118781188,41.59645143710436],[-90.90095788957889,41.59731049679496],[-90.89736859558595,41.77169961398613]]]}},{"type":"Feature","id":"19165","properties":{"name":"Shelby","county_fips":"19165","state_abbr":"IA"},"geometry":{"type":"Polygon","coordinates":[[[-95.55627219842198,41.86361900088],[-95.09325327333273,41.86361900088],[-95.09325327333273,41.60246485493854],[-95.03941386343863,41.60246485493854],[-95.03941386343863,41.50453205021049],[-95.1542712712127,41.50539110990109],[-95.49884349453494,41.50625016959169],[-95.49884349453494,41.60246485493854],[-95.55986149241492,41.60246485493854],[-95.55627219842198,41.86361900088]]]}},{"type":"Feature","id":"19167","properties":{"name":"Sioux","county_fips":"19167","state_abbr":"IA"},"geometry":{"type":"Polygon","coordinates":[[[-96.55409592845928,43.25959099809997],[-96.09825559135591,43.25701381902818],[-95.86136218782187,43.25787287871878],[-95.86136218782187,42.99671873277732],[-95.85777289382894,42.909094644336434],[-96.53614945849458,42.909094644336434],[-96.50025651856518,42.95977916608165],[-96.52179228252282,42.977819419584186],[-96.4930779305793,43.0018730909209],[-96.511024400544,43.04998043359433],[-96.45359569665696,43.08348376152761],[-96.43564922669226,43.120423328223275],[-96.46795287262873,43.15049041739417],[-96.4751314606146,43.22179237171371],[-96.56127451644517,43.224369550785504],[-96.55409592845928,43.25959099809997]]]}},{"type":"Feature","id":"19169","properties":{"name":"Story","county_fips":"19169","state_abbr":"IA"},"geometry":{"type":"Polygon","coordinates":[[[-93.6970179100791,42.20896099649996],[-93.463713800538,42.20896099649996],[-93.23040969099691,42.20896099649996],[-93.23040969099691,41.8627599411894],[-93.34885639276392,41.8627599411894],[-93.6970179100791,41.86361900088],[-93.6970179100791,42.20896099649996]]]}},{"type":"Feature","id":"19171","properties":{"name":"Tama","county_fips":"19171","state_abbr":"IA"},"geometry":{"type":"Polygon","coordinates":[[[-92.53408665636655,42.296585084940844],[-92.29719325283253,42.29744414463144],[-92.29719325283253,41.8627599411894],[-92.76739076590765,41.8627599411894],[-92.76739076590765,42.20982005619055],[-92.76739076590765,42.296585084940844],[-92.53408665636655,42.296585084940844]]]}},{"type":"Feature","id":"19173","properties":{"name":"Taylor","county_fips":"19173","state_abbr":"IA"},"geometry":{"type":"Polygon","coordinates":[[[-94.92814574965749,40.90061308772087],[-94.47230541255412,40.89975402803027],[-94.47230541255412,40.57073416653166],[-94.63382364223642,40.571593226222255],[-94.91378857368574,40.575029464984645],[-94.91378857368574,40.72708303022029],[-94.92814574965749,40.72708303022029],[-94.92814574965749,40.90061308772087]]]}},{"type":"Feature","id":"19175","properties":{"name":"Union","county_fips":"19175","state_abbr":"IA"},"geometry":{"type":"Polygon","coordinates":[[[-94.47230541255412,41.157471935209344],[-94.24259059700597,41.157471935209344],[-94.01287578145781,41.156612875518746],[-94.01646507545075,40.89717684895848],[-94.47230541255412,40.89975402803027],[-94.47230541255412,41.157471935209344]]]}},{"type":"Feature","id":"19177","properties":{"name":"Van Buren","county_fips":"19177","state_abbr":"IA"},"geometry":{"type":"Polygon","coordinates":[[[-92.1787465510655,40.89975402803027],[-91.7193169199692,40.90147214741147],[-91.7193169199692,40.813848058970585],[-91.71572762597626,40.59822407663076],[-91.73008480194801,40.613687151061505],[-91.94185314753148,40.605955613846135],[-92.1787465510655,40.60080125570255],[-92.1787465510655,40.89975402803027]]]}},{"type":"Feature","id":"19179","properties":{"name":"Wapello","county_fips":"19179","state_abbr":"IA"},"geometry":{"type":"Polygon","coordinates":[[[-92.64176547615476,41.160908173971734],[-92.40846136661366,41.16176723366233],[-92.1787465510655,41.16262629335293],[-92.1787465510655,40.89975402803027],[-92.63817618216181,40.898894968339675],[-92.64176547615476,41.160908173971734]]]}},{"type":"Feature","id":"19181","properties":{"name":"Warren","county_fips":"19181","state_abbr":"IA"},"geometry":{"type":"Polygon","coordinates":[[[-93.79033955389554,41.51226358742587],[-93.44217803658036,41.50796828897288],[-93.41346368463684,41.49250521454214],[-93.32732062880629,41.49078709516095],[-93.32732062880629,41.160908173971734],[-93.55703544435444,41.160908173971734],[-93.79033955389554,41.16176723366233],[-93.79033955389554,41.51226358742587]]]}},{"type":"Feature","id":"19183","properties":{"name":"Washington","county_fips":"19183","state_abbr":"IA"},"geometry":{"type":"Polygon","coordinates":[[[-91.9454424415244,41.510545468044675],[-91.83058503375034,41.51140452773527],[-91.51831645636456,41.51140452773527],[-91.51472716237161,41.46931060289602],[-91.48242351643516,41.42378043929438],[-91.4860128104281,41.16262629335293],[-91.71572762597626,41.16262629335293],[-91.9454424415244,41.16348535304353],[-91.9454424415244,41.510545468044675]]]}},{"type":"Feature","id":"19185","properties":{"name":"Wayne","county_fips":"19185","state_abbr":"IA"},"geometry":{"type":"Polygon","coordinates":[[[-93.55703544435444,40.89803590864908],[-93.09760581325813,40.89803590864908],[-93.09760581325813,40.58362006189061],[-93.37398145071451,40.58018382312822],[-93.55703544435444,40.58018382312822],[-93.55703544435444,40.89803590864908]]]}},{"type":"Feature","id":"19187","properties":{"name":"Webster","county_fips":"19187","state_abbr":"IA"},"geometry":{"type":"Polygon","coordinates":[[[-94.4435910606106,42.64536331932319],[-93.97339354753547,42.64450425963259],[-93.96980425354253,42.557739230882305],[-93.97339354753547,42.47183326182261],[-93.93032201962019,42.47183326182261],[-93.93032201962019,42.20982005619055],[-94.16362612916129,42.20982005619055],[-94.39693023870238,42.20896099649996],[-94.39693023870238,42.473551381203805],[-94.4435910606106,42.473551381203805],[-94.4435910606106,42.558598290572895],[-94.4435910606106,42.64536331932319]]]}},{"type":"Feature","id":"19189","properties":{"name":"Winnebago","county_fips":"19189","state_abbr":"IA"},"geometry":{"type":"Polygon","coordinates":[[[-93.96980425354253,43.49926865177651],[-93.64676779417793,43.49926865177651],[-93.49601744647445,43.49926865177651],[-93.49601744647445,43.255295699646986],[-93.96980425354253,43.255295699646986],[-93.96980425354253,43.49926865177651]]]}},{"type":"Feature","id":"19191","properties":{"name":"Winneshiek","county_fips":"19191","state_abbr":"IA"},"geometry":{"type":"Polygon","coordinates":[[[-92.08183561325613,43.21320177480774],[-92.07824631926319,43.500986771157706],[-91.73008480194801,43.500986771157706],[-91.611638100181,43.50012771146711],[-91.611638100181,43.34206072839728],[-91.60445951219512,43.081765642146415],[-92.08183561325613,43.08262470183701],[-92.08183561325613,43.21320177480774]]]}},{"type":"Feature","id":"19193","properties":{"name":"Woodbury","county_fips":"19193","state_abbr":"IA"},"geometry":{"type":"Polygon","coordinates":[[[-96.50025651856518,42.56117546964469],[-95.86136218782187,42.56031640995409],[-95.74291548605486,42.56117546964469],[-95.74291548605486,42.475269500585],[-95.66754031220312,42.4744104408944],[-95.67112960619606,42.21153817557175],[-96.35668475884758,42.21497441433414],[-96.32438111291113,42.22957842907429],[-96.35668475884758,42.276826712057115],[-96.37463122881228,42.31806157720577],[-96.41411346273462,42.342974308233075],[-96.41411346273462,42.40826284471844],[-96.38180981679817,42.446061471104706],[-96.39616699276992,42.48386009749097],[-96.44641710867108,42.49073257501574],[-96.4930779305793,42.51736342542425],[-96.47872075460754,42.55602111150111],[-96.50025651856518,42.56117546964469]]]}},{"type":"Feature","id":"19195","properties":{"name":"Worth","county_fips":"19195","state_abbr":"IA"},"geometry":{"type":"Polygon","coordinates":[[[-93.49601744647445,43.49926865177651],[-93.05094499134991,43.49926865177651],[-93.02581993339933,43.49926865177651],[-93.02581993339933,43.255295699646986],[-93.49601744647445,43.255295699646986],[-93.49601744647445,43.49926865177651]]]}},{"type":"Feature","id":"19197","properties":{"name":"Wright","county_fips":"19197","state_abbr":"IA"},"geometry":{"type":"Polygon","coordinates":[[[-93.97339354753547,42.64450425963259],[-93.96980425354253,42.90737652495524],[-93.4996067404674,42.90823558464584],[-93.4996067404674,42.557739230882305],[-93.96980425354253,42.557739230882305],[-93.97339354753547,42.64450425963259]]]}}]}