{"type":"FeatureCollection","features":[{"type":"Feature","id":"16001","properties":{"name":"Ada","county_fips":"16001","state_abbr":"ID"},"geometry":{"type":"Polygon","coordinates":[[[-116.51415982319823,43.8068120210102],[-116.28085571365713,43.8076710807008],[-116.04037301613016,43.628986665056644],[-115.97576572425723,43.59118803867038],[-115.97935501825017,43.1135508506985],[-116.26649853768538,43.112691791007904],[-116.29880218362183,43.11956426853268],[-116.33469512355123,43.16165819337193],[-116.38494523945238,43.193443401924014],[-116.37776665146652,43.23124202831028],[-116.42442747337472,43.29395338572385],[-116.51057052920528,43.29051714696146],[-116.51415982319823,43.458892846318456],[-116.47467758927588,43.458892846318456],[-116.47467758927588,43.63414102320022],[-116.51415982319823,43.63414102320022],[-116.51415982319823,43.8068120210102]]]}},{"type":"Feature","id":"16003","properties":{"name":"Adams","county_fips":"16003","state_abbr":"ID"},"geometry":{"type":"Polygon","coordinates":[[[-116.78335687266872,45.07822036309362],[-116.77617828468284,45.10571027319273],[-116.72951746277462,45.1400726608166],[-116.68644593485934,45.26807255471554],[-116.34187371153712,45.26807255471554],[-116.28444500765008,45.12890488483884],[-116.30598077160771,45.10914651195511],[-116.1444625419254,45.107428392573915],[-116.14087324793248,45.08165660185601],[-116.09062313203131,45.06189822897228],[-116.1336946599466,45.00863652815527],[-116.1157481899819,44.97685131960319],[-116.15523042390423,44.941629872288715],[-116.1624090118901,44.902972186211855],[-116.1983019518195,44.8625963807538],[-116.20906983379834,44.77325417293172],[-116.15881971789717,44.69336162170621],[-116.18394477584775,44.58769727976279],[-116.15523042390423,44.49921413163131],[-116.21265912779127,44.51124096729966],[-116.23778418574184,44.46485174400743],[-116.29880218362183,44.44423431143311],[-116.40648100341002,44.44423431143311],[-116.52851699917,44.491482594415935],[-116.52851699917,44.61518718986189],[-116.60389217302172,44.61518718986189],[-116.62542793697936,44.66243547284472],[-116.62542793697936,44.838542709417084],[-116.90180357443575,44.841119888488876],[-116.86591063450633,44.87032791796917],[-116.83360698856987,44.92874397692976],[-116.85873204652046,44.97856943898438],[-116.84796416454164,45.022381483204825],[-116.78335687266872,45.07822036309362]]]}},{"type":"Feature","id":"16005","properties":{"name":"Bannock","county_fips":"16005","state_abbr":"ID"},"geometry":{"type":"Polygon","coordinates":[[[-112.06343527195271,43.02249052349523],[-112.05266738997389,42.99070531494314],[-112.08856032990329,42.973524121131206],[-112.08138174191741,42.95032950948509],[-112.12804256382563,42.94431609165091],[-112.14957832778327,42.89534968928689],[-112.12086397583975,42.83092021249212],[-112.14598903379033,42.79054440703406],[-112.13881044580445,42.751027661266605],[-112.10650679986799,42.69948407983079],[-112.05625668396684,42.71838339302392],[-111.97011362813627,42.71838339302392],[-111.9449885701857,42.67457134880348],[-111.9449885701857,42.63591366272662],[-111.91627421824218,42.61701434953349],[-111.91627421824218,42.52423590294902],[-111.88397057230571,42.489014455634546],[-111.87679198431984,42.415994381933814],[-111.89473845428454,42.415994381933814],[-111.89832774827748,42.25620927948279],[-111.98447080410803,42.25620927948279],[-111.98447080410803,42.28541730896308],[-112.12445326983269,42.28541730896308],[-112.15675691576915,42.29486696555965],[-112.18906056170562,42.350705845448445],[-112.26084644156441,42.350705845448445],[-112.27520361753616,42.318920636896365],[-112.32545373343733,42.32407499503994],[-112.32904302743027,42.34726960668606],[-112.29315008750086,42.38678635245352],[-112.29673938149381,42.453793008320076],[-112.34340020340203,42.4477795904859],[-112.38288243732437,42.5027594106841],[-112.41877537725377,42.5027594106841],[-112.41518608326082,42.56804794716947],[-112.3864717313173,42.57148418593185],[-112.37929314333142,42.646222379013786],[-112.41877537725377,42.646222379013786],[-112.41877537725377,42.67543040849408],[-112.45825761117611,42.696906900759004],[-112.45825761117611,42.73298740776407],[-112.49773984509845,42.73298740776407],[-112.49773984509845,42.79054440703406],[-112.51568631506315,42.79054440703406],[-112.51927560905608,42.912530883098825],[-112.58747219492194,42.973524121131206],[-112.64490089880898,42.94173891257912],[-112.70232960269603,42.93572549474494],[-112.73822254262542,42.90565840557405],[-112.74899042460424,42.951188569175685],[-112.74181183661835,42.98898719556195],[-112.70591889668896,42.99070531494314],[-112.6556687807878,43.02163146380463],[-112.06343527195271,43.02249052349523]]]}},{"type":"Feature","id":"16007","properties":{"name":"Bear Lake","county_fips":"16007","state_abbr":"ID"},"geometry":{"type":"Polygon","coordinates":[[[-111.04766507195072,42.51392718666186],[-111.04766507195072,42.0019276110661],[-111.50709470304703,41.999350431994316],[-111.51427329103291,42.068934266932665],[-111.60041634686347,42.09900135610356],[-111.5860591708917,42.1419543406334],[-111.60759493484935,42.153981176301755],[-111.62554140481404,42.207242877118766],[-111.61477352283522,42.245900563195626],[-111.56093411294113,42.276826712057115],[-111.5860591708917,42.287994488034876],[-111.58964846488465,42.32579311442114],[-111.55375552495525,42.35156490513904],[-111.60041634686347,42.3910816509065],[-111.60041634686347,42.415135322243216],[-111.57888058290582,42.42973933698336],[-111.63630928679287,42.569766066550656],[-111.60041634686347,42.59038349912498],[-111.36711223732237,42.59038349912498],[-111.28096918149181,42.55258487273872],[-111.24148694756947,42.60326939448394],[-111.22354047760477,42.57234324562245],[-111.2343083595836,42.47870573934738],[-111.16970106771068,42.473551381203805],[-111.06202224792247,42.501041291302904],[-111.04766507195072,42.51392718666186]]]}},{"type":"Feature","id":"16009","properties":{"name":"Benewah","county_fips":"16009","state_abbr":"ID"},"geometry":{"type":"Polygon","coordinates":[[[-117.04178604016039,47.36589631915319],[-116.81207122461224,47.36589631915319],[-116.81207122461224,47.38050033389333],[-116.7366960507605,47.385654692036915],[-116.7366960507605,47.371050677296765],[-116.6290172309723,47.371050677296765],[-116.6290172309723,47.40025870677706],[-116.58594570305702,47.41486272151721],[-116.33110582955828,47.41400366182661],[-116.33110582955828,47.02227244291442],[-116.45673111931119,47.02227244291442],[-116.45673111931119,47.03687645765457],[-116.83360698856987,47.032581159201584],[-116.89462498644986,47.07811132280322],[-116.94487510235102,47.06694354682546],[-116.97717874828749,47.08927909878098],[-116.96641086630865,47.11505088949889],[-117.03819674616746,47.12707772516725],[-117.04178604016039,47.259372917519165],[-117.04178604016039,47.36589631915319]]]}},{"type":"Feature","id":"16011","properties":{"name":"Bingham","county_fips":"16011","state_abbr":"ID"},"geometry":{"type":"Polygon","coordinates":[[[-113.00741959209591,43.11097367162671],[-113.00741959209591,43.28450372912729],[-112.94640159421594,43.28450372912729],[-112.93563371223712,43.44944318972189],[-112.8171870104701,43.44944318972189],[-112.8171870104701,43.536208218472176],[-112.69874030870308,43.539644457234566],[-112.69874030870308,43.62297324722247],[-112.51927560905608,43.62640948598485],[-112.51927560905608,43.425389518385174],[-112.10291750587506,43.425389518385174],[-112.10291750587506,43.40992644395443],[-112.04189950799507,43.40992644395443],[-112.04548880198801,43.366973459424585],[-111.82295257442574,43.36611439973399],[-111.82295257442574,43.281926550055495],[-111.58964846488465,43.281926550055495],[-111.58964846488465,43.019913344423436],[-112.06343527195271,43.02249052349523],[-112.6556687807878,43.02163146380463],[-112.70591889668896,42.99070531494314],[-112.74181183661835,42.98898719556195],[-112.74899042460424,42.951188569175685],[-112.79565124651246,42.87730943578435],[-112.8171870104701,42.8635644807348],[-113.00741959209591,42.862705421044204],[-113.00741959209591,43.11097367162671]]]}},{"type":"Feature","id":"16013","properties":{"name":"Blaine","county_fips":"16013","state_abbr":"ID"},"geometry":{"type":"Polygon","coordinates":[[[-114.97076340623406,43.93824815367153],[-114.87385246842467,43.99322797386973],[-114.8128344705447,43.99322797386973],[-114.8128344705447,43.92793943738437],[-114.68003059280592,43.92793943738437],[-114.60465541895418,43.89357704976049],[-114.58311965499654,43.851483124921245],[-114.52928024510244,43.84546970708706],[-114.50774448114481,43.89873140790407],[-114.41083354333543,43.89529516914168],[-114.36058342743426,43.87381867687676],[-114.29238684156842,43.88756363192631],[-114.2744403716037,43.83086569234692],[-114.14163649386494,43.77416775276752],[-114.11651143591435,43.74066442483424],[-114.06985061400613,43.73465100700006],[-114.0303683800838,43.77330869307692],[-114.00524332213321,43.76557715586155],[-113.97293967619676,43.70802015659156],[-113.87602873838738,43.65046315732157],[-113.8150107405074,43.59977863557635],[-113.7970642705427,43.56885248671486],[-113.72886768467684,43.590328978979784],[-113.70015333273332,43.5843155611456],[-113.6714389807898,43.50012771146711],[-113.6355460408604,43.497550532395316],[-113.6355460408604,43.36783251911518],[-113.36275969739697,43.366973459424585],[-113.36275969739697,43.28450372912729],[-113.00741959209591,43.28450372912729],[-113.00741959209591,43.11097367162671],[-113.24431299562995,43.11097367162671],[-113.24431299562995,42.84810140630405],[-113.23713440764406,42.762195437244365],[-113.17970570375704,42.762195437244365],[-113.17970570375704,42.67543040849408],[-113.23713440764406,42.67543040849408],[-113.23713440764406,42.62560494643946],[-113.30533099350993,42.62904118520184],[-113.37352757937579,42.68745724416244],[-113.47043851718516,42.6694169906599],[-113.47043851718516,42.84896046599465],[-113.41300981329813,42.84896046599465],[-113.41300981329813,43.19945681975819],[-113.71451050870508,43.19945681975819],[-114.37494060340603,43.19945681975819],[-114.37494060340603,43.25787287871878],[-114.39647636736366,43.25787287871878],[-114.39288707337073,43.32659765396653],[-114.53286953909539,43.33347013149131],[-114.52569095110951,43.39875866797667],[-114.54722671506714,43.43569823467234],[-114.50774448114481,43.47779215951159],[-114.56158389103891,43.49926865177651],[-114.5974768309683,43.5310538603286],[-114.58670894898948,43.5585437704277],[-114.68361988679887,43.590328978979784],[-114.66208412284122,43.66077187360873],[-114.6872091807918,43.68568460463604],[-114.66567341683417,43.73808724576245],[-114.69079847478474,43.75011408143081],[-114.71592353273532,43.81454355822557],[-114.7589950606506,43.79134894657946],[-114.80206658856588,43.80251672255722],[-114.85590599845997,43.79134894657946],[-114.8487274104741,43.81626167760677],[-114.98870987619875,43.85835560244602],[-114.99588846418463,43.914194482334814],[-114.97076340623406,43.93824815367153]]]}},{"type":"Feature","id":"16015","properties":{"name":"Boise","county_fips":"16015","state_abbr":"ID"},"geometry":{"type":"Polygon","coordinates":[[[-116.21265912779127,44.15129495693956],[-116.1157481899819,44.15129495693956],[-116.0978017200172,44.236341866308656],[-115.49838962319623,44.233764687236864],[-115.3512285694857,44.30506664155641],[-115.3512285694857,44.348019626086256],[-115.29379986559866,44.33942902918029],[-115.28662127761277,44.32482501444014],[-115.17894245782458,44.29647604465044],[-115.16099598785988,44.239778105071046],[-115.16817457584575,44.202838538375374],[-115.10715657796577,44.1701942701327],[-115.08203152001519,44.17620768796687],[-115.01742422814227,44.1409862406524],[-115.0461385800858,44.12036880807808],[-114.99947775817758,44.0860064204542],[-115.04972787407874,44.03789907778077],[-114.98153128821288,44.01126822737227],[-114.96717411224111,43.98206019789197],[-114.9922991701917,43.94941592964929],[-115.03895999209992,43.95800652655526],[-115.06767434404344,43.94082533274332],[-115.13587092990929,43.98377831727316],[-115.16458528185281,44.075697704167034],[-115.22919257372573,44.09889231581315],[-115.19688892778927,44.06882522664226],[-115.28662127761277,43.93567097459974],[-115.36558574545745,43.92450319862198],[-115.50197891718916,43.890140810998105],[-115.53787185711857,43.84718782646826],[-115.54863973909738,43.79306706596065],[-115.59171126701267,43.798221424104234],[-115.63478279492794,43.74581878297782],[-115.62401491294912,43.728637589165885],[-115.69580079280792,43.66506717206171],[-115.77117596665965,43.65046315732157],[-115.83219396453964,43.60493299371993],[-115.87526549245491,43.59118803867038],[-115.97576572425723,43.59118803867038],[-116.04037301613016,43.628986665056644],[-116.28085571365713,43.8076710807008],[-116.27367712567124,44.15129495693956],[-116.21265912779127,44.15129495693956]]]}},{"type":"Feature","id":"16017","properties":{"name":"Bonner","county_fips":"16017","state_abbr":"ID"},"geometry":{"type":"Polygon","coordinates":[[[-117.04178604016039,48.045412534415334],[-117.03460745217451,48.370996157151566],[-117.03460745217451,48.7498414807048],[-117.03101815818158,48.84691522574225],[-116.78694616666166,48.84777428543285],[-116.78335687266872,48.5007141704317],[-116.04755160411604,48.50243228981289],[-116.05114089810897,48.21636541284412],[-116.04755160411604,47.97754681885818],[-116.11933748397483,48.03338569874698],[-116.1624090118901,48.021358863078625],[-116.23419489174891,48.06860714606145],[-116.27367712567124,48.06173466853668],[-116.33110582955828,48.017922624316235],[-116.33110582955828,47.890781790107894],[-116.5033919412194,47.8899227304173],[-116.5033919412194,47.99129177390773],[-116.63260652496524,47.99129177390773],[-116.63260652496524,47.97754681885818],[-117.04178604016039,47.97754681885818],[-117.04178604016039,48.045412534415334]]]}},{"type":"Feature","id":"16019","properties":{"name":"Bonneville","county_fips":"16019","state_abbr":"ID"},"geometry":{"type":"Polygon","coordinates":[[[-112.51927560905608,43.62640948598485],[-111.62554140481404,43.62640948598485],[-111.39941588325883,43.62211418753187],[-111.24507624156242,43.62211418753187],[-111.209183301633,43.543939755687546],[-111.14457600976009,43.54651693475934],[-111.0548436599366,43.51988608435084],[-111.04407577795777,43.500986771157706],[-111.04407577795777,43.31542987798877],[-111.04407577795777,43.01905428473284],[-111.58964846488465,43.019913344423436],[-111.58964846488465,43.281926550055495],[-111.82295257442574,43.281926550055495],[-111.82295257442574,43.36611439973399],[-112.04548880198801,43.366973459424585],[-112.04189950799507,43.40992644395443],[-112.10291750587506,43.40992644395443],[-112.10291750587506,43.425389518385174],[-112.51927560905608,43.425389518385174],[-112.51927560905608,43.62640948598485]]]}},{"type":"Feature","id":"16021","properties":{"name":"Boundary","county_fips":"16021","state_abbr":"ID"},"geometry":{"type":"Polygon","coordinates":[[[-117.03101815818158,48.998968790977905],[-116.41724888538884,48.999827850668495],[-116.04755160411604,49.00068691035909],[-116.04755160411604,48.50243228981289],[-116.78335687266872,48.5007141704317],[-116.78694616666166,48.84777428543285],[-117.03101815818158,48.84691522574225],[-117.03101815818158,48.998968790977905]]]}},{"type":"Feature","id":"16023","properties":{"name":"Butte","county_fips":"16023","state_abbr":"ID"},"geometry":{"type":"Polygon","coordinates":[[[-113.3196881694817,44.232905627546266],[-112.99665171011709,44.233764687236864],[-112.99306241612416,43.9726105412954],[-112.69515101471013,43.97175148160481],[-112.69874030870308,43.62297324722247],[-112.69874030870308,43.539644457234566],[-112.8171870104701,43.536208218472176],[-112.8171870104701,43.44944318972189],[-112.93563371223712,43.44944318972189],[-112.94640159421594,43.28450372912729],[-113.00741959209591,43.28450372912729],[-113.36275969739697,43.28450372912729],[-113.36275969739697,43.366973459424585],[-113.6355460408604,43.36783251911518],[-113.6355460408604,43.497550532395316],[-113.6714389807898,43.50012771146711],[-113.70015333273332,43.5843155611456],[-113.72886768467684,43.590328978979784],[-113.7970642705427,43.56885248671486],[-113.7611713306133,43.62297324722247],[-113.5278672210722,43.71918793256932],[-113.44890275322753,43.775026812458115],[-113.44172416524165,43.8085301403914],[-113.37711687336872,43.809389200081995],[-113.40942051930519,43.86007372182721],[-113.4560813412134,43.87725491563915],[-113.44531345923458,43.914194482334814],[-113.4560813412134,44.059375570045695],[-113.41659910729106,44.059375570045695],[-113.41659910729106,44.233764687236864],[-113.3196881694817,44.232905627546266]]]}},{"type":"Feature","id":"16025","properties":{"name":"Camas","county_fips":"16025","state_abbr":"ID"},"geometry":{"type":"Polygon","coordinates":[[[-114.98870987619875,43.85835560244602],[-114.8487274104741,43.81626167760677],[-114.85590599845997,43.79134894657946],[-114.80206658856588,43.80251672255722],[-114.7589950606506,43.79134894657946],[-114.71592353273532,43.81454355822557],[-114.69079847478474,43.75011408143081],[-114.66567341683417,43.73808724576245],[-114.6872091807918,43.68568460463604],[-114.66208412284122,43.66077187360873],[-114.68361988679887,43.590328978979784],[-114.58670894898948,43.5585437704277],[-114.5974768309683,43.5310538603286],[-114.56158389103891,43.49926865177651],[-114.50774448114481,43.47779215951159],[-114.54722671506714,43.43569823467234],[-114.52569095110951,43.39875866797667],[-114.53286953909539,43.33347013149131],[-114.39288707337073,43.32659765396653],[-114.39647636736366,43.25787287871878],[-114.37494060340603,43.25787287871878],[-114.37494060340603,43.19945681975819],[-114.59388753697536,43.19859776006759],[-115.08562081400814,43.197738700376995],[-115.08203152001519,43.60407393402933],[-115.03537069810697,43.61867794876948],[-115.03537069810697,43.67279870927709],[-115.0102456401564,43.71575169380693],[-115.04254928609285,43.74581878297782],[-115.02101352213522,43.82313415513154],[-114.98870987619875,43.85835560244602]]]}},{"type":"Feature","id":"16027","properties":{"name":"Canyon","county_fips":"16027","state_abbr":"ID"},"geometry":{"type":"Polygon","coordinates":[[[-116.98076804228042,43.87983209471094],[-116.95564298432984,43.87983209471094],[-116.95564298432984,43.836879110181094],[-116.91257145641455,43.8360200504905],[-116.89462498644986,43.8076710807008],[-116.85155345853458,43.79306706596065],[-116.71157099280992,43.8068120210102],[-116.51415982319823,43.8068120210102],[-116.51415982319823,43.63414102320022],[-116.47467758927588,43.63414102320022],[-116.47467758927588,43.458892846318456],[-116.51415982319823,43.458892846318456],[-116.51057052920528,43.29051714696146],[-116.57876711507114,43.305980221392204],[-116.62183864298643,43.370409698186975],[-116.67567805288053,43.40047678735787],[-116.77976757867577,43.478651219202185],[-116.77976757867577,43.52675856187561],[-116.81566051860517,43.578302143311426],[-116.91257145641455,43.60321487433874],[-116.95564298432984,43.63585914258142],[-116.96641086630865,43.667644351133504],[-117.02742886418864,43.68053024649246],[-117.02742886418864,43.8085301403914],[-117.02025027620274,43.859214662136615],[-116.98076804228042,43.87983209471094]]]}},{"type":"Feature","id":"16029","properties":{"name":"Caribou","county_fips":"16029","state_abbr":"ID"},"geometry":{"type":"Polygon","coordinates":[[[-112.06343527195271,43.02249052349523],[-111.58964846488465,43.019913344423436],[-111.04407577795777,43.01905428473284],[-111.04407577795777,42.72267869147691],[-111.04766507195072,42.51392718666186],[-111.06202224792247,42.501041291302904],[-111.16970106771068,42.473551381203805],[-111.2343083595836,42.47870573934738],[-111.22354047760477,42.57234324562245],[-111.24148694756947,42.60326939448394],[-111.28096918149181,42.55258487273872],[-111.36711223732237,42.59038349912498],[-111.60041634686347,42.59038349912498],[-111.63630928679287,42.569766066550656],[-111.57888058290582,42.42973933698336],[-111.60041634686347,42.415135322243216],[-111.87679198431984,42.415994381933814],[-111.88397057230571,42.489014455634546],[-111.91627421824218,42.52423590294902],[-111.91627421824218,42.61701434953349],[-111.9449885701857,42.63591366272662],[-111.9449885701857,42.67457134880348],[-111.97011362813627,42.71838339302392],[-112.05625668396684,42.71838339302392],[-112.10650679986799,42.69948407983079],[-112.13881044580445,42.751027661266605],[-112.14598903379033,42.79054440703406],[-112.12086397583975,42.83092021249212],[-112.14957832778327,42.89534968928689],[-112.12804256382563,42.94431609165091],[-112.08138174191741,42.95032950948509],[-112.08856032990329,42.973524121131206],[-112.05266738997389,42.99070531494314],[-112.06343527195271,43.02249052349523]]]}},{"type":"Feature","id":"16031","properties":{"name":"Cassia","county_fips":"16031","state_abbr":"ID"},"geometry":{"type":"Polygon","coordinates":[[[-114.00165402814028,42.52595402233022],[-113.93345744227442,42.535403678926784],[-113.89038591435914,42.54914863397633],[-113.82936791647916,42.535403678926784],[-113.77911780057799,42.55688017119171],[-113.73963556665566,42.52251778356783],[-113.6534925108251,42.53626273861738],[-113.57452804298042,42.64536331932319],[-113.4919742811428,42.673712289112885],[-113.47043851718516,42.6694169906599],[-113.37352757937579,42.68745724416244],[-113.30533099350993,42.62904118520184],[-113.23713440764406,42.62560494643946],[-113.17611640976409,42.627323065820654],[-113.17611640976409,42.589524439434385],[-113.00383029810297,42.5878063200532],[-113.00024100411004,42.32751123380233],[-113.00024100411004,41.99849137230372],[-113.82218932849328,41.988182656016555],[-114.04113626206261,41.99333701416013],[-114.2816189595896,41.99419607385073],[-114.28520825358252,42.41771250131501],[-114.06985061400613,42.41685344162441],[-114.0662613200132,42.51478624635246],[-114.00165402814028,42.52595402233022]]]}},{"type":"Feature","id":"16033","properties":{"name":"Clark","county_fips":"16033","state_abbr":"ID"},"geometry":{"type":"Polygon","coordinates":[[[-112.99665171011709,44.233764687236864],[-112.81359771647716,44.23032844847448],[-112.81359771647716,44.37722765556655],[-112.83513348043479,44.42275781916818],[-112.7812940705407,44.48461011689116],[-112.72027607266072,44.50436848977489],[-112.65925807478074,44.48546917658176],[-112.54081137301372,44.483751057200564],[-112.50132913909138,44.46313362462624],[-112.47261478714786,44.480314818438174],[-112.3864717313173,44.4476705501955],[-112.3577573793738,44.48632823627236],[-112.3505787913879,44.53873087739877],[-112.31827514545145,44.53873087739877],[-112.28597149951499,44.56879796656966],[-112.22854279562794,44.56278454873548],[-112.18547126771267,44.53271745956459],[-112.1352211518115,44.53958993708936],[-112.10650679986799,44.52069062389623],[-112.03113162601625,44.54646241461414],[-111.99523868608685,44.53529463863638],[-111.94857786417863,44.5567711309013],[-111.86961339633396,44.56364360842608],[-111.82295257442574,44.50952284791847],[-111.71527375463754,44.54388523554235],[-111.70450587265871,44.56020736966369],[-111.61836281682817,44.54903959368593],[-111.61836281682817,44.40128132690326],[-111.79064892848928,44.40128132690326],[-111.79064892848928,44.317093477224766],[-111.85166692636926,44.317093477224766],[-111.85884551435514,44.18737546394463],[-111.91268492424923,44.18737546394463],[-111.91268492424923,44.144422479414786],[-112.03472092000919,44.144422479414786],[-112.03472092000919,44.0576574506645],[-112.15675691576915,44.0576574506645],[-112.69515101471013,44.0585165103551],[-112.69515101471013,43.97175148160481],[-112.99306241612416,43.9726105412954],[-112.99665171011709,44.233764687236864]]]}},{"type":"Feature","id":"16035","properties":{"name":"Clearwater","county_fips":"16035","state_abbr":"ID"},"geometry":{"type":"Polygon","coordinates":[[[-116.45673111931119,46.62882310462104],[-116.33110582955828,46.627964044930444],[-116.33110582955828,46.93464835447354],[-115.8286046705467,46.93378929478294],[-114.96358481824818,46.93293023509234],[-114.93128117231171,46.92004433973339],[-114.94563834828348,46.859051101701006],[-114.88820964439644,46.808366579955795],[-114.76617364863648,46.758541117901174],[-114.78770941259413,46.71129283491834],[-114.76617364863648,46.696688820178196],[-114.67644129881297,46.73706462563625],[-114.62260188891888,46.70699753646536],[-114.64413765287652,46.67349420853208],[-114.59388753697536,46.63311840307402],[-115.63119350093501,46.473333300623],[-115.63478279492794,46.43725279361793],[-115.72451514475145,46.373682376513756],[-115.7388723207232,46.319561616006155],[-115.77835455464555,46.26715897487974],[-115.85014043450434,46.28262204931048],[-115.95781925429253,46.288635467144665],[-116.00089078220782,46.3066757206472],[-116.07626595605956,46.3616555408454],[-116.13010536595365,46.35392400363003],[-116.169587599876,46.37196425713256],[-116.1983019518195,46.41319912228121],[-116.30957006560064,46.41319912228121],[-116.37058806348062,46.46731988278882],[-116.37058806348062,46.500823210722096],[-116.44955253132531,46.49824603165031],[-116.45673111931119,46.62882310462104]]]}},{"type":"Feature","id":"16037","properties":{"name":"Custer","county_fips":"16037","state_abbr":"ID"},"geometry":{"type":"Polygon","coordinates":[[[-114.8128344705447,44.80847562024619],[-114.79847729457293,44.794730665196646],[-114.82001305853058,44.74748238221382],[-114.71233423874239,44.65040863717636],[-114.66208412284122,44.66243547284472],[-114.5974768309683,44.61948248831487],[-114.60465541895418,44.59714693635936],[-114.56876247902478,44.575670444094435],[-114.51492306913069,44.60401941388413],[-114.45031577725777,44.6117509510995],[-114.435958601286,44.65126769686696],[-114.38570848538485,44.67274418913188],[-114.37135130941309,44.70968375582755],[-114.40365495534955,44.73975084499844],[-114.35340483944839,44.75865015819157],[-114.34263695746957,44.79387160550605],[-114.27802966559665,44.82307963498634],[-114.2636724896249,44.849710485394844],[-114.19547590375903,44.8625963807538],[-114.20265449174491,44.7784085310753],[-114.21701166771668,44.74662332252322],[-114.13445790587905,44.730301188401874],[-114.0842077899779,44.756072979119786],[-114.00524332213321,44.63494556274562],[-113.97293967619676,44.61948248831487],[-113.81860003450034,44.494918833178325],[-113.6893854507545,44.46828798276982],[-113.66067109881098,44.45024772926728],[-113.58888521895219,44.44337525174251],[-113.50274216312162,44.421898759477585],[-113.44890275322753,44.45196584864848],[-113.40583122531224,44.38238201371013],[-113.34122393343932,44.31623441753417],[-113.3196881694817,44.232905627546266],[-113.41659910729106,44.233764687236864],[-113.41659910729106,44.059375570045695],[-113.4560813412134,44.059375570045695],[-113.44531345923458,43.914194482334814],[-113.4560813412134,43.87725491563915],[-113.40942051930519,43.86007372182721],[-113.37711687336872,43.809389200081995],[-113.44172416524165,43.8085301403914],[-113.44890275322753,43.775026812458115],[-113.5278672210722,43.71918793256932],[-113.7611713306133,43.62297324722247],[-113.7970642705427,43.56885248671486],[-113.8150107405074,43.59977863557635],[-113.87602873838738,43.65046315732157],[-113.97293967619676,43.70802015659156],[-114.00524332213321,43.76557715586155],[-114.0303683800838,43.77330869307692],[-114.06985061400613,43.73465100700006],[-114.11651143591435,43.74066442483424],[-114.14163649386494,43.77416775276752],[-114.2744403716037,43.83086569234692],[-114.29238684156842,43.88756363192631],[-114.36058342743426,43.87381867687676],[-114.41083354333543,43.89529516914168],[-114.50774448114481,43.89873140790407],[-114.52928024510244,43.84546970708706],[-114.58311965499654,43.851483124921245],[-114.60465541895418,43.89357704976049],[-114.68003059280592,43.92793943738437],[-114.8128344705447,43.92793943738437],[-114.8128344705447,43.99322797386973],[-114.87385246842467,43.99322797386973],[-114.97076340623406,43.93824815367153],[-114.9922991701917,43.94941592964929],[-114.96717411224111,43.98206019789197],[-114.98153128821288,44.01126822737227],[-115.04972787407874,44.03789907778077],[-114.99947775817758,44.0860064204542],[-115.0461385800858,44.12036880807808],[-115.01742422814227,44.1409862406524],[-115.08203152001519,44.17620768796687],[-115.10715657796577,44.1701942701327],[-115.16817457584575,44.202838538375374],[-115.16099598785988,44.239778105071046],[-115.17894245782458,44.29647604465044],[-115.28662127761277,44.32482501444014],[-115.29379986559866,44.33942902918029],[-115.24713904369042,44.386677312163116],[-115.22560327973278,44.48203293781937],[-115.23996045570455,44.51210002699026],[-115.28303198361982,44.51983156420563],[-115.30456774757747,44.57481138440384],[-115.28303198361982,44.60831471233712],[-115.20047822178222,44.62463684645846],[-115.16817457584575,44.64783145810458],[-115.13946022390223,44.71311999458994],[-115.15022810588106,44.72944212871128],[-115.08921010800107,44.76981793416933],[-114.9564062302623,44.72085153180531],[-114.90974540835407,44.75693203881038],[-114.8128344705447,44.80847562024619]]]}},{"type":"Feature","id":"16039","properties":{"name":"Elmore","county_fips":"16039","state_abbr":"ID"},"geometry":{"type":"Polygon","coordinates":[[[-116.26649853768538,43.112691791007904],[-115.97935501825017,43.1135508506985],[-115.97576572425723,43.59118803867038],[-115.87526549245491,43.59118803867038],[-115.83219396453964,43.60493299371993],[-115.77117596665965,43.65046315732157],[-115.69580079280792,43.66506717206171],[-115.62401491294912,43.728637589165885],[-115.63478279492794,43.74581878297782],[-115.59171126701267,43.798221424104234],[-115.54863973909738,43.79306706596065],[-115.53787185711857,43.84718782646826],[-115.50197891718916,43.890140810998105],[-115.36558574545745,43.92450319862198],[-115.28662127761277,43.93567097459974],[-115.19688892778927,44.06882522664226],[-115.22919257372573,44.09889231581315],[-115.16458528185281,44.075697704167034],[-115.13587092990929,43.98377831727316],[-115.06767434404344,43.94082533274332],[-115.03895999209992,43.95800652655526],[-114.9922991701917,43.94941592964929],[-114.97076340623406,43.93824815367153],[-114.99588846418463,43.914194482334814],[-114.98870987619875,43.85835560244602],[-115.02101352213522,43.82313415513154],[-115.04254928609285,43.74581878297782],[-115.0102456401564,43.71575169380693],[-115.03537069810697,43.67279870927709],[-115.03537069810697,43.61867794876948],[-115.08203152001519,43.60407393402933],[-115.08562081400814,43.197738700376995],[-115.08562081400814,42.91424900248002],[-115.03895999209992,42.91167182340823],[-115.03895999209992,42.76820885507854],[-115.45531809528094,42.76820885507854],[-115.45531809528094,42.85153764506644],[-115.44096091930919,42.850678585375846],[-115.44096091930919,42.931430196291956],[-115.50197891718916,42.92713489783897],[-115.53069326913268,42.942597972269716],[-115.60606844298442,42.93744361412613],[-115.62401491294912,42.95548386762867],[-115.69580079280792,42.939161733507326],[-115.77117596665965,42.93830267381673],[-115.7927117306173,42.97266506144061],[-115.8465511405114,42.96922882267822],[-115.93628349033489,43.0018730909209],[-115.9721764302643,42.970087882368816],[-115.96499784227842,42.943457031960314],[-116.01165866418663,42.94947044979449],[-116.05114089810897,42.985550956799564],[-116.1444625419254,43.01304086689866],[-116.14087324793248,43.03451735916359],[-116.20189124581245,43.04912137390373],[-116.19112336383364,43.08262470183701],[-116.26649853768538,43.112691791007904]]]}},{"type":"Feature","id":"16041","properties":{"name":"Franklin","county_fips":"16041","state_abbr":"ID"},"geometry":{"type":"Polygon","coordinates":[[[-112.12445326983269,42.28541730896308],[-111.98447080410803,42.28541730896308],[-111.98447080410803,42.25620927948279],[-111.89832774827748,42.25620927948279],[-111.89473845428454,42.415994381933814],[-111.87679198431984,42.415994381933814],[-111.60041634686347,42.415135322243216],[-111.60041634686347,42.3910816509065],[-111.55375552495525,42.35156490513904],[-111.58964846488465,42.32579311442114],[-111.5860591708917,42.287994488034876],[-111.56093411294113,42.276826712057115],[-111.61477352283522,42.245900563195626],[-111.62554140481404,42.207242877118766],[-111.60759493484935,42.153981176301755],[-111.5860591708917,42.1419543406334],[-111.60041634686347,42.09900135610356],[-111.51427329103291,42.068934266932665],[-111.50709470304703,41.999350431994316],[-112.11009609386093,41.99763231261312],[-112.11009609386093,42.170303310423094],[-112.07061385993859,42.169444250732504],[-112.07061385993859,42.238169025980255],[-112.12445326983269,42.28541730896308]]]}},{"type":"Feature","id":"16043","properties":{"name":"Fremont","county_fips":"16043","state_abbr":"ID"},"geometry":{"type":"Polygon","coordinates":[[[-112.15675691576915,44.0576574506645],[-112.03472092000919,44.0576574506645],[-112.03472092000919,44.144422479414786],[-111.91268492424923,44.144422479414786],[-111.91268492424923,44.18737546394463],[-111.85884551435514,44.18737546394463],[-111.85166692636926,44.317093477224766],[-111.79064892848928,44.317093477224766],[-111.79064892848928,44.40128132690326],[-111.61836281682817,44.40128132690326],[-111.61836281682817,44.54903959368593],[-111.5860591708917,44.56278454873548],[-111.47120176311762,44.54044899677996],[-111.52504117301173,44.59542881697816],[-111.46761246912469,44.679616666656656],[-111.48196964509644,44.70882469613695],[-111.41377305923059,44.710542815518146],[-111.37788011930118,44.7517776806668],[-111.32404070940709,44.7242877705677],[-111.22354047760477,44.62377778676786],[-111.23071906559065,44.586838220072195],[-111.14457600976009,44.53615369832698],[-111.12304024580246,44.49405977348773],[-111.04766507195072,44.474301400604],[-111.05125436594365,44.35403304392043],[-111.04766507195072,43.98377831727316],[-111.11227236382364,43.96831524284242],[-111.18764753767537,43.93223473583735],[-111.23789765357652,43.94855686995869],[-111.30968353343533,43.9193488404784],[-111.3527550613506,43.947697810268096],[-111.39941588325883,43.92278507924078],[-111.4245409412094,43.91075824357243],[-111.47838035110351,43.92793943738437],[-111.5322197609976,43.9193488404784],[-111.55734481894818,43.883268333473325],[-111.69732728467284,43.883268333473325],[-111.69732728467284,43.897872348213475],[-111.8373097503975,43.897872348213475],[-111.8373097503975,43.92708037769377],[-111.97729221612215,43.92708037769377],[-111.97729221612215,43.970892421914215],[-112.15675691576915,43.970892421914215],[-112.15675691576915,44.0576574506645]]]}},{"type":"Feature","id":"16045","properties":{"name":"Gem","county_fips":"16045","state_abbr":"ID"},"geometry":{"type":"Polygon","coordinates":[[[-116.45314182531826,44.15129495693956],[-116.35982018150182,44.15129495693956],[-116.34187371153712,44.27671767176671],[-116.34905229952298,44.322247835368344],[-116.32751653556535,44.35746928268282],[-116.32033794757947,44.42103969978699],[-116.29880218362183,44.44423431143311],[-116.23778418574184,44.46485174400743],[-116.21265912779127,44.51124096729966],[-116.15523042390423,44.49921413163131],[-116.1516411299113,44.32482501444014],[-116.21265912779127,44.32396595474954],[-116.21265912779127,44.15129495693956],[-116.27367712567124,44.15129495693956],[-116.28085571365713,43.8076710807008],[-116.51415982319823,43.8068120210102],[-116.71157099280992,43.8068120210102],[-116.71157099280992,43.98120113820138],[-116.57158852708525,43.98034207851078],[-116.57158852708525,44.009550107991075],[-116.53210629316293,44.00869104830048],[-116.53210629316293,44.06624804757047],[-116.45314182531826,44.06538898787987],[-116.45314182531826,44.15129495693956]]]}},{"type":"Feature","id":"16047","properties":{"name":"Gooding","county_fips":"16047","state_abbr":"ID"},"geometry":{"type":"Polygon","coordinates":[[[-115.08562081400814,43.197738700376995],[-114.59388753697536,43.19859776006759],[-114.59388753697536,42.850678585375846],[-114.61901259492595,42.850678585375846],[-114.615423300933,42.64965861777617],[-114.74463788467884,42.673712289112885],[-114.8128344705447,42.66426263251632],[-114.8487274104741,42.71408809457094],[-114.85949529245292,42.75532295971959],[-114.93487046630466,42.76734979538794],[-114.93845976029759,42.81287995898958],[-114.9025668203682,42.859269182281814],[-114.95999552425523,42.91510806217062],[-115.03895999209992,42.91167182340823],[-115.08562081400814,42.91424900248002],[-115.08562081400814,43.197738700376995]]]}},{"type":"Feature","id":"16049","properties":{"name":"Idaho","county_fips":"16049","state_abbr":"ID"},"geometry":{"type":"Polygon","coordinates":[[[-116.79412475464754,45.85652844277442],[-116.72951746277462,45.89432706916068],[-116.75823181471813,45.942434411834114],[-116.7008031108311,45.996555172341715],[-116.646963700937,45.99569611265112],[-116.646963700937,46.030917559965594],[-116.60748146701467,46.035212858418575],[-116.53210629316293,45.999991411104105],[-116.51415982319823,46.03779003749037],[-116.51415982319823,46.12885036469364],[-116.48185617726176,46.12111882747827],[-116.45314182531826,46.193279841488405],[-116.42801676736767,46.20187043839438],[-116.25573065570654,46.17094428953289],[-116.19471265782657,46.15290403603035],[-116.14805183591835,46.21046103530035],[-116.05473019210191,46.20960197560975],[-116.01524795817957,46.23021940818408],[-116.09421242602426,46.26801803457034],[-116.169587599876,46.37196425713256],[-116.13010536595365,46.35392400363003],[-116.07626595605956,46.3616555408454],[-116.00089078220782,46.3066757206472],[-115.95781925429253,46.288635467144665],[-115.85014043450434,46.28262204931048],[-115.77835455464555,46.26715897487974],[-115.7388723207232,46.319561616006155],[-115.72451514475145,46.373682376513756],[-115.63478279492794,46.43725279361793],[-115.63119350093501,46.473333300623],[-114.59388753697536,46.63311840307402],[-114.54722671506714,46.64428617905178],[-114.46826224722247,46.63140028369283],[-114.4539050712507,46.64944053719537],[-114.36058342743426,46.669198910079096],[-114.33186907549074,46.66060831317312],[-114.32110119351192,46.6107828511185],[-114.35699413344133,46.505118509175084],[-114.4000656613566,46.50254133010329],[-114.37494060340603,46.443266211452105],[-114.42160142531425,46.38742733156331],[-114.42519071930718,46.28777640745407],[-114.4718515412154,46.26715897487974],[-114.45031577725777,46.24138718416184],[-114.44672648326483,46.173521468604676],[-114.51492306913069,46.1675080507705],[-114.52210165711656,46.12541412593125],[-114.46108365923658,46.097065156141554],[-114.49338730517304,46.04723969408693],[-114.47903012920129,46.0008504707947],[-114.41083354333543,45.977655859148584],[-114.43236930729307,45.935561934309334],[-114.38570848538485,45.8891727110171],[-114.41083354333543,45.85137408463084],[-114.50056589315892,45.85051502494024],[-114.56517318503184,45.774058712477114],[-114.49697659916599,45.71048829537295],[-114.50056589315892,45.669253430224295],[-114.56517318503184,45.63746822167221],[-114.53645883308832,45.60654207281072],[-114.55799459704596,45.565307207662066],[-114.6333697708977,45.518917984369835],[-114.66208412284122,45.47081064169641],[-114.7051556507565,45.492287133961334],[-114.79488800058,45.50860926808267],[-114.79488800058,45.43644825407253],[-114.71951282672826,45.396072448614476],[-114.6692627108271,45.34281074779747],[-114.60465541895418,45.295562464814644],[-114.67644129881297,45.233710167091665],[-114.69438776877769,45.19677060039599],[-114.99947775817758,45.19677060039599],[-115.97576572425723,45.195052481014805],[-115.97576572425723,45.219106152351515],[-116.0798552500525,45.152958556175555],[-116.12292677796776,45.15897197400973],[-116.1444625419254,45.107428392573915],[-116.30598077160771,45.10914651195511],[-116.28444500765008,45.12890488483884],[-116.34187371153712,45.26807255471554],[-116.68644593485934,45.26807255471554],[-116.67567805288053,45.314461778007775],[-116.58953499704997,45.44332073159731],[-116.55364205712056,45.46307910448104],[-116.55005276312762,45.51032738746387],[-116.46390970729706,45.603105834048336],[-116.48903476524765,45.649495057340566],[-116.53569558715586,45.691588982179816],[-116.53569558715586,45.73711914578145],[-116.5931242910429,45.7783540109301],[-116.66132087690876,45.7800721303113],[-116.69721381683817,45.82044793576935],[-116.76182110871108,45.816152637316364],[-116.79412475464754,45.85652844277442]]]}},{"type":"Feature","id":"16051","properties":{"name":"Jefferson","county_fips":"16051","state_abbr":"ID"},"geometry":{"type":"Polygon","coordinates":[[[-112.69515101471013,43.97175148160481],[-112.69515101471013,44.0585165103551],[-112.15675691576915,44.0576574506645],[-112.15675691576915,43.970892421914215],[-111.97729221612215,43.970892421914215],[-111.97729221612215,43.92708037769377],[-111.97729221612215,43.79736236441364],[-111.98447080410803,43.75355032019319],[-111.93063139421393,43.767295275242745],[-111.83013116241162,43.71661075349753],[-111.77988104651045,43.67623494803947],[-111.71886304863048,43.655617515465146],[-111.62554140481404,43.655617515465146],[-111.62554140481404,43.62640948598485],[-112.51927560905608,43.62640948598485],[-112.69874030870308,43.62297324722247],[-112.69515101471013,43.97175148160481]]]}},{"type":"Feature","id":"16053","properties":{"name":"Jerome","county_fips":"16053","state_abbr":"ID"},"geometry":{"type":"Polygon","coordinates":[[[-114.59388753697536,42.850678585375846],[-114.36417272142721,42.850678585375846],[-114.34622625146251,42.80944372022719],[-114.0483148500485,42.808584660536596],[-114.0483148500485,42.76477261631616],[-113.93345744227442,42.76477261631616],[-113.93345744227442,42.535403678926784],[-114.00165402814028,42.52595402233022],[-114.04113626206261,42.528531201402004],[-114.13086861188611,42.49502787346873],[-114.18111872778726,42.531967440164394],[-114.2457260196602,42.55945735026349],[-114.33186907549074,42.57234324562245],[-114.37494060340603,42.59811503634035],[-114.46467295322952,42.59983315572155],[-114.54004812708126,42.63333648365483],[-114.615423300933,42.64965861777617],[-114.61901259492595,42.850678585375846],[-114.59388753697536,42.850678585375846]]]}},{"type":"Feature","id":"16055","properties":{"name":"Kootenai","county_fips":"16055","state_abbr":"ID"},"geometry":{"type":"Polygon","coordinates":[[[-117.04178604016039,47.97754681885818],[-116.63260652496524,47.97754681885818],[-116.63260652496524,47.99129177390773],[-116.5033919412194,47.99129177390773],[-116.5033919412194,47.8899227304173],[-116.33110582955828,47.890781790107894],[-116.33110582955828,47.41400366182661],[-116.58594570305702,47.41486272151721],[-116.6290172309723,47.40025870677706],[-116.6290172309723,47.371050677296765],[-116.7366960507605,47.371050677296765],[-116.7366960507605,47.385654692036915],[-116.81207122461224,47.38050033389333],[-116.81207122461224,47.36589631915319],[-117.04178604016039,47.36589631915319],[-117.04178604016039,47.97754681885818]]]}},{"type":"Feature","id":"16057","properties":{"name":"Latah","county_fips":"16057","state_abbr":"ID"},"geometry":{"type":"Polygon","coordinates":[[[-117.03819674616746,47.12707772516725],[-116.96641086630865,47.11505088949889],[-116.97717874828749,47.08927909878098],[-116.94487510235102,47.06694354682546],[-116.89462498644986,47.07811132280322],[-116.83360698856987,47.032581159201584],[-116.45673111931119,47.03687645765457],[-116.45673111931119,47.02227244291442],[-116.33110582955828,47.02227244291442],[-116.33110582955828,46.93464835447354],[-116.33110582955828,46.627964044930444],[-116.45673111931119,46.62882310462104],[-116.62183864298643,46.62968216431164],[-116.69721381683817,46.58758823947239],[-116.7187495807958,46.542917135561346],[-117.03819674616746,46.54205807587075],[-117.03819674616746,47.12707772516725]]]}},{"type":"Feature","id":"16059","properties":{"name":"Lemhi","county_fips":"16059","state_abbr":"ID"},"geometry":{"type":"Polygon","coordinates":[[[-114.8128344705447,44.80847562024619],[-114.76617364863648,44.841978948179474],[-114.76258435464354,44.875482276112756],[-114.7231021207212,44.8909453505435],[-114.73387000270002,44.92444867847678],[-114.7231021207212,45.00520028939289],[-114.7231021207212,45.180448466274655],[-114.69438776877769,45.19677060039599],[-114.67644129881297,45.233710167091665],[-114.60465541895418,45.295562464814644],[-114.6692627108271,45.34281074779747],[-114.71951282672826,45.396072448614476],[-114.79488800058,45.43644825407253],[-114.79488800058,45.50860926808267],[-114.7051556507565,45.492287133961334],[-114.66208412284122,45.47081064169641],[-114.6333697708977,45.518917984369835],[-114.55799459704596,45.565307207662066],[-114.46108365923658,45.561011909209086],[-114.41442283732836,45.50946832777327],[-114.36417272142721,45.49056901458014],[-114.34622625146251,45.45964286571865],[-114.26008319563195,45.49572337272372],[-114.24931531365313,45.54554883477834],[-114.20265449174491,45.535240118491174],[-114.13445790587905,45.557575670446695],[-114.0662613200132,45.62801856507564],[-114.01242191011909,45.658085654246534],[-114.01960049810498,45.69330710156101],[-113.98729685216851,45.704474877538765],[-113.94422532425324,45.68643462403623],[-113.89756450234502,45.64434069919699],[-113.9047430903309,45.62200514724147],[-113.86167156241562,45.62372326662266],[-113.80783215252151,45.60224677435774],[-113.8329572104721,45.52063610375103],[-113.76476062460624,45.52063610375103],[-113.7611713306133,45.48111935798357],[-113.78270709457094,45.45534756726566],[-113.7611713306133,45.40638116490164],[-113.73245697866977,45.3900590307803],[-113.73963556665566,45.329924852438516],[-113.6893854507545,45.283535629146286],[-113.68579615676155,45.253468539975394],[-113.59965310093101,45.19075718256182],[-113.57452804298042,45.12804582514824],[-113.51351004510045,45.11515992978929],[-113.52068863308632,45.09282437783377],[-113.45249204722046,45.05932104990049],[-113.4381348712487,45.006918408774084],[-113.44531345923458,44.95967012579125],[-113.49556357513575,44.94850234981349],[-113.4560813412134,44.86517355982559],[-113.35558110941109,44.81964339622395],[-113.34122393343932,44.78528100860008],[-113.24790228962289,44.82307963498634],[-113.13304488184882,44.77325417293172],[-113.06843758997589,44.679616666656656],[-113.05049112001119,44.636663682126816],[-113.08279476594765,44.59542881697816],[-113.00741959209591,44.525844982039814],[-113.02536606206061,44.49663695255952],[-113.00383029810297,44.45110678895788],[-112.94999088820887,44.41674440133401],[-112.88538359633596,44.39612696875968],[-112.84590136241361,44.35832834237342],[-112.81359771647716,44.37722765556655],[-112.81359771647716,44.23032844847448],[-112.99665171011709,44.233764687236864],[-113.3196881694817,44.232905627546266],[-113.34122393343932,44.31623441753417],[-113.40583122531224,44.38238201371013],[-113.44890275322753,44.45196584864848],[-113.50274216312162,44.421898759477585],[-113.58888521895219,44.44337525174251],[-113.66067109881098,44.45024772926728],[-113.6893854507545,44.46828798276982],[-113.81860003450034,44.494918833178325],[-113.97293967619676,44.61948248831487],[-114.00524332213321,44.63494556274562],[-114.0842077899779,44.756072979119786],[-114.13445790587905,44.730301188401874],[-114.21701166771668,44.74662332252322],[-114.20265449174491,44.7784085310753],[-114.19547590375903,44.8625963807538],[-114.2636724896249,44.849710485394844],[-114.27802966559665,44.82307963498634],[-114.34263695746957,44.79387160550605],[-114.35340483944839,44.75865015819157],[-114.40365495534955,44.73975084499844],[-114.37135130941309,44.70968375582755],[-114.38570848538485,44.67274418913188],[-114.435958601286,44.65126769686696],[-114.45031577725777,44.6117509510995],[-114.51492306913069,44.60401941388413],[-114.56876247902478,44.575670444094435],[-114.60465541895418,44.59714693635936],[-114.5974768309683,44.61948248831487],[-114.66208412284122,44.66243547284472],[-114.71233423874239,44.65040863717636],[-114.82001305853058,44.74748238221382],[-114.79847729457293,44.794730665196646],[-114.8128344705447,44.80847562024619]]]}},{"type":"Feature","id":"16061","properties":{"name":"Lewis","county_fips":"16061","state_abbr":"ID"},"geometry":{"type":"Polygon","coordinates":[[[-116.37058806348062,46.46731988278882],[-116.30957006560064,46.41319912228121],[-116.1983019518195,46.41319912228121],[-116.169587599876,46.37196425713256],[-116.09421242602426,46.26801803457034],[-116.01524795817957,46.23021940818408],[-116.05473019210191,46.20960197560975],[-116.14805183591835,46.21046103530035],[-116.19471265782657,46.15290403603035],[-116.25573065570654,46.17094428953289],[-116.42801676736767,46.20187043839438],[-116.45314182531826,46.193279841488405],[-116.48185617726176,46.12111882747827],[-116.51415982319823,46.12885036469364],[-116.51415982319823,46.03779003749037],[-116.53210629316293,45.999991411104105],[-116.60748146701467,46.035212858418575],[-116.646963700937,46.030917559965594],[-116.646963700937,45.99569611265112],[-116.7008031108311,45.996555172341715],[-116.7008031108311,46.23795094539945],[-116.6828566408664,46.243105303543025],[-116.71516028680287,46.32557503384033],[-116.48903476524765,46.32557503384033],[-116.46749900129001,46.351346824558235],[-116.37058806348062,46.343615287342864],[-116.36699876948768,46.4166353610436],[-116.41724888538884,46.46817894247942],[-116.37058806348062,46.46731988278882]]]}},{"type":"Feature","id":"16063","properties":{"name":"Lincoln","county_fips":"16063","state_abbr":"ID"},"geometry":{"type":"Polygon","coordinates":[[[-114.59388753697536,43.19859776006759],[-114.37494060340603,43.19945681975819],[-113.71451050870508,43.19945681975819],[-113.71451050870508,42.84981952568525],[-113.76476062460624,42.84981952568525],[-113.76476062460624,42.76477261631616],[-113.93345744227442,42.76477261631616],[-114.0483148500485,42.76477261631616],[-114.0483148500485,42.808584660536596],[-114.34622625146251,42.80944372022719],[-114.36417272142721,42.850678585375846],[-114.59388753697536,42.850678585375846],[-114.59388753697536,43.19859776006759]]]}},{"type":"Feature","id":"16065","properties":{"name":"Madison","county_fips":"16065","state_abbr":"ID"},"geometry":{"type":"Polygon","coordinates":[[[-111.97729221612215,43.92708037769377],[-111.8373097503975,43.92708037769377],[-111.8373097503975,43.897872348213475],[-111.69732728467284,43.897872348213475],[-111.69732728467284,43.883268333473325],[-111.55734481894818,43.883268333473325],[-111.5322197609976,43.9193488404784],[-111.47838035110351,43.92793943738437],[-111.4245409412094,43.91075824357243],[-111.39941588325883,43.92278507924078],[-111.39941588325883,43.62211418753187],[-111.62554140481404,43.62640948598485],[-111.62554140481404,43.655617515465146],[-111.71886304863048,43.655617515465146],[-111.77988104651045,43.67623494803947],[-111.83013116241162,43.71661075349753],[-111.93063139421393,43.767295275242745],[-111.98447080410803,43.75355032019319],[-111.97729221612215,43.79736236441364],[-111.97729221612215,43.92708037769377]]]}},{"type":"Feature","id":"16067","properties":{"name":"Minidoka","county_fips":"16067","state_abbr":"ID"},"geometry":{"type":"Polygon","coordinates":[[[-113.93345744227442,42.76477261631616],[-113.76476062460624,42.76477261631616],[-113.76476062460624,42.84981952568525],[-113.71451050870508,42.84981952568525],[-113.71451050870508,43.19945681975819],[-113.41300981329813,43.19945681975819],[-113.41300981329813,42.84896046599465],[-113.47043851718516,42.84896046599465],[-113.47043851718516,42.6694169906599],[-113.4919742811428,42.673712289112885],[-113.57452804298042,42.64536331932319],[-113.6534925108251,42.53626273861738],[-113.73963556665566,42.52251778356783],[-113.77911780057799,42.55688017119171],[-113.82936791647916,42.535403678926784],[-113.89038591435914,42.54914863397633],[-113.93345744227442,42.535403678926784],[-113.93345744227442,42.76477261631616]]]}},{"type":"Feature","id":"16069","properties":{"name":"Nez Perce","county_fips":"16069","state_abbr":"ID"},"geometry":{"type":"Polygon","coordinates":[[[-117.03819674616746,46.42608501764017],[-117.03819674616746,46.54205807587075],[-116.7187495807958,46.542917135561346],[-116.69721381683817,46.58758823947239],[-116.62183864298643,46.62968216431164],[-116.45673111931119,46.62882310462104],[-116.44955253132531,46.49824603165031],[-116.37058806348062,46.500823210722096],[-116.37058806348062,46.46731988278882],[-116.41724888538884,46.46817894247942],[-116.36699876948768,46.4166353610436],[-116.37058806348062,46.343615287342864],[-116.46749900129001,46.351346824558235],[-116.48903476524765,46.32557503384033],[-116.71516028680287,46.32557503384033],[-116.6828566408664,46.243105303543025],[-116.7008031108311,46.23795094539945],[-116.7008031108311,45.996555172341715],[-116.75823181471813,45.942434411834114],[-116.72951746277462,45.89432706916068],[-116.79412475464754,45.85652844277442],[-116.85873204652046,45.90377672575725],[-116.9161607504075,45.99569611265112],[-116.95564298432984,46.07558866387663],[-116.98076804228042,46.085038320473195],[-116.91975004440044,46.16493087169871],[-116.96282157231572,46.19929325932259],[-116.96282157231572,46.25341401983019],[-116.99153592425924,46.299803243122426],[-117.05255392213921,46.343615287342864],[-117.03819674616746,46.42608501764017]]]}},{"type":"Feature","id":"16071","properties":{"name":"Oneida","county_fips":"16071","state_abbr":"ID"},"geometry":{"type":"Polygon","coordinates":[[[-113.00024100411004,42.32751123380233],[-112.6556687807878,42.32922935318352],[-112.6556687807878,42.415994381933814],[-112.49773984509845,42.415994381933814],[-112.49773984509845,42.5027594106841],[-112.41877537725377,42.5027594106841],[-112.38288243732437,42.5027594106841],[-112.34340020340203,42.4477795904859],[-112.29673938149381,42.453793008320076],[-112.29315008750086,42.38678635245352],[-112.32904302743027,42.34726960668606],[-112.32545373343733,42.32407499503994],[-112.27520361753616,42.318920636896365],[-112.26084644156441,42.350705845448445],[-112.18906056170562,42.350705845448445],[-112.15675691576915,42.29486696555965],[-112.12445326983269,42.28541730896308],[-112.07061385993859,42.238169025980255],[-112.07061385993859,42.169444250732504],[-112.11009609386093,42.170303310423094],[-112.11009609386093,41.99763231261312],[-112.16393550375503,41.99677325292252],[-112.19264985569855,42.0010685513755],[-113.00024100411004,41.99849137230372],[-113.00024100411004,42.32751123380233]]]}},{"type":"Feature","id":"16073","properties":{"name":"Owyhee","county_fips":"16073","state_abbr":"ID"},"geometry":{"type":"Polygon","coordinates":[[[-117.02742886418864,43.68053024649246],[-116.96641086630865,43.667644351133504],[-116.95564298432984,43.63585914258142],[-116.91257145641455,43.60321487433874],[-116.81566051860517,43.578302143311426],[-116.77976757867577,43.52675856187561],[-116.77976757867577,43.478651219202185],[-116.67567805288053,43.40047678735787],[-116.62183864298643,43.370409698186975],[-116.57876711507114,43.305980221392204],[-116.51057052920528,43.29051714696146],[-116.42442747337472,43.29395338572385],[-116.37776665146652,43.23124202831028],[-116.38494523945238,43.193443401924014],[-116.33469512355123,43.16165819337193],[-116.29880218362183,43.11956426853268],[-116.26649853768538,43.112691791007904],[-116.19112336383364,43.08262470183701],[-116.20189124581245,43.04912137390373],[-116.14087324793248,43.03451735916359],[-116.1444625419254,43.01304086689866],[-116.05114089810897,42.985550956799564],[-116.01165866418663,42.94947044979449],[-115.96499784227842,42.943457031960314],[-115.9721764302643,42.970087882368816],[-115.93628349033489,43.0018730909209],[-115.8465511405114,42.96922882267822],[-115.7927117306173,42.97266506144061],[-115.77117596665965,42.93830267381673],[-115.69580079280792,42.939161733507326],[-115.62401491294912,42.95548386762867],[-115.60606844298442,42.93744361412613],[-115.53069326913268,42.942597972269716],[-115.50197891718916,42.92713489783897],[-115.44096091930919,42.931430196291956],[-115.44096091930919,42.850678585375846],[-115.45531809528094,42.85153764506644],[-115.45531809528094,42.76820885507854],[-115.03895999209992,42.76820885507854],[-115.03895999209992,41.995914193231926],[-115.31533562955629,41.995914193231926],[-116.36699876948768,41.995914193231926],[-117.01666098220981,41.999350431994316],[-117.02742886418864,42.00020949168491],[-117.02742886418864,43.68053024649246]]]}},{"type":"Feature","id":"16075","properties":{"name":"Payette","county_fips":"16075","state_abbr":"ID"},"geometry":{"type":"Polygon","coordinates":[[[-116.8982142804428,44.153013076320754],[-116.45314182531826,44.15129495693956],[-116.45314182531826,44.06538898787987],[-116.53210629316293,44.06624804757047],[-116.53210629316293,44.00869104830048],[-116.57158852708525,44.009550107991075],[-116.57158852708525,43.98034207851078],[-116.71157099280992,43.98120113820138],[-116.71157099280992,43.8068120210102],[-116.85155345853458,43.79306706596065],[-116.89462498644986,43.8076710807008],[-116.91257145641455,43.8360200504905],[-116.95564298432984,43.836879110181094],[-116.95564298432984,43.87983209471094],[-116.98076804228042,43.87983209471094],[-116.98076804228042,43.91505354202541],[-116.93769651436514,43.98463737696376],[-116.9341072203722,44.02157694365943],[-116.97358945429454,44.04906685375853],[-116.97717874828749,44.0851473607636],[-116.9341072203722,44.09975137550375],[-116.8982142804428,44.153013076320754]]]}},{"type":"Feature","id":"16077","properties":{"name":"Power","county_fips":"16077","state_abbr":"ID"},"geometry":{"type":"Polygon","coordinates":[[[-113.00741959209591,43.11097367162671],[-113.00741959209591,42.862705421044204],[-112.8171870104701,42.8635644807348],[-112.79565124651246,42.87730943578435],[-112.74899042460424,42.951188569175685],[-112.73822254262542,42.90565840557405],[-112.70232960269603,42.93572549474494],[-112.64490089880898,42.94173891257912],[-112.58747219492194,42.973524121131206],[-112.51927560905608,42.912530883098825],[-112.51568631506315,42.79054440703406],[-112.49773984509845,42.79054440703406],[-112.49773984509845,42.73298740776407],[-112.45825761117611,42.73298740776407],[-112.45825761117611,42.696906900759004],[-112.41877537725377,42.67543040849408],[-112.41877537725377,42.646222379013786],[-112.37929314333142,42.646222379013786],[-112.3864717313173,42.57148418593185],[-112.41518608326082,42.56804794716947],[-112.41877537725377,42.5027594106841],[-112.49773984509845,42.5027594106841],[-112.49773984509845,42.415994381933814],[-112.6556687807878,42.415994381933814],[-112.6556687807878,42.32922935318352],[-113.00024100411004,42.32751123380233],[-113.00383029810297,42.5878063200532],[-113.17611640976409,42.589524439434385],[-113.17611640976409,42.627323065820654],[-113.23713440764406,42.62560494643946],[-113.23713440764406,42.67543040849408],[-113.17970570375704,42.67543040849408],[-113.17970570375704,42.762195437244365],[-113.23713440764406,42.762195437244365],[-113.24431299562995,42.84810140630405],[-113.24431299562995,43.11097367162671],[-113.00741959209591,43.11097367162671]]]}},{"type":"Feature","id":"16079","properties":{"name":"Shoshone","county_fips":"16079","state_abbr":"ID"},"geometry":{"type":"Polygon","coordinates":[[[-116.04755160411604,47.97754681885818],[-115.90756913839138,47.84611068619685],[-115.85372972849729,47.82807043269432],[-115.82501537655375,47.75247317992179],[-115.79630102461024,47.75762753806537],[-115.77117596665965,47.717251732607316],[-115.72451514475145,47.69663430003299],[-115.73169373273731,47.64251353952539],[-115.68862220482204,47.59526525654256],[-115.73528302673026,47.567775346443455],[-115.74246161471615,47.53856731696316],[-115.7029793807938,47.53427201851018],[-115.68503291082911,47.48530561614616],[-115.62760420694207,47.479292198311974],[-115.63837208892087,47.46039288511884],[-115.71733655676556,47.45352040759407],[-115.76040808468085,47.42259425873258],[-115.7209258507585,47.424312378113775],[-115.55222903309033,47.34957418503184],[-115.52710397513974,47.30318496173961],[-115.41224656736566,47.26452727566275],[-115.32610351153511,47.25593667875678],[-115.29379986559866,47.220715231442306],[-115.30097845358452,47.18807096319962],[-115.26149621966219,47.182057545365446],[-115.2435497496975,47.15027233681336],[-115.20047822178222,47.1391045608356],[-115.13946022390223,47.09271533754337],[-115.07126363803637,47.02227244291442],[-115.04972787407874,46.970728861478605],[-115.00306705217052,46.9715879211692],[-114.96358481824818,46.93293023509234],[-115.8286046705467,46.93378929478294],[-116.33110582955828,46.93464835447354],[-116.33110582955828,47.02227244291442],[-116.33110582955828,47.41400366182661],[-116.33110582955828,47.890781790107894],[-116.33110582955828,48.017922624316235],[-116.27367712567124,48.06173466853668],[-116.23419489174891,48.06860714606145],[-116.1624090118901,48.021358863078625],[-116.11933748397483,48.03338569874698],[-116.04755160411604,47.97754681885818]]]}},{"type":"Feature","id":"16081","properties":{"name":"Teton","county_fips":"16081","state_abbr":"ID"},"geometry":{"type":"Polygon","coordinates":[[[-111.39941588325883,43.92278507924078],[-111.3527550613506,43.947697810268096],[-111.30968353343533,43.9193488404784],[-111.23789765357652,43.94855686995869],[-111.18764753767537,43.93223473583735],[-111.11227236382364,43.96831524284242],[-111.04766507195072,43.98377831727316],[-111.04766507195072,43.68138930618306],[-111.04407577795777,43.500986771157706],[-111.0548436599366,43.51988608435084],[-111.14457600976009,43.54651693475934],[-111.209183301633,43.543939755687546],[-111.24507624156242,43.62211418753187],[-111.39941588325883,43.62211418753187],[-111.39941588325883,43.92278507924078]]]}},{"type":"Feature","id":"16083","properties":{"name":"Twin Falls","county_fips":"16083","state_abbr":"ID"},"geometry":{"type":"Polygon","coordinates":[[[-115.03895999209992,42.76820885507854],[-115.03895999209992,42.91167182340823],[-114.95999552425523,42.91510806217062],[-114.9025668203682,42.859269182281814],[-114.93845976029759,42.81287995898958],[-114.93487046630466,42.76734979538794],[-114.85949529245292,42.75532295971959],[-114.8487274104741,42.71408809457094],[-114.8128344705447,42.66426263251632],[-114.74463788467884,42.673712289112885],[-114.615423300933,42.64965861777617],[-114.54004812708126,42.63333648365483],[-114.46467295322952,42.59983315572155],[-114.37494060340603,42.59811503634035],[-114.33186907549074,42.57234324562245],[-114.2457260196602,42.55945735026349],[-114.18111872778726,42.531967440164394],[-114.13086861188611,42.49502787346873],[-114.04113626206261,42.528531201402004],[-114.00165402814028,42.52595402233022],[-114.0662613200132,42.51478624635246],[-114.06985061400613,42.41685344162441],[-114.28520825358252,42.41771250131501],[-114.2816189595896,41.99419607385073],[-114.5974768309683,41.99419607385073],[-114.80565588255882,42.0019276110661],[-115.03895999209992,41.995914193231926],[-115.03895999209992,42.76820885507854]]]}},{"type":"Feature","id":"16085","properties":{"name":"Valley","county_fips":"16085","state_abbr":"ID"},"geometry":{"type":"Polygon","coordinates":[[[-116.15523042390423,44.49921413163131],[-116.18394477584775,44.58769727976279],[-116.15881971789717,44.69336162170621],[-116.20906983379834,44.77325417293172],[-116.1983019518195,44.8625963807538],[-116.1624090118901,44.902972186211855],[-116.15523042390423,44.941629872288715],[-116.1157481899819,44.97685131960319],[-116.1336946599466,45.00863652815527],[-116.09062313203131,45.06189822897228],[-116.14087324793248,45.08165660185601],[-116.1444625419254,45.107428392573915],[-116.12292677796776,45.15897197400973],[-116.0798552500525,45.152958556175555],[-115.97576572425723,45.219106152351515],[-115.97576572425723,45.195052481014805],[-114.99947775817758,45.19677060039599],[-114.69438776877769,45.19677060039599],[-114.7231021207212,45.180448466274655],[-114.7231021207212,45.00520028939289],[-114.73387000270002,44.92444867847678],[-114.7231021207212,44.8909453505435],[-114.76258435464354,44.875482276112756],[-114.76617364863648,44.841978948179474],[-114.8128344705447,44.80847562024619],[-114.90974540835407,44.75693203881038],[-114.9564062302623,44.72085153180531],[-115.08921010800107,44.76981793416933],[-115.15022810588106,44.72944212871128],[-115.13946022390223,44.71311999458994],[-115.16817457584575,44.64783145810458],[-115.20047822178222,44.62463684645846],[-115.28303198361982,44.60831471233712],[-115.30456774757747,44.57481138440384],[-115.28303198361982,44.51983156420563],[-115.23996045570455,44.51210002699026],[-115.22560327973278,44.48203293781937],[-115.24713904369042,44.386677312163116],[-115.29379986559866,44.33942902918029],[-115.3512285694857,44.348019626086256],[-115.3512285694857,44.30506664155641],[-115.49838962319623,44.233764687236864],[-116.0978017200172,44.236341866308656],[-116.1157481899819,44.15129495693956],[-116.21265912779127,44.15129495693956],[-116.21265912779127,44.32396595474954],[-116.1516411299113,44.32482501444014],[-116.15523042390423,44.49921413163131]]]}},{"type":"Feature","id":"16087","properties":{"name":"Washington","county_fips":"16087","state_abbr":"ID"},"geometry":{"type":"Polygon","coordinates":[[[-116.90180357443575,44.841119888488876],[-116.62542793697936,44.838542709417084],[-116.62542793697936,44.66243547284472],[-116.60389217302172,44.61518718986189],[-116.52851699917,44.61518718986189],[-116.52851699917,44.491482594415935],[-116.40648100341002,44.44423431143311],[-116.29880218362183,44.44423431143311],[-116.32033794757947,44.42103969978699],[-116.32751653556535,44.35746928268282],[-116.34905229952298,44.322247835368344],[-116.34187371153712,44.27671767176671],[-116.35982018150182,44.15129495693956],[-116.45314182531826,44.15129495693956],[-116.8982142804428,44.153013076320754],[-116.90180357443575,44.17964392672926],[-116.96641086630865,44.194247941469406],[-116.97358945429454,44.239778105071046],[-117.04537533415333,44.22946938878388],[-117.10280403804038,44.2801539105291],[-117.17100062390622,44.25867741826418],[-117.22125073980739,44.30163040279402],[-117.18894709387092,44.336851850108495],[-117.24278650376503,44.39612696875968],[-117.21407215182151,44.42705311762117],[-117.22484003380033,44.483751057200564],[-117.16023274192742,44.52498592234922],[-117.12433980199802,44.58168386192861],[-117.09562545005448,44.66501265191651],[-117.04537533415333,44.744905203142025],[-116.93051792637925,44.786999127981275],[-116.90180357443575,44.841119888488876]]]}}]}