{"type":"FeatureCollection","features":[{"type":"Feature","id":"18001","properties":{"name":"Adams","county_fips":"18001","state_abbr":"IN"},"geometry":{"type":"Polygon","coordinates":[[[-85.07553373903738,40.91779428153281],[-84.80274739557396,40.92294863967639],[-84.80274739557396,40.72794208991089],[-84.80274739557396,40.57245228591285],[-85.0683551510515,40.568156987459865],[-85.07553373903738,40.91779428153281]]]}},{"type":"Feature","id":"18003","properties":{"name":"Allen","county_fips":"18003","state_abbr":"IN"},"geometry":{"type":"Polygon","coordinates":[[[-85.30883784857848,41.26399533684336],[-85.19039114681146,41.26399533684336],[-84.80274739557396,41.27086781436814],[-84.80274739557396,41.252827560865605],[-84.80274739557396,40.98909623585235],[-84.80274739557396,40.92294863967639],[-85.07553373903738,40.91779428153281],[-85.337552200522,40.91693522184221],[-85.33396290652907,41.00541836997369],[-85.337552200522,41.17894842747427],[-85.30883784857848,41.17894842747427],[-85.30883784857848,41.26399533684336]]]}},{"type":"Feature","id":"18005","properties":{"name":"Bartholomew","county_fips":"18005","state_abbr":"IN"},"geometry":{"type":"Polygon","coordinates":[[[-86.0841253510535,39.343996928359275],[-85.95132147331474,39.347433167121665],[-85.68571371783717,39.35001034619346],[-85.68571371783717,39.130950125091246],[-85.80057112561126,39.12923200571005],[-85.80057112561126,39.06823876767767],[-85.86158912349123,39.04074885757857],[-86.08053605706057,39.035594499434985],[-86.08053605706057,39.050198514175136],[-86.0841253510535,39.343996928359275]]]}},{"type":"Feature","id":"18007","properties":{"name":"Benton","county_fips":"18007","state_abbr":"IN"},"geometry":{"type":"Polygon","coordinates":[[[-87.52702153621536,40.4770966602566],[-87.52702153621536,40.490841615306145],[-87.52702153621536,40.73653268681686],[-87.26859236872369,40.73653268681686],[-87.09989555105551,40.73653268681686],[-87.09630625706257,40.56300262931629],[-87.09271696306963,40.475378540875404],[-87.52702153621536,40.4770966602566]]]}},{"type":"Feature","id":"18009","properties":{"name":"Blackford","county_fips":"18009","state_abbr":"IN"},"geometry":{"type":"Polygon","coordinates":[[[-85.4452310203102,40.56729792776927],[-85.20115902879029,40.56729792776927],[-85.20833761677616,40.379163855528546],[-85.21910549875498,40.379163855528546],[-85.4452310203102,40.379163855528546],[-85.4452310203102,40.56729792776927]]]}},{"type":"Feature","id":"18011","properties":{"name":"Boone","county_fips":"18011","state_abbr":"IN"},"geometry":{"type":"Polygon","coordinates":[[[-86.6943053298533,40.179002947619466],[-86.35332240052401,40.178143887928876],[-86.24205428674287,40.18072106700066],[-86.23846499274993,39.92643939858398],[-86.32460804858049,39.92386221951219],[-86.6943053298533,39.92300315982159],[-86.6943053298533,40.179002947619466]]]}},{"type":"Feature","id":"18013","properties":{"name":"Brown","county_fips":"18013","state_abbr":"IN"},"geometry":{"type":"Polygon","coordinates":[[[-86.38203675246753,39.339701629906294],[-86.25282216872168,39.34141974928749],[-86.0841253510535,39.343996928359275],[-86.08053605706057,39.050198514175136],[-86.3174294605946,39.04848039479394],[-86.3712688704887,39.04848039479394],[-86.3712688704887,39.25121848177481],[-86.38203675246753,39.339701629906294]]]}},{"type":"Feature","id":"18015","properties":{"name":"Carroll","county_fips":"18015","state_abbr":"IN"},"geometry":{"type":"Polygon","coordinates":[[[-86.58303721607216,40.73567362712627],[-86.52560851218512,40.73567362712627],[-86.52560851218512,40.69272064259642],[-86.37485816448164,40.69272064259642],[-86.37485816448164,40.56128450993509],[-86.37485816448164,40.43156649665496],[-86.6943053298533,40.43242555634556],[-86.6943053298533,40.56214356962569],[-86.76968050370503,40.56214356962569],[-86.77326979769798,40.66437167280672],[-86.74096615176151,40.68155286661866],[-86.76250191571916,40.69787500074],[-86.75173403374033,40.73567362712627],[-86.58303721607216,40.73567362712627]]]}},{"type":"Feature","id":"18017","properties":{"name":"Cass","county_fips":"18017","state_abbr":"IN"},"geometry":{"type":"Polygon","coordinates":[[[-86.58303721607216,40.910921804008034],[-86.46817980829807,40.910062744317436],[-86.17026840688406,40.910062744317436],[-86.16667911289113,40.56300262931629],[-86.37485816448164,40.56128450993509],[-86.37485816448164,40.69272064259642],[-86.52560851218512,40.69272064259642],[-86.52560851218512,40.73567362712627],[-86.58303721607216,40.73567362712627],[-86.58303721607216,40.910921804008034]]]}},{"type":"Feature","id":"18019","properties":{"name":"Clark","county_fips":"18019","state_abbr":"IN"},"geometry":{"type":"Polygon","coordinates":[[[-85.99439300123001,38.41793058189581],[-85.99439300123001,38.48837347652476],[-85.95850006130061,38.50211843157431],[-85.88312488744887,38.503836550955505],[-85.84723194751948,38.561393550225496],[-85.79339253762538,38.60520559444594],[-85.57085631006309,38.60606465413653],[-85.49548113621135,38.60692371382713],[-85.47753466624665,38.5863062812528],[-85.4272845503455,38.5863062812528],[-85.41651666836668,38.54077611765117],[-85.43446313833138,38.52445398352983],[-85.47394537225372,38.50641373002729],[-85.4990704302043,38.46861510364103],[-85.60674924999249,38.439407074160734],[-85.63905289592896,38.38013195550955],[-85.67494583585835,38.30109846397463],[-85.74314242172422,38.26759513604135],[-85.78980324363243,38.28821256861568],[-85.79698183161831,38.33288367252672],[-85.76108889168891,38.350064866338656],[-85.80774971359713,38.404185626846264],[-85.96567864928649,38.403326567155666],[-85.99439300123001,38.41793058189581]]]}},{"type":"Feature","id":"18021","properties":{"name":"Clay","county_fips":"18021","state_abbr":"IN"},"geometry":{"type":"Polygon","coordinates":[[[-87.23987801678017,39.258950018990184],[-87.23987801678017,39.52096322462224],[-87.20039578285783,39.520104164931645],[-87.20039578285783,39.60686919368193],[-87.01375249522495,39.605151074300736],[-87.01375249522495,39.47371494163941],[-86.93837732137321,39.47371494163941],[-86.94196661536616,39.34227880897809],[-87.05323472914729,39.34227880897809],[-87.05323472914729,39.16788969178691],[-87.23987801678017,39.1721849902399],[-87.23987801678017,39.258950018990184]]]}},{"type":"Feature","id":"18023","properties":{"name":"Clinton","county_fips":"18023","state_abbr":"IN"},"geometry":{"type":"Polygon","coordinates":[[[-86.6943053298533,40.21422439493394],[-86.6943053298533,40.43242555634556],[-86.37485816448164,40.43156649665496],[-86.31025087260872,40.43156649665496],[-86.31025087260872,40.38861351212511],[-86.24205428674287,40.37400949738497],[-86.24205428674287,40.21594251431514],[-86.24205428674287,40.18072106700066],[-86.35332240052401,40.178143887928876],[-86.6943053298533,40.179002947619466],[-86.6943053298533,40.21422439493394]]]}},{"type":"Feature","id":"18025","properties":{"name":"Crawford","county_fips":"18025","state_abbr":"IN"},"geometry":{"type":"Polygon","coordinates":[[[-86.67994815388154,38.3947359702497],[-86.31025087260872,38.3938769105591],[-86.31025087260872,38.423084940039395],[-86.25641146271462,38.423084940039395],[-86.2456435807358,38.34920580664806],[-86.2815365206652,38.35092392602925],[-86.25282216872168,38.29164880737807],[-86.27435793267932,38.27962197170971],[-86.28871510865109,38.20230659955599],[-86.33178663656636,38.180830107291065],[-86.37485816448164,38.19371600265002],[-86.3712688704887,38.16450797316973],[-86.32460804858049,38.15419925688256],[-86.32819734257342,38.13272276461764],[-86.37485816448164,38.131004645236445],[-86.40357251642516,38.10609191420914],[-86.4610012203122,38.12155498863988],[-86.4610012203122,38.20660189800898],[-86.57226933409333,38.207460957699574],[-86.5686800401004,38.26673607635076],[-86.67994815388154,38.26329983758837],[-86.67994815388154,38.3947359702497]]]}},{"type":"Feature","id":"18027","properties":{"name":"Daviess","county_fips":"18027","state_abbr":"IN"},"geometry":{"type":"Polygon","coordinates":[[[-87.09989555105551,38.904158366773665],[-86.90248438144381,38.904158366773665],[-86.90248438144381,38.81739333802337],[-86.92402014540146,38.81739333802337],[-86.92402014540146,38.5055546703367],[-86.94196661536616,38.492668774977744],[-86.9922167312673,38.51328620755207],[-87.07118119911199,38.515004326933266],[-87.10707413904139,38.53733987888878],[-87.15014566695666,38.51586338662386],[-87.17527072490725,38.54421235641356],[-87.2434673107731,38.54507141610416],[-87.25423519275192,38.63183644485444],[-87.23987801678017,38.63183644485444],[-87.27936025070251,38.69111156350563],[-87.2434673107731,38.750386682156815],[-87.23987801678017,38.81911145740457],[-87.21475295882958,38.807943681426806],[-87.1716814309143,38.846601367503666],[-87.15014566695666,38.8380107705977],[-87.13219919699196,38.885259053580526],[-87.09989555105551,38.904158366773665]]]}},{"type":"Feature","id":"18029","properties":{"name":"Dearborn","county_fips":"18029","state_abbr":"IN"},"geometry":{"type":"Polygon","coordinates":[[[-85.13296244292442,38.9479704109941],[-85.0863016210162,39.20654737786377],[-85.06476585705856,39.30705736166361],[-84.82069386553866,39.305339242282415],[-84.82069386553866,39.105178334373335],[-84.8888904514045,39.066520648296475],[-84.87812256942568,39.03044014129141],[-84.95349774327742,38.99521869397693],[-84.99656927119271,38.996936813358126],[-85.05758726907268,38.9488294706847],[-85.09706950299503,38.93508451563515],[-85.13296244292442,38.9479704109941]]]}},{"type":"Feature","id":"18031","properties":{"name":"Decatur","county_fips":"18031","state_abbr":"IN"},"geometry":{"type":"Polygon","coordinates":[[[-85.68571371783717,39.35001034619346],[-85.63187430794308,39.35001034619346],[-85.62828501395013,39.45309750906508],[-85.29806996659967,39.45309750906508],[-85.29806996659967,39.26839967558675],[-85.44164172631726,39.19537960188601],[-85.56726701607016,39.13266824447244],[-85.68571371783717,39.130950125091246],[-85.68571371783717,39.35001034619346]]]}},{"type":"Feature","id":"18033","properties":{"name":"DeKalb","county_fips":"18033","state_abbr":"IN"},"geometry":{"type":"Polygon","coordinates":[[[-85.19398044080441,41.52600854247542],[-84.80633668956689,41.530303840928404],[-84.80274739557396,41.426357618366175],[-84.80274739557396,41.27086781436814],[-85.19039114681146,41.26399533684336],[-85.19398044080441,41.52600854247542]]]}},{"type":"Feature","id":"18035","properties":{"name":"Delaware","county_fips":"18035","state_abbr":"IN"},"geometry":{"type":"Polygon","coordinates":[[[-85.57803489804898,40.379163855528546],[-85.4452310203102,40.379163855528546],[-85.21910549875498,40.379163855528546],[-85.21910549875498,40.30700284151841],[-85.21551620476204,40.07677484443844],[-85.57444560405604,40.07677484443844],[-85.57803489804898,40.379163855528546]]]}},{"type":"Feature","id":"18037","properties":{"name":"Dubois","county_fips":"18037","state_abbr":"IN"},"geometry":{"type":"Polygon","coordinates":[[[-87.07118119911199,38.515004326933266],[-86.9922167312673,38.51328620755207],[-86.94196661536616,38.492668774977744],[-86.92402014540146,38.5055546703367],[-86.87735932349324,38.49524595404954],[-86.8378770895709,38.52617210291102],[-86.68353744787447,38.52617210291102],[-86.67994815388154,38.3947359702497],[-86.67994815388154,38.26329983758837],[-86.67994815388154,38.24783676315762],[-86.79121626766268,38.24869582284822],[-86.79121626766268,38.20488377862778],[-87.0173417892179,38.20316565924659],[-87.07477049310492,38.204024718937184],[-87.07477049310492,38.23237368872688],[-87.07118119911199,38.515004326933266]]]}},{"type":"Feature","id":"18039","properties":{"name":"Elkhart","county_fips":"18039","state_abbr":"IN"},"geometry":{"type":"Polygon","coordinates":[[[-86.06258958709587,41.760531838008376],[-85.78980324363243,41.75881371862718],[-85.6605886598866,41.75881371862718],[-85.65341007190072,41.523431363403624],[-85.65341007190072,41.43666633465334],[-86.05900029310293,41.43580727496274],[-86.05900029310293,41.47876025949259],[-86.06258958709587,41.760531838008376]]]}},{"type":"Feature","id":"18041","properties":{"name":"Fayette","county_fips":"18041","state_abbr":"IN"},"geometry":{"type":"Polygon","coordinates":[[[-85.3016592605926,39.78727172870728],[-85.22269479274793,39.78813078839788],[-85.18321255882559,39.78813078839788],[-85.18680185281852,39.71511071469714],[-85.03605150511505,39.71511071469714],[-85.03605150511505,39.52611758276582],[-85.29806996659967,39.52525852307522],[-85.3016592605926,39.78727172870728]]]}},{"type":"Feature","id":"18043","properties":{"name":"Floyd","county_fips":"18043","state_abbr":"IN"},"geometry":{"type":"Polygon","coordinates":[[[-86.03387523515235,38.41793058189581],[-85.99439300123001,38.41793058189581],[-85.96567864928649,38.403326567155666],[-85.80774971359713,38.404185626846264],[-85.76108889168891,38.350064866338656],[-85.79698183161831,38.33288367252672],[-85.78980324363243,38.28821256861568],[-85.82928547755478,38.27704479263792],[-85.8508212415124,38.222924032130315],[-85.90107135741357,38.17997104760047],[-85.95850006130061,38.18598446543465],[-85.95491076730767,38.26072265851658],[-85.99080370723706,38.27532667325673],[-86.03387523515235,38.33030649345493],[-86.03387523515235,38.41793058189581]]]}},{"type":"Feature","id":"18045","properties":{"name":"Fountain","county_fips":"18045","state_abbr":"IN"},"geometry":{"type":"Polygon","coordinates":[[[-87.4049855404554,40.12745936618366],[-87.43728918639187,40.16439893287932],[-87.41934271642717,40.19188884297842],[-87.35832471854718,40.21078815617155],[-87.24705660476604,40.3087209608996],[-87.13219919699196,40.340506169451686],[-87.09271696306963,40.3662779601696],[-87.09271696306963,40.21508345462454],[-87.09271696306963,39.95307024899248],[-87.41934271642717,39.952211189301885],[-87.43369989239892,40.02609032269322],[-87.41575342243422,40.058734590935906],[-87.4049855404554,40.12745936618366]]]}},{"type":"Feature","id":"18047","properties":{"name":"Franklin","county_fips":"18047","state_abbr":"IN"},"geometry":{"type":"Polygon","coordinates":[[[-85.29806996659967,39.52525852307522],[-85.03605150511505,39.52611758276582],[-84.81710457154571,39.52182228431283],[-84.82069386553866,39.305339242282415],[-85.06476585705856,39.30705736166361],[-85.21910549875498,39.308775481044805],[-85.29806996659967,39.26839967558675],[-85.29806996659967,39.45309750906508],[-85.29806996659967,39.52525852307522]]]}},{"type":"Feature","id":"18049","properties":{"name":"Fulton","county_fips":"18049","state_abbr":"IN"},"geometry":{"type":"Polygon","coordinates":[[[-86.46817980829807,41.1712168902589],[-86.07694676306762,41.17293500964009],[-86.07694676306762,41.08445186150861],[-86.01951805918058,41.0861699808898],[-86.01951805918058,41.041498876978764],[-85.94414288532884,41.04321699635996],[-85.94773217932179,40.999404952139514],[-86.16667911289113,40.995968713377124],[-86.17026840688406,40.910062744317436],[-86.46817980829807,40.910062744317436],[-86.46817980829807,41.1712168902589]]]}},{"type":"Feature","id":"18051","properties":{"name":"Gibson","county_fips":"18051","state_abbr":"IN"},"geometry":{"type":"Polygon","coordinates":[[[-87.98645116731167,38.2564273600636],[-87.95773681536815,38.24010522594225],[-87.92543316943168,38.29852128490284],[-87.90748669946699,38.26845419573195],[-87.88236164151641,38.303675643046425],[-87.85364728957289,38.27532667325673],[-87.80698646766467,38.36295076169761],[-87.77827211572115,38.37068229891298],[-87.7459684697847,38.41449434313343],[-87.59880741607415,38.450574850138494],[-87.57368235812358,38.49095065559655],[-87.4947178902789,38.496105013740134],[-87.46241424434244,38.5339036401264],[-87.46241424434244,38.46603792456924],[-87.44446777437774,38.43597083539835],[-87.40857483444834,38.43597083539835],[-87.40857483444834,38.37583665705657],[-87.3152531906319,38.38185007489074],[-87.3152531906319,38.246118643776434],[-87.3152531906319,38.20144753986539],[-87.46600353833539,38.20144753986539],[-87.46600353833539,38.165367032860324],[-87.68853976589766,38.16880327162271],[-87.68853976589766,38.200588480174794],[-87.7998078796788,38.20230659955599],[-87.7998078796788,38.22893744996449],[-87.98645116731167,38.22979650965509],[-87.98645116731167,38.2564273600636]]]}},{"type":"Feature","id":"18053","properties":{"name":"Grant","county_fips":"18053","state_abbr":"IN"},"geometry":{"type":"Polygon","coordinates":[[[-85.86517841748417,40.65148577744777],[-85.63905289592896,40.65320389682896],[-85.44882031430313,40.65320389682896],[-85.4452310203102,40.56729792776927],[-85.4452310203102,40.379163855528546],[-85.57803489804898,40.379163855528546],[-85.86158912349123,40.37830479583795],[-85.86158912349123,40.40665376562765],[-85.86517841748417,40.56557980838808],[-85.86517841748417,40.65148577744777]]]}},{"type":"Feature","id":"18055","properties":{"name":"Greene","county_fips":"18055","state_abbr":"IN"},"geometry":{"type":"Polygon","coordinates":[[[-87.23987801678017,39.1721849902399],[-87.05323472914729,39.16788969178691],[-86.68353744787447,39.166171572405716],[-86.68353744787447,38.992641514905145],[-86.68353744787447,38.905017426464255],[-86.90248438144381,38.904158366773665],[-87.09989555105551,38.904158366773665],[-87.23987801678017,38.90759460553605],[-87.23987801678017,39.1721849902399]]]}},{"type":"Feature","id":"18057","properties":{"name":"Hamilton","county_fips":"18057","state_abbr":"IN"},"geometry":{"type":"Polygon","coordinates":[[[-86.24205428674287,40.21594251431514],[-85.86158912349123,40.21851969338693],[-85.86158912349123,39.943620592395916],[-85.86158912349123,39.92901657765577],[-85.93696429734297,39.92729845827458],[-86.23846499274993,39.92643939858398],[-86.24205428674287,40.18072106700066],[-86.24205428674287,40.21594251431514]]]}},{"type":"Feature","id":"18059","properties":{"name":"Hancock","county_fips":"18059","state_abbr":"IN"},"geometry":{"type":"Polygon","coordinates":[[[-85.93696429734297,39.92729845827458],[-85.86158912349123,39.92901657765577],[-85.86158912349123,39.943620592395916],[-85.57444560405604,39.94533871177711],[-85.57803489804898,39.87317769776697],[-85.59598136801368,39.87317769776697],[-85.59598136801368,39.786412669016684],[-85.63187430794308,39.786412669016684],[-85.63187430794308,39.6987885805758],[-85.95132147331474,39.697070461194606],[-85.95491076730767,39.85599650395503],[-85.93696429734297,39.86974145900459],[-85.93696429734297,39.92729845827458]]]}},{"type":"Feature","id":"18061","properties":{"name":"Harrison","county_fips":"18061","state_abbr":"IN"},"geometry":{"type":"Polygon","coordinates":[[[-86.25641146271462,38.423084940039395],[-86.03387523515235,38.41793058189581],[-86.03387523515235,38.33030649345493],[-85.99080370723706,38.27532667325673],[-85.95491076730767,38.26072265851658],[-85.95850006130061,38.18598446543465],[-85.90107135741357,38.17997104760047],[-85.90466065140652,38.08633354132541],[-85.92260712137121,38.026199362983625],[-85.94414288532884,38.00815910948109],[-85.99798229522295,37.99956851257512],[-86.03387523515235,37.99011885597855],[-86.0482324111241,37.95919270711706],[-86.09489323303232,38.00901816917168],[-86.17385770087701,38.00987722886228],[-86.26717934469345,38.057125511845115],[-86.27076863868638,38.13787712276122],[-86.33178663656636,38.180830107291065],[-86.28871510865109,38.20230659955599],[-86.27435793267932,38.27962197170971],[-86.25282216872168,38.29164880737807],[-86.2815365206652,38.35092392602925],[-86.2456435807358,38.34920580664806],[-86.25641146271462,38.423084940039395]]]}},{"type":"Feature","id":"18063","properties":{"name":"Hendricks","county_fips":"18063","state_abbr":"IN"},"geometry":{"type":"Polygon","coordinates":[[[-86.6943053298533,39.92300315982159],[-86.32460804858049,39.92386221951219],[-86.32819734257342,39.71940601315013],[-86.32460804858049,39.63178192470924],[-86.46459051430514,39.63006380532805],[-86.46459051430514,39.600855775847755],[-86.6584123899239,39.601714835538345],[-86.6404659199592,39.63006380532805],[-86.68712674186742,39.63006380532805],[-86.68712674186742,39.864587100861],[-86.6943053298533,39.864587100861],[-86.6943053298533,39.92300315982159]]]}},{"type":"Feature","id":"18065","properties":{"name":"Henry","county_fips":"18065","state_abbr":"IN"},"geometry":{"type":"Polygon","coordinates":[[[-85.57444560405604,39.94533871177711],[-85.57444560405604,40.07677484443844],[-85.21551620476204,40.07677484443844],[-85.20115902879029,40.0046138304283],[-85.20115902879029,39.87403675745757],[-85.21910549875498,39.87317769776697],[-85.22269479274793,39.78813078839788],[-85.3016592605926,39.78727172870728],[-85.59598136801368,39.786412669016684],[-85.59598136801368,39.87317769776697],[-85.57803489804898,39.87317769776697],[-85.57444560405604,39.94533871177711]]]}},{"type":"Feature","id":"18067","properties":{"name":"Howard","county_fips":"18067","state_abbr":"IN"},"geometry":{"type":"Polygon","coordinates":[[[-86.37485816448164,40.56128450993509],[-86.16667911289113,40.56300262931629],[-85.86517841748417,40.56557980838808],[-85.86158912349123,40.40665376562765],[-86.24205428674287,40.40321752686526],[-86.24205428674287,40.37400949738497],[-86.31025087260872,40.38861351212511],[-86.31025087260872,40.43156649665496],[-86.37485816448164,40.43156649665496],[-86.37485816448164,40.56128450993509]]]}},{"type":"Feature","id":"18069","properties":{"name":"Huntington","county_fips":"18069","state_abbr":"IN"},"geometry":{"type":"Polygon","coordinates":[[[-85.6426421899219,41.00198213121131],[-85.33396290652907,41.00541836997369],[-85.337552200522,40.91693522184221],[-85.33396290652907,40.65406295651956],[-85.44882031430313,40.65320389682896],[-85.63905289592896,40.65320389682896],[-85.6426421899219,41.00198213121131]]]}},{"type":"Feature","id":"18071","properties":{"name":"Jackson","county_fips":"18071","state_abbr":"IN"},"geometry":{"type":"Polygon","coordinates":[[[-86.3174294605946,39.04848039479394],[-86.08053605706057,39.050198514175136],[-86.08053605706057,39.035594499434985],[-85.86158912349123,39.04074885757857],[-85.80057112561126,39.06823876767767],[-85.79698183161831,38.80708462173621],[-85.8400533595336,38.74093702556025],[-85.88671418144182,38.73406454803548],[-85.98362511925119,38.76842693565935],[-86.02669664716647,38.75640009999099],[-86.09130393903939,38.7838900100901],[-86.13437546695467,38.76241351782517],[-86.18462558285583,38.7838900100901],[-86.27435793267932,38.76413163720637],[-86.2815365206652,38.99092339552395],[-86.3174294605946,38.99092339552395],[-86.3174294605946,39.04848039479394]]]}},{"type":"Feature","id":"18073","properties":{"name":"Jasper","county_fips":"18073","state_abbr":"IN"},"geometry":{"type":"Polygon","coordinates":[[[-87.27577095670956,41.218465173241725],[-87.21834225282252,41.241659784887844],[-87.19321719487195,41.26571345622455],[-87.13219919699196,41.28633088879888],[-87.06041331713317,41.26914969498694],[-86.96709167331673,41.21932423293232],[-86.93119873338733,41.23650542674426],[-86.93119873338733,41.172075949949495],[-86.93119873338733,40.91263992338923],[-86.98862743727437,40.91178086369863],[-86.98503814328143,40.837901730307294],[-87.09989555105551,40.837901730307294],[-87.09989555105551,40.73653268681686],[-87.26859236872369,40.73653268681686],[-87.26859236872369,40.91178086369863],[-87.27577095670956,40.91178086369863],[-87.27577095670956,41.218465173241725]]]}},{"type":"Feature","id":"18075","properties":{"name":"Jay","county_fips":"18075","state_abbr":"IN"},"geometry":{"type":"Polygon","coordinates":[[[-85.21910549875498,40.379163855528546],[-85.20833761677616,40.379163855528546],[-85.20115902879029,40.56729792776927],[-85.0683551510515,40.568156987459865],[-84.80274739557396,40.57245228591285],[-84.80274739557396,40.352533005120044],[-84.80274739557396,40.310439080280794],[-85.21910549875498,40.30700284151841],[-85.21910549875498,40.379163855528546]]]}},{"type":"Feature","id":"18077","properties":{"name":"Jefferson","county_fips":"18077","state_abbr":"IN"},"geometry":{"type":"Polygon","coordinates":[[[-85.68212442384423,38.81567521864218],[-85.61033854398543,38.82426581554815],[-85.61033854398543,38.85347384502845],[-85.57444560405604,38.85347384502845],[-85.57444560405604,38.88268187450874],[-85.53855266412664,38.88268187450874],[-85.53855266412664,38.911889903989035],[-85.4452310203102,38.91274896367963],[-85.20474832278323,38.91360802337023],[-85.20115902879029,38.69111156350563],[-85.25858773267733,38.73750078679786],[-85.33396290652907,38.735782667416665],[-85.4093380803808,38.73750078679786],[-85.45240960829608,38.70915181700816],[-85.4272845503455,38.5863062812528],[-85.47753466624665,38.5863062812528],[-85.49548113621135,38.60692371382713],[-85.57085631006309,38.60606465413653],[-85.57085631006309,38.67822566814667],[-85.60674924999249,38.67908472783727],[-85.61033854398543,38.70743369762697],[-85.64623148391483,38.708292757317565],[-85.68212442384423,38.73664172710726],[-85.68212442384423,38.81567521864218]]]}},{"type":"Feature","id":"18079","properties":{"name":"Jennings","county_fips":"18079","state_abbr":"IN"},"geometry":{"type":"Polygon","coordinates":[[[-85.68571371783717,39.130950125091246],[-85.56726701607016,39.13266824447244],[-85.44164172631726,39.19537960188601],[-85.4452310203102,38.91274896367963],[-85.53855266412664,38.911889903989035],[-85.53855266412664,38.88268187450874],[-85.57444560405604,38.88268187450874],[-85.57444560405604,38.85347384502845],[-85.61033854398543,38.85347384502845],[-85.61033854398543,38.82426581554815],[-85.68212442384423,38.81567521864218],[-85.7323745397454,38.83199735276352],[-85.79698183161831,38.80708462173621],[-85.80057112561126,39.06823876767767],[-85.80057112561126,39.12923200571005],[-85.68571371783717,39.130950125091246]]]}},{"type":"Feature","id":"18081","properties":{"name":"Johnson","county_fips":"18081","state_abbr":"IN"},"geometry":{"type":"Polygon","coordinates":[[[-86.24923287472875,39.63350004409043],[-85.95132147331474,39.63865440223402],[-85.95491076730767,39.38351367412673],[-85.95132147331474,39.347433167121665],[-86.0841253510535,39.343996928359275],[-86.25282216872168,39.34141974928749],[-86.24923287472875,39.63350004409043]]]}},{"type":"Feature","id":"18083","properties":{"name":"Knox","county_fips":"18083","state_abbr":"IN"},"geometry":{"type":"Polygon","coordinates":[[[-87.65264682596826,38.56826602775027],[-87.6203431800318,38.63956798206981],[-87.59521812208122,38.66705789216891],[-87.54496800618006,38.677366608456076],[-87.4947178902789,38.742655144941445],[-87.49830718427184,38.77873565194651],[-87.53420012420123,38.85261478533785],[-87.55214659416593,38.85948726286262],[-87.52702153621536,38.90759460553605],[-87.52343224222241,38.90244024739247],[-87.23987801678017,38.90158118770187],[-87.23987801678017,38.90759460553605],[-87.09989555105551,38.904158366773665],[-87.13219919699196,38.885259053580526],[-87.15014566695666,38.8380107705977],[-87.1716814309143,38.846601367503666],[-87.21475295882958,38.807943681426806],[-87.23987801678017,38.81911145740457],[-87.2434673107731,38.750386682156815],[-87.27936025070251,38.69111156350563],[-87.23987801678017,38.63183644485444],[-87.25423519275192,38.63183644485444],[-87.2434673107731,38.54507141610416],[-87.30089601466014,38.50984996878968],[-87.35473542455424,38.54335329672296],[-87.41216412844128,38.52617210291102],[-87.46241424434244,38.5339036401264],[-87.4947178902789,38.496105013740134],[-87.57368235812358,38.49095065559655],[-87.59880741607415,38.450574850138494],[-87.7459684697847,38.41449434313343],[-87.73878988179881,38.47548758116581],[-87.65264682596826,38.511568088170876],[-87.65264682596826,38.56826602775027]]]}},{"type":"Feature","id":"18085","properties":{"name":"Kosciusko","county_fips":"18085","state_abbr":"IN"},"geometry":{"type":"Polygon","coordinates":[[[-86.07694676306762,41.17293500964009],[-86.05541099910998,41.17293500964009],[-86.05900029310293,41.43580727496274],[-85.65341007190072,41.43666633465334],[-85.65341007190072,41.29492148570485],[-85.65341007190072,41.17808936778367],[-85.68571371783717,41.17808936778367],[-85.68571371783717,41.04665323512234],[-85.94414288532884,41.04321699635996],[-86.01951805918058,41.041498876978764],[-86.01951805918058,41.0861699808898],[-86.07694676306762,41.08445186150861],[-86.07694676306762,41.17293500964009]]]}},{"type":"Feature","id":"18087","properties":{"name":"LaGrange","county_fips":"18087","state_abbr":"IN"},"geometry":{"type":"Polygon","coordinates":[[[-85.6605886598866,41.75881371862718],[-85.29089137861378,41.75967277831778],[-85.19756973479734,41.75967277831778],[-85.19398044080441,41.52600854247542],[-85.65341007190072,41.523431363403624],[-85.6605886598866,41.75881371862718]]]}},{"type":"Feature","id":"18089","properties":{"name":"Lake","county_fips":"18089","state_abbr":"IN"},"geometry":{"type":"Polygon","coordinates":[[[-87.52702153621536,41.29835772446724],[-87.52702153621536,41.47016966258662],[-87.52343224222241,41.70812919688196],[-87.46959283232832,41.672907749567486],[-87.42652130441304,41.69008894337943],[-87.40139624646245,41.67720304802047],[-87.4229320104201,41.642840660396594],[-87.32602107261073,41.623082287512865],[-87.22193154681547,41.62394134720346],[-87.21834225282252,41.241659784887844],[-87.27577095670956,41.218465173241725],[-87.32602107261073,41.18582090499904],[-87.41575342243422,41.16262629335293],[-87.4408784803848,41.17379406933069],[-87.52702153621536,41.16606253211531],[-87.52702153621536,41.29835772446724]]]}},{"type":"Feature","id":"18091","properties":{"name":"LaPorte","county_fips":"18091","state_abbr":"IN"},"geometry":{"type":"Polygon","coordinates":[[[-86.93119873338733,41.710706375953755],[-86.82351991359913,41.760531838008376],[-86.52560851218512,41.75967277831778],[-86.52560851218512,41.65057219761197],[-86.48612627826277,41.649713137921374],[-86.48612627826277,41.57067964638646],[-86.50407274822747,41.519136064950644],[-86.52560851218512,41.51999512464124],[-86.52560851218512,41.43323009589095],[-86.64405521395214,41.43237103620036],[-86.70148391783917,41.402303947029466],[-86.74096615176151,41.321552336113356],[-86.7840376796768,41.28547182910828],[-86.87018073550735,41.264854396533956],[-86.93119873338733,41.23650542674426],[-86.93119873338733,41.710706375953755]]]}},{"type":"Feature","id":"18093","properties":{"name":"Lawrence","county_fips":"18093","state_abbr":"IN"},"geometry":{"type":"Polygon","coordinates":[[[-86.68353744787447,38.905017426464255],[-86.68353744787447,38.992641514905145],[-86.3174294605946,38.99092339552395],[-86.2815365206652,38.99092339552395],[-86.27435793267932,38.76413163720637],[-86.31025087260872,38.73320548834488],[-86.31025087260872,38.68767532474324],[-86.68353744787447,38.68681626505264],[-86.68353744787447,38.905017426464255]]]}},{"type":"Feature","id":"18095","properties":{"name":"Madison","county_fips":"18095","state_abbr":"IN"},"geometry":{"type":"Polygon","coordinates":[[[-85.86158912349123,40.21851969338693],[-85.86158912349123,40.37830479583795],[-85.57803489804898,40.379163855528546],[-85.57444560405604,40.07677484443844],[-85.57444560405604,39.94533871177711],[-85.86158912349123,39.943620592395916],[-85.86158912349123,40.21851969338693]]]}},{"type":"Feature","id":"18097","properties":{"name":"Marion","county_fips":"18097","state_abbr":"IN"},"geometry":{"type":"Polygon","coordinates":[[[-86.32460804858049,39.92386221951219],[-86.23846499274993,39.92643939858398],[-85.93696429734297,39.92729845827458],[-85.93696429734297,39.86974145900459],[-85.95491076730767,39.85599650395503],[-85.95132147331474,39.697070461194606],[-85.95132147331474,39.63865440223402],[-86.24923287472875,39.63350004409043],[-86.32460804858049,39.63178192470924],[-86.32819734257342,39.71940601315013],[-86.32460804858049,39.92386221951219]]]}},{"type":"Feature","id":"18099","properties":{"name":"Marshall","county_fips":"18099","state_abbr":"IN"},"geometry":{"type":"Polygon","coordinates":[[[-86.05900029310293,41.47876025949259],[-86.05900029310293,41.43580727496274],[-86.05541099910998,41.17293500964009],[-86.07694676306762,41.17293500964009],[-86.46817980829807,41.1712168902589],[-86.46817980829807,41.43323009589095],[-86.46817980829807,41.476183080420796],[-86.05900029310293,41.47876025949259]]]}},{"type":"Feature","id":"18101","properties":{"name":"Martin","county_fips":"18101","state_abbr":"IN"},"geometry":{"type":"Polygon","coordinates":[[[-86.90248438144381,38.904158366773665],[-86.68353744787447,38.905017426464255],[-86.68353744787447,38.68681626505264],[-86.68353744787447,38.52617210291102],[-86.8378770895709,38.52617210291102],[-86.87735932349324,38.49524595404954],[-86.92402014540146,38.5055546703367],[-86.92402014540146,38.81739333802337],[-86.90248438144381,38.81739333802337],[-86.90248438144381,38.904158366773665]]]}},{"type":"Feature","id":"18103","properties":{"name":"Miami","county_fips":"18103","state_abbr":"IN"},"geometry":{"type":"Polygon","coordinates":[[[-86.17026840688406,40.910062744317436],[-86.16667911289113,40.995968713377124],[-85.94773217932179,40.999404952139514],[-85.94055359133591,40.65062671775717],[-85.86517841748417,40.65148577744777],[-85.86517841748417,40.56557980838808],[-86.16667911289113,40.56300262931629],[-86.17026840688406,40.910062744317436]]]}},{"type":"Feature","id":"18105","properties":{"name":"Monroe","county_fips":"18105","state_abbr":"IN"},"geometry":{"type":"Polygon","coordinates":[[[-86.62969803798038,39.34657410743107],[-86.62969803798038,39.34056068959689],[-86.38203675246753,39.339701629906294],[-86.3712688704887,39.25121848177481],[-86.3712688704887,39.04848039479394],[-86.3174294605946,39.04848039479394],[-86.3174294605946,38.99092339552395],[-86.68353744787447,38.992641514905145],[-86.68353744787447,39.166171572405716],[-86.68712674186742,39.336265391143904],[-86.62969803798038,39.34657410743107]]]}},{"type":"Feature","id":"18107","properties":{"name":"Montgomery","county_fips":"18107","state_abbr":"IN"},"geometry":{"type":"Polygon","coordinates":[[[-87.09271696306963,40.21508345462454],[-86.6943053298533,40.21422439493394],[-86.6943053298533,40.179002947619466],[-86.6943053298533,39.92300315982159],[-86.6943053298533,39.864587100861],[-87.010163201232,39.8663052202422],[-87.09271696306963,39.867164279932794],[-87.09271696306963,39.95307024899248],[-87.09271696306963,40.21508345462454]]]}},{"type":"Feature","id":"18109","properties":{"name":"Morgan","county_fips":"18109","state_abbr":"IN"},"geometry":{"type":"Polygon","coordinates":[[[-86.6584123899239,39.601714835538345],[-86.46459051430514,39.600855775847755],[-86.46459051430514,39.63006380532805],[-86.32460804858049,39.63178192470924],[-86.24923287472875,39.63350004409043],[-86.25282216872168,39.34141974928749],[-86.38203675246753,39.339701629906294],[-86.62969803798038,39.34056068959689],[-86.62969803798038,39.34657410743107],[-86.63328733197332,39.470278702877025],[-86.68712674186742,39.470278702877025],[-86.68712674186742,39.52182228431283],[-86.64764450794507,39.56563432853328],[-86.6584123899239,39.601714835538345]]]}},{"type":"Feature","id":"18111","properties":{"name":"Newton","county_fips":"18111","state_abbr":"IN"},"geometry":{"type":"Polygon","coordinates":[[[-87.52702153621536,41.16606253211531],[-87.4408784803848,41.17379406933069],[-87.41575342243422,41.16262629335293],[-87.32602107261073,41.18582090499904],[-87.27577095670956,41.218465173241725],[-87.27577095670956,40.91178086369863],[-87.26859236872369,40.91178086369863],[-87.26859236872369,40.73653268681686],[-87.52702153621536,40.73653268681686],[-87.52702153621536,41.010572728117275],[-87.52702153621536,41.16606253211531]]]}},{"type":"Feature","id":"18113","properties":{"name":"Noble","county_fips":"18113","state_abbr":"IN"},"geometry":{"type":"Polygon","coordinates":[[[-85.65341007190072,41.523431363403624],[-85.19398044080441,41.52600854247542],[-85.19039114681146,41.26399533684336],[-85.30883784857848,41.26399533684336],[-85.53855266412664,41.26657251591515],[-85.5349633701337,41.29492148570485],[-85.65341007190072,41.29492148570485],[-85.65341007190072,41.43666633465334],[-85.65341007190072,41.523431363403624]]]}},{"type":"Feature","id":"18115","properties":{"name":"Ohio","county_fips":"18115","state_abbr":"IN"},"geometry":{"type":"Polygon","coordinates":[[[-85.13655173691737,38.92993015749157],[-85.13296244292442,38.9479704109941],[-85.09706950299503,38.93508451563515],[-85.05758726907268,38.9488294706847],[-84.99656927119271,38.996936813358126],[-84.95349774327742,38.99521869397693],[-84.87812256942568,39.03044014129141],[-84.83146174751747,38.961715366043656],[-84.87094398143981,38.92907109780097],[-84.87094398143981,38.900722128011274],[-85.1401410309103,38.90329930708307],[-85.13655173691737,38.92993015749157]]]}},{"type":"Feature","id":"18117","properties":{"name":"Orange","county_fips":"18117","state_abbr":"IN"},"geometry":{"type":"Polygon","coordinates":[[[-86.68353744787447,38.68681626505264],[-86.31025087260872,38.68767532474324],[-86.31025087260872,38.423084940039395],[-86.31025087260872,38.3938769105591],[-86.67994815388154,38.3947359702497],[-86.68353744787447,38.52617210291102],[-86.68353744787447,38.68681626505264]]]}},{"type":"Feature","id":"18119","properties":{"name":"Owen","county_fips":"18119","state_abbr":"IN"},"geometry":{"type":"Polygon","coordinates":[[[-86.93837732137321,39.47371494163941],[-86.68712674186742,39.470278702877025],[-86.63328733197332,39.470278702877025],[-86.62969803798038,39.34657410743107],[-86.68712674186742,39.336265391143904],[-86.68353744787447,39.166171572405716],[-87.05323472914729,39.16788969178691],[-87.05323472914729,39.34227880897809],[-86.94196661536616,39.34227880897809],[-86.93837732137321,39.47371494163941]]]}},{"type":"Feature","id":"18121","properties":{"name":"Parke","county_fips":"18121","state_abbr":"IN"},"geometry":{"type":"Polygon","coordinates":[[[-87.41934271642717,39.952211189301885],[-87.09271696306963,39.95307024899248],[-87.09271696306963,39.867164279932794],[-87.010163201232,39.8663052202422],[-87.01375249522495,39.605151074300736],[-87.20039578285783,39.60686919368193],[-87.38344977649776,39.60772825337253],[-87.39421765847658,39.65325841697416],[-87.37986048250482,39.694493282122814],[-87.37627118851188,39.79242608685086],[-87.3870390704907,39.83366095199951],[-87.35473542455424,39.86200992178921],[-87.369092600526,39.890358891578906],[-87.43369989239892,39.93159375672756],[-87.41934271642717,39.952211189301885]]]}},{"type":"Feature","id":"18123","properties":{"name":"Perry","county_fips":"18123","state_abbr":"IN"},"geometry":{"type":"Polygon","coordinates":[[[-86.81634132561325,37.99870945288452],[-86.77326979769798,37.99785039319393],[-86.7840376796768,38.04853491493914],[-86.76609120971209,38.09406507854078],[-86.80557344363443,38.1430314809048],[-86.79121626766268,38.20488377862778],[-86.79121626766268,38.24869582284822],[-86.67994815388154,38.24783676315762],[-86.67994815388154,38.26329983758837],[-86.5686800401004,38.26673607635076],[-86.57226933409333,38.207460957699574],[-86.4610012203122,38.20660189800898],[-86.4610012203122,38.12155498863988],[-86.43228686836868,38.08633354132541],[-86.45382263232632,38.050253034320335],[-86.48971557225572,38.045957735867354],[-86.52560851218512,38.02791748236482],[-86.52560851218512,37.961769886188854],[-86.50766204222042,37.92912561794617],[-86.59021580405803,37.9213940807308],[-86.59739439204392,37.8672733202232],[-86.65482309593095,37.842360589195884],[-86.64405521395214,37.906790065990656],[-86.67994815388154,37.915380662896624],[-86.71584109381094,37.8939041706317],[-86.75173403374033,37.91280348382483],[-86.79480556165561,37.98925979628795],[-86.81634132561325,37.99870945288452]]]}},{"type":"Feature","id":"18125","properties":{"name":"Pike","county_fips":"18125","state_abbr":"IN"},"geometry":{"type":"Polygon","coordinates":[[[-87.46241424434244,38.5339036401264],[-87.41216412844128,38.52617210291102],[-87.35473542455424,38.54335329672296],[-87.30089601466014,38.50984996878968],[-87.2434673107731,38.54507141610416],[-87.17527072490725,38.54421235641356],[-87.15014566695666,38.51586338662386],[-87.10707413904139,38.53733987888878],[-87.07118119911199,38.515004326933266],[-87.07477049310492,38.23237368872688],[-87.29730672066721,38.23151462903628],[-87.3152531906319,38.246118643776434],[-87.3152531906319,38.38185007489074],[-87.40857483444834,38.37583665705657],[-87.40857483444834,38.43597083539835],[-87.44446777437774,38.43597083539835],[-87.46241424434244,38.46603792456924],[-87.46241424434244,38.5339036401264]]]}},{"type":"Feature","id":"18127","properties":{"name":"Porter","county_fips":"18127","state_abbr":"IN"},"geometry":{"type":"Polygon","coordinates":[[[-87.22193154681547,41.62394134720346],[-87.12143131501314,41.64541783946839],[-86.93119873338733,41.710706375953755],[-86.93119873338733,41.23650542674426],[-86.96709167331673,41.21932423293232],[-87.06041331713317,41.26914969498694],[-87.13219919699196,41.28633088879888],[-87.19321719487195,41.26571345622455],[-87.21834225282252,41.241659784887844],[-87.22193154681547,41.62394134720346]]]}},{"type":"Feature","id":"18129","properties":{"name":"Posey","county_fips":"18129","state_abbr":"IN"},"geometry":{"type":"Polygon","coordinates":[[[-87.98645116731167,38.22979650965509],[-87.7998078796788,38.22893744996449],[-87.7998078796788,38.20230659955599],[-87.68853976589766,38.200588480174794],[-87.68853976589766,38.16880327162271],[-87.69571835388354,38.12499122740227],[-87.69930764787648,37.89734040939409],[-87.83211152561525,37.876722976819764],[-87.87159375953759,37.9213940807308],[-87.92543316943168,37.90163570784707],[-87.93979034540345,37.87070955898558],[-87.90389740547405,37.81229350002499],[-87.94696893338933,37.77191769456694],[-88.02952269522694,37.79940760466604],[-88.06900492914929,37.80112572404723],[-88.08336210512105,37.830333753527526],[-88.04029057720577,37.822602216312156],[-88.09054069310693,37.89132699155991],[-88.01157622526225,37.8947632303223],[-88.06541563515634,37.919675961349604],[-88.01157622526225,37.9772329606196],[-88.00798693126931,38.02877654205541],[-88.03670128321284,38.05111209401093],[-87.96850469734697,38.06743422813228],[-87.9613261093611,38.100078496374955],[-88.00439763727637,38.08375636225362],[-87.92543316943168,38.14646771966719],[-87.97568328533285,38.198011301103],[-87.98645116731167,38.22979650965509]]]}},{"type":"Feature","id":"18131","properties":{"name":"Pulaski","county_fips":"18131","state_abbr":"IN"},"geometry":{"type":"Polygon","coordinates":[[[-86.93119873338733,41.172075949949495],[-86.46817980829807,41.1712168902589],[-86.46817980829807,40.910062744317436],[-86.58303721607216,40.910921804008034],[-86.93119873338733,40.91263992338923],[-86.93119873338733,41.172075949949495]]]}},{"type":"Feature","id":"18133","properties":{"name":"Putnam","county_fips":"18133","state_abbr":"IN"},"geometry":{"type":"Polygon","coordinates":[[[-87.01375249522495,39.605151074300736],[-87.010163201232,39.8663052202422],[-86.6943053298533,39.864587100861],[-86.68712674186742,39.864587100861],[-86.68712674186742,39.63006380532805],[-86.6404659199592,39.63006380532805],[-86.6584123899239,39.601714835538345],[-86.64764450794507,39.56563432853328],[-86.68712674186742,39.52182228431283],[-86.68712674186742,39.470278702877025],[-86.93837732137321,39.47371494163941],[-87.01375249522495,39.47371494163941],[-87.01375249522495,39.605151074300736]]]}},{"type":"Feature","id":"18135","properties":{"name":"Randolph","county_fips":"18135","state_abbr":"IN"},"geometry":{"type":"Polygon","coordinates":[[[-85.21910549875498,40.30700284151841],[-84.80274739557396,40.310439080280794],[-84.80992598355984,40.129177485564846],[-84.80992598355984,40.005472890118895],[-85.20115902879029,40.0046138304283],[-85.21551620476204,40.07677484443844],[-85.21910549875498,40.30700284151841]]]}},{"type":"Feature","id":"18137","properties":{"name":"Ripley","county_fips":"18137","state_abbr":"IN"},"geometry":{"type":"Polygon","coordinates":[[[-85.44164172631726,39.19537960188601],[-85.29806996659967,39.26839967558675],[-85.21910549875498,39.308775481044805],[-85.06476585705856,39.30705736166361],[-85.0863016210162,39.20654737786377],[-85.13296244292442,38.9479704109941],[-85.13655173691737,38.92993015749157],[-85.20115902879029,38.928212038110374],[-85.20474832278323,38.91360802337023],[-85.4452310203102,38.91274896367963],[-85.44164172631726,39.19537960188601]]]}},{"type":"Feature","id":"18139","properties":{"name":"Rush","county_fips":"18139","state_abbr":"IN"},"geometry":{"type":"Polygon","coordinates":[[[-85.59598136801368,39.786412669016684],[-85.3016592605926,39.78727172870728],[-85.29806996659967,39.52525852307522],[-85.29806996659967,39.45309750906508],[-85.62828501395013,39.45309750906508],[-85.63187430794308,39.6987885805758],[-85.63187430794308,39.786412669016684],[-85.59598136801368,39.786412669016684]]]}},{"type":"Feature","id":"18143","properties":{"name":"Scott","county_fips":"18143","state_abbr":"IN"},"geometry":{"type":"Polygon","coordinates":[[[-85.88671418144182,38.73406454803548],[-85.8400533595336,38.74093702556025],[-85.79698183161831,38.80708462173621],[-85.7323745397454,38.83199735276352],[-85.68212442384423,38.81567521864218],[-85.68212442384423,38.73664172710726],[-85.64623148391483,38.708292757317565],[-85.61033854398543,38.70743369762697],[-85.60674924999249,38.67908472783727],[-85.57085631006309,38.67822566814667],[-85.57085631006309,38.60606465413653],[-85.79339253762538,38.60520559444594],[-85.84723194751948,38.561393550225496],[-85.88671418144182,38.57513850527505],[-85.88671418144182,38.73406454803548]]]}},{"type":"Feature","id":"18145","properties":{"name":"Shelby","county_fips":"18145","state_abbr":"IN"},"geometry":{"type":"Polygon","coordinates":[[[-85.95132147331474,39.63865440223402],[-85.95132147331474,39.697070461194606],[-85.63187430794308,39.6987885805758],[-85.62828501395013,39.45309750906508],[-85.63187430794308,39.35001034619346],[-85.68571371783717,39.35001034619346],[-85.95132147331474,39.347433167121665],[-85.95491076730767,39.38351367412673],[-85.95132147331474,39.63865440223402]]]}},{"type":"Feature","id":"18147","properties":{"name":"Spencer","county_fips":"18147","state_abbr":"IN"},"geometry":{"type":"Polygon","coordinates":[[[-87.0173417892179,38.20316565924659],[-86.79121626766268,38.20488377862778],[-86.80557344363443,38.1430314809048],[-86.76609120971209,38.09406507854078],[-86.7840376796768,38.04853491493914],[-86.77326979769798,37.99785039319393],[-86.81634132561325,37.99870945288452],[-86.8558235595356,37.987541676906766],[-86.90607367543674,37.94287057299572],[-86.97785955529555,37.92998467763677],[-87.04605614116142,37.8939041706317],[-87.06400261112611,37.8105753806438],[-87.08912766907669,37.787380768997686],[-87.12860990299903,37.78480358992589],[-87.15732425494255,37.838065290742904],[-87.22193154681547,37.84923306672066],[-87.26859236872369,37.87844109620096],[-87.26859236872369,37.92483031949319],[-87.18244931289313,38.01073628855288],[-87.1537349609496,38.02362218391183],[-87.1537349609496,38.053689273082725],[-87.08912766907669,38.04939397462974],[-87.07118119911199,38.11811874987749],[-87.0173417892179,38.11811874987749],[-87.0173417892179,38.20316565924659]]]}},{"type":"Feature","id":"18141","properties":{"name":"St. Joseph","county_fips":"18141","state_abbr":"IN"},"geometry":{"type":"Polygon","coordinates":[[[-86.52560851218512,41.75967277831778],[-86.2276971107711,41.75967277831778],[-86.06258958709587,41.760531838008376],[-86.05900029310293,41.47876025949259],[-86.46817980829807,41.476183080420796],[-86.46817980829807,41.43323009589095],[-86.52560851218512,41.43323009589095],[-86.52560851218512,41.51999512464124],[-86.50407274822747,41.519136064950644],[-86.48612627826277,41.57067964638646],[-86.48612627826277,41.649713137921374],[-86.52560851218512,41.65057219761197],[-86.52560851218512,41.75967277831778]]]}},{"type":"Feature","id":"18149","properties":{"name":"Starke","county_fips":"18149","state_abbr":"IN"},"geometry":{"type":"Polygon","coordinates":[[[-86.93119873338733,41.23650542674426],[-86.87018073550735,41.264854396533956],[-86.7840376796768,41.28547182910828],[-86.74096615176151,41.321552336113356],[-86.70148391783917,41.402303947029466],[-86.64405521395214,41.43237103620036],[-86.52560851218512,41.43323009589095],[-86.46817980829807,41.43323009589095],[-86.46817980829807,41.1712168902589],[-86.93119873338733,41.172075949949495],[-86.93119873338733,41.23650542674426]]]}},{"type":"Feature","id":"18151","properties":{"name":"Steuben","county_fips":"18151","state_abbr":"IN"},"geometry":{"type":"Polygon","coordinates":[[[-85.19756973479734,41.75967277831778],[-84.82428315953159,41.75967277831778],[-84.80633668956689,41.760531838008376],[-84.80633668956689,41.696102361213605],[-84.80633668956689,41.530303840928404],[-85.19398044080441,41.52600854247542],[-85.19756973479734,41.75967277831778]]]}},{"type":"Feature","id":"18153","properties":{"name":"Sullivan","county_fips":"18153","state_abbr":"IN"},"geometry":{"type":"Polygon","coordinates":[[[-87.64187894398944,39.15758097549975],[-87.57368235812358,39.21857421353213],[-87.6023967100671,39.25980907868078],[-87.23987801678017,39.258950018990184],[-87.23987801678017,39.1721849902399],[-87.23987801678017,38.90759460553605],[-87.23987801678017,38.90158118770187],[-87.52343224222241,38.90244024739247],[-87.52702153621536,38.90759460553605],[-87.5126643602436,38.954842888518876],[-87.57727165211652,38.989205276142755],[-87.57368235812358,39.05707099169991],[-87.63111106201062,39.10431927468274],[-87.64187894398944,39.15758097549975]]]}},{"type":"Feature","id":"18155","properties":{"name":"Switzerland","county_fips":"18155","state_abbr":"IN"},"geometry":{"type":"Polygon","coordinates":[[[-85.13655173691737,38.92993015749157],[-85.1401410309103,38.90329930708307],[-84.87094398143981,38.900722128011274],[-84.79915810158101,38.89127247141471],[-84.79556880758807,38.85691008379083],[-84.83146174751747,38.83027923338233],[-84.80992598355984,38.792480606996065],[-84.8888904514045,38.79505778606785],[-85.02528362313623,38.76241351782517],[-85.17244467684677,38.68767532474324],[-85.20115902879029,38.69111156350563],[-85.20474832278323,38.91360802337023],[-85.20115902879029,38.928212038110374],[-85.13655173691737,38.92993015749157]]]}},{"type":"Feature","id":"18157","properties":{"name":"Tippecanoe","county_fips":"18157","state_abbr":"IN"},"geometry":{"type":"Polygon","coordinates":[[[-87.09630625706257,40.56300262931629],[-86.76968050370503,40.56214356962569],[-86.6943053298533,40.56214356962569],[-86.6943053298533,40.43242555634556],[-86.6943053298533,40.21422439493394],[-87.09271696306963,40.21508345462454],[-87.09271696306963,40.3662779601696],[-87.09271696306963,40.475378540875404],[-87.09630625706257,40.56300262931629]]]}},{"type":"Feature","id":"18159","properties":{"name":"Tipton","county_fips":"18159","state_abbr":"IN"},"geometry":{"type":"Polygon","coordinates":[[[-85.86158912349123,40.40665376562765],[-85.86158912349123,40.37830479583795],[-85.86158912349123,40.21851969338693],[-86.24205428674287,40.21594251431514],[-86.24205428674287,40.37400949738497],[-86.24205428674287,40.40321752686526],[-85.86158912349123,40.40665376562765]]]}},{"type":"Feature","id":"18161","properties":{"name":"Union","county_fips":"18161","state_abbr":"IN"},"geometry":{"type":"Polygon","coordinates":[[[-85.03605150511505,39.71511071469714],[-85.03605150511505,39.72885566974669],[-84.81351527755277,39.7262784906749],[-84.81351527755277,39.56735244791447],[-84.81710457154571,39.52182228431283],[-85.03605150511505,39.52611758276582],[-85.03605150511505,39.71511071469714]]]}},{"type":"Feature","id":"18163","properties":{"name":"Vanderburgh","county_fips":"18163","state_abbr":"IN"},"geometry":{"type":"Polygon","coordinates":[[[-87.68853976589766,38.16880327162271],[-87.46600353833539,38.165367032860324],[-87.47318212632126,38.03478995988959],[-87.45164636236362,38.03478995988959],[-87.45164636236362,37.94115245361453],[-87.50189647826478,37.90936724506244],[-87.55214659416593,37.92568937918379],[-87.57368235812358,37.96778330402304],[-87.6023967100671,37.972937662166615],[-87.62752176801767,37.91623972258722],[-87.58803953409534,37.861259902389016],[-87.63470035600356,37.82689751476514],[-87.67418258992589,37.82947469383693],[-87.66341470794707,37.8939041706317],[-87.69930764787648,37.89734040939409],[-87.69571835388354,38.12499122740227],[-87.68853976589766,38.16880327162271]]]}},{"type":"Feature","id":"18165","properties":{"name":"Vermillion","county_fips":"18165","state_abbr":"IN"},"geometry":{"type":"Polygon","coordinates":[[[-87.5306108302083,40.148076798757984],[-87.49112859628596,40.12745936618366],[-87.4049855404554,40.12745936618366],[-87.41575342243422,40.058734590935906],[-87.43369989239892,40.02609032269322],[-87.41934271642717,39.952211189301885],[-87.43369989239892,39.93159375672756],[-87.369092600526,39.890358891578906],[-87.35473542455424,39.86200992178921],[-87.3870390704907,39.83366095199951],[-87.37627118851188,39.79242608685086],[-87.37986048250482,39.694493282122814],[-87.39421765847658,39.65325841697416],[-87.38344977649776,39.60772825337253],[-87.5306108302083,39.60772825337253],[-87.53420012420123,39.882627354363535],[-87.5306108302083,40.148076798757984]]]}},{"type":"Feature","id":"18167","properties":{"name":"Vigo","county_fips":"18167","state_abbr":"IN"},"geometry":{"type":"Polygon","coordinates":[[[-87.5306108302083,39.4771511804018],[-87.5306108302083,39.60772825337253],[-87.38344977649776,39.60772825337253],[-87.20039578285783,39.60686919368193],[-87.20039578285783,39.520104164931645],[-87.23987801678017,39.52096322462224],[-87.23987801678017,39.258950018990184],[-87.6023967100671,39.25980907868078],[-87.60957529805297,39.2821446306363],[-87.57727165211652,39.34056068959689],[-87.5306108302083,39.34829222681226],[-87.5306108302083,39.4771511804018]]]}},{"type":"Feature","id":"18169","properties":{"name":"Wabash","county_fips":"18169","state_abbr":"IN"},"geometry":{"type":"Polygon","coordinates":[[[-85.94414288532884,41.04321699635996],[-85.68571371783717,41.04665323512234],[-85.68212442384423,41.00198213121131],[-85.6426421899219,41.00198213121131],[-85.63905289592896,40.65320389682896],[-85.86517841748417,40.65148577744777],[-85.94055359133591,40.65062671775717],[-85.94773217932179,40.999404952139514],[-85.94414288532884,41.04321699635996]]]}},{"type":"Feature","id":"18171","properties":{"name":"Warren","county_fips":"18171","state_abbr":"IN"},"geometry":{"type":"Polygon","coordinates":[[[-87.52702153621536,40.4770966602566],[-87.09271696306963,40.475378540875404],[-87.09271696306963,40.3662779601696],[-87.13219919699196,40.340506169451686],[-87.24705660476604,40.3087209608996],[-87.35832471854718,40.21078815617155],[-87.41934271642717,40.19188884297842],[-87.43728918639187,40.16439893287932],[-87.4049855404554,40.12745936618366],[-87.49112859628596,40.12745936618366],[-87.5306108302083,40.148076798757984],[-87.52702153621536,40.4770966602566]]]}},{"type":"Feature","id":"18173","properties":{"name":"Warrick","county_fips":"18173","state_abbr":"IN"},"geometry":{"type":"Polygon","coordinates":[[[-87.46600353833539,38.165367032860324],[-87.46600353833539,38.20144753986539],[-87.3152531906319,38.20144753986539],[-87.3152531906319,38.246118643776434],[-87.29730672066721,38.23151462903628],[-87.07477049310492,38.23237368872688],[-87.07477049310492,38.204024718937184],[-87.0173417892179,38.20316565924659],[-87.0173417892179,38.11811874987749],[-87.07118119911199,38.11811874987749],[-87.08912766907669,38.04939397462974],[-87.1537349609496,38.053689273082725],[-87.1537349609496,38.02362218391183],[-87.18244931289313,38.01073628855288],[-87.26859236872369,37.92483031949319],[-87.26859236872369,37.87844109620096],[-87.30089601466014,37.89819946908469],[-87.37986048250482,37.93599809547095],[-87.45164636236362,37.94115245361453],[-87.45164636236362,38.03478995988959],[-87.47318212632126,38.03478995988959],[-87.46600353833539,38.165367032860324]]]}},{"type":"Feature","id":"18175","properties":{"name":"Washington","county_fips":"18175","state_abbr":"IN"},"geometry":{"type":"Polygon","coordinates":[[[-86.27435793267932,38.76413163720637],[-86.18462558285583,38.7838900100901],[-86.13437546695467,38.76241351782517],[-86.09130393903939,38.7838900100901],[-86.02669664716647,38.75640009999099],[-85.98362511925119,38.76842693565935],[-85.88671418144182,38.73406454803548],[-85.88671418144182,38.57513850527505],[-85.84723194751948,38.561393550225496],[-85.88312488744887,38.503836550955505],[-85.95850006130061,38.50211843157431],[-85.99439300123001,38.48837347652476],[-85.99439300123001,38.41793058189581],[-86.03387523515235,38.41793058189581],[-86.25641146271462,38.423084940039395],[-86.31025087260872,38.423084940039395],[-86.31025087260872,38.68767532474324],[-86.31025087260872,38.73320548834488],[-86.27435793267932,38.76413163720637]]]}},{"type":"Feature","id":"18177","properties":{"name":"Wayne","county_fips":"18177","state_abbr":"IN"},"geometry":{"type":"Polygon","coordinates":[[[-85.20115902879029,40.0046138304283],[-84.80992598355984,40.005472890118895],[-84.81351527755277,39.916989741987415],[-84.81351527755277,39.7262784906749],[-85.03605150511505,39.72885566974669],[-85.03605150511505,39.71511071469714],[-85.18680185281852,39.71511071469714],[-85.18321255882559,39.78813078839788],[-85.22269479274793,39.78813078839788],[-85.21910549875498,39.87317769776697],[-85.20115902879029,39.87403675745757],[-85.20115902879029,40.0046138304283]]]}},{"type":"Feature","id":"18179","properties":{"name":"Wells","county_fips":"18179","state_abbr":"IN"},"geometry":{"type":"Polygon","coordinates":[[[-85.44882031430313,40.65320389682896],[-85.33396290652907,40.65406295651956],[-85.337552200522,40.91693522184221],[-85.07553373903738,40.91779428153281],[-85.0683551510515,40.568156987459865],[-85.20115902879029,40.56729792776927],[-85.4452310203102,40.56729792776927],[-85.44882031430313,40.65320389682896]]]}},{"type":"Feature","id":"18181","properties":{"name":"White","county_fips":"18181","state_abbr":"IN"},"geometry":{"type":"Polygon","coordinates":[[[-86.93119873338733,40.91263992338923],[-86.58303721607216,40.910921804008034],[-86.58303721607216,40.73567362712627],[-86.75173403374033,40.73567362712627],[-86.76250191571916,40.69787500074],[-86.74096615176151,40.68155286661866],[-86.77326979769798,40.66437167280672],[-86.76968050370503,40.56214356962569],[-87.09630625706257,40.56300262931629],[-87.09989555105551,40.73653268681686],[-87.09989555105551,40.837901730307294],[-86.98503814328143,40.837901730307294],[-86.98862743727437,40.91178086369863],[-86.93119873338733,40.91263992338923]]]}},{"type":"Feature","id":"18183","properties":{"name":"Whitley","county_fips":"18183","state_abbr":"IN"},"geometry":{"type":"Polygon","coordinates":[[[-85.65341007190072,41.29492148570485],[-85.5349633701337,41.29492148570485],[-85.53855266412664,41.26657251591515],[-85.30883784857848,41.26399533684336],[-85.30883784857848,41.17894842747427],[-85.337552200522,41.17894842747427],[-85.33396290652907,41.00541836997369],[-85.6426421899219,41.00198213121131],[-85.68212442384423,41.00198213121131],[-85.68571371783717,41.04665323512234],[-85.68571371783717,41.17808936778367],[-85.65341007190072,41.17808936778367],[-85.65341007190072,41.29492148570485]]]}}]}