{"type":"FeatureCollection","features":[{"type":"Feature","id":"20001","properties":{"name":"Allen","county_fips":"20001","state_abbr":"KS"},"geometry":{"type":"Polygon","coordinates":[[[-95.52037925849258,38.038226198651984],[-95.07889609736097,38.037367138961386],[-95.07889609736097,37.82002503724036],[-95.08966397933979,37.73240094879948],[-95.52396855248551,37.73240094879948],[-95.52037925849258,38.038226198651984]]]}},{"type":"Feature","id":"20003","properties":{"name":"Anderson","county_fips":"20003","state_abbr":"KS"},"geometry":{"type":"Polygon","coordinates":[[[-95.50961137651376,38.39044067179671],[-95.06453892138921,38.38958161210611],[-95.06453892138921,38.25900453913538],[-95.07530680336802,38.25900453913538],[-95.07889609736097,38.037367138961386],[-95.52037925849258,38.038226198651984],[-95.51678996449964,38.25900453913538],[-95.50602208252081,38.25900453913538],[-95.50961137651376,38.39044067179671]]]}},{"type":"Feature","id":"20005","properties":{"name":"Atchison","county_fips":"20005","state_abbr":"KS"},"geometry":{"type":"Polygon","coordinates":[[[-95.56345078640786,39.65325841697416],[-95.34091455884558,39.65325841697416],[-95.11478903729036,39.652399357283564],[-95.09684256732567,39.620614148731484],[-95.05377103941039,39.6154597905879],[-95.04659245142452,39.59484235801357],[-95.10761044930449,39.574224925439246],[-95.10402115531154,39.532990060290594],[-95.05018174541745,39.497768612976124],[-95.04659245142452,39.47285588194881],[-94.98916374753748,39.44622503154031],[-94.96762798357983,39.41873512144121],[-95.17939632916328,39.41959418113181],[-95.57062937439375,39.41873512144121],[-95.57062937439375,39.56563432853328],[-95.56345078640786,39.65325841697416]]]}},{"type":"Feature","id":"20007","properties":{"name":"Barber","county_fips":"20007","state_abbr":"KS"},"geometry":{"type":"Polygon","coordinates":[[[-99.01276231362313,37.47038774316743],[-98.46360033270332,37.47124680285802],[-98.46360033270332,37.38448177410773],[-98.34874292492924,37.38448177410773],[-98.34874292492924,36.99790491333913],[-98.54615409454094,36.998763973029725],[-99.0019944316443,36.99962303272032],[-99.0019944316443,37.38448177410773],[-99.01276231362313,37.38448177410773],[-99.01276231362313,37.47038774316743]]]}},{"type":"Feature","id":"20009","properties":{"name":"Barton","county_fips":"20009","state_abbr":"KS"},"geometry":{"type":"Polygon","coordinates":[[[-99.03429807758077,38.697124981339805],[-98.48513609666097,38.697124981339805],[-98.48154680266802,38.52187680445804],[-98.48154680266802,38.26072265851658],[-98.91226208182081,38.26072265851658],[-99.03070878358783,38.261581718207175],[-99.03070878358783,38.34834674695746],[-99.03429807758077,38.697124981339805]]]}},{"type":"Feature","id":"20011","properties":{"name":"Bourbon","county_fips":"20011","state_abbr":"KS"},"geometry":{"type":"Polygon","coordinates":[[[-95.08966397933979,37.73240094879948],[-95.07889609736097,37.82002503724036],[-95.07889609736097,38.037367138961386],[-94.61228787827878,38.037367138961386],[-94.61946646626465,37.673125830148294],[-95.08966397933979,37.67484394952949],[-95.08966397933979,37.73240094879948]]]}},{"type":"Feature","id":"20013","properties":{"name":"Brown","county_fips":"20013","state_abbr":"KS"},"geometry":{"type":"Polygon","coordinates":[[[-95.78957630796307,40.00031853197531],[-95.34091455884558,40.00031853197531],[-95.34091455884558,39.65325841697416],[-95.56345078640786,39.65325841697416],[-95.78957630796307,39.65325841697416],[-95.78957630796307,40.00031853197531]]]}},{"type":"Feature","id":"20015","properties":{"name":"Butler","county_fips":"20015","state_abbr":"KS"},"geometry":{"type":"Polygon","coordinates":[[[-97.15350802528025,37.91280348382483],[-97.15350802528025,38.088051660706604],[-96.84123944789448,38.08547448163481],[-96.52179228252282,38.08633354132541],[-96.52538157651576,37.606978233972335],[-96.52538157651576,37.476401161001604],[-97.15350802528025,37.47554210131101],[-97.15350802528025,37.91280348382483]]]}},{"type":"Feature","id":"20017","properties":{"name":"Chase","county_fips":"20017","state_abbr":"KS"},"geometry":{"type":"Polygon","coordinates":[[[-96.81970368393684,38.522735864148636],[-96.35309546485465,38.52187680445804],[-96.35668475884758,38.1722395103851],[-96.35668475884758,38.08547448163481],[-96.52179228252282,38.08633354132541],[-96.84123944789448,38.08547448163481],[-96.83765015390154,38.34834674695746],[-96.81970368393684,38.34834674695746],[-96.81970368393684,38.522735864148636]]]}},{"type":"Feature","id":"20019","properties":{"name":"Chautauqua","county_fips":"20019","state_abbr":"KS"},"geometry":{"type":"Polygon","coordinates":[[[-96.52538157651576,37.302871103501026],[-95.96545171361713,37.29943486473864],[-95.96545171361713,36.998763973029725],[-96.00134465354652,36.998763973029725],[-96.52538157651576,36.998763973029725],[-96.52538157651576,37.302871103501026]]]}},{"type":"Feature","id":"20021","properties":{"name":"Cherokee","county_fips":"20021","state_abbr":"KS"},"geometry":{"type":"Polygon","coordinates":[[[-95.07530680336802,37.3398106701967],[-94.61587717227172,37.3380925508155],[-94.61946646626465,37.05718003199031],[-94.61946646626465,36.998763973029725],[-95.00711021750217,36.99962303272032],[-95.07171750937509,36.99962303272032],[-95.07530680336802,37.04773037539375],[-95.07530680336802,37.3398106701967]]]}},{"type":"Feature","id":"20023","properties":{"name":"Cheyenne","county_fips":"20023","state_abbr":"KS"},"geometry":{"type":"Polygon","coordinates":[[[-102.05289432564325,40.0028957110471],[-101.41041070090701,40.002036651356505],[-101.41399999489994,39.56821150760507],[-102.0493050316503,39.56821150760507],[-102.0493050316503,39.574224925439246],[-102.05289432564325,40.0028957110471]]]}},{"type":"Feature","id":"20025","properties":{"name":"Clark","county_fips":"20025","state_abbr":"KS"},"geometry":{"type":"Polygon","coordinates":[[[-100.10749698146981,37.47468304162041],[-99.7736926401264,37.467810564095636],[-99.55474570655706,37.467810564095636],[-99.55474570655706,37.38104553534535],[-99.54397782457823,37.38104553534535],[-99.5403885305853,36.99962303272032],[-100.00340745567455,37.00134115210152],[-100.08955051150511,37.002200211792115],[-100.09313980549805,37.387058953179526],[-100.10749698146981,37.387058953179526],[-100.10749698146981,37.47468304162041]]]}},{"type":"Feature","id":"20027","properties":{"name":"Clay","county_fips":"20027","state_abbr":"KS"},"geometry":{"type":"Polygon","coordinates":[[[-97.36886566485664,39.30619830197301],[-97.36886566485664,39.56735244791447],[-96.9596861496615,39.566493388223876],[-96.96327544365444,39.220292332913324],[-96.96327544365444,39.13266824447244],[-97.37245495884959,39.131809184781844],[-97.36886566485664,39.30619830197301]]]}},{"type":"Feature","id":"20029","properties":{"name":"Cloud","county_fips":"20029","state_abbr":"KS"},"geometry":{"type":"Polygon","coordinates":[[[-97.93238482174822,39.65411747666476],[-97.36886566485664,39.65411747666476],[-97.36886566485664,39.56735244791447],[-97.36886566485664,39.30619830197301],[-97.92879552775527,39.30619830197301],[-97.92879552775527,39.566493388223876],[-97.93238482174822,39.566493388223876],[-97.93238482174822,39.65411747666476]]]}},{"type":"Feature","id":"20031","properties":{"name":"Coffey","county_fips":"20031","state_abbr":"KS"},"geometry":{"type":"Polygon","coordinates":[[[-95.95827312563125,38.1705213910039],[-95.95109453764537,38.25986359882598],[-95.95109453764537,38.434252716017156],[-95.50961137651376,38.434252716017156],[-95.50961137651376,38.39044067179671],[-95.50602208252081,38.25900453913538],[-95.51678996449964,38.25900453913538],[-95.52037925849258,38.038226198651984],[-95.95827312563125,38.03994431803317],[-95.95827312563125,38.1705213910039]]]}},{"type":"Feature","id":"20033","properties":{"name":"Comanche","county_fips":"20033","state_abbr":"KS"},"geometry":{"type":"Polygon","coordinates":[[[-99.54397782457823,37.38104553534535],[-99.01276231362313,37.38448177410773],[-99.0019944316443,37.38448177410773],[-99.0019944316443,36.99962303272032],[-99.45783476874769,36.99962303272032],[-99.5403885305853,36.99962303272032],[-99.54397782457823,37.38104553534535]]]}},{"type":"Feature","id":"20035","properties":{"name":"Cowley","county_fips":"20035","state_abbr":"KS"},"geometry":{"type":"Polygon","coordinates":[[[-97.15350802528025,37.47554210131101],[-96.52538157651576,37.476401161001604],[-96.52538157651576,37.302871103501026],[-96.52538157651576,36.998763973029725],[-96.75150709807097,36.998763973029725],[-97.14632943729437,36.998763973029725],[-97.15350802528025,37.47554210131101]]]}},{"type":"Feature","id":"20037","properties":{"name":"Crawford","county_fips":"20037","state_abbr":"KS"},"geometry":{"type":"Polygon","coordinates":[[[-95.08966397933979,37.67484394952949],[-94.61946646626465,37.673125830148294],[-94.61587717227172,37.653367457264565],[-94.61587717227172,37.36386434153341],[-94.61587717227172,37.3380925508155],[-95.07530680336802,37.3398106701967],[-95.08966397933979,37.383622714417136],[-95.08966397933979,37.67484394952949]]]}},{"type":"Feature","id":"20039","properties":{"name":"Decatur","county_fips":"20039","state_abbr":"KS"},"geometry":{"type":"Polygon","coordinates":[[[-100.73921272422724,40.002036651356505],[-100.19364003730037,40.00117759166591],[-100.1792828613286,40.00117759166591],[-100.1792828613286,39.566493388223876],[-100.72126625426253,39.56821150760507],[-100.73921272422724,39.56821150760507],[-100.73921272422724,40.002036651356505]]]}},{"type":"Feature","id":"20041","properties":{"name":"Dickinson","county_fips":"20041","state_abbr":"KS"},"geometry":{"type":"Polygon","coordinates":[[[-97.37245495884959,38.958279127281266],[-97.37245495884959,39.131809184781844],[-96.96327544365444,39.13266824447244],[-96.96327544365444,38.96515160480604],[-96.92738250372503,38.97889655985559],[-96.92738250372503,38.87065503884038],[-96.89148956379563,38.869795979149785],[-96.89148956379563,38.812238979879794],[-96.92738250372503,38.812238979879794],[-96.93097179771797,38.60950089289892],[-97.37245495884959,38.60950089289892],[-97.37245495884959,38.958279127281266]]]}},{"type":"Feature","id":"20043","properties":{"name":"Doniphan","county_fips":"20043","state_abbr":"KS"},"geometry":{"type":"Polygon","coordinates":[[[-95.34091455884558,40.00031853197531],[-95.30861091290913,40.00031853197531],[-95.25118220902209,39.9487749505395],[-95.20452138711387,39.939325293942936],[-95.20093209312093,39.902385727247264],[-95.1542712712127,39.90754008539085],[-95.13632480124801,39.87661393652936],[-95.04300315743157,39.864587100861],[-94.9927530415304,39.89809042879428],[-94.92814574965749,39.88864077219772],[-94.94250292562926,39.864587100861],[-94.87789563375634,39.82077505664056],[-94.88148492774927,39.797580444994445],[-94.92455645566456,39.789848907779074],[-94.91378857368574,39.758922758917585],[-94.87071704577045,39.77266771396713],[-94.8743063397634,39.73057378912789],[-94.91019927969279,39.7254194309843],[-94.95686010160101,39.74603686355863],[-94.97480657156571,39.68160738676386],[-95.0286459814598,39.66528525264252],[-95.05377103941039,39.6154597905879],[-95.09684256732567,39.620614148731484],[-95.11478903729036,39.652399357283564],[-95.34091455884558,39.65325841697416],[-95.34091455884558,40.00031853197531]]]}},{"type":"Feature","id":"20045","properties":{"name":"Douglas","county_fips":"20045","state_abbr":"KS"},"geometry":{"type":"Polygon","coordinates":[[[-95.49884349453494,39.05707099169991],[-95.43782549665497,39.069956887058865],[-95.34091455884558,39.031299200982005],[-95.29784303093031,39.042466976959766],[-95.18657491714917,39.044185096340954],[-95.18657491714917,38.96429254511544],[-95.16503915319153,38.981473738927384],[-95.07530680336802,38.96429254511544],[-95.05736033340332,38.98233279861798],[-95.05736033340332,38.73835984648846],[-95.50243278852788,38.739218906179055],[-95.50243278852788,38.869795979149785],[-95.49884349453494,39.05707099169991]]]}},{"type":"Feature","id":"20047","properties":{"name":"Edwards","county_fips":"20047","state_abbr":"KS"},"geometry":{"type":"Polygon","coordinates":[[[-99.56910288252882,37.91280348382483],[-99.56910288252882,38.08719260101601],[-99.35015594895948,38.08719260101601],[-99.35015594895948,38.000427572265714],[-99.02353019560195,38.000427572265714],[-99.02353019560195,37.82517939538395],[-99.01276231362313,37.82517939538395],[-99.01276231362313,37.73326000849008],[-99.55833500055,37.73497812787127],[-99.56910288252882,37.91280348382483]]]}},{"type":"Feature","id":"20049","properties":{"name":"Elk","county_fips":"20049","state_abbr":"KS"},"geometry":{"type":"Polygon","coordinates":[[[-96.52538157651576,37.606978233972335],[-95.9618624196242,37.603541995209945],[-95.9618624196242,37.387058953179526],[-95.96545171361713,37.29943486473864],[-96.52538157651576,37.302871103501026],[-96.52538157651576,37.476401161001604],[-96.52538157651576,37.606978233972335]]]}},{"type":"Feature","id":"20051","properties":{"name":"Ellis","county_fips":"20051","state_abbr":"KS"},"geometry":{"type":"Polygon","coordinates":[[[-99.59063864648645,39.13266824447244],[-99.04865525355252,39.13266824447244],[-99.03788737157372,39.13352730416303],[-99.03788737157372,38.85605102410023],[-99.04147666556665,38.697124981339805],[-99.58346005850058,38.69626592164921],[-99.59781723447234,38.69626592164921],[-99.59063864648645,39.13266824447244]]]}},{"type":"Feature","id":"20053","properties":{"name":"Ellsworth","county_fips":"20053","state_abbr":"KS"},"geometry":{"type":"Polygon","coordinates":[[[-98.48513609666097,38.87065503884038],[-97.92879552775527,38.87151409853098],[-97.92520623376234,38.60950089289892],[-97.92520623376234,38.522735864148636],[-98.48154680266802,38.52187680445804],[-98.48513609666097,38.697124981339805],[-98.48513609666097,38.87065503884038]]]}},{"type":"Feature","id":"20055","properties":{"name":"Finney","county_fips":"20055","state_abbr":"KS"},"geometry":{"type":"Polygon","coordinates":[[[-101.10173141751417,38.26415889727897],[-100.68537331433313,38.26415889727897],[-100.24389015320153,38.26244077789777],[-100.22594368323682,38.26244077789777],[-100.22594368323682,38.00128663195631],[-100.6638375503755,38.00214569164691],[-100.6638375503755,37.82861563414634],[-100.65306966839668,37.82861563414634],[-100.65306966839668,37.73669624725247],[-101.09096353553535,37.73669624725247],[-101.09096353553535,37.82947469383693],[-101.1053207115071,37.82861563414634],[-101.10173141751417,38.26415889727897]]]}},{"type":"Feature","id":"20057","properties":{"name":"Ford","county_fips":"20057","state_abbr":"KS"},"geometry":{"type":"Polygon","coordinates":[[[-100.22594368323682,37.91366254351543],[-99.56910288252882,37.91280348382483],[-99.55833500055,37.73497812787127],[-99.55474570655706,37.467810564095636],[-99.7736926401264,37.467810564095636],[-100.10749698146981,37.47468304162041],[-100.21517580125801,37.47554210131101],[-100.21517580125801,37.82689751476514],[-100.22594368323682,37.82689751476514],[-100.22594368323682,37.91366254351543]]]}},{"type":"Feature","id":"20059","properties":{"name":"Franklin","county_fips":"20059","state_abbr":"KS"},"geometry":{"type":"Polygon","coordinates":[[[-95.50243278852788,38.739218906179055],[-95.05736033340332,38.73835984648846],[-95.06453892138921,38.69454780226802],[-95.06453892138921,38.38958161210611],[-95.50961137651376,38.39044067179671],[-95.50961137651376,38.434252716017156],[-95.50961137651376,38.69540686195861],[-95.50243278852788,38.739218906179055]]]}},{"type":"Feature","id":"20061","properties":{"name":"Geary","county_fips":"20061","state_abbr":"KS"},"geometry":{"type":"Polygon","coordinates":[[[-96.96327544365444,39.13266824447244],[-96.96327544365444,39.220292332913324],[-96.84841803588036,39.21943327322273],[-96.84841803588036,39.139540721997214],[-96.83047156591566,39.139540721997214],[-96.85200732987329,39.0879971405614],[-96.70484627616275,39.09143337932379],[-96.70484627616275,39.073393125821255],[-96.50025651856518,39.07253406613066],[-96.50025651856518,39.04332603665036],[-96.50025651856518,38.869795979149785],[-96.89148956379563,38.869795979149785],[-96.92738250372503,38.87065503884038],[-96.92738250372503,38.97889655985559],[-96.96327544365444,38.96515160480604],[-96.96327544365444,39.13266824447244]]]}},{"type":"Feature","id":"20063","properties":{"name":"Gove","county_fips":"20063","state_abbr":"KS"},"geometry":{"type":"Polygon","coordinates":[[[-100.81099860408604,39.13352730416303],[-100.72126625426253,39.13352730416303],[-100.16492568535685,39.131809184781844],[-100.14697921539215,39.131809184781844],[-100.15415780337803,38.697124981339805],[-100.24747944719446,38.6979840410304],[-100.68896260832608,38.6997021604116],[-100.81817719207191,38.6997021604116],[-100.81099860408604,39.13352730416303]]]}},{"type":"Feature","id":"20065","properties":{"name":"Graham","county_fips":"20065","state_abbr":"KS"},"geometry":{"type":"Polygon","coordinates":[[[-100.1613363913639,39.56735244791447],[-99.62653158641587,39.56735244791447],[-99.60140652846528,39.56735244791447],[-99.60499582245822,39.13266824447244],[-100.14697921539215,39.131809184781844],[-100.16492568535685,39.131809184781844],[-100.1613363913639,39.56735244791447]]]}},{"type":"Feature","id":"20067","properties":{"name":"Grant","county_fips":"20067","state_abbr":"KS"},"geometry":{"type":"Polygon","coordinates":[[[-101.52885740267402,37.73669624725247],[-101.09096353553535,37.73669624725247],[-101.09096353553535,37.387918012870124],[-101.52526810868108,37.38877707256072],[-101.52885740267402,37.73669624725247]]]}},{"type":"Feature","id":"20069","properties":{"name":"Gray","county_fips":"20069","state_abbr":"KS"},"geometry":{"type":"Polygon","coordinates":[[[-100.22594368323682,38.00128663195631],[-100.22594368323682,37.91366254351543],[-100.22594368323682,37.82689751476514],[-100.21517580125801,37.82689751476514],[-100.21517580125801,37.47554210131101],[-100.65306966839668,37.47468304162041],[-100.65306966839668,37.73669624725247],[-100.65306966839668,37.82861563414634],[-100.6638375503755,37.82861563414634],[-100.6638375503755,38.00214569164691],[-100.22594368323682,38.00128663195631]]]}},{"type":"Feature","id":"20071","properties":{"name":"Greeley","county_fips":"20071","state_abbr":"KS"},"geometry":{"type":"Polygon","coordinates":[[[-102.04571573765737,38.615514310733104],[-102.04571573765737,38.6979840410304],[-101.56833963659636,38.6997021604116],[-101.56833963659636,38.26329983758837],[-102.04571573765737,38.26244077789777],[-102.04571573765737,38.26845419573195],[-102.04571573765737,38.615514310733104]]]}},{"type":"Feature","id":"20073","properties":{"name":"Greenwood","county_fips":"20073","state_abbr":"KS"},"geometry":{"type":"Polygon","coordinates":[[[-96.52179228252282,38.08633354132541],[-96.35668475884758,38.08547448163481],[-96.35668475884758,38.1722395103851],[-95.95827312563125,38.1705213910039],[-95.95827312563125,38.03994431803317],[-95.9618624196242,37.734119068180675],[-95.9618624196242,37.603541995209945],[-96.52538157651576,37.606978233972335],[-96.52179228252282,38.08633354132541]]]}},{"type":"Feature","id":"20075","properties":{"name":"Hamilton","county_fips":"20075","state_abbr":"KS"},"geometry":{"type":"Polygon","coordinates":[[[-102.04571573765737,38.26244077789777],[-101.56833963659636,38.26329983758837],[-101.54321457864579,38.26329983758837],[-101.54321457864579,37.82775657445574],[-101.52526810868108,37.82775657445574],[-101.52885740267402,37.73669624725247],[-102.04212644366443,37.73841436663366],[-102.04571573765737,38.26244077789777]]]}},{"type":"Feature","id":"20077","properties":{"name":"Harper","county_fips":"20077","state_abbr":"KS"},"geometry":{"type":"Polygon","coordinates":[[[-98.34874292492924,37.38448177410773],[-97.80675953199531,37.38619989348893],[-97.80317023800238,37.38448177410773],[-97.80317023800238,36.998763973029725],[-98.11184952139521,36.99790491333913],[-98.34874292492924,36.99790491333913],[-98.34874292492924,37.38448177410773]]]}},{"type":"Feature","id":"20079","properties":{"name":"Harvey","county_fips":"20079","state_abbr":"KS"},"geometry":{"type":"Polygon","coordinates":[[[-97.70267000620005,38.17395762976629],[-97.37245495884959,38.17395762976629],[-97.15350802528025,38.17481668945689],[-97.15350802528025,38.088051660706604],[-97.15350802528025,37.91280348382483],[-97.6883128302283,37.91280348382483],[-97.70267000620005,37.911085364443636],[-97.70267000620005,38.17395762976629]]]}},{"type":"Feature","id":"20081","properties":{"name":"Haskell","county_fips":"20081","state_abbr":"KS"},"geometry":{"type":"Polygon","coordinates":[[[-101.09096353553535,37.73669624725247],[-100.65306966839668,37.73669624725247],[-100.65306966839668,37.47468304162041],[-100.65306966839668,37.387918012870124],[-101.06942777157771,37.387918012870124],[-101.09096353553535,37.387918012870124],[-101.09096353553535,37.73669624725247]]]}},{"type":"Feature","id":"20083","properties":{"name":"Hodgeman","county_fips":"20083","state_abbr":"KS"},"geometry":{"type":"Polygon","coordinates":[[[-100.22594368323682,38.26244077789777],[-99.58346005850058,38.26244077789777],[-99.56910288252882,38.26244077789777],[-99.56910288252882,38.08719260101601],[-99.56910288252882,37.91280348382483],[-100.22594368323682,37.91366254351543],[-100.22594368323682,38.00128663195631],[-100.22594368323682,38.26244077789777]]]}},{"type":"Feature","id":"20085","properties":{"name":"Jackson","county_fips":"20085","state_abbr":"KS"},"geometry":{"type":"Polygon","coordinates":[[[-96.03723759347594,39.566493388223876],[-95.78957630796307,39.56563432853328],[-95.78957630796307,39.65325841697416],[-95.56345078640786,39.65325841697416],[-95.57062937439375,39.56563432853328],[-95.57062937439375,39.41873512144121],[-95.58857584435845,39.41873512144121],[-95.58857584435845,39.21599703446034],[-96.03723759347594,39.216856094150934],[-96.03364829948299,39.274413093420925],[-96.03723759347594,39.566493388223876]]]}},{"type":"Feature","id":"20087","properties":{"name":"Jefferson","county_fips":"20087","state_abbr":"KS"},"geometry":{"type":"Polygon","coordinates":[[[-95.58857584435845,39.21599703446034],[-95.58857584435845,39.41873512144121],[-95.57062937439375,39.41873512144121],[-95.17939632916328,39.41959418113181],[-95.17939632916328,39.12923200571005],[-95.18657491714917,39.044185096340954],[-95.29784303093031,39.042466976959766],[-95.34091455884558,39.031299200982005],[-95.43782549665497,39.069956887058865],[-95.49884349453494,39.05707099169991],[-95.59575443234432,39.06480252891528],[-95.58857584435845,39.21599703446034]]]}},{"type":"Feature","id":"20089","properties":{"name":"Jewell","county_fips":"20089","state_abbr":"KS"},"geometry":{"type":"Polygon","coordinates":[[[-98.50308256662566,40.002036651356505],[-98.2733677510775,40.0028957110471],[-97.93238482174822,40.002036651356505],[-97.93238482174822,39.65411747666476],[-97.93238482174822,39.566493388223876],[-98.4887253906539,39.56735244791447],[-98.5066718606186,39.56735244791447],[-98.50308256662566,40.002036651356505]]]}},{"type":"Feature","id":"20091","properties":{"name":"Johnson","county_fips":"20091","state_abbr":"KS"},"geometry":{"type":"Polygon","coordinates":[[[-95.05736033340332,38.98233279861798],[-95.02146739347393,39.000373052120516],[-94.94968151361513,38.98405091799918],[-94.91019927969279,38.99178245521455],[-94.87071704577045,39.058789111081104],[-94.8025204599046,39.04332603665036],[-94.60869858428583,39.044185096340954],[-94.60869858428583,38.847460427194264],[-94.60869858428583,38.73835984648846],[-95.05736033340332,38.73835984648846],[-95.05736033340332,38.98233279861798]]]}},{"type":"Feature","id":"20093","properties":{"name":"Kearny","county_fips":"20093","state_abbr":"KS"},"geometry":{"type":"Polygon","coordinates":[[[-101.54321457864579,38.26329983758837],[-101.12685647546475,38.26415889727897],[-101.10173141751417,38.26415889727897],[-101.1053207115071,37.82861563414634],[-101.09096353553535,37.82947469383693],[-101.09096353553535,37.73669624725247],[-101.52885740267402,37.73669624725247],[-101.52526810868108,37.82775657445574],[-101.54321457864579,37.82775657445574],[-101.54321457864579,38.26329983758837]]]}},{"type":"Feature","id":"20095","properties":{"name":"Kingman","county_fips":"20095","state_abbr":"KS"},"geometry":{"type":"Polygon","coordinates":[[[-98.46360033270332,37.47124680285802],[-98.46360033270332,37.73240094879948],[-97.80675953199531,37.734119068180675],[-97.80675953199531,37.47382398192981],[-97.80675953199531,37.38619989348893],[-98.34874292492924,37.38448177410773],[-98.46360033270332,37.38448177410773],[-98.46360033270332,37.47124680285802]]]}},{"type":"Feature","id":"20097","properties":{"name":"Kiowa","county_fips":"20097","state_abbr":"KS"},"geometry":{"type":"Polygon","coordinates":[[[-99.55833500055,37.73497812787127],[-99.01276231362313,37.73326000849008],[-99.01276231362313,37.47038774316743],[-99.01276231362313,37.38448177410773],[-99.54397782457823,37.38104553534535],[-99.55474570655706,37.38104553534535],[-99.55474570655706,37.467810564095636],[-99.55833500055,37.73497812787127]]]}},{"type":"Feature","id":"20099","properties":{"name":"Labette","county_fips":"20099","state_abbr":"KS"},"geometry":{"type":"Polygon","coordinates":[[[-95.52037925849258,37.383622714417136],[-95.08966397933979,37.383622714417136],[-95.07530680336802,37.3398106701967],[-95.07530680336802,37.04773037539375],[-95.07171750937509,36.99962303272032],[-95.40911114471145,36.99962303272032],[-95.52396855248551,36.99962303272032],[-95.51678996449964,37.25218658175581],[-95.52037925849258,37.383622714417136]]]}},{"type":"Feature","id":"20101","properties":{"name":"Lane","county_fips":"20101","state_abbr":"KS"},"geometry":{"type":"Polygon","coordinates":[[[-100.68896260832608,38.6997021604116],[-100.24747944719446,38.6979840410304],[-100.24389015320153,38.26244077789777],[-100.68537331433313,38.26415889727897],[-100.68896260832608,38.6997021604116]]]}},{"type":"Feature","id":"20103","properties":{"name":"Leavenworth","county_fips":"20103","state_abbr":"KS"},"geometry":{"type":"Polygon","coordinates":[[[-95.17939632916328,39.41959418113181],[-94.96762798357983,39.41873512144121],[-94.92455645566456,39.38437273381733],[-94.87789563375634,39.37578213691136],[-94.91019927969279,39.35430564464644],[-94.88866351573515,39.28643992908928],[-94.82405622386223,39.24176882517825],[-94.83482410584105,39.21771515384153],[-94.77380610796108,39.200533960029595],[-94.89943139771397,39.20311113910139],[-94.91019927969279,38.99178245521455],[-94.94968151361513,38.98405091799918],[-95.02146739347393,39.000373052120516],[-95.05736033340332,38.98233279861798],[-95.07530680336802,38.96429254511544],[-95.16503915319153,38.981473738927384],[-95.18657491714917,38.96429254511544],[-95.18657491714917,39.044185096340954],[-95.17939632916328,39.12923200571005],[-95.17939632916328,39.41959418113181]]]}},{"type":"Feature","id":"20105","properties":{"name":"Lincoln","county_fips":"20105","state_abbr":"KS"},"geometry":{"type":"Polygon","coordinates":[[[-98.4887253906539,39.21943327322273],[-97.92879552775527,39.21943327322273],[-97.92879552775527,38.958279127281266],[-97.92879552775527,38.87151409853098],[-98.48513609666097,38.87065503884038],[-98.48513609666097,39.131809184781844],[-98.4887253906539,39.13266824447244],[-98.4887253906539,39.21943327322273]]]}},{"type":"Feature","id":"20107","properties":{"name":"Linn","county_fips":"20107","state_abbr":"KS"},"geometry":{"type":"Polygon","coordinates":[[[-95.06453892138921,38.38958161210611],[-94.61228787827878,38.388722552415516],[-94.61228787827878,38.0597026909169],[-94.61228787827878,38.037367138961386],[-95.07889609736097,38.037367138961386],[-95.07530680336802,38.25900453913538],[-95.06453892138921,38.25900453913538],[-95.06453892138921,38.38958161210611]]]}},{"type":"Feature","id":"20109","properties":{"name":"Logan","county_fips":"20109","state_abbr":"KS"},"geometry":{"type":"Polygon","coordinates":[[[-101.47860728677286,39.13438636385363],[-101.39246423094231,39.13524542354423],[-100.81099860408604,39.13352730416303],[-100.81817719207191,38.6997021604116],[-101.12685647546475,38.700561220102195],[-101.48578587475875,38.700561220102195],[-101.47860728677286,39.13438636385363]]]}},{"type":"Feature","id":"20111","properties":{"name":"Lyon","county_fips":"20111","state_abbr":"KS"},"geometry":{"type":"Polygon","coordinates":[[[-96.35309546485465,38.52187680445804],[-96.35309546485465,38.739218906179055],[-95.94750524365243,38.739218906179055],[-95.95109453764537,38.69540686195861],[-95.95109453764537,38.434252716017156],[-95.95109453764537,38.25986359882598],[-95.95827312563125,38.1705213910039],[-96.35668475884758,38.1722395103851],[-96.35309546485465,38.52187680445804]]]}},{"type":"Feature","id":"20115","properties":{"name":"Marion","county_fips":"20115","state_abbr":"KS"},"geometry":{"type":"Polygon","coordinates":[[[-97.37245495884959,38.60950089289892],[-96.93097179771797,38.60950089289892],[-96.93097179771797,38.522735864148636],[-96.81970368393684,38.522735864148636],[-96.81970368393684,38.34834674695746],[-96.83765015390154,38.34834674695746],[-96.84123944789448,38.08547448163481],[-97.15350802528025,38.088051660706604],[-97.15350802528025,38.17481668945689],[-97.37245495884959,38.17395762976629],[-97.37245495884959,38.60950089289892]]]}},{"type":"Feature","id":"20117","properties":{"name":"Marshall","county_fips":"20117","state_abbr":"KS"},"geometry":{"type":"Polygon","coordinates":[[[-96.80534650796507,40.00117759166591],[-96.46436357863578,40.00117759166591],[-96.23823805708057,40.00031853197531],[-96.23823805708057,39.566493388223876],[-96.57922098640987,39.566493388223876],[-96.80534650796507,39.566493388223876],[-96.80534650796507,40.00117759166591]]]}},{"type":"Feature","id":"20113","properties":{"name":"McPherson","county_fips":"20113","state_abbr":"KS"},"geometry":{"type":"Polygon","coordinates":[[[-97.92520623376234,38.60950089289892],[-97.37245495884959,38.60950089289892],[-97.37245495884959,38.17395762976629],[-97.70267000620005,38.17395762976629],[-97.9216169397694,38.17395762976629],[-97.92520623376234,38.522735864148636],[-97.92520623376234,38.60950089289892]]]}},{"type":"Feature","id":"20119","properties":{"name":"Meade","county_fips":"20119","state_abbr":"KS"},"geometry":{"type":"Polygon","coordinates":[[[-100.65306966839668,37.47468304162041],[-100.21517580125801,37.47554210131101],[-100.10749698146981,37.47468304162041],[-100.10749698146981,37.387058953179526],[-100.09313980549805,37.387058953179526],[-100.08955051150511,37.002200211792115],[-100.63153390443904,36.99962303272032],[-100.63512319843198,37.387918012870124],[-100.65306966839668,37.387918012870124],[-100.65306966839668,37.47468304162041]]]}},{"type":"Feature","id":"20121","properties":{"name":"Miami","county_fips":"20121","state_abbr":"KS"},"geometry":{"type":"Polygon","coordinates":[[[-95.05736033340332,38.73835984648846],[-94.60869858428583,38.73835984648846],[-94.61228787827878,38.477205700546996],[-94.61228787827878,38.388722552415516],[-95.06453892138921,38.38958161210611],[-95.06453892138921,38.69454780226802],[-95.05736033340332,38.73835984648846]]]}},{"type":"Feature","id":"20123","properties":{"name":"Mitchell","county_fips":"20123","state_abbr":"KS"},"geometry":{"type":"Polygon","coordinates":[[[-98.4887253906539,39.56735244791447],[-97.93238482174822,39.566493388223876],[-97.92879552775527,39.566493388223876],[-97.92879552775527,39.30619830197301],[-97.92879552775527,39.21943327322273],[-98.4887253906539,39.21943327322273],[-98.4887253906539,39.56735244791447]]]}},{"type":"Feature","id":"20125","properties":{"name":"Montgomery","county_fips":"20125","state_abbr":"KS"},"geometry":{"type":"Polygon","coordinates":[[[-95.96545171361713,37.29943486473864],[-95.9618624196242,37.387058953179526],[-95.52396855248551,37.383622714417136],[-95.52037925849258,37.383622714417136],[-95.51678996449964,37.25218658175581],[-95.52396855248551,36.99962303272032],[-95.78598701397013,36.99962303272032],[-95.96545171361713,36.998763973029725],[-95.96545171361713,37.29943486473864]]]}},{"type":"Feature","id":"20127","properties":{"name":"Morris","county_fips":"20127","state_abbr":"KS"},"geometry":{"type":"Polygon","coordinates":[[[-96.89148956379563,38.869795979149785],[-96.50025651856518,38.869795979149785],[-96.50025651856518,38.82598393492934],[-96.38898840478404,38.82598393492934],[-96.38898840478404,38.739218906179055],[-96.35309546485465,38.739218906179055],[-96.35309546485465,38.52187680445804],[-96.81970368393684,38.522735864148636],[-96.93097179771797,38.522735864148636],[-96.93097179771797,38.60950089289892],[-96.92738250372503,38.812238979879794],[-96.89148956379563,38.812238979879794],[-96.89148956379563,38.869795979149785]]]}},{"type":"Feature","id":"20129","properties":{"name":"Morton","county_fips":"20129","state_abbr":"KS"},"geometry":{"type":"Polygon","coordinates":[[[-102.04212644366443,37.38877707256072],[-101.55757175461754,37.38877707256072],[-101.5539824606246,36.995327734267335],[-102.02776926769268,36.99275055519555],[-102.04212644366443,36.99275055519555],[-102.04212644366443,37.38877707256072]]]}},{"type":"Feature","id":"20131","properties":{"name":"Nemaha","county_fips":"20131","state_abbr":"KS"},"geometry":{"type":"Polygon","coordinates":[[[-96.23823805708057,40.00031853197531],[-96.01211253552535,40.00031853197531],[-95.78957630796307,40.00031853197531],[-95.78957630796307,39.65325841697416],[-95.78957630796307,39.56563432853328],[-96.03723759347594,39.566493388223876],[-96.23823805708057,39.566493388223876],[-96.23823805708057,40.00031853197531]]]}},{"type":"Feature","id":"20133","properties":{"name":"Neosho","county_fips":"20133","state_abbr":"KS"},"geometry":{"type":"Polygon","coordinates":[[[-95.52396855248551,37.73240094879948],[-95.08966397933979,37.73240094879948],[-95.08966397933979,37.67484394952949],[-95.08966397933979,37.383622714417136],[-95.52037925849258,37.383622714417136],[-95.52396855248551,37.383622714417136],[-95.52396855248551,37.73240094879948]]]}},{"type":"Feature","id":"20135","properties":{"name":"Ness","county_fips":"20135","state_abbr":"KS"},"geometry":{"type":"Polygon","coordinates":[[[-100.24747944719446,38.6979840410304],[-100.15415780337803,38.697124981339805],[-99.59781723447234,38.69626592164921],[-99.58346005850058,38.69626592164921],[-99.58346005850058,38.34920580664806],[-99.58346005850058,38.26244077789777],[-100.22594368323682,38.26244077789777],[-100.24389015320153,38.26244077789777],[-100.24747944719446,38.6979840410304]]]}},{"type":"Feature","id":"20137","properties":{"name":"Norton","county_fips":"20137","state_abbr":"KS"},"geometry":{"type":"Polygon","coordinates":[[[-100.1792828613286,40.00117759166591],[-99.62653158641587,40.002036651356505],[-99.62653158641587,39.56735244791447],[-100.1613363913639,39.56735244791447],[-100.1792828613286,39.566493388223876],[-100.1792828613286,40.00117759166591]]]}},{"type":"Feature","id":"20139","properties":{"name":"Osage","county_fips":"20139","state_abbr":"KS"},"geometry":{"type":"Polygon","coordinates":[[[-95.94750524365243,38.739218906179055],[-95.94750524365243,38.869795979149785],[-95.50243278852788,38.869795979149785],[-95.50243278852788,38.739218906179055],[-95.50961137651376,38.69540686195861],[-95.50961137651376,38.434252716017156],[-95.95109453764537,38.434252716017156],[-95.95109453764537,38.69540686195861],[-95.94750524365243,38.739218906179055]]]}},{"type":"Feature","id":"20141","properties":{"name":"Osborne","county_fips":"20141","state_abbr":"KS"},"geometry":{"type":"Polygon","coordinates":[[[-99.0450659595596,39.56821150760507],[-98.5066718606186,39.56735244791447],[-98.4887253906539,39.56735244791447],[-98.4887253906539,39.21943327322273],[-98.4887253906539,39.13266824447244],[-99.03788737157372,39.13352730416303],[-99.04865525355252,39.13266824447244],[-99.0450659595596,39.56821150760507]]]}},{"type":"Feature","id":"20143","properties":{"name":"Ottawa","county_fips":"20143","state_abbr":"KS"},"geometry":{"type":"Polygon","coordinates":[[[-97.92879552775527,39.30619830197301],[-97.36886566485664,39.30619830197301],[-97.37245495884959,39.131809184781844],[-97.37245495884959,38.958279127281266],[-97.92879552775527,38.958279127281266],[-97.92879552775527,39.21943327322273],[-97.92879552775527,39.30619830197301]]]}},{"type":"Feature","id":"20145","properties":{"name":"Pawnee","county_fips":"20145","state_abbr":"KS"},"geometry":{"type":"Polygon","coordinates":[[[-99.58346005850058,38.34920580664806],[-99.24965571715717,38.35092392602925],[-99.03070878358783,38.34834674695746],[-99.03070878358783,38.261581718207175],[-98.91226208182081,38.26072265851658],[-98.91226208182081,38.000427572265714],[-99.02353019560195,38.000427572265714],[-99.35015594895948,38.000427572265714],[-99.35015594895948,38.08719260101601],[-99.56910288252882,38.08719260101601],[-99.56910288252882,38.26244077789777],[-99.58346005850058,38.26244077789777],[-99.58346005850058,38.34920580664806]]]}},{"type":"Feature","id":"20147","properties":{"name":"Phillips","county_fips":"20147","state_abbr":"KS"},"geometry":{"type":"Polygon","coordinates":[[[-99.62653158641587,40.002036651356505],[-99.17786983729837,40.002036651356505],[-99.06660172351722,40.002036651356505],[-99.06660172351722,39.56821150760507],[-99.60140652846528,39.56735244791447],[-99.62653158641587,39.56735244791447],[-99.62653158641587,40.002036651356505]]]}},{"type":"Feature","id":"20149","properties":{"name":"Pottawatomie","county_fips":"20149","state_abbr":"KS"},"geometry":{"type":"Polygon","coordinates":[[[-96.57922098640987,39.566493388223876],[-96.23823805708057,39.566493388223876],[-96.03723759347594,39.566493388223876],[-96.03364829948299,39.274413093420925],[-96.03723759347594,39.216856094150934],[-96.04082688746887,39.12665482663826],[-96.08389841538416,39.193661482504815],[-96.1772200592006,39.18850712436124],[-96.23105946909469,39.211701736007356],[-96.27054170301703,39.17905746776467],[-96.30643464294643,39.197097721267205],[-96.331559700897,39.15929909488094],[-96.38898840478404,39.173044049930496],[-96.46077428464284,39.19022524374243],[-96.46077428464284,39.16874875147751],[-96.55409592845928,39.17905746776467],[-96.56127451644517,39.24176882517825],[-96.64023898428984,39.292453346923466],[-96.64741757227571,39.32595667485674],[-96.7263820401204,39.40327204701046],[-96.7084355701557,39.46168810597106],[-96.66895333623336,39.4754330610206],[-96.64382827828278,39.51924510524105],[-96.57922098640987,39.566493388223876]]]}},{"type":"Feature","id":"20151","properties":{"name":"Pratt","county_fips":"20151","state_abbr":"KS"},"geometry":{"type":"Polygon","coordinates":[[[-99.01276231362313,37.82517939538395],[-98.4707789206892,37.82432033569335],[-98.46360033270332,37.73240094879948],[-98.46360033270332,37.47124680285802],[-99.01276231362313,37.47038774316743],[-99.01276231362313,37.73326000849008],[-99.01276231362313,37.82517939538395]]]}},{"type":"Feature","id":"20153","properties":{"name":"Rawlins","county_fips":"20153","state_abbr":"KS"},"geometry":{"type":"Polygon","coordinates":[[[-101.41041070090701,40.002036651356505],[-101.32426764507645,40.0028957110471],[-100.75715919419194,40.002036651356505],[-100.73921272422724,40.002036651356505],[-100.73921272422724,39.56821150760507],[-101.38887493694936,39.56821150760507],[-101.41399999489994,39.56821150760507],[-101.41041070090701,40.002036651356505]]]}},{"type":"Feature","id":"20155","properties":{"name":"Reno","county_fips":"20155","state_abbr":"KS"},"geometry":{"type":"Polygon","coordinates":[[[-98.47436821468214,38.173098570075695],[-98.21593904719046,38.173098570075695],[-98.21593904719046,38.158494555335544],[-98.14056387333873,38.15935361502614],[-98.14056387333873,38.17395762976629],[-97.9216169397694,38.17395762976629],[-97.70267000620005,38.17395762976629],[-97.70267000620005,37.911085364443636],[-97.69908071220712,37.73497812787127],[-97.80675953199531,37.734119068180675],[-98.46360033270332,37.73240094879948],[-98.4707789206892,37.82432033569335],[-98.47436821468214,38.173098570075695]]]}},{"type":"Feature","id":"20157","properties":{"name":"Republic","county_fips":"20157","state_abbr":"KS"},"geometry":{"type":"Polygon","coordinates":[[[-97.93238482174822,40.002036651356505],[-97.82111670796708,40.002036651356505],[-97.36886566485664,40.002036651356505],[-97.36886566485664,39.65411747666476],[-97.93238482174822,39.65411747666476],[-97.93238482174822,40.002036651356505]]]}},{"type":"Feature","id":"20159","properties":{"name":"Rice","county_fips":"20159","state_abbr":"KS"},"geometry":{"type":"Polygon","coordinates":[[[-98.48154680266802,38.52187680445804],[-97.92520623376234,38.522735864148636],[-97.9216169397694,38.17395762976629],[-98.14056387333873,38.17395762976629],[-98.14056387333873,38.15935361502614],[-98.21593904719046,38.158494555335544],[-98.21593904719046,38.173098570075695],[-98.47436821468214,38.173098570075695],[-98.4707789206892,38.26072265851658],[-98.48154680266802,38.26072265851658],[-98.48154680266802,38.52187680445804]]]}},{"type":"Feature","id":"20161","properties":{"name":"Riley","county_fips":"20161","state_abbr":"KS"},"geometry":{"type":"Polygon","coordinates":[[[-96.9596861496615,39.566493388223876],[-96.80534650796507,39.566493388223876],[-96.57922098640987,39.566493388223876],[-96.64382827828278,39.51924510524105],[-96.66895333623336,39.4754330610206],[-96.7084355701557,39.46168810597106],[-96.7263820401204,39.40327204701046],[-96.64741757227571,39.32595667485674],[-96.64023898428984,39.292453346923466],[-96.56127451644517,39.24176882517825],[-96.55409592845928,39.17905746776467],[-96.46077428464284,39.16874875147751],[-96.46077428464284,39.19022524374243],[-96.38898840478404,39.173044049930496],[-96.39257769877699,39.04332603665036],[-96.50025651856518,39.04332603665036],[-96.50025651856518,39.07253406613066],[-96.70484627616275,39.073393125821255],[-96.70484627616275,39.09143337932379],[-96.85200732987329,39.0879971405614],[-96.83047156591566,39.139540721997214],[-96.84841803588036,39.139540721997214],[-96.84841803588036,39.21943327322273],[-96.96327544365444,39.220292332913324],[-96.9596861496615,39.566493388223876]]]}},{"type":"Feature","id":"20163","properties":{"name":"Rooks","county_fips":"20163","state_abbr":"KS"},"geometry":{"type":"Polygon","coordinates":[[[-99.60140652846528,39.56735244791447],[-99.06660172351722,39.56821150760507],[-99.0450659595596,39.56821150760507],[-99.04865525355252,39.13266824447244],[-99.59063864648645,39.13266824447244],[-99.60499582245822,39.13266824447244],[-99.60140652846528,39.56735244791447]]]}},{"type":"Feature","id":"20165","properties":{"name":"Rush","county_fips":"20165","state_abbr":"KS"},"geometry":{"type":"Polygon","coordinates":[[[-99.58346005850058,38.69626592164921],[-99.04147666556665,38.697124981339805],[-99.03429807758077,38.697124981339805],[-99.03070878358783,38.34834674695746],[-99.24965571715717,38.35092392602925],[-99.58346005850058,38.34920580664806],[-99.58346005850058,38.69626592164921]]]}},{"type":"Feature","id":"20167","properties":{"name":"Russell","county_fips":"20167","state_abbr":"KS"},"geometry":{"type":"Polygon","coordinates":[[[-99.03788737157372,39.13352730416303],[-98.4887253906539,39.13266824447244],[-98.48513609666097,39.131809184781844],[-98.48513609666097,38.87065503884038],[-98.48513609666097,38.697124981339805],[-99.03429807758077,38.697124981339805],[-99.04147666556665,38.697124981339805],[-99.03788737157372,38.85605102410023],[-99.03788737157372,39.13352730416303]]]}},{"type":"Feature","id":"20169","properties":{"name":"Saline","county_fips":"20169","state_abbr":"KS"},"geometry":{"type":"Polygon","coordinates":[[[-97.92879552775527,38.87151409853098],[-97.92879552775527,38.958279127281266],[-97.37245495884959,38.958279127281266],[-97.37245495884959,38.60950089289892],[-97.92520623376234,38.60950089289892],[-97.92879552775527,38.87151409853098]]]}},{"type":"Feature","id":"20171","properties":{"name":"Scott","county_fips":"20171","state_abbr":"KS"},"geometry":{"type":"Polygon","coordinates":[[[-101.12685647546475,38.700561220102195],[-100.81817719207191,38.6997021604116],[-100.68896260832608,38.6997021604116],[-100.68537331433313,38.26415889727897],[-101.10173141751417,38.26415889727897],[-101.12685647546475,38.26415889727897],[-101.12685647546475,38.700561220102195]]]}},{"type":"Feature","id":"20173","properties":{"name":"Sedgwick","county_fips":"20173","state_abbr":"KS"},"geometry":{"type":"Polygon","coordinates":[[[-97.80675953199531,37.734119068180675],[-97.69908071220712,37.73497812787127],[-97.70267000620005,37.911085364443636],[-97.6883128302283,37.91280348382483],[-97.15350802528025,37.91280348382483],[-97.15350802528025,37.47554210131101],[-97.35091919489194,37.4772602206922],[-97.80675953199531,37.47382398192981],[-97.80675953199531,37.734119068180675]]]}},{"type":"Feature","id":"20175","properties":{"name":"Seward","county_fips":"20175","state_abbr":"KS"},"geometry":{"type":"Polygon","coordinates":[[[-101.06942777157771,37.387918012870124],[-100.65306966839668,37.387918012870124],[-100.63512319843198,37.387918012870124],[-100.63153390443904,36.99962303272032],[-100.94380248182482,36.99790491333913],[-101.06583847758478,36.99790491333913],[-101.06942777157771,37.387918012870124]]]}},{"type":"Feature","id":"20177","properties":{"name":"Shawnee","county_fips":"20177","state_abbr":"KS"},"geometry":{"type":"Polygon","coordinates":[[[-96.03723759347594,39.216856094150934],[-95.58857584435845,39.21599703446034],[-95.59575443234432,39.06480252891528],[-95.49884349453494,39.05707099169991],[-95.50243278852788,38.869795979149785],[-95.94750524365243,38.869795979149785],[-95.94750524365243,39.09830585684856],[-96.04082688746887,39.12665482663826],[-96.03723759347594,39.216856094150934]]]}},{"type":"Feature","id":"20179","properties":{"name":"Sheridan","county_fips":"20179","state_abbr":"KS"},"geometry":{"type":"Polygon","coordinates":[[[-100.72126625426253,39.56821150760507],[-100.1792828613286,39.566493388223876],[-100.1613363913639,39.56735244791447],[-100.16492568535685,39.131809184781844],[-100.72126625426253,39.13352730416303],[-100.72126625426253,39.56821150760507]]]}},{"type":"Feature","id":"20181","properties":{"name":"Sherman","county_fips":"20181","state_abbr":"KS"},"geometry":{"type":"Polygon","coordinates":[[[-102.0493050316503,39.56821150760507],[-101.41399999489994,39.56821150760507],[-101.38887493694936,39.56821150760507],[-101.39246423094231,39.13524542354423],[-101.47860728677286,39.13438636385363],[-102.04571573765737,39.13352730416303],[-102.0493050316503,39.30276206321062],[-102.0493050316503,39.56821150760507]]]}},{"type":"Feature","id":"20183","properties":{"name":"Smith","county_fips":"20183","state_abbr":"KS"},"geometry":{"type":"Polygon","coordinates":[[[-99.06660172351722,40.002036651356505],[-98.72561879418794,40.002036651356505],[-98.50308256662566,40.002036651356505],[-98.5066718606186,39.56735244791447],[-99.0450659595596,39.56821150760507],[-99.06660172351722,39.56821150760507],[-99.06660172351722,40.002036651356505]]]}},{"type":"Feature","id":"20185","properties":{"name":"Stafford","county_fips":"20185","state_abbr":"KS"},"geometry":{"type":"Polygon","coordinates":[[[-99.02353019560195,38.000427572265714],[-98.91226208182081,38.000427572265714],[-98.91226208182081,38.26072265851658],[-98.48154680266802,38.26072265851658],[-98.4707789206892,38.26072265851658],[-98.47436821468214,38.173098570075695],[-98.4707789206892,37.82432033569335],[-99.01276231362313,37.82517939538395],[-99.02353019560195,37.82517939538395],[-99.02353019560195,38.000427572265714]]]}},{"type":"Feature","id":"20187","properties":{"name":"Stanton","county_fips":"20187","state_abbr":"KS"},"geometry":{"type":"Polygon","coordinates":[[[-102.04212644366443,37.643917800668],[-102.04212644366443,37.73841436663366],[-101.52885740267402,37.73669624725247],[-101.52526810868108,37.38877707256072],[-101.55757175461754,37.38877707256072],[-102.04212644366443,37.38877707256072],[-102.04212644366443,37.643917800668]]]}},{"type":"Feature","id":"20189","properties":{"name":"Stevens","county_fips":"20189","state_abbr":"KS"},"geometry":{"type":"Polygon","coordinates":[[[-101.55757175461754,37.38877707256072],[-101.52526810868108,37.38877707256072],[-101.09096353553535,37.387918012870124],[-101.06942777157771,37.387918012870124],[-101.06583847758478,36.99790491333913],[-101.5539824606246,36.995327734267335],[-101.55757175461754,37.38877707256072]]]}},{"type":"Feature","id":"20191","properties":{"name":"Sumner","county_fips":"20191","state_abbr":"KS"},"geometry":{"type":"Polygon","coordinates":[[[-97.80675953199531,37.47382398192981],[-97.35091919489194,37.4772602206922],[-97.15350802528025,37.47554210131101],[-97.14632943729437,36.998763973029725],[-97.46218730867308,36.998763973029725],[-97.80317023800238,36.998763973029725],[-97.80317023800238,37.38448177410773],[-97.80675953199531,37.38619989348893],[-97.80675953199531,37.47382398192981]]]}},{"type":"Feature","id":"20193","properties":{"name":"Thomas","county_fips":"20193","state_abbr":"KS"},"geometry":{"type":"Polygon","coordinates":[[[-101.38887493694936,39.56821150760507],[-100.73921272422724,39.56821150760507],[-100.72126625426253,39.56821150760507],[-100.72126625426253,39.13352730416303],[-100.81099860408604,39.13352730416303],[-101.39246423094231,39.13524542354423],[-101.38887493694936,39.56821150760507]]]}},{"type":"Feature","id":"20195","properties":{"name":"Trego","county_fips":"20195","state_abbr":"KS"},"geometry":{"type":"Polygon","coordinates":[[[-100.14697921539215,39.131809184781844],[-99.60499582245822,39.13266824447244],[-99.59063864648645,39.13266824447244],[-99.59781723447234,38.69626592164921],[-100.15415780337803,38.697124981339805],[-100.14697921539215,39.131809184781844]]]}},{"type":"Feature","id":"20197","properties":{"name":"Wabaunsee","county_fips":"20197","state_abbr":"KS"},"geometry":{"type":"Polygon","coordinates":[[[-96.50025651856518,38.869795979149785],[-96.50025651856518,39.04332603665036],[-96.39257769877699,39.04332603665036],[-96.38898840478404,39.173044049930496],[-96.331559700897,39.15929909488094],[-96.30643464294643,39.197097721267205],[-96.27054170301703,39.17905746776467],[-96.23105946909469,39.211701736007356],[-96.1772200592006,39.18850712436124],[-96.08389841538416,39.193661482504815],[-96.04082688746887,39.12665482663826],[-95.94750524365243,39.09830585684856],[-95.94750524365243,38.869795979149785],[-95.94750524365243,38.739218906179055],[-96.35309546485465,38.739218906179055],[-96.38898840478404,38.739218906179055],[-96.38898840478404,38.82598393492934],[-96.50025651856518,38.82598393492934],[-96.50025651856518,38.869795979149785]]]}},{"type":"Feature","id":"20199","properties":{"name":"Wallace","county_fips":"20199","state_abbr":"KS"},"geometry":{"type":"Polygon","coordinates":[[[-102.04571573765737,39.13352730416303],[-101.47860728677286,39.13438636385363],[-101.48578587475875,38.700561220102195],[-101.56833963659636,38.6997021604116],[-102.04571573765737,38.6979840410304],[-102.04571573765737,39.046762275412746],[-102.04571573765737,39.13352730416303]]]}},{"type":"Feature","id":"20201","properties":{"name":"Washington","county_fips":"20201","state_abbr":"KS"},"geometry":{"type":"Polygon","coordinates":[[[-97.36886566485664,40.002036651356505],[-96.91661462174622,40.00117759166591],[-96.80534650796507,40.00117759166591],[-96.80534650796507,39.566493388223876],[-96.9596861496615,39.566493388223876],[-97.36886566485664,39.56735244791447],[-97.36886566485664,39.65411747666476],[-97.36886566485664,40.002036651356505]]]}},{"type":"Feature","id":"20203","properties":{"name":"Wichita","county_fips":"20203","state_abbr":"KS"},"geometry":{"type":"Polygon","coordinates":[[[-101.56833963659636,38.6997021604116],[-101.48578587475875,38.700561220102195],[-101.12685647546475,38.700561220102195],[-101.12685647546475,38.26415889727897],[-101.54321457864579,38.26329983758837],[-101.56833963659636,38.26329983758837],[-101.56833963659636,38.6997021604116]]]}},{"type":"Feature","id":"20205","properties":{"name":"Wilson","county_fips":"20205","state_abbr":"KS"},"geometry":{"type":"Polygon","coordinates":[[[-95.9618624196242,37.603541995209945],[-95.9618624196242,37.734119068180675],[-95.52396855248551,37.73240094879948],[-95.52396855248551,37.383622714417136],[-95.9618624196242,37.387058953179526],[-95.9618624196242,37.603541995209945]]]}},{"type":"Feature","id":"20207","properties":{"name":"Woodson","county_fips":"20207","state_abbr":"KS"},"geometry":{"type":"Polygon","coordinates":[[[-95.95827312563125,38.03994431803317],[-95.52037925849258,38.038226198651984],[-95.52396855248551,37.73240094879948],[-95.9618624196242,37.734119068180675],[-95.95827312563125,38.03994431803317]]]}},{"type":"Feature","id":"20209","properties":{"name":"Wyandotte","county_fips":"20209","state_abbr":"KS"},"geometry":{"type":"Polygon","coordinates":[[[-94.77380610796108,39.200533960029595],[-94.76303822598226,39.17991652745527],[-94.71278811008109,39.170466870858704],[-94.68048446414464,39.18421182590825],[-94.66253799417994,39.15758097549975],[-94.60151999629996,39.15929909488094],[-94.60869858428583,39.1137689312793],[-94.60869858428583,39.044185096340954],[-94.8025204599046,39.04332603665036],[-94.87071704577045,39.058789111081104],[-94.91019927969279,38.99178245521455],[-94.89943139771397,39.20311113910139],[-94.77380610796108,39.200533960029595]]]}}]}