{"type":"FeatureCollection","features":[{"type":"Feature","id":"22001","properties":{"name":"Acadia","county_fips":"22001","state_abbr":"LA"},"geometry":{"type":"Polygon","coordinates":[[[-92.63099759417594,30.481078100471002],[-92.49460442244423,30.480219040780405],[-92.24335384293842,30.480219040780405],[-92.24335384293842,30.43640699655996],[-92.17515725707257,30.437266056250557],[-92.17515725707257,30.349641967809674],[-92.1428536111361,30.298957446064456],[-92.17515725707257,30.269749416584162],[-92.17515725707257,30.241400446794465],[-92.25053243092431,30.203601820408196],[-92.24694313693136,30.185561566905662],[-92.2864253708537,30.1477629405194],[-92.3761577206772,30.066152269912692],[-92.42281854258542,30.048971076100756],[-92.50537230442303,30.079038165271648],[-92.5556224203242,30.115977731967313],[-92.62381900619006,30.091924060630603],[-92.62740830018299,30.134017985469846],[-92.5915153602536,30.18212532814328],[-92.62740830018299,30.230232670816704],[-92.62022971219712,30.34019231121311],[-92.63099759417594,30.37884999728997],[-92.59510465424654,30.42008486243862],[-92.63099759417594,30.481078100471002]]]}},{"type":"Feature","id":"22003","properties":{"name":"Allen","county_fips":"22003","state_abbr":"LA"},"geometry":{"type":"Polygon","coordinates":[[[-92.97915911149111,30.877963677526772],[-92.82481946979469,30.87538649845498],[-92.82481946979469,30.88999051319513],[-92.59869394823947,30.896003931029306],[-92.59869394823947,30.584165263342626],[-92.58433677226772,30.56698406953069],[-92.63099759417594,30.487950577995775],[-92.77456935389354,30.487950577995775],[-92.77456935389354,30.437266056250557],[-93.06530216732168,30.438984175631752],[-93.06530216732168,30.4243801608916],[-93.1299094591946,30.423521101201004],[-93.1299094591946,30.59791021839218],[-92.97915911149111,30.598769278082777],[-92.97915911149111,30.877963677526772]]]}},{"type":"Feature","id":"22005","properties":{"name":"Ascension","county_fips":"22005","state_abbr":"LA"},"geometry":{"type":"Polygon","coordinates":[[[-91.0194045913459,30.321292998019977],[-90.98710094540945,30.345346669356687],[-90.89019000760007,30.345346669356687],[-90.8291720097201,30.318715818948185],[-90.82558271572715,30.292944028230274],[-90.76815401184011,30.23968232741327],[-90.75020754187541,30.241400446794465],[-90.71790389593896,30.18985686535865],[-90.69277883798837,30.1752528506185],[-90.6497073100731,30.2319507901979],[-90.6317608401084,30.221642073910736],[-90.64252872208722,30.16666225371253],[-90.91531506555066,30.113400552895527],[-90.96197588745888,30.066152269912692],[-91.00504741537415,30.079038165271648],[-91.10554764717646,30.06271603115031],[-91.10554764717646,30.108246194751942],[-91.07324400124001,30.160648835878355],[-91.0194045913459,30.321292998019977]]]}},{"type":"Feature","id":"22007","properties":{"name":"Assumption","county_fips":"22007","state_abbr":"LA"},"geometry":{"type":"Polygon","coordinates":[[[-91.22399434894349,30.02491740476404],[-91.10554764717646,30.06271603115031],[-91.00504741537415,30.079038165271648],[-90.96197588745888,30.066152269912692],[-90.95838659346593,29.97766912178121],[-90.92608294752947,29.97852818147181],[-90.92608294752947,29.934716137251364],[-90.88660071360714,29.93557519694196],[-90.88660071360714,29.90550810777107],[-90.94761871148711,29.792112228612282],[-91.00504741537415,29.714796856458563],[-91.08401188321884,29.626313708327075],[-91.10554764717646,29.64263584244842],[-91.09836905919059,29.699333782027814],[-91.09119047120471,29.801561885208848],[-91.13426199911999,29.837642392213915],[-91.18810140901408,29.848810168191676],[-91.21322646696467,29.907226227152265],[-91.25629799487994,29.971655703947036],[-91.25988728887289,30.000004673736733],[-91.22399434894349,30.02491740476404]]]}},{"type":"Feature","id":"22009","properties":{"name":"Avoyelles","county_fips":"22009","state_abbr":"LA"},"geometry":{"type":"Polygon","coordinates":[[[-92.27924678286783,30.964728706277057],[-92.20746090300902,30.962151527205265],[-92.23258596095961,31.115923211822114],[-92.23258596095961,31.321238477874772],[-92.19310372703727,31.334124373233728],[-92.16438937509375,31.303198224372238],[-92.1249071411714,31.30577540344403],[-92.08542490724906,31.334983432924325],[-92.02440690936909,31.342714970139696],[-92.00646043940439,31.32553377632776],[-92.01004973339732,31.282580791797912],[-91.99210326343263,31.22588285221852],[-91.93467455954558,31.238768747577467],[-91.9454424415244,31.27227207551075],[-91.90954950159501,31.297184806538063],[-91.83417432774327,31.266258657676573],[-91.81263856378564,31.23705062819628],[-91.67624539205391,31.188084225832256],[-91.7193169199692,31.134822525015245],[-91.70495974399743,31.10561449553495],[-91.72290621396213,31.04462125750257],[-91.75162056590565,31.018849466784665],[-91.80545997579975,30.972460243492428],[-91.80545997579975,30.86335966278662],[-91.81622785777857,30.84789658835588],[-92.21105019700197,30.848755648046478],[-92.23617525495254,30.84789658835588],[-92.23976454894549,30.892567692266915],[-92.27924678286783,30.93637973648736],[-92.27924678286783,30.964728706277057]]]}},{"type":"Feature","id":"22011","properties":{"name":"Beauregard","county_fips":"22011","state_abbr":"LA"},"geometry":{"type":"Polygon","coordinates":[[[-93.55703544435444,30.868514020930206],[-93.52114250442504,30.879681796907967],[-93.47807097650976,30.85906436433364],[-93.43499944859448,30.881399916289155],[-93.15503451714517,30.88311803567035],[-93.13349875318752,30.877963677526772],[-92.97915911149111,30.877963677526772],[-92.97915911149111,30.598769278082777],[-93.1299094591946,30.59791021839218],[-93.1299094591946,30.423521101201004],[-93.1299094591946,30.402903668626678],[-93.38474933269332,30.402903668626678],[-93.38474933269332,30.490527757067568],[-93.48524956449565,30.490527757067568],[-93.48524956449565,30.402903668626678],[-93.74008943799437,30.402044608936087],[-93.6970179100791,30.440702295012947],[-93.7149643800438,30.518876726857265],[-93.74008943799437,30.53949415943159],[-93.72932155601555,30.573856547055463],[-93.6790714401144,30.599628337773375],[-93.67189285212852,30.658044396733963],[-93.62882132421323,30.679520888998887],[-93.61805344223441,30.742232246412456],[-93.58574979629796,30.796353006920064],[-93.5534461503615,30.82470197670976],[-93.55703544435444,30.868514020930206]]]}},{"type":"Feature","id":"22013","properties":{"name":"Bienville","county_fips":"22013","state_abbr":"LA"},"geometry":{"type":"Polygon","coordinates":[[[-93.37398145071451,32.41052616555165],[-93.23758827898278,32.409667105861054],[-93.23758827898278,32.45433820977209],[-93.14785592915929,32.45519726946269],[-93.17298098710987,32.52649922378223],[-93.18015957509574,32.58491528274282],[-92.88224817368173,32.58491528274282],[-92.8786588796888,32.45433820977209],[-92.77815864788647,32.45347915008149],[-92.77456935389354,32.236137048360476],[-92.79969441184411,32.21036525764257],[-92.81405158781587,32.1467948405384],[-92.93967687756877,32.147653900228995],[-93.18733816308162,32.14851295991959],[-93.21246322103221,32.19232500414004],[-93.21246322103221,32.236137048360476],[-93.4278208606086,32.236137048360476],[-93.40628509665096,32.2842443910339],[-93.4278208606086,32.309157122061215],[-93.40269580265802,32.3684322407124],[-93.42423156661566,32.397640270192696],[-93.37398145071451,32.41052616555165]]]}},{"type":"Feature","id":"22015","properties":{"name":"Bossier","county_fips":"22015","state_abbr":"LA"},"geometry":{"type":"Polygon","coordinates":[[[-93.81546461184611,33.01959948618486],[-93.80469672986729,33.01959948618486],[-93.52114250442504,33.01874042649426],[-93.53191038640387,32.975787441964414],[-93.51037462244622,32.93541163650636],[-93.4816602705027,32.92682103960039],[-93.45294591855918,32.822015757347565],[-93.47448168251682,32.783358071270705],[-93.4457673305733,32.76102251931519],[-93.4457673305733,32.498150253992534],[-93.44217803658036,32.41052616555165],[-93.37398145071451,32.41052616555165],[-93.42423156661566,32.397640270192696],[-93.40269580265802,32.3684322407124],[-93.4278208606086,32.309157122061215],[-93.40628509665096,32.2842443910339],[-93.4278208606086,32.236137048360476],[-93.47089238852388,32.23699610805107],[-93.46012450654506,32.24988200341003],[-93.53908897438974,32.290257808868084],[-93.55703544435444,32.33149267401674],[-93.62164273622736,32.35382822597225],[-93.62882132421323,32.39935838957389],[-93.68625002810028,32.40708992678926],[-93.6790714401144,32.43372077719776],[-93.6970179100791,32.49385495553955],[-93.75444661396614,32.536807940069394],[-93.74008943799437,32.590928700577],[-93.76880378993789,32.59608305872058],[-93.75085731997319,32.620995789747894],[-93.78316096590966,32.71205611695116],[-93.81905390583906,32.73610978828788],[-93.79033955389554,32.759304399933995],[-93.79751814188141,32.80741174260742],[-93.78675025990259,32.85723720466204],[-93.822643199832,32.90190830857308],[-93.80110743587436,32.93197539774397],[-93.84417896378963,32.95001565124651],[-93.81905390583906,32.975787441964414],[-93.81546461184611,33.01959948618486]]]}},{"type":"Feature","id":"22017","properties":{"name":"Caddo","county_fips":"22017","state_abbr":"LA"},"geometry":{"type":"Polygon","coordinates":[[[-94.04159013340133,32.69315680375803],[-94.04159013340133,32.88129087599875],[-94.04159013340133,33.01959948618486],[-93.81546461184611,33.01959948618486],[-93.81905390583906,32.975787441964414],[-93.84417896378963,32.95001565124651],[-93.80110743587436,32.93197539774397],[-93.822643199832,32.90190830857308],[-93.78675025990259,32.85723720466204],[-93.79751814188141,32.80741174260742],[-93.79033955389554,32.759304399933995],[-93.81905390583906,32.73610978828788],[-93.78316096590966,32.71205611695116],[-93.75085731997319,32.620995789747894],[-93.76880378993789,32.59608305872058],[-93.74008943799437,32.590928700577],[-93.75444661396614,32.536807940069394],[-93.6970179100791,32.49385495553955],[-93.6790714401144,32.43372077719776],[-93.68625002810028,32.40708992678926],[-93.62882132421323,32.39935838957389],[-93.62164273622736,32.35382822597225],[-93.55703544435444,32.33149267401674],[-93.53908897438974,32.290257808868084],[-93.46012450654506,32.24988200341003],[-93.47089238852388,32.23699610805107],[-93.61446414824148,32.23785516774167],[-93.61446414824148,32.26964037629376],[-93.66471426414263,32.31774771896718],[-93.7149643800438,32.31602959958599],[-93.75444661396614,32.343519509685095],[-93.79033955389554,32.340083270922705],[-93.84776825778258,32.29197592824928],[-93.8585361397614,32.25331824217242],[-93.95185778357784,32.19576124290242],[-94.04159013340133,32.19576124290242],[-94.04159013340133,32.39248591204912],[-94.04159013340133,32.69315680375803]]]}},{"type":"Feature","id":"22019","properties":{"name":"Calcasieu","county_fips":"22019","state_abbr":"LA"},"geometry":{"type":"Polygon","coordinates":[[[-93.74008943799437,30.402044608936087],[-93.48524956449565,30.402903668626678],[-93.48524956449565,30.490527757067568],[-93.38474933269332,30.490527757067568],[-93.38474933269332,30.402903668626678],[-93.1299094591946,30.402903668626678],[-93.1299094591946,30.379709056980566],[-93.02940922739226,30.379709056980566],[-93.02940922739226,30.260299759987596],[-92.99710558145581,30.261158819678194],[-92.99710558145581,30.157212597115965],[-92.89301605566055,30.156353537425368],[-92.9073732316323,30.11254149320493],[-92.88583746767468,30.083333463724635],[-92.99710558145581,30.082474404034038],[-92.99710558145581,30.038662359813593],[-93.1299094591946,30.038662359813593],[-93.1299094591946,30.052407314863146],[-93.72214296802967,30.05154825517255],[-93.70060720407204,30.065293210222094],[-93.7329108500085,30.08161534434344],[-93.68983932209322,30.141749522685224],[-93.72214296802967,30.209615238242378],[-93.70419649806497,30.24397762586625],[-93.70778579205792,30.288648729777293],[-93.76521449594496,30.33331983368833],[-93.75803590795907,30.39001777326773],[-93.74008943799437,30.402044608936087]]]}},{"type":"Feature","id":"22021","properties":{"name":"Caldwell","county_fips":"22021","state_abbr":"LA"},"geometry":{"type":"Polygon","coordinates":[[[-92.31155042880428,32.1459357808478],[-92.31155042880428,32.27737191350913],[-92.16438937509375,32.27651285381853],[-92.15362149311493,32.258472600316],[-92.1069606712067,32.258472600316],[-92.1069606712067,32.27651285381853],[-92.03517479134791,32.27737191350913],[-91.99210326343263,32.27651285381853],[-92.00646043940439,32.2292645708357],[-91.97774608746087,32.21637867547675],[-91.98133538145382,32.16655321342213],[-91.89519232562326,32.16397603435034],[-91.89519232562326,32.15194919868198],[-91.86647797367974,32.0918150203402],[-91.90954950159501,32.08494254281542],[-91.90237091360913,31.99560033499334],[-91.88801373763737,31.971546663656632],[-91.90596020760208,31.971546663656632],[-91.90596020760208,31.927734619436187],[-92.00646043940439,31.92687555974559],[-92.31155042880428,31.927734619436187],[-92.31155042880428,32.1459357808478]]]}},{"type":"Feature","id":"22023","properties":{"name":"Cameron","county_fips":"22023","state_abbr":"LA"},"geometry":{"type":"Polygon","coordinates":[[[-93.85494684576845,29.865132302313015],[-93.81546461184611,29.920971182201818],[-93.79033955389554,29.987977838068375],[-93.74008943799437,30.021481166001657],[-93.72214296802967,30.05154825517255],[-93.1299094591946,30.052407314863146],[-93.1299094591946,30.038662359813593],[-92.99710558145581,30.038662359813593],[-92.73867641396413,30.036944240432398],[-92.61664041820418,30.037803300122995],[-92.61305112421124,29.77407197510975],[-92.61664041820418,29.58593790286902],[-92.74226570795707,29.622018409874094],[-92.94685546555465,29.70878343862438],[-93.02940922739226,29.73627334872348],[-93.17657028110281,29.77063573634736],[-93.29501698286983,29.774931034800346],[-93.34526709877099,29.762904199131988],[-93.47448168251682,29.768917616966164],[-93.68266073410733,29.74744112470124],[-93.74367873198732,29.73627334872348],[-93.83700037580375,29.690743185121846],[-93.89801837368373,29.771494796037956],[-93.93032201962019,29.79726658675586],[-93.92314343163432,29.818743079020784],[-93.85494684576845,29.865132302313015]]]}},{"type":"Feature","id":"22025","properties":{"name":"Catahoula","county_fips":"22025","state_abbr":"LA"},"geometry":{"type":"Polygon","coordinates":[[[-92.00646043940439,31.32553377632776],[-92.01004973339732,31.615036892058917],[-92.00646043940439,31.92687555974559],[-91.90596020760208,31.927734619436187],[-91.90596020760208,31.971546663656632],[-91.88801373763737,31.971546663656632],[-91.84494220972209,31.953506410154098],[-91.78033491784917,31.87189573954739],[-91.73008480194801,31.882204455834554],[-91.66906680406804,31.9251574403644],[-91.6475310401104,31.970687603966034],[-91.59728092420924,31.969828544275437],[-91.59728092420924,31.88306351552515],[-91.5757451602516,31.882204455834554],[-91.56856657226572,31.827224635636348],[-91.57933445424455,31.79543942708427],[-91.54344151431513,31.751627382863823],[-91.54703080830808,31.72241935338353],[-91.60087021820218,31.761936099150986],[-91.63676315813157,31.729291830908302],[-91.69778115601156,31.731869009980095],[-91.71572762597626,31.6760301300913],[-91.70495974399743,31.642526802158017],[-91.7372633899339,31.61417783236832],[-91.7731563298633,31.648540219992192],[-91.81622785777857,31.6184731308213],[-91.8269957397574,31.57208390752907],[-91.78033491784917,31.530849042380417],[-91.79828138781387,31.473292043110426],[-91.7372633899339,31.46727862527625],[-91.7372633899339,31.431198118271176],[-91.80545997579975,31.438929655486547],[-91.82340644576445,31.490473236922362],[-91.85571009170091,31.495627595065947],[-91.85571009170091,31.423466581055806],[-91.78751350583505,31.374500178691783],[-91.84494220972209,31.376218298072978],[-91.86288867968679,31.354741805808054],[-91.86288867968679,31.30233916468164],[-91.82340644576445,31.292889508085075],[-91.83417432774327,31.266258657676573],[-91.90954950159501,31.297184806538063],[-91.9454424415244,31.27227207551075],[-91.93467455954558,31.238768747577467],[-91.99210326343263,31.22588285221852],[-92.01004973339732,31.282580791797912],[-92.00646043940439,31.32553377632776]]]}},{"type":"Feature","id":"22027","properties":{"name":"Claiborne","county_fips":"22027","state_abbr":"LA"},"geometry":{"type":"Polygon","coordinates":[[[-93.23758827898278,33.017881366803664],[-92.98992699346994,33.017022307113066],[-92.72431923799238,33.014445128041274],[-92.72431923799238,32.759304399933995],[-92.82840876378764,32.7584453402434],[-92.82840876378764,32.71463329602295],[-92.86789099770998,32.67769372932729],[-92.86071240972409,32.620995789747894],[-92.88224817368173,32.58491528274282],[-93.18015957509574,32.58491528274282],[-93.17298098710987,32.63388168510684],[-93.18733816308162,32.71635141540415],[-93.23758827898278,32.71635141540415],[-93.23758827898278,33.017881366803664]]]}},{"type":"Feature","id":"22029","properties":{"name":"Concordia","county_fips":"22029","state_abbr":"LA"},"geometry":{"type":"Polygon","coordinates":[[[-91.54344151431513,31.751627382863823],[-91.39986975459755,31.75334550224502],[-91.3783339906399,31.732728069670692],[-91.3962804606046,31.71125157740577],[-91.39986975459755,31.620191250202495],[-91.46447704647046,31.620191250202495],[-91.50036998639986,31.64424492153921],[-91.51831645636456,31.611600653296527],[-91.4860128104281,31.585828862578623],[-91.42140551855518,31.596996638556377],[-91.40704834258342,31.569506728457277],[-91.4501198704987,31.539439639286385],[-91.5219057503575,31.523976564855644],[-91.51831645636456,31.46040614775147],[-91.47165563445634,31.395976670956706],[-91.47165563445634,31.371063939929392],[-91.5039592803928,31.365050522095217],[-91.53267363233633,31.389963253122524],[-91.54703080830808,31.43291623765237],[-91.57933445424455,31.39941290971909],[-91.55420939629396,31.385667954669543],[-91.55062010230102,31.347010268592683],[-91.50754857438574,31.315225060040596],[-91.51472716237161,31.27828549334493],[-91.5757451602516,31.261104299532988],[-91.64035245212452,31.26711771736717],[-91.64394174611746,31.234473449124486],[-91.59010233622335,31.19152046459464],[-91.62599527615276,31.133963465324648],[-91.62240598215982,31.10990979398793],[-91.56497727827278,31.06695680945809],[-91.59010233622335,31.01713134740347],[-91.63676315813157,30.999091093900937],[-91.66188821608216,30.970742124111233],[-91.65829892208922,30.99393673575735],[-91.65829892208922,31.043762197811972],[-91.72290621396213,31.04462125750257],[-91.70495974399743,31.10561449553495],[-91.7193169199692,31.134822525015245],[-91.67624539205391,31.188084225832256],[-91.81263856378564,31.23705062819628],[-91.83417432774327,31.266258657676573],[-91.82340644576445,31.292889508085075],[-91.86288867968679,31.30233916468164],[-91.86288867968679,31.354741805808054],[-91.84494220972209,31.376218298072978],[-91.78751350583505,31.374500178691783],[-91.85571009170091,31.423466581055806],[-91.85571009170091,31.495627595065947],[-91.82340644576445,31.490473236922362],[-91.80545997579975,31.438929655486547],[-91.7372633899339,31.431198118271176],[-91.7372633899339,31.46727862527625],[-91.79828138781387,31.473292043110426],[-91.78033491784917,31.530849042380417],[-91.8269957397574,31.57208390752907],[-91.81622785777857,31.6184731308213],[-91.7731563298633,31.648540219992192],[-91.7372633899339,31.61417783236832],[-91.70495974399743,31.642526802158017],[-91.71572762597626,31.6760301300913],[-91.69778115601156,31.731869009980095],[-91.63676315813157,31.729291830908302],[-91.60087021820218,31.761936099150986],[-91.54703080830808,31.72241935338353],[-91.54344151431513,31.751627382863823]]]}},{"type":"Feature","id":"22031","properties":{"name":"De Soto","county_fips":"22031","state_abbr":"LA"},"geometry":{"type":"Polygon","coordinates":[[[-94.04159013340133,32.19576124290242],[-93.95185778357784,32.19576124290242],[-93.8585361397614,32.25331824217242],[-93.84776825778258,32.29197592824928],[-93.79033955389554,32.340083270922705],[-93.75444661396614,32.343519509685095],[-93.7149643800438,32.31602959958599],[-93.66471426414263,32.31774771896718],[-93.61446414824148,32.26964037629376],[-93.61446414824148,32.23785516774167],[-93.59292838428384,32.20521089949899],[-93.52473179841797,32.182016287852875],[-93.51037462244622,32.132190825798254],[-93.54267826838267,32.105559975389745],[-93.4816602705027,32.05745263271632],[-93.4816602705027,32.031680841998416],[-93.44217803658036,31.989586917159166],[-93.40628509665096,31.98786879777797],[-93.3560349807498,31.932029917889174],[-93.44217803658036,31.91398966438664],[-93.44217803658036,31.84526488913889],[-93.88007190371903,31.84440582944829],[-93.90878625566255,31.893372231812315],[-93.97339354753547,31.920003082220816],[-94.01287578145781,31.981855379943795],[-94.04159013340133,31.992164096230958],[-94.04159013340133,32.19576124290242]]]}},{"type":"Feature","id":"22033","properties":{"name":"East Baton Rouge","county_fips":"22033","state_abbr":"LA"},"geometry":{"type":"Polygon","coordinates":[[[-91.29936952279522,30.649453799827995],[-91.252708700887,30.70529267971679],[-90.85070777367773,30.719037634766345],[-90.91172577155771,30.649453799827995],[-90.93326153551536,30.61337329282292],[-90.98710094540945,30.585024323033224],[-90.97274376943768,30.562688771077703],[-90.9835116514165,30.522312965619648],[-90.96915447544475,30.504272712117114],[-90.99069023940238,30.462178787277864],[-90.93685082950829,30.36682316162161],[-90.89019000760007,30.345346669356687],[-90.98710094540945,30.345346669356687],[-91.0194045913459,30.321292998019977],[-91.14144058710586,30.323011117401165],[-91.17374423304233,30.34448760966609],[-91.2347622309223,30.34448760966609],[-91.2347622309223,30.37541375852758],[-91.19527999699997,30.43984323532235],[-91.20963717297172,30.523172025310245],[-91.26347658286582,30.50513177180771],[-91.28501234682346,30.515440488094875],[-91.24553011290112,30.5360579206692],[-91.26706587685877,30.57213842767427],[-91.30654811078111,30.572997487364866],[-91.29936952279522,30.649453799827995]]]}},{"type":"Feature","id":"22035","properties":{"name":"East Carroll","county_fips":"22035","state_abbr":"LA"},"geometry":{"type":"Polygon","coordinates":[[[-91.44653057650576,32.582338103671034],[-91.3962804606046,32.609828013770134],[-91.39986975459755,32.69315680375803],[-91.34603034470344,32.7567272208622],[-91.33885175671756,32.86239156280562],[-91.31013740477404,32.889881472904726],[-91.31013740477404,32.93627069619696],[-91.28142305283052,32.95087471093711],[-91.26347658286582,33.00499547144471],[-91.16656564505645,33.00413641175411],[-91.20245858498585,32.96118342722426],[-91.21322646696467,32.91994856207562],[-91.1809228210282,32.90104924888249],[-91.13067270512705,32.923384800838],[-91.13426199911999,32.98094180010799],[-91.09477976519764,32.98437803887038],[-91.06247611926119,32.9225257411474],[-91.06965470724707,32.88902241321413],[-91.14502988109881,32.844351309303086],[-91.1629763510635,32.812566100751],[-91.16656564505645,32.751572862718625],[-91.05529753127531,32.72580107200071],[-91.06247611926119,32.702606460354595],[-91.11990482314823,32.6742574905649],[-91.15220846908468,32.64161322232222],[-91.14144058710586,32.59694211841118],[-91.11990482314823,32.58491528274282],[-91.04811894328942,32.60725083469834],[-91.0265831793318,32.6467675804658],[-91.0086367093671,32.60209647655476],[-91.04452964929649,32.57632468583685],[-91.06965470724707,32.562579730787306],[-91.10913694116941,32.562579730787306],[-91.13426199911999,32.53766699975999],[-91.45729845848459,32.53766699975999],[-91.432173400534,32.56086161140611],[-91.44653057650576,32.582338103671034]]]}},{"type":"Feature","id":"22037","properties":{"name":"East Feliciana","county_fips":"22037","state_abbr":"LA"},"geometry":{"type":"Polygon","coordinates":[[[-91.17733352703527,30.999091093900937],[-91.05888682526825,30.999091093900937],[-90.82558271572715,30.999091093900937],[-90.86147565565655,30.942393154321536],[-90.8471184796848,30.888272393813935],[-90.85788636166362,30.85906436433364],[-90.83635059770597,30.813534200732],[-90.85070777367773,30.719037634766345],[-91.252708700887,30.70529267971679],[-91.29936952279522,30.649453799827995],[-91.31013740477404,30.653749098280976],[-91.32090528675286,30.699279261882616],[-91.29219093480934,30.715601396003954],[-91.27783375883759,30.758554380533802],[-91.2347622309223,30.795493947229467],[-91.2347622309223,30.82470197670976],[-91.18810140901408,30.93637973648736],[-91.17733352703527,30.999091093900937]]]}},{"type":"Feature","id":"22039","properties":{"name":"Evangeline","county_fips":"22039","state_abbr":"LA"},"geometry":{"type":"Polygon","coordinates":[[[-92.63099759417594,30.487950577995775],[-92.58433677226772,30.56698406953069],[-92.59869394823947,30.584165263342626],[-92.59869394823947,30.896003931029306],[-92.50896159841598,30.896003931029306],[-92.48024724647246,30.918339482984827],[-92.48024724647246,30.9518428109181],[-92.37974701467014,30.999950153591527],[-92.32949689876898,30.963010586895862],[-92.27924678286783,30.964728706277057],[-92.27924678286783,30.93637973648736],[-92.23976454894549,30.892567692266915],[-92.23617525495254,30.84789658835588],[-92.21105019700197,30.848755648046478],[-92.20746090300902,30.784326171251706],[-92.17156796307962,30.768004037130368],[-92.17156796307962,30.673507471164704],[-92.21105019700197,30.61337329282292],[-92.21105019700197,30.567843129221288],[-92.26130031290313,30.567843129221288],[-92.26130031290313,30.538635099740993],[-92.41563995459954,30.538635099740993],[-92.45871148251481,30.52832638345383],[-92.4658900705007,30.495682115211146],[-92.49460442244423,30.480219040780405],[-92.63099759417594,30.481078100471002],[-92.63099759417594,30.487950577995775]]]}},{"type":"Feature","id":"22041","properties":{"name":"Franklin","county_fips":"22041","state_abbr":"LA"},"geometry":{"type":"Polygon","coordinates":[[[-91.89519232562326,32.15194919868198],[-91.83058503375034,32.18115722816228],[-91.81981715177152,32.21380149640496],[-91.77674562385623,32.243009525885256],[-91.76238844788448,32.33492891277912],[-91.72290621396213,32.33321079339793],[-91.69778115601156,32.369291300403],[-91.63317386413864,32.405371807408066],[-91.47524492844929,32.406230867098664],[-91.4501198704987,32.3684322407124],[-91.4860128104281,32.366714121331206],[-91.47165563445634,32.316888659276586],[-91.52549504435044,32.30056652515525],[-91.5219057503575,32.25331824217242],[-91.53626292632926,32.2034927801178],[-91.49319139841398,32.2034927801178],[-91.5039592803928,32.1459357808478],[-91.48960210442104,32.08923784126841],[-91.51113786837868,32.020513066020655],[-91.49678069240692,31.990445976849763],[-91.52908433834338,31.959519827988274],[-91.51113786837868,31.93031179850798],[-91.5757451602516,31.882204455834554],[-91.59728092420924,31.88306351552515],[-91.59728092420924,31.969828544275437],[-91.6475310401104,31.970687603966034],[-91.66906680406804,31.9251574403644],[-91.73008480194801,31.882204455834554],[-91.78033491784917,31.87189573954739],[-91.84494220972209,31.953506410154098],[-91.88801373763737,31.971546663656632],[-91.90237091360913,31.99560033499334],[-91.90954950159501,32.08494254281542],[-91.86647797367974,32.0918150203402],[-91.89519232562326,32.15194919868198]]]}},{"type":"Feature","id":"22043","properties":{"name":"Grant","county_fips":"22043","state_abbr":"LA"},"geometry":{"type":"Polygon","coordinates":[[[-92.97198052350524,31.708674398333976],[-92.62022971219712,31.709533458024573],[-92.62022971219712,31.797157546465456],[-92.36180054470545,31.79629848677486],[-92.34385407474075,31.759358920079194],[-92.37256842668427,31.701801920809203],[-92.34744336873368,31.696647562665618],[-92.36538983869838,31.648540219992192],[-92.35103266272662,31.624486548655483],[-92.38333630866308,31.620191250202495],[-92.30796113481135,31.589265101341006],[-92.31872901679016,31.57208390752907],[-92.27565748887488,31.536003400524002],[-92.27565748887488,31.495627595065947],[-92.23976454894549,31.501641012900123],[-92.1966930210302,31.477587341563407],[-92.3043718408184,31.458688028370275],[-92.63099759417594,31.39082231281312],[-92.65971194611946,31.38824513374133],[-92.70637276802768,31.450956491154905],[-92.69201559205591,31.47157392372923],[-92.72072994399943,31.51796314702146],[-92.79969441184411,31.596996638556377],[-92.9073732316323,31.623627488964885],[-92.90378393763937,31.659707995969953],[-92.96480193551935,31.67946636885368],[-92.97198052350524,31.708674398333976]]]}},{"type":"Feature","id":"22045","properties":{"name":"Iberia","county_fips":"22045","state_abbr":"LA"},"geometry":{"type":"MultiPolygon","coordinates":[[[[-91.9633889114891,30.036944240432398],[-91.9526210295103,30.073024747437472],[-91.87724585565856,30.067870389293887],[-91.81981715177152,30.043816717957178],[-91.76238844788448,30.091065000940006],[-91.76597774187742,30.108246194751942],[-91.70495974399743,30.121132090110898],[-91.66188821608216,30.109964314133137],[-91.611638100181,30.067870389293887],[-91.60087021820218,30.033508001670015],[-91.50754857438574,30.033508001670015],[-91.4860128104281,30.05842073269732],[-91.36756610866108,30.05842073269732],[-91.27065517085171,30.05927979238792],[-91.22399434894349,30.02491740476404],[-91.25988728887289,30.000004673736733],[-91.25629799487994,29.971655703947036],[-91.47165563445634,29.956192629516288],[-91.62599527615276,29.945024853538527],[-91.71213833198331,29.846232989119883],[-91.85929938569386,29.73627334872348],[-91.88083514965149,29.756890781297805],[-91.85212079770797,29.792112228612282],[-91.82340644576445,29.78953504954049],[-91.83058503375034,29.829051795307947],[-91.88801373763737,29.83592427283272],[-91.93826385353853,29.81702495963959],[-91.970567499475,29.833347093760935],[-91.99210326343263,29.984541599305985],[-91.9633889114891,30.036944240432398]]],[[[-92.01722832138321,29.591092261012605],[-91.98133538145382,29.614286872658724],[-91.93826385353853,29.609991574205736],[-91.92749597155971,29.632327126161258],[-91.84853150371504,29.627172768017672],[-91.76597774187742,29.574770126891266],[-91.73367409594096,29.580783544725442],[-91.71213833198331,29.555870813698135],[-91.76597774187742,29.524944664836646],[-91.76956703587035,29.490582277212766],[-91.81981715177152,29.474260143091428],[-92.03158549735497,29.57305200751007],[-92.01722832138321,29.591092261012605]]]]}},{"type":"Feature","id":"22047","properties":{"name":"Iberville","county_fips":"22047","state_abbr":"LA"},"geometry":{"type":"Polygon","coordinates":[[[-91.70137045000449,30.49740023459234],[-91.58292374823748,30.49740023459234],[-91.5577986902869,30.48279621985219],[-91.4860128104281,30.49740023459234],[-91.432173400534,30.453588190371896],[-91.3962804606046,30.40891708646086],[-91.32090528675286,30.34362854997549],[-91.31013740477404,30.322152057710575],[-91.14144058710586,30.323011117401165],[-91.0194045913459,30.321292998019977],[-91.07324400124001,30.160648835878355],[-91.10554764717646,30.108246194751942],[-91.10554764717646,30.06271603115031],[-91.22399434894349,30.02491740476404],[-91.27065517085171,30.05927979238792],[-91.36756610866108,30.05842073269732],[-91.38910187261872,30.102232776917766],[-91.46447704647046,30.102232776917766],[-91.47524492844929,30.229373611126107],[-91.56138798427983,30.242259506485063],[-91.62240598215982,30.310125222042217],[-91.64035245212452,30.442420414394135],[-91.70137045000449,30.49740023459234]]]}},{"type":"Feature","id":"22049","properties":{"name":"Jackson","county_fips":"22049","state_abbr":"LA"},"geometry":{"type":"Polygon","coordinates":[[[-92.77815864788647,32.45347915008149],[-92.62022971219712,32.4526200903909],[-92.62381900619006,32.49643213461134],[-92.41563995459954,32.49557307492074],[-92.41563995459954,32.40794898647986],[-92.31155042880428,32.32118395772957],[-92.31155042880428,32.27737191350913],[-92.31155042880428,32.1459357808478],[-92.81405158781587,32.1467948405384],[-92.79969441184411,32.21036525764257],[-92.77456935389354,32.236137048360476],[-92.77815864788647,32.45347915008149]]]}},{"type":"Feature","id":"22051","properties":{"name":"Jefferson","county_fips":"22051","state_abbr":"LA"},"geometry":{"type":"Polygon","coordinates":[[[-90.25847426484265,30.163226014950148],[-90.15797403304033,30.18985686535865],[-90.10772391713917,30.164944134331336],[-90.12567038710387,29.972514763637633],[-90.14002756307562,29.918394003130025],[-90.10772391713917,29.908085286842862],[-90.06824168321683,29.920971182201818],[-90.057473801238,29.945024853538527],[-90.00722368533685,29.895199391483906],[-90.02875944929448,29.853105466644664],[-90.06824168321683,29.829051795307947],[-90.06824168321683,29.73885052779527],[-90.01440227332273,29.674421051000508],[-90.00363439134391,29.62373652925529],[-89.98568792137921,29.617723111421107],[-89.98927721537216,29.548998336173355],[-89.97850933339333,29.533535261742614],[-89.97850933339333,29.449347412064114],[-89.96056286342863,29.430448098870983],[-89.93184851148511,29.335951532905327],[-89.9031341595416,29.294716667756674],[-90.08977744717447,29.164139594785944],[-90.057473801238,29.230287190961903],[-90.00004509735096,29.298152906519057],[-90.02875944929448,29.33165623445234],[-90.03593803728037,29.368595801148004],[-90.0215808613086,29.428729979489788],[-90.05029521325213,29.461374247732472],[-90.13643826908269,29.476837322163213],[-90.18668838498385,29.563602350913506],[-90.15797403304033,29.56961576874768],[-90.15438473904739,29.67785728976289],[-90.22975991289913,29.691602244812444],[-90.16874191501914,29.818743079020784],[-90.24052779487795,29.86169606355063],[-90.26924214682147,29.904649048080472],[-90.28001002880029,29.968219465184646],[-90.28001002880029,30.048971076100756],[-90.25847426484265,30.163226014950148]]]}},{"type":"Feature","id":"22053","properties":{"name":"Jefferson Davis","county_fips":"22053","state_abbr":"LA"},"geometry":{"type":"Polygon","coordinates":[[[-93.1299094591946,30.423521101201004],[-93.06530216732168,30.4243801608916],[-93.06530216732168,30.438984175631752],[-92.77456935389354,30.437266056250557],[-92.77456935389354,30.487950577995775],[-92.63099759417594,30.487950577995775],[-92.63099759417594,30.481078100471002],[-92.59510465424654,30.42008486243862],[-92.63099759417594,30.37884999728997],[-92.62022971219712,30.34019231121311],[-92.62740830018299,30.230232670816704],[-92.5915153602536,30.18212532814328],[-92.62740830018299,30.134017985469846],[-92.62381900619006,30.091924060630603],[-92.73867641396413,30.036944240432398],[-92.99710558145581,30.038662359813593],[-92.99710558145581,30.082474404034038],[-92.88583746767468,30.083333463724635],[-92.9073732316323,30.11254149320493],[-92.89301605566055,30.156353537425368],[-92.99710558145581,30.157212597115965],[-92.99710558145581,30.261158819678194],[-93.02940922739226,30.260299759987596],[-93.02940922739226,30.379709056980566],[-93.1299094591946,30.379709056980566],[-93.1299094591946,30.402903668626678],[-93.1299094591946,30.423521101201004]]]}},{"type":"Feature","id":"22055","properties":{"name":"Lafayette","county_fips":"22055","state_abbr":"LA"},"geometry":{"type":"Polygon","coordinates":[[[-92.2864253708537,30.1477629405194],[-92.24694313693136,30.185561566905662],[-92.25053243092431,30.203601820408196],[-92.17515725707257,30.241400446794465],[-92.17515725707257,30.269749416584162],[-92.1428536111361,30.298957446064456],[-92.08901420124201,30.329883594925946],[-92.08183561325613,30.360809743787435],[-92.04953196731967,30.38142717636176],[-92.03158549735497,30.360809743787435],[-91.9885139694397,30.368541281002805],[-91.9526210295103,30.359950684096837],[-91.96697820548205,30.325588296472958],[-91.94903173551735,30.276621894108935],[-91.97774608746087,30.260299759987596],[-91.94185314753148,30.23624608865088],[-91.97774608746087,30.211333357623573],[-91.98133538145382,30.18212532814328],[-91.92031738357383,30.188138745977454],[-91.90596020760208,30.154635418044172],[-91.9526210295103,30.073024747437472],[-91.9633889114891,30.036944240432398],[-92.06747843728436,30.073883807128063],[-92.08901420124201,30.12800456763567],[-92.12849643516435,30.115977731967313],[-92.20387160901609,30.14260858237582],[-92.2864253708537,30.1477629405194]]]}},{"type":"Feature","id":"22057","properties":{"name":"Lafourche","county_fips":"22057","state_abbr":"LA"},"geometry":{"type":"MultiPolygon","coordinates":[[[[-90.37692096660966,29.10830071489714],[-90.35179590865908,29.13149532654326],[-90.30513508675087,29.075656446654463],[-90.33384943869439,29.063629610986105],[-90.37692096660966,29.10830071489714]]],[[[-90.3984567305673,29.261213339823392],[-90.3805102606026,29.256058981679814],[-90.3984567305673,29.261213339823392],[-90.3984567305673,29.261213339823392]]],[[[-90.88660071360714,29.90550810777107],[-90.78610048180481,29.907226227152265],[-90.78610048180481,29.921830241892415],[-90.68918954399544,29.904649048080472],[-90.65688589805897,29.88918597364973],[-90.62817154611545,29.895199391483906],[-90.53126060830608,29.884890675196743],[-90.48101049240492,29.84709204881048],[-90.47742119841197,29.81272966118661],[-90.43076037650376,29.776649154181534],[-90.37333167261673,29.759467960369598],[-90.3625637906379,29.707065319243185],[-90.34461732067321,29.69332036419364],[-90.22975991289913,29.691602244812444],[-90.15438473904739,29.67785728976289],[-90.15797403304033,29.56961576874768],[-90.18668838498385,29.563602350913506],[-90.13643826908269,29.476837322163213],[-90.05029521325213,29.461374247732472],[-90.0215808613086,29.428729979489788],[-90.03593803728037,29.368595801148004],[-90.02875944929448,29.33165623445234],[-90.00004509735096,29.298152906519057],[-90.057473801238,29.230287190961903],[-90.08977744717447,29.164139594785944],[-90.22258132491325,29.08510610325103],[-90.24770638286383,29.093696700156997],[-90.23334920689207,29.128918147471467],[-90.27642073480735,29.14266310252102],[-90.28359932279322,29.17788454983549],[-90.26206355883558,29.180461728907282],[-90.30513508675087,29.266367697966977],[-90.34461732067321,29.28956230961309],[-90.37692096660966,29.283548891778914],[-90.38409955459554,29.36601862207622],[-90.41999249452495,29.390072293412928],[-90.46665331643317,29.451924591135906],[-90.5061355503555,29.47769638185381],[-90.57433213622136,29.559307052460518],[-90.62099295812958,29.597964738537378],[-90.65688589805897,29.607414395133944],[-90.70713601396014,29.664971394403942],[-90.76815401184011,29.695897543265424],[-90.8112255397554,29.775790094490937],[-90.83993989169892,29.746582065010642],[-90.88301141961419,29.745723005320045],[-90.87942212562125,29.71651497583975],[-91.00504741537415,29.714796856458563],[-90.94761871148711,29.792112228612282],[-90.88660071360714,29.90550810777107]]]]}},{"type":"Feature","id":"22059","properties":{"name":"LaSalle","county_fips":"22059","state_abbr":"LA"},"geometry":{"type":"Polygon","coordinates":[[[-92.36180054470545,31.79629848677486],[-92.31155042880428,31.8959494108841],[-92.31155042880428,31.927734619436187],[-92.00646043940439,31.92687555974559],[-92.01004973339732,31.615036892058917],[-92.00646043940439,31.32553377632776],[-92.02440690936909,31.342714970139696],[-92.08542490724906,31.334983432924325],[-92.08183561325613,31.365050522095217],[-92.15003219912198,31.404567267862674],[-92.1608000811008,31.46727862527625],[-92.1966930210302,31.477587341563407],[-92.23976454894549,31.501641012900123],[-92.27565748887488,31.495627595065947],[-92.27565748887488,31.536003400524002],[-92.31872901679016,31.57208390752907],[-92.30796113481135,31.589265101341006],[-92.38333630866308,31.620191250202495],[-92.35103266272662,31.624486548655483],[-92.36538983869838,31.648540219992192],[-92.34744336873368,31.696647562665618],[-92.37256842668427,31.701801920809203],[-92.34385407474075,31.759358920079194],[-92.36180054470545,31.79629848677486]]]}},{"type":"Feature","id":"22061","properties":{"name":"Lincoln","county_fips":"22061","state_abbr":"LA"},"geometry":{"type":"Polygon","coordinates":[[[-92.72431923799238,32.759304399933995],[-92.63817618216181,32.759304399933995],[-92.56997959629597,32.74899568364683],[-92.54485453834538,32.71806953478534],[-92.5197294803948,32.720646713857136],[-92.5197294803948,32.670821251802515],[-92.41563995459954,32.66996219211192],[-92.41563995459954,32.583197163361625],[-92.41563995459954,32.49557307492074],[-92.62381900619006,32.49643213461134],[-92.62022971219712,32.4526200903909],[-92.77815864788647,32.45347915008149],[-92.8786588796888,32.45433820977209],[-92.88224817368173,32.58491528274282],[-92.86071240972409,32.620995789747894],[-92.86789099770998,32.67769372932729],[-92.82840876378764,32.71463329602295],[-92.82840876378764,32.7584453402434],[-92.72431923799238,32.759304399933995]]]}},{"type":"Feature","id":"22063","properties":{"name":"Livingston","county_fips":"22063","state_abbr":"LA"},"geometry":{"type":"Polygon","coordinates":[[[-90.91172577155771,30.649453799827995],[-90.56715354823548,30.650312859518593],[-90.56715354823548,30.487091518305178],[-90.54561778427784,30.430393578725784],[-90.52049272632726,30.41407144460444],[-90.4881890803908,30.35565538564385],[-90.48459978639787,30.276621894108935],[-90.50972484434844,30.230232670816704],[-90.55279637226371,30.195870283192825],[-90.6317608401084,30.221642073910736],[-90.6497073100731,30.2319507901979],[-90.69277883798837,30.1752528506185],[-90.71790389593896,30.18985686535865],[-90.75020754187541,30.241400446794465],[-90.76815401184011,30.23968232741327],[-90.82558271572715,30.292944028230274],[-90.8291720097201,30.318715818948185],[-90.89019000760007,30.345346669356687],[-90.93685082950829,30.36682316162161],[-90.99069023940238,30.462178787277864],[-90.96915447544475,30.504272712117114],[-90.9835116514165,30.522312965619648],[-90.97274376943768,30.562688771077703],[-90.98710094540945,30.585024323033224],[-90.93326153551536,30.61337329282292],[-90.91172577155771,30.649453799827995]]]}},{"type":"Feature","id":"22065","properties":{"name":"Madison","county_fips":"22065","state_abbr":"LA"},"geometry":{"type":"MultiPolygon","coordinates":[[[[-91.03017247332473,32.120163990129896],[-91.05170823728237,32.124459288582884],[-91.05888682526825,32.17772098939989],[-91.00504741537415,32.15710355682556],[-91.03017247332473,32.120163990129896]]],[[[-91.47524492844929,32.406230867098664],[-91.4860128104281,32.494714015230144],[-91.45729845848459,32.53766699975999],[-91.13426199911999,32.53766699975999],[-91.10913694116941,32.562579730787306],[-91.06965470724707,32.562579730787306],[-91.07683329523294,32.54711665635656],[-91.00504741537415,32.513613328423276],[-90.98710094540945,32.49127777646776],[-91.02299388533885,32.48526435863358],[-91.08401188321884,32.52649922378223],[-91.10195835318353,32.525640164091634],[-91.11272623516234,32.47581470203701],[-91.03017247332473,32.43372077719776],[-90.99427953339533,32.450901971009706],[-90.96556518145181,32.420834881838815],[-90.99427953339533,32.40365368802687],[-90.99427953339533,32.35382822597225],[-90.91172577155771,32.33922421123211],[-90.89019000760007,32.37358659885598],[-90.87583283162832,32.35812352442524],[-90.93326153551536,32.290257808868084],[-90.97633306343063,32.29713028639286],[-90.96915447544475,32.251600122791224],[-90.98710094540945,32.21551961578615],[-91.0373510613106,32.24215046619466],[-91.06247611926119,32.21895585454854],[-91.12349411714116,32.21122431733317],[-91.13426199911999,32.24902294371943],[-91.18451211502115,32.24558670495704],[-91.2347622309223,32.21036525764257],[-91.27065517085171,32.2309826902169],[-91.32090528675286,32.2026337204272],[-91.49319139841398,32.2034927801178],[-91.53626292632926,32.2034927801178],[-91.5219057503575,32.25331824217242],[-91.52549504435044,32.30056652515525],[-91.47165563445634,32.316888659276586],[-91.4860128104281,32.366714121331206],[-91.4501198704987,32.3684322407124],[-91.47524492844929,32.406230867098664]]]]}},{"type":"Feature","id":"22067","properties":{"name":"Morehouse","county_fips":"22067","state_abbr":"LA"},"geometry":{"type":"Polygon","coordinates":[[[-92.06747843728436,33.0084317102071],[-91.46088775247752,33.005854531135306],[-91.43576269452694,33.005854531135306],[-91.51113786837868,32.878713696926965],[-91.56497727827278,32.85551908528085],[-91.60445951219512,32.78765336972369],[-91.59728092420924,32.74899568364683],[-91.64035245212452,32.702606460354595],[-91.63676315813157,32.667385013040125],[-91.67265609806098,32.61154613315133],[-91.70495974399743,32.61326425253252],[-91.74803127191271,32.55742537264372],[-91.80545997579975,32.571170327693274],[-91.83776362173622,32.54368041759417],[-91.83776362173622,32.51876768656686],[-91.88801373763737,32.54368041759417],[-91.91313879558795,32.505881791207905],[-91.90237091360913,32.51533144780447],[-91.94185314753148,32.58749246181461],[-91.92390667756678,32.645049461084604],[-91.97415679346793,32.71119705726057],[-92.05671055530554,32.698311161901614],[-92.06388914329143,32.72322389292892],[-92.05671055530554,32.83747883177831],[-92.08542490724906,32.88214993568935],[-92.08542490724906,32.96547872567725],[-92.06747843728436,33.0084317102071]]]}},{"type":"Feature","id":"22069","properties":{"name":"Natchitoches","county_fips":"22069","state_abbr":"LA"},"geometry":{"type":"Polygon","coordinates":[[[-93.44217803658036,31.84526488913889],[-93.44217803658036,31.91398966438664],[-93.3560349807498,31.932029917889174],[-93.34885639276392,31.898526589955893],[-93.28065980689806,31.887358813978132],[-93.24476686696866,31.91055342562425],[-93.23758827898278,31.97240572334723],[-93.1227308712087,31.97240572334723],[-93.15862381113811,32.009345290042894],[-93.13708804718047,32.05659357302572],[-93.16580239912399,32.093533139721394],[-93.15144522315222,32.104700915699155],[-93.18733816308162,32.14851295991959],[-92.93967687756877,32.147653900228995],[-92.90378393763937,32.081506304053036],[-92.88224817368173,31.980996320253197],[-92.9073732316323,31.850419247282467],[-92.94685546555465,31.85729172480724],[-92.93967687756877,31.82980181470814],[-92.96839122951229,31.781694472034715],[-92.97198052350524,31.708674398333976],[-92.96480193551935,31.67946636885368],[-92.90378393763937,31.659707995969953],[-92.9073732316323,31.623627488964885],[-92.79969441184411,31.596996638556377],[-92.72072994399943,31.51796314702146],[-92.81405158781587,31.44150683455834],[-92.87148029170291,31.419171282602818],[-92.94685546555465,31.347010268592683],[-92.98274840548405,31.347010268592683],[-92.99351628746287,31.36075522364223],[-93.23758827898278,31.36419146240462],[-93.23758827898278,31.538580579595788],[-93.3380885107851,31.53772151990519],[-93.3380885107851,31.71468781616816],[-93.44217803658036,31.71468781616816],[-93.44217803658036,31.84526488913889]]]}},{"type":"Feature","id":"22071","properties":{"name":"Orleans","county_fips":"22071","state_abbr":"LA"},"geometry":{"type":"Polygon","coordinates":[[[-90.10772391713917,30.164944134331336],[-90.0395273312733,30.15549447773477],[-89.9031341595416,30.198447462264618],[-89.82058039770398,30.180407208762084],[-89.77750886978869,30.159789776187758],[-89.74520522385224,30.17783002969029],[-89.71290157791577,30.161507895568953],[-89.68418722597225,30.1752528506185],[-89.62316922809228,30.152058238972387],[-89.67700863798638,30.108246194751942],[-89.68418722597225,30.075601926509258],[-89.72725875388754,30.06271603115031],[-89.71649087190872,30.02835364352643],[-89.81699110371103,30.04295765826658],[-89.85647333763337,29.99742749466494],[-89.89595557155572,30.002581852808525],[-89.95338427544274,29.9811053605436],[-89.98927721537216,29.98969595744957],[-90.01081297932978,29.945883913229125],[-89.97133074540746,29.924407420964208],[-89.92825921749217,29.920971182201818],[-89.91031274752747,29.867709481384807],[-89.93543780547805,29.89262221241212],[-90.00722368533685,29.895199391483906],[-90.057473801238,29.945024853538527],[-90.06824168321683,29.920971182201818],[-90.10772391713917,29.908085286842862],[-90.14002756307562,29.918394003130025],[-90.12567038710387,29.972514763637633],[-90.10772391713917,30.164944134331336]]]}},{"type":"Feature","id":"22073","properties":{"name":"Ouachita","county_fips":"22073","state_abbr":"LA"},"geometry":{"type":"Polygon","coordinates":[[[-92.41563995459954,32.49557307492074],[-92.41563995459954,32.583197163361625],[-92.27206819488194,32.58061998428984],[-92.22540737297372,32.590069640886405],[-92.22181807898079,32.61068707346073],[-92.08901420124201,32.68800244561445],[-92.06388914329143,32.72322389292892],[-92.05671055530554,32.698311161901614],[-91.97415679346793,32.71119705726057],[-91.92390667756678,32.645049461084604],[-91.94185314753148,32.58749246181461],[-91.90237091360913,32.51533144780447],[-91.91313879558795,32.505881791207905],[-91.9454424415244,32.44918385162851],[-91.98492467544675,32.413962404314034],[-92.01004973339732,32.36327788256882],[-92.03517479134791,32.27737191350913],[-92.1069606712067,32.27651285381853],[-92.1069606712067,32.258472600316],[-92.15362149311493,32.258472600316],[-92.16438937509375,32.27651285381853],[-92.31155042880428,32.27737191350913],[-92.31155042880428,32.32118395772957],[-92.41563995459954,32.40794898647986],[-92.41563995459954,32.49557307492074]]]}},{"type":"Feature","id":"22075","properties":{"name":"Plaquemines","county_fips":"22075","state_abbr":"LA"},"geometry":{"type":"MultiPolygon","coordinates":[[[[-89.62675852208521,29.53525338112381],[-89.56574052420524,29.543843978029777],[-89.59804417014169,29.507763471024703],[-89.62675852208521,29.53525338112381]]],[[[-90.00722368533685,29.895199391483906],[-89.93543780547805,29.89262221241212],[-89.91031274752747,29.867709481384807],[-89.8600626316263,29.79297128830288],[-89.81699110371103,29.801561885208848],[-89.79186604576046,29.761186079750793],[-89.72008016590165,29.757749840988403],[-89.68418722597225,29.715655916149153],[-89.62675852208521,29.680434468834683],[-89.56932981819818,29.664971394403942],[-89.53343687826877,29.67012575254752],[-89.48677605636055,29.6203002904929],[-89.53343687826877,29.648649260282596],[-89.58368699416994,29.652944558735584],[-89.61240134611346,29.638340543995433],[-89.66624075600755,29.643494902139018],[-89.60163346413464,29.609991574205736],[-89.60163346413464,29.582501664106637],[-89.68418722597225,29.624595588945887],[-89.68418722597225,29.603119096680963],[-89.64111569805698,29.575629186581864],[-89.68418722597225,29.563602350913506],[-89.68059793197932,29.53439432143321],[-89.64111569805698,29.503468172571722],[-89.56932981819818,29.494018515975156],[-89.57291911219112,29.475119202782025],[-89.52984758427584,29.4545017702077],[-89.53343687826877,29.425293740727405],[-89.5083118203182,29.385776994959947],[-89.47600817438175,29.41154878567785],[-89.45806170441703,29.393508532175318],[-89.37909723657236,29.391790412794123],[-89.32166853268532,29.36258238331383],[-89.3109006507065,29.388354174031733],[-89.2391147708477,29.310179742187415],[-89.19963253692536,29.347978368573678],[-89.1134894810948,29.252622742917424],[-89.1134894810948,29.201938221172206],[-89.09195371713717,29.190770445194445],[-89.02734642526426,29.21482411653116],[-89.00222136731367,29.179602669216685],[-89.08836442314423,29.166716773857736],[-89.0955430111301,29.138367804068032],[-89.03811430724306,29.135790624996247],[-89.06682865918658,29.091119521085204],[-89.10631089310893,29.11173695365953],[-89.1493824210242,29.029267223362226],[-89.14220383303832,28.991468596975963],[-89.21757900689006,29.022394745837452],[-89.22475759487594,29.06964302882028],[-89.25347194681946,29.083387983869834],[-89.3647400606006,28.96483774656746],[-89.4185794704947,28.929616299252984],[-89.39345441254412,28.987173298522983],[-89.36115076660766,29.01208602955029],[-89.34320429664297,29.053320894698942],[-89.3109006507065,29.071361148201476],[-89.3109006507065,29.117750371493713],[-89.27859700477005,29.137508744377442],[-89.28218629876298,29.18132078859788],[-89.31807923869238,29.201938221172206],[-89.33243641466414,29.148676520355195],[-89.38986511855119,29.12376378932789],[-89.43293664646646,29.148676520355195],[-89.48318676236762,29.21482411653116],[-89.60522275812758,29.251763683226827],[-89.64111569805698,29.290421369303687],[-89.84211616166161,29.318770339093383],[-89.9031341595416,29.294716667756674],[-89.93184851148511,29.335951532905327],[-89.96056286342863,29.430448098870983],[-89.97850933339333,29.449347412064114],[-89.97850933339333,29.533535261742614],[-89.98927721537216,29.548998336173355],[-89.98568792137921,29.617723111421107],[-90.00363439134391,29.62373652925529],[-90.01440227332273,29.674421051000508],[-90.06824168321683,29.73885052779527],[-90.06824168321683,29.829051795307947],[-90.02875944929448,29.853105466644664],[-90.00722368533685,29.895199391483906]]]]}},{"type":"Feature","id":"22077","properties":{"name":"Pointe Coupee","county_fips":"22077","state_abbr":"LA"},"geometry":{"type":"Polygon","coordinates":[[[-91.75162056590565,31.018849466784665],[-91.68701327403274,31.017990407094068],[-91.65829892208922,30.99393673575735],[-91.66188821608216,30.970742124111233],[-91.64394174611746,30.92864819927199],[-91.66188821608216,30.857346244952446],[-91.62240598215982,30.84016505114051],[-91.5577986902869,30.848755648046478],[-91.56497727827278,30.88311803567035],[-91.61522739417394,30.91748042329423],[-91.55062010230102,30.916621363603632],[-91.5219057503575,30.88999051319513],[-91.51831645636456,30.851332827118263],[-91.5398522203222,30.79119864877648],[-91.5936916302163,30.766285917749173],[-91.55420939629396,30.731064470434696],[-91.4501198704987,30.73621882857828],[-91.37474469664696,30.756836261152607],[-91.33167316873168,30.65890345642456],[-91.31013740477404,30.650312859518593],[-91.36397681466815,30.588460561795614],[-91.3962804606046,30.568702188911885],[-91.4142269305693,30.511145189641894],[-91.48242351643516,30.511145189641894],[-91.4860128104281,30.49740023459234],[-91.5577986902869,30.48279621985219],[-91.58292374823748,30.49740023459234],[-91.70137045000449,30.49740023459234],[-91.7552098598986,30.49740023459234],[-91.73367409594096,30.510286129951297],[-91.7552098598986,30.562688771077703],[-91.73367409594096,30.66663499363993],[-91.73367409594096,30.703574560335596],[-91.76956703587035,30.785185230942304],[-91.8090492697927,30.810957021660208],[-91.81622785777857,30.84789658835588],[-91.80545997579975,30.86335966278662],[-91.80545997579975,30.972460243492428],[-91.75162056590565,31.018849466784665]]]}},{"type":"Feature","id":"22079","properties":{"name":"Rapides","county_fips":"22079","state_abbr":"LA"},"geometry":{"type":"Polygon","coordinates":[[[-92.98274840548405,31.347010268592683],[-92.94685546555465,31.347010268592683],[-92.87148029170291,31.419171282602818],[-92.81405158781587,31.44150683455834],[-92.72072994399943,31.51796314702146],[-92.69201559205591,31.47157392372923],[-92.70637276802768,31.450956491154905],[-92.65971194611946,31.38824513374133],[-92.63099759417594,31.39082231281312],[-92.3043718408184,31.458688028370275],[-92.1966930210302,31.477587341563407],[-92.1608000811008,31.46727862527625],[-92.15003219912198,31.404567267862674],[-92.08183561325613,31.365050522095217],[-92.08542490724906,31.334983432924325],[-92.1249071411714,31.30577540344403],[-92.16438937509375,31.303198224372238],[-92.19310372703727,31.334124373233728],[-92.23258596095961,31.321238477874772],[-92.23258596095961,31.115923211822114],[-92.20746090300902,30.962151527205265],[-92.27924678286783,30.964728706277057],[-92.32949689876898,30.963010586895862],[-92.37974701467014,30.999950153591527],[-92.48024724647246,30.9518428109181],[-92.48024724647246,30.918339482984827],[-92.50896159841598,30.896003931029306],[-92.59869394823947,30.896003931029306],[-92.82481946979469,30.88999051319513],[-92.82840876378764,31.011117929569288],[-92.82840876378764,31.25251370262702],[-92.8786588796888,31.288594209632087],[-92.8786588796888,31.31780223911239],[-92.96480193551935,31.332406253852533],[-92.98274840548405,31.347010268592683]]]}},{"type":"Feature","id":"22081","properties":{"name":"Red River","county_fips":"22081","state_abbr":"LA"},"geometry":{"type":"Polygon","coordinates":[[[-93.61446414824148,32.23785516774167],[-93.47089238852388,32.23699610805107],[-93.4278208606086,32.236137048360476],[-93.21246322103221,32.236137048360476],[-93.21246322103221,32.19232500414004],[-93.18733816308162,32.14851295991959],[-93.15144522315222,32.104700915699155],[-93.16580239912399,32.093533139721394],[-93.13708804718047,32.05659357302572],[-93.15862381113811,32.009345290042894],[-93.1227308712087,31.97240572334723],[-93.23758827898278,31.97240572334723],[-93.24476686696866,31.91055342562425],[-93.28065980689806,31.887358813978132],[-93.34885639276392,31.898526589955893],[-93.3560349807498,31.932029917889174],[-93.40628509665096,31.98786879777797],[-93.44217803658036,31.989586917159166],[-93.4816602705027,32.031680841998416],[-93.4816602705027,32.05745263271632],[-93.54267826838267,32.105559975389745],[-93.51037462244622,32.132190825798254],[-93.52473179841797,32.182016287852875],[-93.59292838428384,32.20521089949899],[-93.61446414824148,32.23785516774167]]]}},{"type":"Feature","id":"22083","properties":{"name":"Richland","county_fips":"22083","state_abbr":"LA"},"geometry":{"type":"Polygon","coordinates":[[[-91.91313879558795,32.505881791207905],[-91.88801373763737,32.54368041759417],[-91.83776362173622,32.51876768656686],[-91.83776362173622,32.54368041759417],[-91.80545997579975,32.571170327693274],[-91.74803127191271,32.55742537264372],[-91.70495974399743,32.61326425253252],[-91.67265609806098,32.61154613315133],[-91.63676315813157,32.667385013040125],[-91.59728092420924,32.667385013040125],[-91.59728092420924,32.582338103671034],[-91.44653057650576,32.582338103671034],[-91.432173400534,32.56086161140611],[-91.45729845848459,32.53766699975999],[-91.4860128104281,32.494714015230144],[-91.47524492844929,32.406230867098664],[-91.63317386413864,32.405371807408066],[-91.69778115601156,32.369291300403],[-91.72290621396213,32.33321079339793],[-91.76238844788448,32.33492891277912],[-91.77674562385623,32.243009525885256],[-91.81981715177152,32.21380149640496],[-91.83058503375034,32.18115722816228],[-91.89519232562326,32.15194919868198],[-91.89519232562326,32.16397603435034],[-91.98133538145382,32.16655321342213],[-91.97774608746087,32.21637867547675],[-92.00646043940439,32.2292645708357],[-91.99210326343263,32.27651285381853],[-92.03517479134791,32.27737191350913],[-92.01004973339732,32.36327788256882],[-91.98492467544675,32.413962404314034],[-91.9454424415244,32.44918385162851],[-91.91313879558795,32.505881791207905]]]}},{"type":"Feature","id":"22085","properties":{"name":"Sabine","county_fips":"22085","state_abbr":"LA"},"geometry":{"type":"Polygon","coordinates":[[[-93.88007190371903,31.84440582944829],[-93.44217803658036,31.84526488913889],[-93.44217803658036,31.71468781616816],[-93.3380885107851,31.71468781616816],[-93.3380885107851,31.53772151990519],[-93.23758827898278,31.538580579595788],[-93.23758827898278,31.36419146240462],[-93.39192792067921,31.36419146240462],[-93.44217803658036,31.276567373963736],[-93.5354996803968,31.276567373963736],[-93.5534461503615,31.237909687886876],[-93.5534461503615,31.185507046760463],[-93.60010697226971,31.176057390163898],[-93.62164273622736,31.27141301582015],[-93.643178500185,31.269694896438956],[-93.68625002810028,31.31007070189701],[-93.66471426414263,31.35560086549865],[-93.67548214612145,31.3976947903379],[-93.70419649806497,31.41058068569685],[-93.70060720407204,31.43807059579595],[-93.75085731997319,31.46899674465744],[-93.72932155601555,31.492191356303557],[-93.74008943799437,31.52225844547445],[-93.78675025990259,31.527412803618027],[-93.83341108181081,31.585828862578623],[-93.81546461184611,31.622768429274288],[-93.82623249382493,31.661426115351148],[-93.80110743587436,31.697506622356215],[-93.82982178781788,31.745613965029648],[-93.822643199832,31.774821994509942],[-93.8764826097261,31.82207027749277],[-93.88007190371903,31.84440582944829]]]}},{"type":"Feature","id":"22087","properties":{"name":"St. Bernard","county_fips":"22087","state_abbr":"LA"},"geometry":{"type":"MultiPolygon","coordinates":[[[[-88.88018537155371,30.053266374553743],[-88.83352454964549,29.999145614046135],[-88.81557807968079,29.933857077560774],[-88.82634596165961,29.84709204881048],[-88.86223890158901,29.756890781297805],[-88.87659607756078,29.759467960369598],[-88.84788172561726,29.836783332523318],[-88.83352454964549,29.922689301583013],[-88.83711384363843,29.96220604735047],[-88.88018537155371,30.053266374553743]]],[[[-89.34320429664297,30.05927979238792],[-89.30372206272062,30.091924060630603],[-89.18886465494654,30.161507895568953],[-89.18168606696067,30.149481059900594],[-89.22834688886888,30.095360299392986],[-89.22116830088301,30.071306628056277],[-89.17450747897479,30.04295765826658],[-89.22834688886888,30.000004673736733],[-89.2391147708477,30.040380479194788],[-89.2750077107771,30.03178988228882],[-89.33602570865709,30.040380479194788],[-89.34320429664297,30.05927979238792]]],[[[-89.85647333763337,29.99742749466494],[-89.84570545565455,29.95533356982569],[-89.81699110371103,29.933857077560774],[-89.77391957579576,29.937293316323156],[-89.72725875388754,29.95876980858808],[-89.7416159298593,29.908085286842862],[-89.71290157791577,29.878877257362568],[-89.65906216802168,29.86255512324123],[-89.61240134611346,29.872004779837795],[-89.59086558215581,29.8969175108651],[-89.57291911219112,29.983682539615394],[-89.58009770017699,29.994850315593148],[-89.49395464434645,30.041239538885385],[-89.48318676236762,30.079038165271648],[-89.4185794704947,30.049830135791353],[-89.37191864858649,30.05498449393493],[-89.37191864858649,30.036944240432398],[-89.43293664646646,30.007736210952103],[-89.43293664646646,29.97852818147181],[-89.37909723657236,29.963924166731665],[-89.36832935459354,29.911521525605252],[-89.31448994469945,29.92354836127361],[-89.2750077107771,29.993991255902557],[-89.21757900689006,29.972514763637633],[-89.23193618286183,29.9252664806548],[-89.27859700477005,29.9252664806548],[-89.32166853268532,29.887467854268536],[-89.24270406484064,29.88918597364973],[-89.25347194681946,29.864273242622424],[-89.3647400606006,29.845373929429286],[-89.31807923869238,29.788675989849892],[-89.27859700477005,29.807575303043023],[-89.30372206272062,29.756890781297805],[-89.33602570865709,29.779226333253327],[-89.38627582455824,29.788675989849892],[-89.42934735247353,29.741427706867064],[-89.43293664646646,29.656380797497967],[-89.46524029240292,29.652085499044986],[-89.48677605636055,29.725964632436316],[-89.5262582902829,29.726823692126914],[-89.53343687826877,29.67012575254752],[-89.56932981819818,29.664971394403942],[-89.62675852208521,29.680434468834683],[-89.68418722597225,29.715655916149153],[-89.72008016590165,29.757749840988403],[-89.79186604576046,29.761186079750793],[-89.81699110371103,29.801561885208848],[-89.8600626316263,29.79297128830288],[-89.91031274752747,29.867709481384807],[-89.92825921749217,29.920971182201818],[-89.97133074540746,29.924407420964208],[-90.01081297932978,29.945883913229125],[-89.98927721537216,29.98969595744957],[-89.95338427544274,29.9811053605436],[-89.89595557155572,30.002581852808525],[-89.85647333763337,29.99742749466494]]]]}},{"type":"Feature","id":"22089","properties":{"name":"St. Charles","county_fips":"22089","state_abbr":"LA"},"geometry":{"type":"Polygon","coordinates":[[[-90.25847426484265,30.163226014950148],[-90.28001002880029,30.048971076100756],[-90.28001002880029,29.968219465184646],[-90.26924214682147,29.904649048080472],[-90.24052779487795,29.86169606355063],[-90.16874191501914,29.818743079020784],[-90.22975991289913,29.691602244812444],[-90.34461732067321,29.69332036419364],[-90.3625637906379,29.707065319243185],[-90.37333167261673,29.759467960369598],[-90.43076037650376,29.776649154181534],[-90.47742119841197,29.81272966118661],[-90.48101049240492,29.84709204881048],[-90.53126060830608,29.884890675196743],[-90.53126060830608,29.968219465184646],[-90.54920707827078,29.968219465184646],[-90.53843919629196,30.013749628786286],[-90.47742119841197,30.0360851807418],[-90.44870684646845,30.033508001670015],[-90.40563531855318,30.083333463724635],[-90.34820661466614,30.1202730304203],[-90.32667085070851,30.150340119591192],[-90.25847426484265,30.163226014950148]]]}},{"type":"Feature","id":"22091","properties":{"name":"St. Helena","county_fips":"22091","state_abbr":"LA"},"geometry":{"type":"Polygon","coordinates":[[[-90.85070777367773,30.719037634766345],[-90.83635059770597,30.813534200732],[-90.85788636166362,30.85906436433364],[-90.8471184796848,30.888272393813935],[-90.86147565565655,30.942393154321536],[-90.82558271572715,30.999091093900937],[-90.56715354823548,30.999950153591527],[-90.56715354823548,30.650312859518593],[-90.91172577155771,30.649453799827995],[-90.85070777367773,30.719037634766345]]]}},{"type":"Feature","id":"22093","properties":{"name":"St. James","county_fips":"22093","state_abbr":"LA"},"geometry":{"type":"Polygon","coordinates":[[[-90.96197588745888,30.066152269912692],[-90.91531506555066,30.113400552895527],[-90.64252872208722,30.16666225371253],[-90.65329660406604,30.096219359083584],[-90.67124307403074,30.0936421800118],[-90.66047519205192,30.05068919548195],[-90.68918954399544,30.0360851807418],[-90.6676537800378,29.9811053605436],[-90.65688589805897,29.88918597364973],[-90.68918954399544,29.904649048080472],[-90.78610048180481,29.921830241892415],[-90.78610048180481,29.907226227152265],[-90.88660071360714,29.90550810777107],[-90.88660071360714,29.93557519694196],[-90.92608294752947,29.934716137251364],[-90.92608294752947,29.97852818147181],[-90.95838659346593,29.97766912178121],[-90.96197588745888,30.066152269912692]]]}},{"type":"Feature","id":"22095","properties":{"name":"St. John the Baptist","county_fips":"22095","state_abbr":"LA"},"geometry":{"type":"Polygon","coordinates":[[[-90.64252872208722,30.16666225371253],[-90.6317608401084,30.221642073910736],[-90.55279637226371,30.195870283192825],[-90.50972484434844,30.230232670816704],[-90.48459978639787,30.276621894108935],[-90.30154579275792,30.29466214761147],[-90.16156332703326,30.234527969269685],[-90.15797403304033,30.18985686535865],[-90.25847426484265,30.163226014950148],[-90.32667085070851,30.150340119591192],[-90.34820661466614,30.1202730304203],[-90.40563531855318,30.083333463724635],[-90.44870684646845,30.033508001670015],[-90.47742119841197,30.0360851807418],[-90.53843919629196,30.013749628786286],[-90.54920707827078,29.968219465184646],[-90.53126060830608,29.968219465184646],[-90.53126060830608,29.884890675196743],[-90.62817154611545,29.895199391483906],[-90.65688589805897,29.88918597364973],[-90.6676537800378,29.9811053605436],[-90.68918954399544,30.0360851807418],[-90.66047519205192,30.05068919548195],[-90.67124307403074,30.0936421800118],[-90.65329660406604,30.096219359083584],[-90.64252872208722,30.16666225371253]]]}},{"type":"Feature","id":"22097","properties":{"name":"St. Landry","county_fips":"22097","state_abbr":"LA"},"geometry":{"type":"Polygon","coordinates":[[[-92.21105019700197,30.848755648046478],[-91.81622785777857,30.84789658835588],[-91.8090492697927,30.810957021660208],[-91.76956703587035,30.785185230942304],[-91.73367409594096,30.703574560335596],[-91.73367409594096,30.66663499363993],[-91.7552098598986,30.562688771077703],[-91.73367409594096,30.510286129951297],[-91.7552098598986,30.49740023459234],[-91.67983468604686,30.39431307172071],[-91.81263856378564,30.39431307172071],[-91.87006726767267,30.41750768336683],[-91.93826385353853,30.395172131411307],[-91.97774608746087,30.407198967079665],[-91.9885139694397,30.368541281002805],[-92.03158549735497,30.360809743787435],[-92.04953196731967,30.38142717636176],[-92.08183561325613,30.360809743787435],[-92.08901420124201,30.329883594925946],[-92.1428536111361,30.298957446064456],[-92.17515725707257,30.349641967809674],[-92.17515725707257,30.437266056250557],[-92.24335384293842,30.43640699655996],[-92.24335384293842,30.480219040780405],[-92.49460442244423,30.480219040780405],[-92.4658900705007,30.495682115211146],[-92.45871148251481,30.52832638345383],[-92.41563995459954,30.538635099740993],[-92.26130031290313,30.538635099740993],[-92.26130031290313,30.567843129221288],[-92.21105019700197,30.567843129221288],[-92.21105019700197,30.61337329282292],[-92.17156796307962,30.673507471164704],[-92.17156796307962,30.768004037130368],[-92.20746090300902,30.784326171251706],[-92.21105019700197,30.848755648046478]]]}},{"type":"Feature","id":"22099","properties":{"name":"St. Martin","county_fips":"22099","state_abbr":"LA"},"geometry":{"type":"MultiPolygon","coordinates":[[[[-91.47165563445634,29.956192629516288],[-91.25629799487994,29.971655703947036],[-91.21322646696467,29.907226227152265],[-91.18810140901408,29.848810168191676],[-91.13426199911999,29.837642392213915],[-91.09119047120471,29.801561885208848],[-91.09836905919059,29.699333782027814],[-91.13426199911999,29.724246513055128],[-91.1809228210282,29.72854181150811],[-91.2168157609576,29.75087736346363],[-91.35320893268933,29.76634043789437],[-91.38551257862578,29.783521631706314],[-91.37474469664696,29.834206153451532],[-91.4142269305693,29.904649048080472],[-91.47165563445634,29.956192629516288]]],[[[-91.7552098598986,30.49740023459234],[-91.70137045000449,30.49740023459234],[-91.64035245212452,30.442420414394135],[-91.62240598215982,30.310125222042217],[-91.56138798427983,30.242259506485063],[-91.47524492844929,30.229373611126107],[-91.46447704647046,30.102232776917766],[-91.38910187261872,30.102232776917766],[-91.36756610866108,30.05842073269732],[-91.4860128104281,30.05842073269732],[-91.50754857438574,30.033508001670015],[-91.60087021820218,30.033508001670015],[-91.611638100181,30.067870389293887],[-91.66188821608216,30.109964314133137],[-91.70495974399743,30.121132090110898],[-91.76597774187742,30.108246194751942],[-91.76238844788448,30.091065000940006],[-91.81981715177152,30.043816717957178],[-91.87724585565856,30.067870389293887],[-91.9526210295103,30.073024747437472],[-91.90596020760208,30.154635418044172],[-91.92031738357383,30.188138745977454],[-91.98133538145382,30.18212532814328],[-91.97774608746087,30.211333357623573],[-91.94185314753148,30.23624608865088],[-91.97774608746087,30.260299759987596],[-91.94903173551735,30.276621894108935],[-91.96697820548205,30.325588296472958],[-91.9526210295103,30.359950684096837],[-91.9885139694397,30.368541281002805],[-91.97774608746087,30.407198967079665],[-91.93826385353853,30.395172131411307],[-91.87006726767267,30.41750768336683],[-91.81263856378564,30.39431307172071],[-91.67983468604686,30.39431307172071],[-91.7552098598986,30.49740023459234]]]]}},{"type":"Feature","id":"22101","properties":{"name":"St. Mary","county_fips":"22101","state_abbr":"LA"},"geometry":{"type":"Polygon","coordinates":[[[-91.85929938569386,29.73627334872348],[-91.71213833198331,29.846232989119883],[-91.62599527615276,29.945024853538527],[-91.47165563445634,29.956192629516288],[-91.4142269305693,29.904649048080472],[-91.37474469664696,29.834206153451532],[-91.38551257862578,29.783521631706314],[-91.35320893268933,29.76634043789437],[-91.2168157609576,29.75087736346363],[-91.1809228210282,29.72854181150811],[-91.13426199911999,29.724246513055128],[-91.09836905919059,29.699333782027814],[-91.10554764717646,29.64263584244842],[-91.08401188321884,29.626313708327075],[-91.1629763510635,29.5928103803938],[-91.17733352703527,29.609991574205736],[-91.20963717297172,29.591092261012605],[-91.23835152491525,29.548139276482758],[-91.27065517085171,29.536971500504997],[-91.27424446484464,29.479414501235006],[-91.23835152491525,29.438179636086353],[-91.28860164081641,29.402958188771883],[-91.33526246272463,29.391790412794123],[-91.32808387473874,29.427011860108593],[-91.36397681466815,29.420998442274417],[-91.35320893268933,29.4545017702077],[-91.32090528675286,29.478555441544408],[-91.35679822668226,29.512917829168288],[-91.46088775247752,29.46996484463844],[-91.49678069240692,29.538689619886192],[-91.53267363233633,29.53181714236142],[-91.55420939629396,29.633186185851855],[-91.6475310401104,29.634045245542453],[-91.62599527615276,29.66239421533215],[-91.62240598215982,29.73541428903288],[-91.7372633899339,29.749159244082435],[-91.78392421184212,29.740568647176467],[-91.85571009170091,29.707924378933782],[-91.85929938569386,29.73627334872348]]]}},{"type":"Feature","id":"22103","properties":{"name":"St. Tammany","county_fips":"22103","state_abbr":"LA"},"geometry":{"type":"Polygon","coordinates":[[[-90.2548849708497,30.712165157241564],[-90.00004509735096,30.66663499363993],[-89.8492947496475,30.665775933949334],[-89.81699110371103,30.633990725397247],[-89.80981251572516,30.567843129221288],[-89.77391957579576,30.538635099740993],[-89.75956239982399,30.50513177180771],[-89.69136581395813,30.45960160820608],[-89.68418722597225,30.40548084769847],[-89.63034781607816,30.33933325152251],[-89.63034781607816,30.280058132871325],[-89.6159906401064,30.223360193291924],[-89.56932981819818,30.180407208762084],[-89.5262582902829,30.180407208762084],[-89.58727628816288,30.150340119591192],[-89.62316922809228,30.152058238972387],[-89.68418722597225,30.1752528506185],[-89.71290157791577,30.161507895568953],[-89.74520522385224,30.17783002969029],[-89.77750886978869,30.159789776187758],[-89.82058039770398,30.180407208762084],[-89.9031341595416,30.198447462264618],[-90.0395273312733,30.15549447773477],[-90.10772391713917,30.164944134331336],[-90.15797403304033,30.18985686535865],[-90.16156332703326,30.234527969269685],[-90.19027767897678,30.310984281732814],[-90.24411708887088,30.361668803478032],[-90.24411708887088,30.646876620756203],[-90.2548849708497,30.712165157241564]]]}},{"type":"Feature","id":"22105","properties":{"name":"Tangipahoa","county_fips":"22105","state_abbr":"LA"},"geometry":{"type":"Polygon","coordinates":[[[-90.56715354823548,30.999950153591527],[-90.54920707827078,30.999950153591527],[-90.34820661466614,30.999950153591527],[-90.34820661466614,30.90545358762587],[-90.31590296872969,30.89084957288572],[-90.26206355883558,30.765426858058575],[-90.2548849708497,30.712165157241564],[-90.24411708887088,30.646876620756203],[-90.24411708887088,30.361668803478032],[-90.19027767897678,30.310984281732814],[-90.16156332703326,30.234527969269685],[-90.30154579275792,30.29466214761147],[-90.48459978639787,30.276621894108935],[-90.4881890803908,30.35565538564385],[-90.52049272632726,30.41407144460444],[-90.54561778427784,30.430393578725784],[-90.56715354823548,30.487091518305178],[-90.56715354823548,30.650312859518593],[-90.56715354823548,30.999950153591527]]]}},{"type":"Feature","id":"22107","properties":{"name":"Tensas","county_fips":"22107","state_abbr":"LA"},"geometry":{"type":"Polygon","coordinates":[[[-91.5757451602516,31.882204455834554],[-91.51113786837868,31.93031179850798],[-91.52908433834338,31.959519827988274],[-91.49678069240692,31.990445976849763],[-91.51113786837868,32.020513066020655],[-91.48960210442104,32.08923784126841],[-91.5039592803928,32.1459357808478],[-91.49319139841398,32.2034927801178],[-91.32090528675286,32.2026337204272],[-91.27065517085171,32.2309826902169],[-91.2347622309223,32.21036525764257],[-91.18451211502115,32.24558670495704],[-91.13426199911999,32.24902294371943],[-91.12349411714116,32.21122431733317],[-91.15938705707056,32.2017746607366],[-91.16656564505645,32.13390894517945],[-91.05170823728237,32.124459288582884],[-91.03017247332473,32.120163990129896],[-91.03017247332473,32.11415057229572],[-91.08042258922589,32.078929124981244],[-91.09836905919059,32.048002976119754],[-91.14502988109881,32.081506304053036],[-91.1629763510635,32.06002981178811],[-91.09477976519764,32.03769425983259],[-91.09477976519764,31.99474127530275],[-91.1629763510635,31.982714439634393],[-91.18810140901408,31.96123794736947],[-91.1809228210282,31.91828496283962],[-91.24911940689407,31.870177620166196],[-91.27065517085171,31.859009844188435],[-91.24553011290112,31.83323805347053],[-91.26347658286582,31.809184382133814],[-91.28860164081641,31.823788396873965],[-91.29578022880229,31.86072796356963],[-91.33885175671756,31.851278306973065],[-91.36397681466815,31.770526696056955],[-91.25988728887289,31.76107703946039],[-91.31731599275993,31.745613965029648],[-91.3783339906399,31.732728069670692],[-91.39986975459755,31.75334550224502],[-91.54344151431513,31.751627382863823],[-91.57933445424455,31.79543942708427],[-91.56856657226572,31.827224635636348],[-91.5757451602516,31.882204455834554]]]}},{"type":"Feature","id":"22109","properties":{"name":"Terrebonne","county_fips":"22109","state_abbr":"LA"},"geometry":{"type":"MultiPolygon","coordinates":[[[[-90.5599749602496,29.093696700156997],[-90.41999249452495,29.0653477303673],[-90.4881890803908,29.05847525284252],[-90.5599749602496,29.093696700156997]]],[[[-90.75020754187541,29.055898073770734],[-90.66047519205192,29.072220207892073],[-90.65329660406604,29.05761619315193],[-90.74661824788248,29.040434999339986],[-90.75020754187541,29.055898073770734]]],[[[-91.23835152491525,29.438179636086353],[-91.27424446484464,29.479414501235006],[-91.27065517085171,29.536971500504997],[-91.23835152491525,29.548139276482758],[-91.20963717297172,29.591092261012605],[-91.17733352703527,29.609991574205736],[-91.1629763510635,29.5928103803938],[-91.08401188321884,29.626313708327075],[-91.00504741537415,29.714796856458563],[-90.87942212562125,29.71651497583975],[-90.88301141961419,29.745723005320045],[-90.83993989169892,29.746582065010642],[-90.8112255397554,29.775790094490937],[-90.76815401184011,29.695897543265424],[-90.70713601396014,29.664971394403942],[-90.65688589805897,29.607414395133944],[-90.62099295812958,29.597964738537378],[-90.57433213622136,29.559307052460518],[-90.5061355503555,29.47769638185381],[-90.46665331643317,29.451924591135906],[-90.41999249452495,29.390072293412928],[-90.38409955459554,29.36601862207622],[-90.37692096660966,29.283548891778914],[-90.3805102606026,29.256058981679814],[-90.3984567305673,29.261213339823392],[-90.39486743657436,29.299011966209655],[-90.43076037650376,29.34711930888308],[-90.47742119841197,29.29213948868488],[-90.52767131431314,29.30416632435324],[-90.55279637226371,29.28526701116011],[-90.5779214302143,29.31189786156861],[-90.59945719417193,29.28870324992249],[-90.56356425424254,29.23458248941489],[-90.60663578215782,29.238018728177273],[-90.6317608401084,29.21482411653116],[-90.64611801608015,29.168434893238924],[-90.67483236802367,29.174448311073107],[-90.69277883798837,29.125481908709084],[-90.72149318993189,29.135790624996247],[-90.78968977579775,29.10744165520655],[-90.8112255397554,29.04215311872118],[-90.86865424364244,29.055898073770734],[-90.85070777367773,29.073938327273268],[-90.89736859558595,29.13149532654326],[-90.96197588745888,29.180461728907282],[-91.0014581213812,29.16929395292952],[-91.09477976519764,29.187334206432062],[-91.13067270512705,29.21568317622176],[-91.22040505495055,29.225991892508922],[-91.27783375883759,29.24746838477384],[-91.33526246272463,29.299011966209655],[-91.29219093480934,29.311038801878013],[-91.26706587685877,29.360864263932633],[-91.23835152491525,29.35055554764547],[-91.19527999699997,29.305884443734435],[-91.17015493904938,29.324783756927566],[-91.17374423304233,29.266367697966977],[-91.11990482314823,29.251763683226827],[-91.13426199911999,29.341105891048905],[-91.2168157609576,29.39608571124711],[-91.2168157609576,29.432166218252178],[-91.23835152491525,29.438179636086353]]]]}},{"type":"Feature","id":"22111","properties":{"name":"Union","county_fips":"22111","state_abbr":"LA"},"geometry":{"type":"Polygon","coordinates":[[[-92.72431923799238,33.014445128041274],[-92.06747843728436,33.0084317102071],[-92.08542490724906,32.96547872567725],[-92.08542490724906,32.88214993568935],[-92.05671055530554,32.83747883177831],[-92.06388914329143,32.72322389292892],[-92.08901420124201,32.68800244561445],[-92.22181807898079,32.61068707346073],[-92.22540737297372,32.590069640886405],[-92.27206819488194,32.58061998428984],[-92.41563995459954,32.583197163361625],[-92.41563995459954,32.66996219211192],[-92.5197294803948,32.670821251802515],[-92.5197294803948,32.720646713857136],[-92.54485453834538,32.71806953478534],[-92.56997959629597,32.74899568364683],[-92.63817618216181,32.759304399933995],[-92.72431923799238,32.759304399933995],[-92.72431923799238,33.014445128041274]]]}},{"type":"Feature","id":"22113","properties":{"name":"Vermilion","county_fips":"22113","state_abbr":"LA"},"geometry":{"type":"Polygon","coordinates":[[[-92.62381900619006,30.091924060630603],[-92.5556224203242,30.115977731967313],[-92.50537230442303,30.079038165271648],[-92.42281854258542,30.048971076100756],[-92.3761577206772,30.066152269912692],[-92.2864253708537,30.1477629405194],[-92.20387160901609,30.14260858237582],[-92.12849643516435,30.115977731967313],[-92.08901420124201,30.12800456763567],[-92.06747843728436,30.073883807128063],[-91.9633889114891,30.036944240432398],[-91.99210326343263,29.984541599305985],[-91.970567499475,29.833347093760935],[-91.97774608746087,29.799843765827653],[-92.06388914329143,29.768917616966164],[-92.11413925919258,29.73970958748587],[-92.13567502315023,29.76719949758497],[-92.20028231502314,29.753454542535422],[-92.20028231502314,29.725964632436316],[-92.1679786690867,29.700192841718412],[-92.10337137721376,29.69332036419364],[-92.13567502315023,29.667548573475727],[-92.1069606712067,29.613427812968126],[-92.03517479134791,29.63146806647066],[-92.01722832138321,29.61600499203991],[-92.06388914329143,29.60397815637156],[-92.04235337933379,29.586796962559617],[-92.15721078710787,29.58164260441604],[-92.25053243092431,29.53954867957679],[-92.3223183107831,29.53181714236142],[-92.61664041820418,29.58593790286902],[-92.61305112421124,29.77407197510975],[-92.61664041820418,30.037803300122995],[-92.73867641396413,30.036944240432398],[-92.62381900619006,30.091924060630603]]]}},{"type":"Feature","id":"22115","properties":{"name":"Vernon","county_fips":"22115","state_abbr":"LA"},"geometry":{"type":"Polygon","coordinates":[[[-93.5534461503615,31.185507046760463],[-93.5534461503615,31.237909687886876],[-93.5354996803968,31.276567373963736],[-93.44217803658036,31.276567373963736],[-93.39192792067921,31.36419146240462],[-93.23758827898278,31.36419146240462],[-92.99351628746287,31.36075522364223],[-92.98274840548405,31.347010268592683],[-92.96480193551935,31.332406253852533],[-92.8786588796888,31.31780223911239],[-92.8786588796888,31.288594209632087],[-92.82840876378764,31.25251370262702],[-92.82840876378764,31.011117929569288],[-92.82481946979469,30.88999051319513],[-92.82481946979469,30.87538649845498],[-92.97915911149111,30.877963677526772],[-93.13349875318752,30.877963677526772],[-93.15503451714517,30.88311803567035],[-93.43499944859448,30.881399916289155],[-93.47807097650976,30.85906436433364],[-93.52114250442504,30.879681796907967],[-93.55703544435444,30.868514020930206],[-93.55703544435444,30.911467005460047],[-93.52473179841797,30.930366318653178],[-93.56780332633326,30.977614601636013],[-93.56421403234032,31.00596357142571],[-93.5175532104321,31.024003824928243],[-93.52473179841797,31.070393048220474],[-93.5534461503615,31.097023898628983],[-93.53191038640387,31.184647987069866],[-93.5534461503615,31.185507046760463]]]}},{"type":"Feature","id":"22117","properties":{"name":"Washington","county_fips":"22117","state_abbr":"LA"},"geometry":{"type":"Polygon","coordinates":[[[-90.34820661466614,30.999950153591527],[-90.25847426484265,31.000809213282125],[-89.83493757367573,31.001668272972722],[-89.72725875388754,31.00252733266332],[-89.72725875388754,30.970742124111233],[-89.75238381183811,30.9518428109181],[-89.74879451784517,30.91318512484124],[-89.77391957579576,30.896862990719903],[-89.80622322173221,30.78948052939529],[-89.8313482796828,30.768004037130368],[-89.81699110371103,30.737077888268878],[-89.84570545565455,30.707010799097986],[-89.8492947496475,30.665775933949334],[-90.00004509735096,30.66663499363993],[-90.2548849708497,30.712165157241564],[-90.26206355883558,30.765426858058575],[-90.31590296872969,30.89084957288572],[-90.34820661466614,30.90545358762587],[-90.34820661466614,30.999950153591527]]]}},{"type":"Feature","id":"22119","properties":{"name":"Webster","county_fips":"22119","state_abbr":"LA"},"geometry":{"type":"Polygon","coordinates":[[[-93.52114250442504,33.01874042649426],[-93.48883885848858,33.01874042649426],[-93.23758827898278,33.017881366803664],[-93.23758827898278,32.71635141540415],[-93.18733816308162,32.71635141540415],[-93.17298098710987,32.63388168510684],[-93.18015957509574,32.58491528274282],[-93.17298098710987,32.52649922378223],[-93.14785592915929,32.45519726946269],[-93.23758827898278,32.45433820977209],[-93.23758827898278,32.409667105861054],[-93.37398145071451,32.41052616555165],[-93.44217803658036,32.41052616555165],[-93.4457673305733,32.498150253992534],[-93.4457673305733,32.76102251931519],[-93.47448168251682,32.783358071270705],[-93.45294591855918,32.822015757347565],[-93.4816602705027,32.92682103960039],[-93.51037462244622,32.93541163650636],[-93.53191038640387,32.975787441964414],[-93.52114250442504,33.01874042649426]]]}},{"type":"Feature","id":"22121","properties":{"name":"West Baton Rouge","county_fips":"22121","state_abbr":"LA"},"geometry":{"type":"Polygon","coordinates":[[[-91.33167316873168,30.65890345642456],[-91.31013740477404,30.653749098280976],[-91.29936952279522,30.649453799827995],[-91.30654811078111,30.572997487364866],[-91.26706587685877,30.57213842767427],[-91.24553011290112,30.5360579206692],[-91.28501234682346,30.515440488094875],[-91.26347658286582,30.50513177180771],[-91.20963717297172,30.523172025310245],[-91.19527999699997,30.43984323532235],[-91.2347622309223,30.37541375852758],[-91.2347622309223,30.34448760966609],[-91.17374423304233,30.34448760966609],[-91.14144058710586,30.323011117401165],[-91.31013740477404,30.322152057710575],[-91.32090528675286,30.34362854997549],[-91.3962804606046,30.40891708646086],[-91.432173400534,30.453588190371896],[-91.4860128104281,30.49740023459234],[-91.48242351643516,30.511145189641894],[-91.4142269305693,30.511145189641894],[-91.3962804606046,30.568702188911885],[-91.36397681466815,30.588460561795614],[-91.31013740477404,30.650312859518593],[-91.33167316873168,30.65890345642456]]]}},{"type":"Feature","id":"22123","properties":{"name":"West Carroll","county_fips":"22123","state_abbr":"LA"},"geometry":{"type":"Polygon","coordinates":[[[-91.43576269452694,33.005854531135306],[-91.26347658286582,33.00499547144471],[-91.28142305283052,32.95087471093711],[-91.31013740477404,32.93627069619696],[-91.31013740477404,32.889881472904726],[-91.33885175671756,32.86239156280562],[-91.34603034470344,32.7567272208622],[-91.39986975459755,32.69315680375803],[-91.3962804606046,32.609828013770134],[-91.44653057650576,32.582338103671034],[-91.59728092420924,32.582338103671034],[-91.59728092420924,32.667385013040125],[-91.63676315813157,32.667385013040125],[-91.64035245212452,32.702606460354595],[-91.59728092420924,32.74899568364683],[-91.60445951219512,32.78765336972369],[-91.56497727827278,32.85551908528085],[-91.51113786837868,32.878713696926965],[-91.43576269452694,33.005854531135306]]]}},{"type":"Feature","id":"22125","properties":{"name":"West Feliciana","county_fips":"22125","state_abbr":"LA"},"geometry":{"type":"MultiPolygon","coordinates":[[[[-91.63676315813157,30.999091093900937],[-91.17733352703527,30.999091093900937],[-91.18810140901408,30.93637973648736],[-91.2347622309223,30.82470197670976],[-91.2347622309223,30.795493947229467],[-91.27783375883759,30.758554380533802],[-91.29219093480934,30.715601396003954],[-91.32090528675286,30.699279261882616],[-91.31013740477404,30.653749098280976],[-91.33167316873168,30.65890345642456],[-91.37474469664696,30.756836261152607],[-91.4501198704987,30.73621882857828],[-91.55420939629396,30.731064470434696],[-91.5936916302163,30.766285917749173],[-91.5398522203222,30.79119864877648],[-91.51831645636456,30.851332827118263],[-91.5219057503575,30.88999051319513],[-91.55062010230102,30.916621363603632],[-91.61522739417394,30.91748042329423],[-91.56497727827278,30.88311803567035],[-91.5577986902869,30.848755648046478],[-91.62240598215982,30.84016505114051],[-91.66188821608216,30.857346244952446],[-91.64394174611746,30.92864819927199],[-91.66188821608216,30.970742124111233],[-91.63676315813157,30.999091093900937]]],[[[-91.72290621396213,31.04462125750257],[-91.65829892208922,31.043762197811972],[-91.65829892208922,30.99393673575735],[-91.68701327403274,31.017990407094068],[-91.75162056590565,31.018849466784665],[-91.72290621396213,31.04462125750257]]]]}},{"type":"Feature","id":"22127","properties":{"name":"Winn","county_fips":"22127","state_abbr":"LA"},"geometry":{"type":"Polygon","coordinates":[[[-92.93967687756877,32.147653900228995],[-92.81405158781587,32.1467948405384],[-92.31155042880428,32.1459357808478],[-92.31155042880428,31.927734619436187],[-92.31155042880428,31.8959494108841],[-92.36180054470545,31.79629848677486],[-92.62022971219712,31.797157546465456],[-92.62022971219712,31.709533458024573],[-92.97198052350524,31.708674398333976],[-92.96839122951229,31.781694472034715],[-92.93967687756877,31.82980181470814],[-92.94685546555465,31.85729172480724],[-92.9073732316323,31.850419247282467],[-92.88224817368173,31.980996320253197],[-92.90378393763937,32.081506304053036],[-92.93967687756877,32.147653900228995]]]}}]}