{"type":"FeatureCollection","features":[{"type":"Feature","id":"25001","properties":{"name":"Barnstable","county_fips":"25001","state_abbr":"MA"},"geometry":{"type":"Polygon","coordinates":[[[-70.69323270932709,41.52600854247542],[-70.6573397693977,41.54318973628735],[-70.639393299433,41.57755212391123],[-70.64298259342593,41.718437913169126],[-70.63221471144712,41.76310901708016],[-70.56401812558126,41.78630362872628],[-70.53889306763068,41.811216359753594],[-70.4958215397154,41.77427679305792],[-70.41326777787778,41.74420970388703],[-70.29123178211782,41.73390098759987],[-70.25892813618135,41.71414261471614],[-70.1907315503155,41.7519412411024],[-70.12253496444964,41.75881371862718],[-70.02562402664026,41.78716268841688],[-70.00408826268263,41.8086391806818],[-70.00767755667556,41.876504896238956],[-70.0292133206332,41.92890753736537],[-70.07587414254142,41.90227668695686],[-70.07587414254142,41.98560547694476],[-70.09382061250612,42.03285375992759],[-70.14766002240022,42.062061789407885],[-70.17996366833668,42.05604837157371],[-70.19791013830138,42.02254504364043],[-70.23739237222372,42.073229565385645],[-70.1907315503155,42.08267922198221],[-70.11535637646377,42.06721614755147],[-70.03280261462615,42.01739068549685],[-69.96819532275323,41.911726343553426],[-69.93589167681677,41.8094982403724],[-69.92871308883089,41.691807062760624],[-69.98255249872498,41.58098836267362],[-69.98973108671086,41.54318973628735],[-70.01485614466145,41.55092127350273],[-69.97178461674616,41.64713595884958],[-69.99690967469675,41.66689433173331],[-70.09023131851319,41.66259903328032],[-70.2445709602096,41.62823664565645],[-70.3522497799978,41.63510912318122],[-70.37737483794838,41.611055451844514],[-70.43839283582835,41.60504203401033],[-70.49223224572246,41.55178033319333],[-70.61067894748948,41.54318973628735],[-70.66810765137652,41.51312264711646],[-70.69323270932709,41.52600854247542]]]}},{"type":"Feature","id":"25003","properties":{"name":"Berkshire","county_fips":"25003","state_abbr":"MA"},"geometry":{"type":"Polygon","coordinates":[[[-73.35289955809557,42.50963188820887],[-73.26316720827208,42.74587330312303],[-73.02268451074511,42.74071894497944],[-73.02268451074511,42.70292031859318],[-72.94730933689337,42.704638437974374],[-72.99397015880159,42.673712289112885],[-72.95448792487925,42.66512169220692],[-72.9508986308863,42.6410680208702],[-72.97602368883689,42.55602111150111],[-72.96884510085101,42.539698977379764],[-73.01191662876629,42.37991387492874],[-73.06575603866038,42.389363531525305],[-73.06216674466745,42.32922935318352],[-73.00114874678746,42.31290721906218],[-73.00473804078041,42.250195861648606],[-73.03345239272393,42.14367246001459],[-73.06934533265333,42.14796775846758],[-73.07293462664626,42.09384699795997],[-73.05498815668156,42.03972623745237],[-73.43186402594026,42.050894013430124],[-73.48570343583435,42.050034953739534],[-73.49647131781317,42.050034953739534],[-73.507239199792,42.0861154607446],[-73.35289955809557,42.50963188820887]]]}},{"type":"Feature","id":"25005","properties":{"name":"Bristol","county_fips":"25005","state_abbr":"MA"},"geometry":{"type":"MultiPolygon","coordinates":[[[[-71.38237715597155,41.984746417254165],[-71.36443068600686,41.98560547694476],[-71.08087646056461,42.09556511734117],[-71.04857281462814,41.96326992498924],[-70.99832269872698,41.929766597055966],[-70.9731976407764,41.861041821808215],[-71.03780493264932,41.81637071789717],[-71.0270370506705,41.77857209151091],[-70.92294752487524,41.791457986869865],[-70.88705458494584,41.760531838008376],[-70.84398305703057,41.62823664565645],[-70.85475093900939,41.58184742236422],[-70.86910811498115,41.62565946658466],[-70.91217964289643,41.61964604875048],[-70.93730470084701,41.57755212391123],[-70.93012611286113,41.53975349752497],[-70.95166187681876,41.514840766497656],[-71.04139422664227,41.49508239361393],[-71.08446575455754,41.50968640835408],[-71.12035869448694,41.49765957268572],[-71.13112657646576,41.66002185420854],[-71.19573386833868,41.67548492863928],[-71.2244482202822,41.710706375953755],[-71.2603411602116,41.7519412411024],[-71.31776986409864,41.77599491243912],[-71.34648421604216,41.82839755356553],[-71.33930562805628,41.89798138850388],[-71.38237715597155,41.892827030360294],[-71.38237715597155,41.984746417254165]]]]}},{"type":"Feature","id":"25007","properties":{"name":"Dukes","county_fips":"25007","state_abbr":"MA"},"geometry":{"type":"MultiPolygon","coordinates":[[[[-70.83321517505175,41.35333754466544],[-70.76860788317883,41.35333754466544],[-70.70041129731297,41.43065291681916],[-70.6035003595036,41.48219649825498],[-70.56401812558126,41.46931060289602],[-70.53889306763068,41.40917642455424],[-70.48505365773657,41.38598181290812],[-70.44916071780717,41.420344200532],[-70.45275001180012,41.34818318652186],[-70.59991106551065,41.349042246212456],[-70.71117917929179,41.341310708997085],[-70.77578647116471,41.30093490353903],[-70.83321517505175,41.35333754466544]]],[[[-70.69323270932709,41.52600854247542],[-70.66810765137652,41.51312264711646],[-70.73271494324943,41.48649179670796],[-70.79014364713647,41.446115991249904],[-70.86551882098821,41.422062319913195],[-70.94807258282583,41.40917642455424],[-70.92653681886819,41.43151197650976],[-70.8009115291153,41.460720005990055],[-70.69323270932709,41.52600854247542]]]]}},{"type":"Feature","id":"25009","properties":{"name":"Essex","county_fips":"25009","state_abbr":"MA"},"geometry":{"type":"Polygon","coordinates":[[[-71.25675186621866,42.73642364652646],[-71.24598398423984,42.74243706436064],[-71.18137669236692,42.73728270621706],[-71.18496598635986,42.79054440703406],[-71.13112657646576,42.82147055589555],[-71.0629299905999,42.80600748146481],[-71.03062634466345,42.859269182281814],[-70.90141176091761,42.88675909238091],[-70.84757235102352,42.86098730166301],[-70.81885799908,42.87215507764077],[-70.8116794110941,42.81030277991779],[-70.77937576515765,42.693470661996614],[-70.68964341533415,42.65309485653856],[-70.64657188741887,42.689175363543626],[-70.59632177151771,42.65996733406333],[-70.65375047540475,42.58265196190961],[-70.73630423724236,42.576638544075436],[-70.87269740897409,42.546571454904544],[-70.8296258810588,42.5036184703747],[-70.89423317293173,42.46066548584485],[-70.91935823088231,42.46839702306023],[-70.93730470084701,42.41771250131501],[-70.96242975879758,42.44348429203291],[-71.0270370506705,42.44434335172351],[-71.05216210862109,42.4761285602756],[-71.03780493264932,42.52423590294902],[-71.07369787257872,42.531108380473796],[-71.05575140261402,42.574061365003644],[-71.0270370506705,42.574061365003644],[-71.05934069660697,42.60928281231811],[-71.1347158704587,42.59897409603095],[-71.25675186621866,42.65653109530095],[-71.23880539625397,42.6694169906599],[-71.25675186621866,42.73642364652646]]]}},{"type":"Feature","id":"25011","properties":{"name":"Franklin","county_fips":"25011","state_abbr":"MA"},"geometry":{"type":"Polygon","coordinates":[[[-73.02268451074511,42.74071894497944],[-72.92936286692867,42.73900082559825],[-72.45916535385354,42.726973989929895],[-72.28328994819948,42.72181963178631],[-72.27252206622066,42.67457134880348],[-72.22945053830539,42.662544513135124],[-72.22945053830539,42.616155289842894],[-72.26534347823478,42.600692215412145],[-72.26893277222771,42.53368555954559],[-72.24380771427714,42.51306812697126],[-72.29046853618536,42.47956479903798],[-72.28328994819948,42.44090711296112],[-72.30482571215713,42.420289680386794],[-72.31559359413593,42.34383336792367],[-72.35507582805828,42.30345756246562],[-72.35507582805828,42.36616891987919],[-72.37661159201592,42.42114874007739],[-72.48429041180411,42.407403785027846],[-72.49146899979,42.43403463543635],[-72.70323734537345,42.40568566564665],[-72.6996480513805,42.45293394862948],[-72.75707675526755,42.446061471104706],[-72.77502322523225,42.46667890367903],[-72.87193416304163,42.48386009749097],[-72.87552345703457,42.54141709676096],[-72.97602368883689,42.55602111150111],[-72.9508986308863,42.6410680208702],[-72.95448792487925,42.66512169220692],[-72.99397015880159,42.673712289112885],[-72.94730933689337,42.704638437974374],[-73.02268451074511,42.70292031859318],[-73.02268451074511,42.74071894497944]]]}},{"type":"Feature","id":"25013","properties":{"name":"Hampden","county_fips":"25013","state_abbr":"MA"},"geometry":{"type":"Polygon","coordinates":[[[-73.00114874678746,42.31290721906218],[-72.95448792487925,42.34383336792367],[-72.88629133901338,42.33266559194591],[-72.8791127510275,42.265658936079355],[-72.91141639696397,42.23902808567085],[-72.87193416304163,42.21669253371533],[-72.85757698706986,42.24074620505204],[-72.79296969519694,42.23645090659906],[-72.78220181321814,42.199511339903395],[-72.68529087540875,42.18318920578205],[-72.6888801694017,42.21325629495294],[-72.65657652346523,42.22786030969309],[-72.63504075950759,42.27424953298532],[-72.59914781957819,42.26823611515115],[-72.62427287752877,42.23387372752727],[-72.59196923159232,42.21153817557175],[-72.40532594395944,42.23215560814607],[-72.39455806198062,42.18576638485384],[-72.3658437100371,42.207242877118766],[-72.2222719503195,42.24504150350503],[-72.26534347823478,42.18404826547265],[-72.20073618636187,42.161712713517126],[-72.13612889448895,42.161712713517126],[-72.13612889448895,42.030276580855805],[-72.5094154697547,42.034571879308785],[-72.60632640756407,42.031135640546395],[-72.75707675526755,42.03628999868998],[-72.76784463724637,42.0027866707567],[-72.81809475314753,41.99763231261312],[-72.81450545915459,42.03628999868998],[-73.00832733477334,42.03886717776177],[-73.05498815668156,42.03972623745237],[-73.07293462664626,42.09384699795997],[-73.06934533265333,42.14796775846758],[-73.03345239272393,42.14367246001459],[-73.00473804078041,42.250195861648606],[-73.00114874678746,42.31290721906218]]]}},{"type":"Feature","id":"25015","properties":{"name":"Hampshire","county_fips":"25015","state_abbr":"MA"},"geometry":{"type":"Polygon","coordinates":[[[-72.97602368883689,42.55602111150111],[-72.87552345703457,42.54141709676096],[-72.87193416304163,42.48386009749097],[-72.77502322523225,42.46667890367903],[-72.75707675526755,42.446061471104706],[-72.6996480513805,42.45293394862948],[-72.70323734537345,42.40568566564665],[-72.49146899979,42.43403463543635],[-72.48429041180411,42.407403785027846],[-72.37661159201592,42.42114874007739],[-72.35507582805828,42.36616891987919],[-72.35507582805828,42.30345756246562],[-72.31559359413593,42.34383336792367],[-72.29046853618536,42.35242396482964],[-72.2761113602136,42.30173944308442],[-72.21150406834069,42.31118909968099],[-72.2222719503195,42.24504150350503],[-72.3658437100371,42.207242877118766],[-72.39455806198062,42.18576638485384],[-72.40532594395944,42.23215560814607],[-72.59196923159232,42.21153817557175],[-72.62427287752877,42.23387372752727],[-72.59914781957819,42.26823611515115],[-72.63504075950759,42.27424953298532],[-72.65657652346523,42.22786030969309],[-72.6888801694017,42.21325629495294],[-72.68529087540875,42.18318920578205],[-72.78220181321814,42.199511339903395],[-72.79296969519694,42.23645090659906],[-72.85757698706986,42.24074620505204],[-72.87193416304163,42.21669253371533],[-72.91141639696397,42.23902808567085],[-72.8791127510275,42.265658936079355],[-72.88629133901338,42.33266559194591],[-72.95448792487925,42.34383336792367],[-73.00114874678746,42.31290721906218],[-73.06216674466745,42.32922935318352],[-73.06575603866038,42.389363531525305],[-73.01191662876629,42.37991387492874],[-72.96884510085101,42.539698977379764],[-72.97602368883689,42.55602111150111]]]}},{"type":"Feature","id":"25017","properties":{"name":"Middlesex","county_fips":"25017","state_abbr":"MA"},"geometry":{"type":"Polygon","coordinates":[[[-71.89923549095491,42.71151091549915],[-71.29264480614806,42.696906900759004],[-71.25675186621866,42.73642364652646],[-71.23880539625397,42.6694169906599],[-71.25675186621866,42.65653109530095],[-71.1347158704587,42.59897409603095],[-71.05934069660697,42.60928281231811],[-71.0270370506705,42.574061365003644],[-71.05575140261402,42.574061365003644],[-71.07369787257872,42.531108380473796],[-71.03780493264932,42.52423590294902],[-71.05216210862109,42.4761285602756],[-71.0270370506705,42.44434335172351],[-71.07010857858579,42.36788703926039],[-71.10241222452224,42.35242396482964],[-71.13112657646576,42.373900457094564],[-71.17419810438105,42.350705845448445],[-71.15625163441634,42.33008841287412],[-71.16343022240223,42.30345756246562],[-71.19214457434575,42.28284012989129],[-71.22803751427514,42.318920636896365],[-71.27110904219042,42.32837029349293],[-71.32853774607746,42.31376627875278],[-71.30341268812688,42.24847774226742],[-71.3321270400704,42.249336801958016],[-71.34289492204923,42.200370399593986],[-71.42903797787977,42.17975296701967],[-71.47928809378094,42.15655835537355],[-71.50441315173151,42.19177980268802],[-71.55466326763268,42.18233014609145],[-71.6013240895409,42.21841065309653],[-71.55825256162561,42.26823611515115],[-71.50800244572446,42.26394081669816],[-71.48646668176681,42.33008841287412],[-71.5833776195762,42.31118909968099],[-71.62644914749147,42.350705845448445],[-71.55825256162561,42.411699083480826],[-71.54389538565385,42.46667890367903],[-71.56184185561855,42.4744104408944],[-71.5295382096821,42.519940604496036],[-71.54030609166091,42.543135216142154],[-71.6192705595056,42.55258487273872],[-71.63721702947029,42.52423590294902],[-71.68028855738557,42.5302493207832],[-71.66593138141381,42.611859991389906],[-71.77719949519495,42.64450425963259],[-71.85975325703257,42.63419554334543],[-71.85616396303963,42.67457134880348],[-71.89923549095491,42.71151091549915]]]}},{"type":"Feature","id":"25019","properties":{"name":"Nantucket","county_fips":"25019","state_abbr":"MA"},"geometry":{"type":"Polygon","coordinates":[[[-70.27687460614607,41.310384560135596],[-70.23021378423785,41.28976712756127],[-70.12612425844259,41.29406242601425],[-70.06151696656967,41.3086664407544],[-70.01844543865438,41.368800619096184],[-69.96101673476734,41.27859935158351],[-69.96460602876029,41.252827560865605],[-70.00049896868968,41.23908260581605],[-70.1189456704567,41.24251884457844],[-70.26610672416724,41.29406242601425],[-70.27687460614607,41.310384560135596]]]}},{"type":"Feature","id":"25021","properties":{"name":"Norfolk","county_fips":"25021","state_abbr":"MA"},"geometry":{"type":"MultiPolygon","coordinates":[[[[-70.82603658706587,42.265658936079355],[-70.77937576515765,42.2519139810298],[-70.82603658706587,42.200370399593986],[-70.85475093900939,42.23988714536144],[-70.82603658706587,42.265658936079355]]],[[[-71.15625163441634,42.33008841287412],[-71.10600151851519,42.34898772606726],[-71.1526623404234,42.29486696555965],[-71.16343022240223,42.30345756246562],[-71.15625163441634,42.33008841287412]]],[[[-71.47928809378094,42.15655835537355],[-71.42903797787977,42.17975296701967],[-71.34289492204923,42.200370399593986],[-71.3321270400704,42.249336801958016],[-71.30341268812688,42.24847774226742],[-71.32853774607746,42.31376627875278],[-71.27110904219042,42.32837029349293],[-71.22803751427514,42.318920636896365],[-71.19214457434575,42.28284012989129],[-71.13112657646576,42.22786030969309],[-71.11318010650106,42.25878645855458],[-71.05934069660697,42.26737705546055],[-71.04139422664227,42.30345756246562],[-70.9911441107411,42.31290721906218],[-70.98755481674817,42.26737705546055],[-70.9552511708117,42.284558249272486],[-70.91576893688936,42.28885354772547],[-70.90141176091761,42.26737705546055],[-70.93012611286113,42.24675962288622],[-70.91576893688936,42.2252831306213],[-70.92653681886819,42.157417415064145],[-71.08087646056461,42.09556511734117],[-71.36443068600686,41.98560547694476],[-71.38237715597155,41.984746417254165],[-71.38237715597155,42.019108804878044],[-71.49723456374564,42.01739068549685],[-71.49364526975269,42.099860415794154],[-71.47928809378094,42.15655835537355]]]]}},{"type":"Feature","id":"25023","properties":{"name":"Plymouth","county_fips":"25023","state_abbr":"MA"},"geometry":{"type":"Polygon","coordinates":[[[-71.08087646056461,42.09556511734117],[-70.92653681886819,42.157417415064145],[-70.91576893688936,42.2252831306213],[-70.93012611286113,42.24675962288622],[-70.90141176091761,42.26737705546055],[-70.91576893688936,42.28885354772547],[-70.9552511708117,42.284558249272486],[-70.88346529095291,42.3086119206092],[-70.86192952699527,42.27596765236652],[-70.82603658706587,42.265658936079355],[-70.85475093900939,42.23988714536144],[-70.82603658706587,42.200370399593986],[-70.77937576515765,42.2519139810298],[-70.72194706127061,42.20810193680936],[-70.71476847328474,42.168585191041906],[-70.639393299433,42.088692639816394],[-70.64298259342593,42.045739655286546],[-70.66810765137652,42.012236327353264],[-70.71117917929179,42.007941028900284],[-70.70041129731297,41.98732359632596],[-70.62503612346123,41.94351155210551],[-70.58196459554595,41.95038402963029],[-70.55325024360243,41.929766597055966],[-70.52453589165891,41.85846464273642],[-70.53889306763068,41.811216359753594],[-70.56401812558126,41.78630362872628],[-70.63221471144712,41.76310901708016],[-70.64298259342593,41.718437913169126],[-70.71835776727767,41.73561910698106],[-70.71835776727767,41.684934585235844],[-70.74348282522826,41.6969614209042],[-70.75784000120001,41.654008436374355],[-70.80809011710117,41.65658561544615],[-70.8009115291153,41.62909570534705],[-70.84398305703057,41.62823664565645],[-70.88705458494584,41.760531838008376],[-70.92294752487524,41.791457986869865],[-71.0270370506705,41.77857209151091],[-71.03780493264932,41.81637071789717],[-70.9731976407764,41.861041821808215],[-70.99832269872698,41.929766597055966],[-71.04857281462814,41.96326992498924],[-71.08087646056461,42.09556511734117]]]}},{"type":"Feature","id":"25025","properties":{"name":"Suffolk","county_fips":"25025","state_abbr":"MA"},"geometry":{"type":"Polygon","coordinates":[[[-71.19214457434575,42.28284012989129],[-71.16343022240223,42.30345756246562],[-71.1526623404234,42.29486696555965],[-71.10600151851519,42.34898772606726],[-71.15625163441634,42.33008841287412],[-71.17419810438105,42.350705845448445],[-71.13112657646576,42.373900457094564],[-71.10241222452224,42.35242396482964],[-71.07010857858579,42.36788703926039],[-71.0270370506705,42.44434335172351],[-70.96242975879758,42.44348429203291],[-70.9911441107411,42.407403785027846],[-70.95166187681876,42.34383336792367],[-70.99832269872698,42.35242396482964],[-70.9911441107411,42.31290721906218],[-71.04139422664227,42.30345756246562],[-71.05934069660697,42.26737705546055],[-71.11318010650106,42.25878645855458],[-71.13112657646576,42.22786030969309],[-71.19214457434575,42.28284012989129]]]}},{"type":"Feature","id":"25027","properties":{"name":"Worcester","county_fips":"25027","state_abbr":"MA"},"geometry":{"type":"Polygon","coordinates":[[[-72.28328994819948,42.72181963178631],[-71.92794984289843,42.712369975189745],[-71.89923549095491,42.71151091549915],[-71.85616396303963,42.67457134880348],[-71.85975325703257,42.63419554334543],[-71.77719949519495,42.64450425963259],[-71.66593138141381,42.611859991389906],[-71.68028855738557,42.5302493207832],[-71.63721702947029,42.52423590294902],[-71.6192705595056,42.55258487273872],[-71.54030609166091,42.543135216142154],[-71.5295382096821,42.519940604496036],[-71.56184185561855,42.4744104408944],[-71.54389538565385,42.46667890367903],[-71.55825256162561,42.411699083480826],[-71.62644914749147,42.350705845448445],[-71.5833776195762,42.31118909968099],[-71.48646668176681,42.33008841287412],[-71.50800244572446,42.26394081669816],[-71.55825256162561,42.26823611515115],[-71.6013240895409,42.21841065309653],[-71.55466326763268,42.18233014609145],[-71.50441315173151,42.19177980268802],[-71.47928809378094,42.15655835537355],[-71.49364526975269,42.099860415794154],[-71.49723456374564,42.01739068549685],[-71.7987352591526,42.007941028900284],[-71.80232455314552,42.023404103331025],[-72.10382524855248,42.02855846147461],[-72.13612889448895,42.030276580855805],[-72.13612889448895,42.161712713517126],[-72.20073618636187,42.161712713517126],[-72.26534347823478,42.18404826547265],[-72.2222719503195,42.24504150350503],[-72.21150406834069,42.31118909968099],[-72.2761113602136,42.30173944308442],[-72.29046853618536,42.35242396482964],[-72.31559359413593,42.34383336792367],[-72.30482571215713,42.420289680386794],[-72.28328994819948,42.44090711296112],[-72.29046853618536,42.47956479903798],[-72.24380771427714,42.51306812697126],[-72.26893277222771,42.53368555954559],[-72.26534347823478,42.600692215412145],[-72.22945053830539,42.616155289842894],[-72.22945053830539,42.662544513135124],[-72.27252206622066,42.67457134880348],[-72.28328994819948,42.72181963178631]]]}}]}