{"type":"FeatureCollection","features":[{"type":"Feature","id":"24001","properties":{"name":"Allegany","county_fips":"24001","state_abbr":"MD"},"geometry":{"type":"Polygon","coordinates":[[[-78.92707312913129,39.72284225191251],[-78.80862642736427,39.72284225191251],[-78.38150044220441,39.72284225191251],[-78.34201820828208,39.72284225191251],[-78.31330385633856,39.69277516274162],[-78.34201820828208,39.67559396892968],[-78.3348396202962,39.636077223162225],[-78.38150044220441,39.62920474563745],[-78.38508973619736,39.608587313063126],[-78.43533985209852,39.61803696965969],[-78.39585761817618,39.59054705956059],[-78.4425184400844,39.59140611925118],[-78.41739338213382,39.54931219441194],[-78.46764349803497,39.516667926169255],[-78.5681437298373,39.520104164931645],[-78.59326878778788,39.535567239362386],[-78.6578760796608,39.53470817967179],[-78.72607266552666,39.56391620915208],[-78.73325125351253,39.586251761107604],[-78.77991207542075,39.601714835538345],[-78.73325125351253,39.613741671206704],[-78.77991207542075,39.62233226811267],[-78.91630524715247,39.48660083699836],[-78.95578748107481,39.44021161370613],[-79.06705559485594,39.474574001330005],[-78.92707312913129,39.72284225191251]]]}},{"type":"Feature","id":"24003","properties":{"name":"Anne Arundel","county_fips":"24003","state_abbr":"MD"},"geometry":{"type":"Polygon","coordinates":[[[-76.84169331923319,39.10346021499215],[-76.78785390933909,39.128372946019454],[-76.74478238142382,39.17991652745527],[-76.6981215595156,39.21427891507914],[-76.61915709167091,39.23747352672526],[-76.58326415174152,39.20740643755437],[-76.53301403584035,39.20654737786377],[-76.52583544785448,39.178198408074074],[-76.42892451004509,39.131809184781844],[-76.42174592205922,39.074252185511845],[-76.43969239202391,39.05277569324693],[-76.3930315701157,39.011540828098276],[-76.47558533195331,38.972883142021416],[-76.45046027400274,38.94109793346933],[-76.46122815598156,38.90673554584545],[-76.49353180191801,38.91017178460784],[-76.5186568598686,38.86292350162501],[-76.49712109591096,38.81739333802337],[-76.55813909379094,38.76756787596875],[-76.52942474184742,38.71344711546115],[-76.62274638566386,38.7263330108201],[-76.62274638566386,38.76756787596875],[-76.68735367753678,38.74866856277562],[-76.70171085350853,38.78818530854308],[-76.69094297152971,38.85948726286262],[-76.66940720757208,38.90673554584545],[-76.69094297152971,38.924775799347984],[-76.6981215595156,38.98405091799918],[-76.7519609694097,39.03473543974439],[-76.83810402524026,39.07167500644006],[-76.84169331923319,39.10346021499215]]]}},{"type":"Feature","id":"24510","properties":{"name":"Baltimore","county_fips":"24510","state_abbr":"MD"},"geometry":{"type":"Polygon","coordinates":[[[-76.52942474184742,39.24090976548765],[-76.57608556375564,39.26410437713376],[-76.56531768177682,39.224587631366305],[-76.53301403584035,39.20654737786377],[-76.58326415174152,39.20740643755437],[-76.61915709167091,39.23747352672526],[-76.71247873548735,39.277849332183315],[-76.71247873548735,39.37234589814898],[-76.52942474184742,39.37234589814898],[-76.52942474184742,39.24090976548765]]]}},{"type":"Feature","id":"24005","properties":{"name":"Baltimore","county_fips":"24005","state_abbr":"MD"},"geometry":{"type":"Polygon","coordinates":[[[-76.78785390933909,39.721124132531315],[-76.56890697576975,39.721124132531315],[-76.56531768177682,39.6146007308973],[-76.53301403584035,39.544157836268354],[-76.43610309803098,39.502063911429104],[-76.38585298212982,39.45996998658986],[-76.3571386301863,39.389527091960915],[-76.33560286622865,39.305339242282415],[-76.36431721817218,39.312211719807195],[-76.38585298212982,39.27613121280212],[-76.34278145421455,39.25723189960899],[-76.41815662806628,39.21943327322273],[-76.44328168601686,39.19537960188601],[-76.48994250792508,39.20225207941079],[-76.52942474184742,39.24090976548765],[-76.52942474184742,39.37234589814898],[-76.71247873548735,39.37234589814898],[-76.71247873548735,39.277849332183315],[-76.61915709167091,39.23747352672526],[-76.6981215595156,39.21427891507914],[-76.79503249732497,39.266681556205555],[-76.77708602736027,39.29503052599525],[-76.83451473124731,39.3113526601166],[-76.88117555315553,39.35001034619346],[-76.89194343513435,39.45739280751807],[-76.86681837718378,39.501204851738514],[-76.78785390933909,39.721124132531315]]]}},{"type":"Feature","id":"24009","properties":{"name":"Calvert","county_fips":"24009","state_abbr":"MD"},"geometry":{"type":"Polygon","coordinates":[[[-76.68735367753678,38.74866856277562],[-76.62274638566386,38.76756787596875],[-76.62274638566386,38.7263330108201],[-76.52942474184742,38.71344711546115],[-76.53301403584035,38.67822566814667],[-76.51147827188272,38.615514310733104],[-76.5186568598686,38.539057998269975],[-76.49353180191801,38.48321911838118],[-76.41456733407334,38.41449434313343],[-76.38585298212982,38.361232642316416],[-76.41815662806628,38.322574956239556],[-76.47199603796038,38.32429307562075],[-76.5007103899039,38.37240041829418],[-76.60838920969209,38.42480305942059],[-76.65505003160031,38.465178864878645],[-76.67299650156501,38.49954125250252],[-76.67658579555795,38.53562175950759],[-76.67299650156501,38.61723243011429],[-76.70171085350853,38.71086993638936],[-76.68735367753678,38.74866856277562]]]}},{"type":"Feature","id":"24011","properties":{"name":"Caroline","county_fips":"24011","state_abbr":"MD"},"geometry":{"type":"Polygon","coordinates":[[[-75.94795911499115,38.91876238151381],[-75.94078052700527,38.9763193807838],[-75.89053041110411,39.01841330562305],[-75.84745888318884,39.07167500644006],[-75.83669100121001,39.108614573135725],[-75.7469586513865,39.142976960759604],[-75.72183359343593,38.83027923338233],[-75.70747641746418,38.63527268361683],[-75.76131582735827,38.685957205362044],[-75.79720876728767,38.67650754876548],[-75.83669100121001,38.703997458864585],[-75.9443698209982,38.67393036969369],[-76.01615570085701,38.72891018989189],[-75.96590558495585,38.77959471163711],[-75.89770899908999,38.812238979879794],[-75.94795911499115,38.884399993889936],[-75.94795911499115,38.91876238151381]]]}},{"type":"Feature","id":"24013","properties":{"name":"Carroll","county_fips":"24013","state_abbr":"MD"},"geometry":{"type":"Polygon","coordinates":[[[-77.21856918849188,39.720265072840725],[-76.99962225492254,39.720265072840725],[-76.78785390933909,39.721124132531315],[-76.86681837718378,39.501204851738514],[-76.89194343513435,39.45739280751807],[-76.88117555315553,39.35001034619346],[-76.97090790297902,39.363755301243],[-77.02474731287313,39.350869405884055],[-77.10012248672487,39.36890965938659],[-77.16831907259072,39.35430564464644],[-77.14678330863309,39.41873512144121],[-77.11447966269662,39.45996998658986],[-77.11089036870368,39.497768612976124],[-77.19703342453424,39.575083985129844],[-77.28676577435775,39.60429201461014],[-77.31189083230832,39.639513461924615],[-77.27599789237892,39.632640984399835],[-77.26164071640716,39.66528525264252],[-77.21497989449894,39.6987885805758],[-77.21856918849188,39.720265072840725]]]}},{"type":"Feature","id":"24015","properties":{"name":"Cecil","county_fips":"24015","state_abbr":"MD"},"geometry":{"type":"Polygon","coordinates":[[[-76.23151334043341,39.72198319222191],[-76.13460240262403,39.72198319222191],[-75.7900301793018,39.72198319222191],[-75.7900301793018,39.64810405883058],[-75.76849441534415,39.37750025629256],[-75.82233382523825,39.381795554745544],[-75.88694111711116,39.36117812217122],[-76.00179852488525,39.37664119660196],[-76.04128075880759,39.38780897257972],[-75.97667346693467,39.4479431509215],[-76.01256640686407,39.45309750906508],[-75.9694948789488,39.55790279131791],[-76.07717369873698,39.54329877657776],[-76.14895957859578,39.619755089040886],[-76.17408463654637,39.66013089449894],[-76.2135668704687,39.68676174490744],[-76.23151334043341,39.72198319222191]]]}},{"type":"Feature","id":"24017","properties":{"name":"Charles","county_fips":"24017","state_abbr":"MD"},"geometry":{"type":"Polygon","coordinates":[[[-77.12883683866839,38.63527268361683],[-77.13242613266132,38.67393036969369],[-77.0857653107531,38.70571557824577],[-77.04628307683076,38.616373370423695],[-77.02115801888019,38.64644045959459],[-76.96731860898609,38.66104447433474],[-76.86322908319083,38.658467295262945],[-76.74837167541675,38.61809148980489],[-76.74119308743087,38.5588163711537],[-76.67658579555795,38.53562175950759],[-76.67299650156501,38.49954125250252],[-76.77349673336734,38.50899090909908],[-76.82015755527556,38.434252716017156],[-76.87399696516965,38.380991015200145],[-76.84887190721906,38.35521922448224],[-76.87040767117671,38.33202461283612],[-76.83451473124731,38.27360855387553],[-76.84169331923319,38.2547092406824],[-76.92065778707787,38.29164880737807],[-76.92783637506375,38.32085683685836],[-76.97449719697197,38.34748768726686],[-77.01756872488724,38.445420491994916],[-77.08935460474605,38.40762186560865],[-77.20780130651306,38.35951452293522],[-77.25087283442834,38.38270913458134],[-77.27599789237892,38.481500998999984],[-77.23651565845658,38.55194389362893],[-77.18267624856249,38.60091029599295],[-77.11089036870368,38.62668208671086],[-77.12883683866839,38.63527268361683]]]}},{"type":"Feature","id":"24019","properties":{"name":"Dorchester","county_fips":"24019","state_abbr":"MD"},"geometry":{"type":"MultiPolygon","coordinates":[[[[-76.03051287682877,38.14732677935779],[-76.04845934679346,38.12069592894928],[-76.09153087470874,38.114682511115106],[-76.0879415807158,38.19285694295942],[-76.04845934679346,38.204024718937184],[-76.02333428884289,38.17825292821927],[-76.03051287682877,38.14732677935779]]],[[[-76.03051287682877,38.57256132620326],[-75.99103064290642,38.592319699086985],[-75.98385205492055,38.62496396732967],[-75.9443698209982,38.67393036969369],[-75.83669100121001,38.703997458864585],[-75.79720876728767,38.67650754876548],[-75.76131582735827,38.685957205362044],[-75.70747641746418,38.63527268361683],[-75.70029782947829,38.5605344905349],[-75.75772653336533,38.51328620755207],[-75.82233382523825,38.484078178071776],[-75.86181605916059,38.38356819427194],[-75.86181605916059,38.35178298571985],[-75.91565546905468,38.338897090360895],[-75.94078052700527,38.29852128490284],[-75.94078052700527,38.24697770346703],[-75.9694948789488,38.246118643776434],[-76.00897711287112,38.31226623995239],[-75.9694948789488,38.319997777167764],[-75.97308417294173,38.365527940769404],[-76.00179852488525,38.37411853767537],[-76.01615570085701,38.33202461283612],[-76.04845934679346,38.303675643046425],[-76.02692358283582,38.280481031400306],[-76.05922722877229,38.2272193305833],[-76.07358440474404,38.25213206161061],[-76.13460240262403,38.23237368872688],[-76.16690604856048,38.242682405014044],[-76.22433475244752,38.31398435933359],[-76.25663839838398,38.32515213531135],[-76.24945981039811,38.362091702007014],[-76.33560286622865,38.49180971528715],[-76.26381698636986,38.503836550955505],[-76.24587051640516,38.53733987888878],[-76.27458486834868,38.531326461054604],[-76.30688851428513,38.57513850527505],[-76.27817416234163,38.60950089289892],[-76.23510263442634,38.62840020609205],[-76.2135668704687,38.60692371382713],[-76.17049534255342,38.62925926578265],[-76.16690604856048,38.59833311692116],[-76.0879415807158,38.59060157970579],[-76.04128075880759,38.55709825177251],[-76.03051287682877,38.57256132620326]]]]}},{"type":"Feature","id":"24021","properties":{"name":"Frederick","county_fips":"24021","state_abbr":"MD"},"geometry":{"type":"Polygon","coordinates":[[[-77.6779988195882,39.324238555475546],[-77.61698082170821,39.46941964318643],[-77.6241594096941,39.50721826957269],[-77.59903435174351,39.54072159750597],[-77.57031999979999,39.619755089040886],[-77.52006988389884,39.64037252161521],[-77.49135553195532,39.67645302862028],[-77.50930200192002,39.68418456583565],[-77.46981976799768,39.720265072840725],[-77.45905188601886,39.720265072840725],[-77.21856918849188,39.720265072840725],[-77.21497989449894,39.6987885805758],[-77.26164071640716,39.66528525264252],[-77.27599789237892,39.632640984399835],[-77.31189083230832,39.639513461924615],[-77.28676577435775,39.60429201461014],[-77.19703342453424,39.575083985129844],[-77.11089036870368,39.497768612976124],[-77.11447966269662,39.45996998658986],[-77.14678330863309,39.41873512144121],[-77.16831907259072,39.35430564464644],[-77.16831907259072,39.35344658495584],[-77.45905188601886,39.220292332913324],[-77.49494482594825,39.25121848177481],[-77.54160564785647,39.26496343682436],[-77.56314141181412,39.30362112290122],[-77.61698082170821,39.30276206321062],[-77.6779988195882,39.324238555475546]]]}},{"type":"Feature","id":"24023","properties":{"name":"Garrett","county_fips":"24023","state_abbr":"MD"},"geometry":{"type":"Polygon","coordinates":[[[-79.47623511005109,39.721124132531315],[-79.39368134821348,39.721124132531315],[-78.92707312913129,39.72284225191251],[-79.06705559485594,39.474574001330005],[-79.09576994679946,39.47285588194881],[-79.14243076870768,39.408426405154046],[-79.25369888248882,39.35688282371823],[-79.27164535245352,39.32939291361913],[-79.28959182241822,39.29932582444824],[-79.3326633503335,39.30018488413884],[-79.45111005210052,39.211701736007356],[-79.48700299202991,39.20568831817317],[-79.47623511005109,39.721124132531315]]]}},{"type":"Feature","id":"24025","properties":{"name":"Harford","county_fips":"24025","state_abbr":"MD"},"geometry":{"type":"Polygon","coordinates":[[[-76.56890697576975,39.721124132531315],[-76.23869192841929,39.72198319222191],[-76.23151334043341,39.72198319222191],[-76.2135668704687,39.68676174490744],[-76.17408463654637,39.66013089449894],[-76.14895957859578,39.619755089040886],[-76.07717369873698,39.54329877657776],[-76.11665593265933,39.49605049359493],[-76.07358440474404,39.4754330610206],[-76.05922722877229,39.4479431509215],[-76.10229875668756,39.435916315253145],[-76.22433475244752,39.35258752526524],[-76.24945981039811,39.37921837567375],[-76.22433475244752,39.42560759896598],[-76.25304910439104,39.4496612703027],[-76.25304910439104,39.411862643916436],[-76.2853527503275,39.36805059969599],[-76.25663839838398,39.3388425702157],[-76.28176345633456,39.29932582444824],[-76.31406710227103,39.389527091960915],[-76.3571386301863,39.389527091960915],[-76.38585298212982,39.45996998658986],[-76.43610309803098,39.502063911429104],[-76.53301403584035,39.544157836268354],[-76.56531768177682,39.6146007308973],[-76.56890697576975,39.721124132531315]]]}},{"type":"Feature","id":"24027","properties":{"name":"Howard","county_fips":"24027","state_abbr":"MD"},"geometry":{"type":"Polygon","coordinates":[[[-77.16831907259072,39.35344658495584],[-77.16831907259072,39.35430564464644],[-77.10012248672487,39.36890965938659],[-77.02474731287313,39.350869405884055],[-76.97090790297902,39.363755301243],[-76.88117555315553,39.35001034619346],[-76.83451473124731,39.3113526601166],[-76.77708602736027,39.29503052599525],[-76.79503249732497,39.266681556205555],[-76.6981215595156,39.21427891507914],[-76.74478238142382,39.17991652745527],[-76.78785390933909,39.128372946019454],[-76.84169331923319,39.10346021499215],[-76.8883541411414,39.130950125091246],[-76.99603296092961,39.166171572405716],[-77.01039013690136,39.20654737786377],[-77.07140813478135,39.2537956608466],[-77.12883683866839,39.26839967558675],[-77.18626554255542,39.34056068959689],[-77.16831907259072,39.35344658495584]]]}},{"type":"Feature","id":"24029","properties":{"name":"Kent","county_fips":"24029","state_abbr":"MD"},"geometry":{"type":"Polygon","coordinates":[[[-76.00179852488525,39.37664119660196],[-75.88694111711116,39.36117812217122],[-75.82233382523825,39.381795554745544],[-75.76849441534415,39.37750025629256],[-75.76131582735827,39.29674864537645],[-75.75772653336533,39.24606412363123],[-75.8079766492665,39.24176882517825],[-75.84028029520294,39.25809095929959],[-75.94078052700527,39.23833258641586],[-76.00897711287112,39.24005070579705],[-76.06999511075111,39.19194336312363],[-76.04845934679346,39.16273533364333],[-76.11665593265933,39.10689645375453],[-76.1597274605746,39.094010558395574],[-76.20279898848989,39.085419961489606],[-76.2135668704687,39.04074885757857],[-76.19920969449694,39.01411800717006],[-76.24228122241222,39.02872202191021],[-76.23151334043341,39.08284278241782],[-76.25304910439104,39.13352730416303],[-76.27817416234163,39.14555413983139],[-76.22074545845459,39.262386257752574],[-76.1776739305393,39.29846676475764],[-76.18485251852519,39.31908419733197],[-76.13460240262403,39.34056068959689],[-76.10947734467345,39.37234589814898],[-76.02333428884289,39.362037181861815],[-76.00179852488525,39.37664119660196]]]}},{"type":"Feature","id":"24031","properties":{"name":"Montgomery","county_fips":"24031","state_abbr":"MD"},"geometry":{"type":"Polygon","coordinates":[[[-77.45905188601886,39.220292332913324],[-77.16831907259072,39.35344658495584],[-77.18626554255542,39.34056068959689],[-77.12883683866839,39.26839967558675],[-77.07140813478135,39.2537956608466],[-77.01039013690136,39.20654737786377],[-76.99603296092961,39.166171572405716],[-76.8883541411414,39.130950125091246],[-76.99244366693667,38.992641514905145],[-77.00321154891549,38.96515160480604],[-77.04269378283783,38.99435963428633],[-77.11806895668957,38.934225455944556],[-77.15037260262602,38.966010664496636],[-77.22215848248483,38.97116502264022],[-77.25087283442834,38.985769037380365],[-77.2472835404354,39.02700390252902],[-77.32983730227302,39.05793005139051],[-77.4626411800118,39.07597030489304],[-77.48417694396943,39.10947363282632],[-77.52006988389884,39.12064140880408],[-77.5164805899059,39.170466870858704],[-77.45905188601886,39.220292332913324]]]}},{"type":"Feature","id":"24033","properties":{"name":"Prince George's","county_fips":"24033","state_abbr":"MD"},"geometry":{"type":"Polygon","coordinates":[[[-77.03910448884488,38.785608129471285],[-77.03910448884488,38.79162154730547],[-76.90988990509905,38.892990590795904],[-77.00321154891549,38.96515160480604],[-76.99244366693667,38.992641514905145],[-76.8883541411414,39.130950125091246],[-76.84169331923319,39.10346021499215],[-76.83810402524026,39.07167500644006],[-76.7519609694097,39.03473543974439],[-76.6981215595156,38.98405091799918],[-76.69094297152971,38.924775799347984],[-76.66940720757208,38.90673554584545],[-76.69094297152971,38.85948726286262],[-76.70171085350853,38.78818530854308],[-76.68735367753678,38.74866856277562],[-76.70171085350853,38.71086993638936],[-76.67299650156501,38.61723243011429],[-76.67658579555795,38.53562175950759],[-76.74119308743087,38.5588163711537],[-76.74837167541675,38.61809148980489],[-76.86322908319083,38.658467295262945],[-76.96731860898609,38.66104447433474],[-77.02115801888019,38.64644045959459],[-77.04628307683076,38.616373370423695],[-77.0857653107531,38.70571557824577],[-77.04269378283783,38.71860147360473],[-77.03910448884488,38.785608129471285]]]}},{"type":"Feature","id":"24035","properties":{"name":"Queen Anne's","county_fips":"24035","state_abbr":"MD"},"geometry":{"type":"Polygon","coordinates":[[[-76.1597274605746,39.094010558395574],[-76.11665593265933,39.10689645375453],[-76.04845934679346,39.16273533364333],[-76.06999511075111,39.19194336312363],[-76.00897711287112,39.24005070579705],[-75.94078052700527,39.23833258641586],[-75.84028029520294,39.25809095929959],[-75.8079766492665,39.24176882517825],[-75.75772653336533,39.24606412363123],[-75.7469586513865,39.142976960759604],[-75.83669100121001,39.108614573135725],[-75.84745888318884,39.07167500644006],[-75.89053041110411,39.01841330562305],[-75.94078052700527,38.9763193807838],[-75.94795911499115,38.91876238151381],[-76.09153087470874,38.94453417223171],[-76.11665593265933,38.91360802337023],[-76.10229875668756,38.88268187450874],[-76.16331675456755,38.87924563574635],[-76.19920969449694,38.850896665956654],[-76.20279898848989,38.928212038110374],[-76.23151334043341,38.942816052850524],[-76.29253133831338,38.90244024739247],[-76.33560286622865,38.90587648615485],[-76.33201357223572,38.8646416210062],[-76.375085100151,38.850037606266056],[-76.36072792417924,38.939379814088134],[-76.3032992202922,39.02614484283842],[-76.27817416234163,38.98233279861798],[-76.20279898848989,38.972883142021416],[-76.16331675456755,38.99951399242992],[-76.18485251852519,39.04590321572215],[-76.1597274605746,39.094010558395574]]]}},{"type":"Feature","id":"24039","properties":{"name":"Somerset","county_fips":"24039","state_abbr":"MD"},"geometry":{"type":"MultiPolygon","coordinates":[[[[-75.86540535315353,38.238387106561056],[-75.75054794537945,38.284776329853294],[-75.75054794537945,38.283917270162696],[-75.75054794537945,38.283917270162696],[-75.75054794537945,38.284776329853294],[-75.72183359343593,38.26673607635076],[-75.66440488954889,38.29852128490284],[-75.61415477364774,38.27876291201911],[-75.60697618566185,38.24869582284822],[-75.54595818778188,38.17911198790987],[-75.57826183371833,38.1438905405954],[-75.54236889378893,38.08976978008779],[-75.58185112771127,38.06829328782287],[-75.61774406764067,38.072588586275856],[-75.65722630156301,38.02963560174601],[-75.62492265562655,37.99441415443154],[-75.64645841958419,37.94716587144871],[-75.66799418354184,37.95060211021109],[-75.71465500545006,37.976373900929005],[-75.78285159131592,37.972937662166615],[-75.86181605916059,37.917957841968416],[-75.89411970509705,37.91709878227782],[-75.89770899908999,37.97465578154781],[-75.87258394113941,38.03478995988959],[-75.81156594325942,38.0588436312263],[-75.87258394113941,38.0605617506075],[-75.86540535315353,38.09921943668436],[-75.82592311923119,38.13358182430824],[-75.90129829308293,38.14131336152361],[-75.9443698209982,38.11296439173391],[-75.95872699696997,38.13701806307063],[-75.94078052700527,38.18684352512525],[-75.84745888318884,38.21003813677136],[-75.86540535315353,38.238387106561056]]],[[[-75.99461993689937,37.953179289282886],[-76.04487005280052,37.953179289282886],[-76.04845934679346,38.015031587005865],[-76.01974499484994,38.039085258342574],[-75.9802627609276,38.0047228707187],[-75.99461993689937,37.953179289282886]]],[[[-76.04845934679346,38.12069592894928],[-76.03051287682877,38.14732677935779],[-76.00538781887819,38.076883884728844],[-76.05922722877229,38.09492413823138],[-76.04845934679346,38.12069592894928]]]]}},{"type":"Feature","id":"24037","properties":{"name":"St. Mary's","county_fips":"24037","state_abbr":"MD"},"geometry":{"type":"Polygon","coordinates":[[[-76.67299650156501,38.49954125250252],[-76.65505003160031,38.465178864878645],[-76.60838920969209,38.42480305942059],[-76.5007103899039,38.37240041829418],[-76.47199603796038,38.32429307562075],[-76.45404956799568,38.29336692675926],[-76.40379945209452,38.311407180261796],[-76.375085100151,38.29938034459344],[-76.40021015810157,38.25900453913538],[-76.38585298212982,38.21776967398673],[-76.3212456902569,38.138736182451815],[-76.3391921602216,38.119836869258684],[-76.3212456902569,38.03650807927079],[-76.35354933619335,38.05283021339213],[-76.3930315701157,38.10265567544675],[-76.42174592205922,38.10609191420914],[-76.43969239202391,38.16107173440734],[-76.46840674396744,38.153340197191966],[-76.47558533195331,38.10437379482794],[-76.5007103899039,38.13701806307063],[-76.52942474184742,38.134440883998835],[-76.54737121181212,38.17567574914749],[-76.5904427397274,38.21433343522435],[-76.67299650156501,38.234091808108076],[-76.79862179131791,38.23666898717987],[-76.82733614326143,38.34748768726686],[-76.84887190721906,38.35521922448224],[-76.87399696516965,38.380991015200145],[-76.82015755527556,38.434252716017156],[-76.77349673336734,38.50899090909908],[-76.67299650156501,38.49954125250252]]]}},{"type":"Feature","id":"24041","properties":{"name":"Talbot","county_fips":"24041","state_abbr":"MD"},"geometry":{"type":"MultiPolygon","coordinates":[[[[-76.19920969449694,38.850896665956654],[-76.16331675456755,38.87924563574635],[-76.10229875668756,38.88268187450874],[-76.11665593265933,38.91360802337023],[-76.09153087470874,38.94453417223171],[-75.94795911499115,38.91876238151381],[-75.94795911499115,38.884399993889936],[-75.89770899908999,38.812238979879794],[-75.96590558495585,38.77959471163711],[-76.01615570085701,38.72891018989189],[-75.9443698209982,38.67393036969369],[-75.98385205492055,38.62496396732967],[-75.99103064290642,38.592319699086985],[-76.03051287682877,38.57256132620326],[-76.08435228672286,38.62496396732967],[-76.14537028460285,38.63699080299802],[-76.17408463654637,38.673071310003095],[-76.19920969449694,38.6704941309313],[-76.25663839838398,38.73664172710726],[-76.27458486834868,38.71258805577055],[-76.31765639626396,38.72976924958249],[-76.3212456902569,38.67908472783727],[-76.34637074820748,38.685957205362044],[-76.33560286622865,38.77272223411234],[-76.27099557435574,38.85175572564725],[-76.22074545845459,38.81309803957039],[-76.19203110651107,38.82168863647636],[-76.19920969449694,38.850896665956654]]],[[[-76.39662086410864,38.77100411473114],[-76.37867439414394,38.78818530854308],[-76.36072792417924,38.74866856277562],[-76.39662086410864,38.77100411473114]]]]}},{"type":"Feature","id":"24043","properties":{"name":"Washington","county_fips":"24043","state_abbr":"MD"},"geometry":{"type":"Polygon","coordinates":[[[-78.34201820828208,39.72284225191251],[-78.09794621676217,39.72284225191251],[-77.46981976799768,39.720265072840725],[-77.50930200192002,39.68418456583565],[-77.49135553195532,39.67645302862028],[-77.52006988389884,39.64037252161521],[-77.57031999979999,39.619755089040886],[-77.59903435174351,39.54072159750597],[-77.6241594096941,39.50721826957269],[-77.61698082170821,39.46941964318643],[-77.6779988195882,39.324238555475546],[-77.72107034750347,39.32166137640376],[-77.75696328743287,39.33368821207211],[-77.73542752347524,39.38780897257972],[-77.75337399343994,39.424748539275384],[-77.78567763937639,39.43505725556255],[-77.79644552135521,39.481446478854785],[-77.82515987329873,39.494332374213734],[-77.82515987329873,39.52955382152821],[-77.86105281322813,39.51409074709746],[-77.88976716517165,39.55790279131791],[-77.8323384612846,39.57078868667686],[-77.8323384612846,39.60257389522894],[-77.88258857718577,39.59913765646656],[-77.94360657506574,39.61889602935029],[-78.00821386693866,39.601714835538345],[-78.02257104291043,39.619755089040886],[-78.09794621676217,39.678171148001475],[-78.18408927259273,39.69535234181341],[-78.26664303443034,39.61889602935029],[-78.3348396202962,39.636077223162225],[-78.34201820828208,39.67559396892968],[-78.31330385633856,39.69277516274162],[-78.34201820828208,39.72284225191251]]]}},{"type":"Feature","id":"24045","properties":{"name":"Wicomico","county_fips":"24045","state_abbr":"MD"},"geometry":{"type":"Polygon","coordinates":[[[-75.86181605916059,38.35178298571985],[-75.86181605916059,38.38356819427194],[-75.82233382523825,38.484078178071776],[-75.75772653336533,38.51328620755207],[-75.70029782947829,38.5605344905349],[-75.69311924149241,38.46002450673506],[-75.3413684301843,38.45229296951969],[-75.31624337223371,38.404185626846264],[-75.33060054820548,38.380991015200145],[-75.3054754902549,38.35436016479164],[-75.37367207612076,38.28993068799687],[-75.61415477364774,38.27876291201911],[-75.66440488954889,38.29852128490284],[-75.72183359343593,38.26673607635076],[-75.75054794537945,38.284776329853294],[-75.75054794537945,38.283917270162696],[-75.75054794537945,38.283917270162696],[-75.75054794537945,38.284776329853294],[-75.86540535315353,38.238387106561056],[-75.90129829308293,38.23237368872688],[-75.90488758707586,38.29766222521224],[-75.86181605916059,38.35178298571985]]]}},{"type":"Feature","id":"24047","properties":{"name":"Worcester","county_fips":"24047","state_abbr":"MD"},"geometry":{"type":"Polygon","coordinates":[[[-75.61415477364774,38.27876291201911],[-75.37367207612076,38.28993068799687],[-75.3054754902549,38.35436016479164],[-75.33060054820548,38.380991015200145],[-75.31624337223371,38.404185626846264],[-75.3413684301843,38.45229296951969],[-75.05063561675617,38.45143390982909],[-75.0542249107491,38.41449434313343],[-75.08652855668556,38.32429307562075],[-75.10447502665026,38.311407180261796],[-75.17626090650906,38.13014558554585],[-75.24086819838197,38.02705842267422],[-75.62492265562655,37.99441415443154],[-75.65722630156301,38.02963560174601],[-75.61774406764067,38.072588586275856],[-75.58185112771127,38.06829328782287],[-75.54236889378893,38.08976978008779],[-75.57826183371833,38.1438905405954],[-75.54595818778188,38.17911198790987],[-75.60697618566185,38.24869582284822],[-75.61415477364774,38.27876291201911]]]}}]}