{"type":"FeatureCollection","features":[{"type":"Feature","id":"23001","properties":{"name":"Androscoggin","county_fips":"23001","state_abbr":"ME"},"geometry":{"type":"Polygon","coordinates":[[[-70.23739237222372,44.45883832617326],[-70.20149943229433,44.47773763936639],[-70.12971355243552,44.487187295962954],[-70.100999200492,44.38410013309132],[-70.13330284642846,44.37121423773237],[-70.07587414254142,44.298194164031635],[-70.07587414254142,44.206274777137764],[-69.9933203807038,44.18050298641986],[-70.02562402664026,44.13067752436524],[-70.00408826268263,44.12466410653106],[-70.05074908459085,43.99065079479794],[-70.03280261462615,43.97604678005779],[-70.07946343653437,43.92622131800317],[-70.1189456704567,43.90818106450064],[-70.19791013830138,43.9459796908869],[-70.3163568400684,44.037040018090174],[-70.36301766197661,43.986355496344956],[-70.40249989589896,43.989791735107346],[-70.48146436374364,44.03188565994659],[-70.48505365773657,44.06023462973629],[-70.33430331003309,44.21057007559075],[-70.32353542805429,44.20799289651896],[-70.26610672416724,44.3626236408264],[-70.27328531215312,44.44079807267072],[-70.23739237222372,44.45883832617326]]]}},{"type":"Feature","id":"23003","properties":{"name":"Aroostook","county_fips":"23003","state_abbr":"ME"},"geometry":{"type":"Polygon","coordinates":[[[-67.80385104501045,45.680421206202055],[-68.04792303653036,45.640045400744],[-68.25969138211381,45.60482395342952],[-68.25610208812088,45.59795147590475],[-68.4104417298173,45.573038744877444],[-68.43197749377494,45.57819310302102],[-68.42479890578906,45.87113245751457],[-68.43556678776788,46.042944395633945],[-68.43556678776788,46.382272973419724],[-68.69399595525955,46.382272973419724],[-68.69399595525955,46.39515886877868],[-68.81962124501244,46.39601792846928],[-68.81962124501244,46.57212516504164],[-69.72053403724037,46.573843284422836],[-70.02203473264733,46.573843284422836],[-69.99690967469675,46.694970700797],[-69.22521146621466,47.459533825428245],[-69.17855064430644,47.45695664635645],[-69.08163970649706,47.424312378113775],[-69.04215747257473,47.42774861687616],[-69.05292535455355,47.37792315482154],[-69.0493360605606,47.25679573844738],[-69.03497888458884,47.24133266401663],[-68.90217500685007,47.178621306603056],[-68.81244265702657,47.21556087329873],[-68.71912101321013,47.24133266401663],[-68.61862078140781,47.24305078339783],[-68.57913854748547,47.28772188730886],[-68.47145972769728,47.29717154390543],[-68.38172737787377,47.28686282761827],[-68.38172737787377,47.340124528435275],[-68.32429867398673,47.359882901319004],[-68.23456632416324,47.354728543175426],[-68.15201256232562,47.32380239431394],[-68.13765538635386,47.29631248421484],[-68.01920868458684,47.23789642525424],[-67.88999410084101,47.124500546095454],[-67.88999410084101,47.1116146507365],[-67.7894938690387,47.06780260651606],[-67.7894938690387,46.59961507514075],[-67.77872598705987,46.004286709557086],[-67.7823152810528,45.943293471524704],[-67.75001163511635,45.9175216808068],[-67.80385104501045,45.88401835287352],[-67.7536009291093,45.823884174531734],[-67.80744033900339,45.79467614505144],[-67.80385104501045,45.680421206202055]]]}},{"type":"Feature","id":"23005","properties":{"name":"Cumberland","county_fips":"23005","state_abbr":"ME"},"geometry":{"type":"Polygon","coordinates":[[[-70.48146436374364,44.03188565994659],[-70.40249989589896,43.989791735107346],[-70.36301766197661,43.986355496344956],[-70.3163568400684,44.037040018090174],[-70.19791013830138,43.9459796908869],[-70.1189456704567,43.90818106450064],[-70.07946343653437,43.92622131800317],[-70.03280261462615,43.97604678005779],[-69.97896320473204,43.91505354202541],[-69.93230238282382,43.91161730326303],[-69.8748736789368,43.95371122810227],[-69.85692720897208,43.9451206311963],[-69.89640944289442,43.86608713966139],[-69.8748736789368,43.851483124921245],[-69.8856415609156,43.77674493183931],[-69.92871308883089,43.7801811706017],[-69.98255249872498,43.744100663596626],[-70.00049896868968,43.71059733566335],[-70.07228484854848,43.714033574425734],[-70.09740990649907,43.67193964958649],[-70.16919578635786,43.675375888348874],[-70.20508872628726,43.63328196350963],[-70.21585660826608,43.590328978979784],[-70.19791013830138,43.56541624795247],[-70.2266244902449,43.53792633785337],[-70.27328531215312,43.562839068880685],[-70.3522497799978,43.53534915878158],[-70.49223224572246,43.60665111310112],[-70.45633930579305,43.6427316201062],[-70.54607165561656,43.71317451473514],[-70.57837530155301,43.68740272401723],[-70.6573397693977,43.701147679066786],[-70.64298259342593,43.75526843957439],[-70.65375047540475,43.78791270781707],[-70.69682200332004,43.80509390162901],[-70.76501858918589,43.79220800627006],[-70.78296505915058,43.81454355822557],[-70.79732223512235,43.863509960589596],[-70.74348282522826,43.88584551254512],[-70.75784000120001,43.90646294511944],[-70.71476847328474,43.96144276531765],[-70.7937329411294,44.040476256852564],[-70.84757235102352,44.04992591344913],[-70.85834023300232,44.09545607705076],[-70.82244729307293,44.07741582354823],[-70.62503612346123,44.17105332982329],[-70.5855538895389,44.12380504684046],[-70.60708965349653,44.10146949488494],[-70.59632177151771,44.03188565994659],[-70.54248236162361,44.00525480953809],[-70.51017871568716,44.04133531654316],[-70.48146436374364,44.03188565994659]]]}},{"type":"Feature","id":"23007","properties":{"name":"Franklin","county_fips":"23007","state_abbr":"ME"},"geometry":{"type":"Polygon","coordinates":[[[-70.55325024360243,45.6675353108431],[-70.50658942169422,45.51376362622626],[-70.51735730367304,45.51204550684506],[-70.41685707187072,45.14436795926959],[-70.31276754607546,45.16498539184391],[-70.29482107611076,45.11000557164571],[-70.15842790437904,45.12804582514824],[-70.11176708247082,44.94764329012289],[-70.15124931639316,44.941629872288715],[-70.12971355243552,44.85056954508544],[-70.03280261462615,44.864314500134995],[-69.99690967469675,44.67789854727547],[-69.96101673476734,44.68133478603785],[-69.92871308883089,44.610891891408905],[-69.95383814678146,44.57481138440384],[-70.03998120261203,44.58855633945339],[-70.07228484854848,44.529281220802204],[-70.03639190861908,44.50780472853728],[-70.04357049660497,44.48546917658176],[-70.12971355243552,44.487187295962954],[-70.20149943229433,44.47773763936639],[-70.23739237222372,44.45883832617326],[-70.25174954819548,44.50350943008429],[-70.280463900139,44.50522754946549],[-70.280463900139,44.56965702626025],[-70.54966094960949,44.610891891408905],[-70.51017871568716,44.62721402553025],[-70.6142682414824,44.79558972488724],[-70.76860788317883,44.73201930778307],[-70.77219717717178,44.83940176910768],[-70.80450082310823,44.925307738167376],[-70.82244729307293,45.01379088629886],[-70.77937576515765,45.01808618475184],[-70.83321517505175,45.27494503224032],[-70.8116794110941,45.30243494233942],[-70.80450082310823,45.37631407573075],[-70.82603658706587,45.40036774706746],[-70.78296505915058,45.43129389592895],[-70.75425070720706,45.42871671685716],[-70.71117917929179,45.3909180904709],[-70.63580400544005,45.38318655325553],[-70.63221471144712,45.4166898811888],[-70.71835776727767,45.487991835508346],[-70.72194706127061,45.515481745607445],[-70.64298259342593,45.607401132501316],[-70.59273247752478,45.630595744147435],[-70.55325024360243,45.6675353108431]]]}},{"type":"Feature","id":"23009","properties":{"name":"Hancock","county_fips":"23009","state_abbr":"ME"},"geometry":{"type":"MultiPolygon","coordinates":[[[[-68.37095949589495,44.19338888177881],[-68.3207093799938,44.19940229961299],[-68.34583443794438,44.1693352104421],[-68.37095949589495,44.19338888177881]]],[[[-68.5001740796408,44.159885553845534],[-68.47504902169021,44.23118750816507],[-68.45351325773258,44.20197947868478],[-68.38531667186672,44.15473119570195],[-68.43915608176081,44.11607350962509],[-68.45710255172551,44.14528153910538],[-68.5001740796408,44.159885553845534]]],[[[-68.52888843158432,44.344583387323866],[-68.5181205496055,44.38066389432893],[-68.47863831568316,44.31967065629656],[-68.52888843158432,44.344583387323866]]],[[[-68.84115700897009,44.236341866308656],[-68.79090689306894,44.23805998568985],[-68.78013901109011,44.202838538375374],[-68.84115700897009,44.236341866308656]]],[[[-68.81603195101951,44.683911965109644],[-68.74424607116072,44.660717353463525],[-68.6904066612666,44.721710591495906],[-68.64733513335133,44.70367033799337],[-68.61503148741487,44.74060990468904],[-68.44633466974669,44.76294545664456],[-68.5001740796408,44.98114661805617],[-68.3745487898879,44.99746875217751],[-68.39608455384554,45.083374721237206],[-68.27045926409264,45.099696855358545],[-68.3027629100291,45.22168333142331],[-68.05510162451624,45.2526094802848],[-68.02279797857979,45.14350889957899],[-67.98331574465745,44.956233887028866],[-68.1053517404174,44.93905269321692],[-68.03356586055861,44.67446230851308],[-68.0156193905939,44.67703948758487],[-67.99408362663627,44.59199257821577],[-68.0156193905939,44.58941539914398],[-67.98331574465745,44.4734423409134],[-67.95819068670687,44.41502628195281],[-67.98690503865039,44.386677312163116],[-68.00485150861509,44.409871923809234],[-68.04792303653036,44.33083843227431],[-68.1053517404174,44.364341760207594],[-68.1053517404174,44.395267909069084],[-68.1412446803468,44.37722765556655],[-68.18072691426914,44.38495919278192],[-68.17354832628327,44.32826125320253],[-68.2309770301703,44.267268015170146],[-68.19149479624797,44.23891904538045],[-68.31712008600086,44.225174090330896],[-68.39967384783847,44.252664000429995],[-68.45710255172551,44.344583387323866],[-68.43556678776788,44.36949611835118],[-68.3566023199232,44.39269072999729],[-68.38890596585966,44.43134841607415],[-68.43556678776788,44.40128132690326],[-68.42838819978199,44.43907995328953],[-68.46428113971139,44.436502774217736],[-68.46069184571846,44.37808671525715],[-68.47863831568316,44.37808671525715],[-68.47863831568316,44.433066535455346],[-68.56478137151372,44.38495919278192],[-68.54683490154902,44.35489210361103],[-68.56837066550665,44.317952536915364],[-68.5181205496055,44.26039553764537],[-68.52888843158432,44.221737851568506],[-68.61144219342194,44.155590255392546],[-68.57913854748547,44.14614059879598],[-68.62221007540076,44.1126372708627],[-68.65810301533016,44.12036880807808],[-68.71912101321013,44.16589897167971],[-68.7334781891819,44.22087879187791],[-68.67963877928779,44.26469083609835],[-68.74783536515365,44.29905322372223],[-68.726299601196,44.32138877567775],[-68.76219254112542,44.32997937258372],[-68.82679983299833,44.31193911908118],[-68.82321053900539,44.40901286411864],[-68.78372830508305,44.4468114905049],[-68.78013901109011,44.48976447503474],[-68.80167477504774,44.52498592234922],[-68.81244265702657,44.57309326502264],[-68.84833559695596,44.61948248831487],[-68.81603195101951,44.683911965109644]]]]}},{"type":"Feature","id":"23011","properties":{"name":"Kennebec","county_fips":"23011","state_abbr":"ME"},"geometry":{"type":"Polygon","coordinates":[[[-70.12971355243552,44.487187295962954],[-70.04357049660497,44.48546917658176],[-70.03639190861908,44.50780472853728],[-70.07228484854848,44.529281220802204],[-70.03998120261203,44.58855633945339],[-69.95383814678146,44.57481138440384],[-69.92871308883089,44.610891891408905],[-69.85333791497915,44.62120060769607],[-69.79231991709916,44.57738856347563],[-69.77796274112741,44.60831471233712],[-69.60567662946629,44.57738856347563],[-69.58055157151571,44.62120060769607],[-69.62721239342393,44.671885129441286],[-69.62721239342393,44.70109315892158],[-69.48364063370633,44.71999247211471],[-69.47287275172752,44.69250256201561],[-69.444158399784,44.67274418913188],[-69.4621048697487,44.64697239841398],[-69.39390828388284,44.6400999208892],[-69.41544404784048,44.55075771306712],[-69.3723725199252,44.544744295232945],[-69.39749757787578,44.45712020679206],[-69.444158399784,44.463992684316835],[-69.50517639766397,44.34286526794267],[-69.52312286762867,44.2801539105291],[-69.54824792557926,44.26125459733596],[-69.64874815738158,44.279294850838504],[-69.66669462734627,44.22775126940269],[-69.65592674536745,44.125523166221654],[-69.75642697716977,44.13926812127121],[-69.76360556515564,44.153013076320754],[-69.85333791497915,44.167617091060904],[-69.89640944289442,44.10748291271912],[-70.00408826268263,44.12466410653106],[-70.02562402664026,44.13067752436524],[-69.9933203807038,44.18050298641986],[-70.07587414254142,44.206274777137764],[-70.07587414254142,44.298194164031635],[-70.13330284642846,44.37121423773237],[-70.100999200492,44.38410013309132],[-70.12971355243552,44.487187295962954]]]}},{"type":"Feature","id":"23013","properties":{"name":"Knox","county_fips":"23013","state_abbr":"ME"},"geometry":{"type":"MultiPolygon","coordinates":[[[[-68.65810301533016,44.12036880807808],[-68.62221007540076,44.1126372708627],[-68.58272784147842,44.07140240571405],[-68.60067431144311,44.01212728706286],[-68.65810301533016,44.00353669015689],[-68.66887089730898,44.07655676385763],[-68.65810301533016,44.12036880807808]]],[[[-68.91294288882888,43.85320124430243],[-68.88422853688537,43.88498645285452],[-68.88063924289243,43.820556976059756],[-68.91294288882888,43.85320124430243]]],[[[-68.94524653476535,44.1126372708627],[-68.91653218282183,44.147858718177176],[-68.82679983299833,44.186516404254036],[-68.78731759907599,44.14356341972419],[-68.81962124501244,44.136690942199415],[-68.76937112911129,44.06968428633286],[-68.80885336303363,44.03618095839958],[-68.87346065490655,44.025013182421816],[-68.91653218282183,44.04563061499614],[-68.89858571285713,44.067107107261066],[-68.90935359483595,44.11006009179091],[-68.94524653476535,44.1126372708627]]],[[[-69.40826545985459,44.32826125320253],[-69.40108687186871,44.34286526794267],[-69.34724746197462,44.3085028803188],[-69.26828299412993,44.364341760207594],[-69.1211219404194,44.25524117950179],[-69.02780029660296,44.24922776166761],[-69.05292535455355,44.171912389513885],[-69.09958617646177,44.10490573364733],[-69.03138959059591,44.079133942929424],[-69.07805041250413,44.05508027159271],[-69.04215747257473,44.006113869228685],[-69.07805041250413,43.973469600986],[-69.1749613503135,43.97690583974839],[-69.22162217222171,43.91505354202541],[-69.27546158211582,43.914194482334814],[-69.2826401701017,43.86436902028019],[-69.32212240402404,43.85663748306482],[-69.32212240402404,43.901308586975865],[-69.29699734607345,43.933093795527945],[-69.32930099200992,43.9459796908869],[-69.34006887398874,43.920207900169],[-69.38314040190401,43.909040124191236],[-69.37596181391814,43.96144276531765],[-69.36519393193932,44.01298634675346],[-69.32930099200992,44.006113869228685],[-69.32212240402404,44.033603779327784],[-69.2826401701017,44.052503092520915],[-69.31135452204522,44.09545607705076],[-69.30417593405934,44.13239564374643],[-69.3364795799958,44.209711015900155],[-69.40467616586166,44.21057007559075],[-69.43339051780518,44.22689220971209],[-69.45133698776988,44.313657238462376],[-69.40826545985459,44.32826125320253]]]]}},{"type":"Feature","id":"23015","properties":{"name":"Lincoln","county_fips":"23015","state_abbr":"ME"},"geometry":{"type":"MultiPolygon","coordinates":[[[[-69.75642697716977,44.13926812127121],[-69.65592674536745,44.125523166221654],[-69.66669462734627,44.22775126940269],[-69.64874815738158,44.279294850838504],[-69.54824792557926,44.26125459733596],[-69.52312286762867,44.2801539105291],[-69.50517639766397,44.34286526794267],[-69.40826545985459,44.32826125320253],[-69.45133698776988,44.313657238462376],[-69.43339051780518,44.22689220971209],[-69.40467616586166,44.21057007559075],[-69.3364795799958,44.209711015900155],[-69.30417593405934,44.13239564374643],[-69.31135452204522,44.09545607705076],[-69.2826401701017,44.052503092520915],[-69.32212240402404,44.033603779327784],[-69.32930099200992,44.006113869228685],[-69.36519393193932,44.01298634675346],[-69.37596181391814,43.96144276531765],[-69.42980122381223,43.95714746686466],[-69.4262119298193,43.91247636295362],[-69.48364063370633,43.88069115440154],[-69.50158710367104,43.83773816987169],[-69.54465863158632,43.88155021409214],[-69.55183721957219,43.84117440863408],[-69.60567662946629,43.813684498534975],[-69.64874815738158,43.8360200504905],[-69.6595160393604,43.7793221109111],[-69.69899827328273,43.824852274512736],[-69.74206980119801,43.89357704976049],[-69.70617686126862,43.92708037769377],[-69.72053403724037,43.970892421914215],[-69.69899827328273,44.00697292891928],[-69.81385568105681,44.02587224211241],[-69.78873062310623,44.04219437623375],[-69.75642697716977,44.13926812127121]]]]}},{"type":"Feature","id":"23017","properties":{"name":"Oxford","county_fips":"23017","state_abbr":"ME"},"geometry":{"type":"Polygon","coordinates":[[[-70.83321517505175,45.27494503224032],[-70.77937576515765,45.01808618475184],[-70.82244729307293,45.01379088629886],[-70.80450082310823,44.925307738167376],[-70.77219717717178,44.83940176910768],[-70.76860788317883,44.73201930778307],[-70.6142682414824,44.79558972488724],[-70.51017871568716,44.62721402553025],[-70.54966094960949,44.610891891408905],[-70.280463900139,44.56965702626025],[-70.280463900139,44.50522754946549],[-70.25174954819548,44.50350943008429],[-70.23739237222372,44.45883832617326],[-70.27328531215312,44.44079807267072],[-70.26610672416724,44.3626236408264],[-70.32353542805429,44.20799289651896],[-70.33430331003309,44.21057007559075],[-70.48505365773657,44.06023462973629],[-70.48146436374364,44.03188565994659],[-70.51017871568716,44.04133531654316],[-70.54248236162361,44.00525480953809],[-70.59632177151771,44.03188565994659],[-70.60708965349653,44.10146949488494],[-70.5855538895389,44.12380504684046],[-70.62503612346123,44.17105332982329],[-70.82244729307293,44.07741582354823],[-70.85834023300232,44.09545607705076],[-70.84757235102352,44.04992591344913],[-70.7937329411294,44.040476256852564],[-70.71476847328474,43.96144276531765],[-70.75784000120001,43.90646294511944],[-70.74348282522826,43.88584551254512],[-70.79732223512235,43.863509960589596],[-70.78296505915058,43.81454355822557],[-70.88705458494584,43.8068120210102],[-70.95884046480465,43.78533552874528],[-70.98755481674817,43.79220800627006],[-71.0090905807058,44.28530826867268],[-71.03062634466345,44.65556299531995],[-71.08446575455754,45.30587118110181],[-71.0090905807058,45.318757076460756],[-71.0090905807058,45.34710604625045],[-70.91935823088231,45.31188459893598],[-70.92294752487524,45.2792403306933],[-70.89782246692467,45.24230076399763],[-70.85834023300232,45.22941486863868],[-70.83321517505175,45.27494503224032]]]}},{"type":"Feature","id":"23019","properties":{"name":"Penobscot","county_fips":"23019","state_abbr":"ME"},"geometry":{"type":"Polygon","coordinates":[[[-69.3544260499605,45.07306600495004],[-68.85551418494185,45.14264983988839],[-68.88063924289243,45.2251195701857],[-68.77654971709717,45.24058264461644],[-68.85551418494185,45.527508581275804],[-68.96319300473004,45.51204550684506],[-68.95242512275122,45.58162934178341],[-68.9596037107371,45.66238095269952],[-68.82679983299833,45.684716504655036],[-68.81962124501244,46.39601792846928],[-68.69399595525955,46.39515886877868],[-68.69399595525955,46.382272973419724],[-68.43556678776788,46.382272973419724],[-68.43556678776788,46.042944395633945],[-68.42479890578906,45.87113245751457],[-68.43197749377494,45.57819310302102],[-68.4104417298173,45.573038744877444],[-68.25610208812088,45.59795147590475],[-68.25969138211381,45.60482395342952],[-68.04792303653036,45.640045400744],[-67.95819068670687,45.353119464084635],[-67.94024421674217,45.26807255471554],[-68.05510162451624,45.2526094802848],[-68.3027629100291,45.22168333142331],[-68.27045926409264,45.099696855358545],[-68.39608455384554,45.083374721237206],[-68.3745487898879,44.99746875217751],[-68.5001740796408,44.98114661805617],[-68.44633466974669,44.76294545664456],[-68.61503148741487,44.74060990468904],[-68.64733513335133,44.70367033799337],[-68.6904066612666,44.721710591495906],[-68.74424607116072,44.660717353463525],[-68.81603195101951,44.683911965109644],[-68.83756771497715,44.70195221861218],[-69.18213993829939,44.64439521934219],[-69.20367570225702,44.72944212871128],[-69.26828299412993,44.721710591495906],[-69.2826401701017,44.80933467993679],[-69.3544260499605,45.07306600495004]]]}},{"type":"Feature","id":"23021","properties":{"name":"Piscataquis","county_fips":"23021","state_abbr":"ME"},"geometry":{"type":"Polygon","coordinates":[[[-69.72053403724037,46.573843284422836],[-68.81962124501244,46.57212516504164],[-68.81962124501244,46.39601792846928],[-68.82679983299833,45.684716504655036],[-68.9596037107371,45.66238095269952],[-68.95242512275122,45.58162934178341],[-68.96319300473004,45.51204550684506],[-68.85551418494185,45.527508581275804],[-68.77654971709717,45.24058264461644],[-68.88063924289243,45.2251195701857],[-68.85551418494185,45.14264983988839],[-69.3544260499605,45.07306600495004],[-69.50158710367104,45.05416669175691],[-69.5159442796428,45.02495866227662],[-69.62003380543806,45.011213707227064],[-69.65592674536745,45.099696855358545],[-69.78155203512036,45.54297165570655],[-69.73130191921919,45.56702532704326],[-69.70258756727567,45.62801856507564],[-69.73848050720507,45.67870308682086],[-69.78514132911329,45.69244804187041],[-69.78155203512036,45.76976341402413],[-69.72771262522625,45.76203187680876],[-69.70617686126862,45.853951263702626],[-69.73848050720507,45.88315929318293],[-69.69899827328273,45.88573647225471],[-69.68464109731097,45.85137408463084],[-69.64874815738158,45.8634009202992],[-69.68464109731097,45.98366927698276],[-69.72771262522625,45.976796799457986],[-69.73130191921919,46.39429980908808],[-69.72053403724037,46.39429980908808],[-69.72053403724037,46.573843284422836]]]}},{"type":"Feature","id":"23023","properties":{"name":"Sagadahoc","county_fips":"23023","state_abbr":"ME"},"geometry":{"type":"Polygon","coordinates":[[[-70.00408826268263,44.12466410653106],[-69.89640944289442,44.10748291271912],[-69.85333791497915,44.167617091060904],[-69.76360556515564,44.153013076320754],[-69.75642697716977,44.13926812127121],[-69.78873062310623,44.04219437623375],[-69.81385568105681,44.02587224211241],[-69.69899827328273,44.00697292891928],[-69.72053403724037,43.970892421914215],[-69.70617686126862,43.92708037769377],[-69.74206980119801,43.89357704976049],[-69.69899827328273,43.824852274512736],[-69.75283768317684,43.744100663596626],[-69.83539144501445,43.720906051950514],[-69.85333791497915,43.70458391782917],[-69.86051650296503,43.75870467833678],[-69.8856415609156,43.77674493183931],[-69.8748736789368,43.851483124921245],[-69.89640944289442,43.86608713966139],[-69.85692720897208,43.9451206311963],[-69.8748736789368,43.95371122810227],[-69.93230238282382,43.91161730326303],[-69.97896320473204,43.91505354202541],[-70.03280261462615,43.97604678005779],[-70.05074908459085,43.99065079479794],[-70.00408826268263,44.12466410653106]]]}},{"type":"Feature","id":"23025","properties":{"name":"Somerset","county_fips":"23025","state_abbr":"ME"},"geometry":{"type":"Polygon","coordinates":[[[-70.55325024360243,45.6675353108431],[-70.52453589165891,45.6666762511525],[-70.47069648176482,45.70189769846698],[-70.38455342593426,45.734541966709656],[-70.41685707187072,45.79553520474204],[-70.34148189801898,45.85223314432144],[-70.25892813618135,45.8908908303983],[-70.24098166621665,45.938998173071724],[-70.26610672416724,45.96305184440843],[-70.3163568400684,45.96305184440843],[-70.3163568400684,46.019749783987834],[-70.280463900139,46.05239405223052],[-70.30917825208252,46.06442088789887],[-70.25533884218842,46.108232932119314],[-70.23739237222372,46.14774967788677],[-70.29123178211782,46.185548304273034],[-70.23380307823078,46.28434016869168],[-70.20508872628726,46.299803243122426],[-70.2086780202802,46.331588451674506],[-70.14766002240022,46.35907836177361],[-70.09740990649907,46.40976288351883],[-70.05792767257672,46.4166353610436],[-70.02203473264733,46.573843284422836],[-69.72053403724037,46.573843284422836],[-69.72053403724037,46.39429980908808],[-69.73130191921919,46.39429980908808],[-69.72771262522625,45.976796799457986],[-69.68464109731097,45.98366927698276],[-69.64874815738158,45.8634009202992],[-69.68464109731097,45.85137408463084],[-69.69899827328273,45.88573647225471],[-69.73848050720507,45.88315929318293],[-69.70617686126862,45.853951263702626],[-69.72771262522625,45.76203187680876],[-69.78155203512036,45.76976341402413],[-69.78514132911329,45.69244804187041],[-69.73848050720507,45.67870308682086],[-69.70258756727567,45.62801856507564],[-69.73130191921919,45.56702532704326],[-69.78155203512036,45.54297165570655],[-69.65592674536745,45.099696855358545],[-69.62003380543806,45.011213707227064],[-69.5159442796428,45.02495866227662],[-69.50158710367104,45.05416669175691],[-69.3544260499605,45.07306600495004],[-69.2826401701017,44.80933467993679],[-69.26828299412993,44.721710591495906],[-69.32571169801697,44.71483811397113],[-69.34365816798167,44.7500595612856],[-69.38672969589696,44.75349580004799],[-69.41544404784048,44.70109315892158],[-69.47287275172752,44.69250256201561],[-69.48364063370633,44.71999247211471],[-69.62721239342393,44.70109315892158],[-69.62721239342393,44.671885129441286],[-69.58055157151571,44.62120060769607],[-69.60567662946629,44.57738856347563],[-69.77796274112741,44.60831471233712],[-69.79231991709916,44.57738856347563],[-69.85333791497915,44.62120060769607],[-69.92871308883089,44.610891891408905],[-69.96101673476734,44.68133478603785],[-69.99690967469675,44.67789854727547],[-70.03280261462615,44.864314500134995],[-70.12971355243552,44.85056954508544],[-70.15124931639316,44.941629872288715],[-70.11176708247082,44.94764329012289],[-70.15842790437904,45.12804582514824],[-70.29482107611076,45.11000557164571],[-70.31276754607546,45.16498539184391],[-70.41685707187072,45.14436795926959],[-70.51735730367304,45.51204550684506],[-70.50658942169422,45.51376362622626],[-70.55325024360243,45.6675353108431]]]}},{"type":"Feature","id":"23027","properties":{"name":"Waldo","county_fips":"23027","state_abbr":"ME"},"geometry":{"type":"MultiPolygon","coordinates":[[[[-68.96678229872299,44.2518049407394],[-68.92012147681477,44.31022099969999],[-68.91294288882888,44.36520081989819],[-68.88063924289243,44.386677312163116],[-68.85910347893478,44.364341760207594],[-68.89140712487125,44.3342746710367],[-68.8878178308783,44.30334852217521],[-68.91653218282183,44.24321434383343],[-68.95242512275122,44.21830161280612],[-68.96678229872299,44.2518049407394]]],[[[-69.47287275172752,44.69250256201561],[-69.41544404784048,44.70109315892158],[-69.38672969589696,44.75349580004799],[-69.34365816798167,44.7500595612856],[-69.32571169801697,44.71483811397113],[-69.26828299412993,44.721710591495906],[-69.20367570225702,44.72944212871128],[-69.18213993829939,44.64439521934219],[-68.83756771497715,44.70195221861218],[-68.81603195101951,44.683911965109644],[-68.84833559695596,44.61948248831487],[-68.81244265702657,44.57309326502264],[-68.80167477504774,44.52498592234922],[-68.83038912699126,44.46227456493564],[-68.88063924289243,44.42791217731177],[-68.92012147681477,44.456261147101465],[-68.94524653476535,44.428771237002366],[-68.99908594465944,44.425334998239975],[-68.94883582875829,44.355751163301626],[-68.9596037107371,44.314516298152974],[-69.00267523865239,44.294757925269245],[-69.02780029660296,44.24922776166761],[-69.1211219404194,44.25524117950179],[-69.26828299412993,44.364341760207594],[-69.34724746197462,44.3085028803188],[-69.40108687186871,44.34286526794267],[-69.40826545985459,44.32826125320253],[-69.50517639766397,44.34286526794267],[-69.444158399784,44.463992684316835],[-69.39749757787578,44.45712020679206],[-69.3723725199252,44.544744295232945],[-69.41544404784048,44.55075771306712],[-69.39390828388284,44.6400999208892],[-69.4621048697487,44.64697239841398],[-69.444158399784,44.67274418913188],[-69.47287275172752,44.69250256201561]]]]}},{"type":"Feature","id":"23029","properties":{"name":"Washington","county_fips":"23029","state_abbr":"ME"},"geometry":{"type":"Polygon","coordinates":[[[-68.05510162451624,45.2526094802848],[-67.94024421674217,45.26807255471554],[-67.95819068670687,45.353119464084635],[-68.04792303653036,45.640045400744],[-67.80385104501045,45.680421206202055],[-67.72129728317283,45.66238095269952],[-67.71052940119401,45.67956214651146],[-67.67463646126461,45.630595744147435],[-67.60643987539875,45.60654207281072],[-67.49876105561056,45.58678369992699],[-67.4485109397094,45.603105834048336],[-67.41979658776587,45.549844133231325],[-67.41620729377294,45.5017367905579],[-67.46286811568116,45.50860926808267],[-67.50235034960349,45.48970995488954],[-67.47722529165291,45.43129389592895],[-67.41979658776587,45.377173135421344],[-67.45210023370234,45.314461778007775],[-67.48799317363174,45.2792403306933],[-67.40543941179412,45.17958940658406],[-67.40543941179412,45.15983103370033],[-67.3408321199212,45.125468646076456],[-67.29417129801298,45.149522317413165],[-67.29058200402004,45.18903906318062],[-67.22597471214712,45.16326727246272],[-67.15777812628126,45.160690093390926],[-67.11111730437304,45.1125827507175],[-67.08958154041541,45.068770706497055],[-67.11829589235892,45.056743870828704],[-67.08240295242952,45.0292539607296],[-67.03933142451424,44.945066111051105],[-66.98549201462015,44.91242184280842],[-66.9819027206272,44.811052799317984],[-67.02497424854248,44.768099814788144],[-67.06086718847189,44.76981793416933],[-67.07522436444364,44.74232802407023],[-67.19008177221772,44.645254279032784],[-67.27622482804829,44.62377778676786],[-67.26186765207652,44.60487847357473],[-67.31570706197061,44.598005996049956],[-67.29417129801298,44.63408650305502],[-67.30852847398474,44.70710657675576],[-67.40543941179412,44.68133478603785],[-67.36236788387883,44.63150932398323],[-67.40543941179412,44.594569757287566],[-67.44492164571646,44.60573753326533],[-67.49158246762468,44.555912071210706],[-67.5382432895329,44.57137514564145],[-67.5741362294623,44.561066429354284],[-67.5669576414764,44.53099934018339],[-67.50952893758938,44.49663695255952],[-67.58849340543405,44.4476705501955],[-67.63515422734227,44.487187295962954],[-67.65668999129991,44.53615369832698],[-67.70335081320813,44.52756310142101],[-67.71411869518695,44.494918833178325],[-67.74283304713047,44.49749601225012],[-67.76795810508105,44.548180533995335],[-67.79308316303162,44.494918833178325],[-67.82538680896809,44.48289199750997],[-67.85410116091161,44.4193215804058],[-67.87922621886219,44.43564371452714],[-67.90076198281983,44.394408849378486],[-67.91511915879158,44.43048935638355],[-67.95819068670687,44.41502628195281],[-67.98331574465745,44.4734423409134],[-68.0156193905939,44.58941539914398],[-67.99408362663627,44.59199257821577],[-68.0156193905939,44.67703948758487],[-68.03356586055861,44.67446230851308],[-68.1053517404174,44.93905269321692],[-67.98331574465745,44.956233887028866],[-68.02279797857979,45.14350889957899],[-68.05510162451624,45.2526094802848]]]}},{"type":"Feature","id":"23031","properties":{"name":"York","county_fips":"23031","state_abbr":"ME"},"geometry":{"type":"Polygon","coordinates":[[[-70.98755481674817,43.79220800627006],[-70.95884046480465,43.78533552874528],[-70.88705458494584,43.8068120210102],[-70.78296505915058,43.81454355822557],[-70.76501858918589,43.79220800627006],[-70.69682200332004,43.80509390162901],[-70.65375047540475,43.78791270781707],[-70.64298259342593,43.75526843957439],[-70.6573397693977,43.701147679066786],[-70.57837530155301,43.68740272401723],[-70.54607165561656,43.71317451473514],[-70.45633930579305,43.6427316201062],[-70.49223224572246,43.60665111310112],[-70.3522497799978,43.53534915878158],[-70.38455342593426,43.49669147270472],[-70.36301766197661,43.43913447343473],[-70.39173201392013,43.40219490673906],[-70.42762495384953,43.38930901138011],[-70.41685707187072,43.36096004159041],[-70.46710718777187,43.34034260901608],[-70.51735730367304,43.343778847778474],[-70.55325024360243,43.32230235551355],[-70.59273247752478,43.23811450583505],[-70.57478600756008,43.22179237171371],[-70.62503612346123,43.15306759646596],[-70.6214468294683,43.13416828327283],[-70.67169694536945,43.070597866168654],[-70.70400059130591,43.059430090190894],[-70.81885799908,43.12300050729507],[-70.8296258810588,43.18828904378043],[-70.80809011710117,43.224369550785504],[-70.9552511708117,43.33432919118191],[-70.98755481674817,43.37985935478354],[-70.95884046480465,43.466624383533826],[-70.96242975879758,43.54136257661576],[-70.9731976407764,43.570570606096055],[-70.98755481674817,43.79220800627006]]]}}]}