{"type":"FeatureCollection","features":[{"type":"Feature","id":"26001","properties":{"name":"Alcona","county_fips":"26001","state_abbr":"MI"},"geometry":{"type":"Polygon","coordinates":[[[-83.88747742737426,44.856582962919624],[-83.32036897648976,44.85830108230081],[-83.29524391853919,44.79301254581545],[-83.29883321253212,44.74576426283262],[-83.27370815458154,44.713979054280536],[-83.28806533055331,44.652985816248155],[-83.31677968249681,44.59542881697816],[-83.31677968249681,44.51124096729966],[-83.88747742737426,44.50866378822788],[-83.88747742737426,44.856582962919624]]]}},{"type":"Feature","id":"26003","properties":{"name":"Alger","county_fips":"26003","state_abbr":"MI"},"geometry":{"type":"Polygon","coordinates":[[[-87.11784202102021,46.49480979288792],[-87.0173417892179,46.53346747896478],[-86.97785955529555,46.52659500144001],[-86.92760943939439,46.46474270371703],[-86.88453791147911,46.44154809207091],[-86.81634132561325,46.43811185330853],[-86.78762697366973,46.477628599075985],[-86.73019826978269,46.4716151812418],[-86.69789462384624,46.438970912999125],[-86.68353744787447,46.49824603165031],[-86.70866250582506,46.543776195251944],[-86.65123380193802,46.56095738906388],[-86.62610874398743,46.53346747896478],[-86.64764450794507,46.485360136291355],[-86.5866265100651,46.463024584335834],[-86.49330486624866,46.52487688205881],[-86.34973310653106,46.57813858287582],[-86.13796476094761,46.67263514884148],[-86.09848252702527,46.654594895338946],[-85.86517841748417,46.689816342653415],[-85.86517841748417,46.505118509175084],[-86.36409028250281,46.50597756886568],[-86.36409028250281,46.331588451674506],[-86.61534086200862,46.3333065710557],[-86.61534086200862,46.15891745386453],[-87.11784202102021,46.15891745386453],[-87.11784202102021,46.49480979288792]]]}},{"type":"Feature","id":"26005","properties":{"name":"Allegan","county_fips":"26005","state_abbr":"MI"},"geometry":{"type":"Polygon","coordinates":[[[-86.2097506408064,42.76734979538794],[-85.78262465564656,42.76820885507854],[-85.54573125211252,42.76820885507854],[-85.54214195811957,42.42114874007739],[-85.76467818568186,42.420289680386794],[-86.27435793267932,42.4194306206962],[-86.24923287472875,42.48042385872858],[-86.22410781677816,42.59467879757797],[-86.2276971107711,42.64450425963259],[-86.20616134681346,42.71924245271452],[-86.2097506408064,42.76734979538794]]]}},{"type":"Feature","id":"26007","properties":{"name":"Alpena","county_fips":"26007","state_abbr":"MI"},"geometry":{"type":"Polygon","coordinates":[[[-83.88029883938839,45.20192495853958],[-83.38856556235562,45.207079316683156],[-83.3598512104121,45.16326727246272],[-83.32036897648976,45.13749548174481],[-83.2701188605886,45.02324054289542],[-83.3419047404474,45.041280796397956],[-83.39933344433445,45.07048882587825],[-83.45317285422854,45.03526737856378],[-83.43881567825677,44.94077081259812],[-83.3957441503415,44.902972186211855],[-83.32036897648976,44.880636634256334],[-83.32036897648976,44.85830108230081],[-83.88747742737426,44.856582962919624],[-83.89106672136721,45.030113020420195],[-83.88029883938839,45.03097208011079],[-83.88029883938839,45.20192495853958]]]}},{"type":"Feature","id":"26009","properties":{"name":"Antrim","county_fips":"26009","state_abbr":"MI"},"geometry":{"type":"Polygon","coordinates":[[[-85.38780231642316,45.207938376373754],[-85.22269479274793,45.20536119730197],[-85.22269479274793,45.11773710886108],[-84.85658680546805,45.11687804917048],[-84.85658680546805,45.030113020420195],[-84.84581892348923,44.85830108230081],[-85.29089137861378,44.86001920168201],[-85.32678431854318,44.85056954508544],[-85.33396290652907,44.81277091869918],[-85.3734451404514,44.82909305282052],[-85.38062372843729,44.85916014199141],[-85.44164172631726,44.86001920168201],[-85.39498090440904,44.93132115600155],[-85.36626655246552,45.068770706497055],[-85.38780231642316,45.207938376373754]]]}},{"type":"Feature","id":"26011","properties":{"name":"Arenac","county_fips":"26011","state_abbr":"MI"},"geometry":{"type":"Polygon","coordinates":[[[-84.16744235882358,44.16160367322672],[-83.88388813338133,44.16160367322672],[-83.56444096800968,44.16332179260792],[-83.58238743797438,44.0567983909739],[-83.65058402384024,44.052503092520915],[-83.67929837578376,44.03618095839958],[-83.67929837578376,43.99408703356033],[-83.83004872348724,43.98893267541675],[-83.87670954539546,43.95886558624586],[-83.90901319133191,43.91075824357243],[-84.04540636306363,43.91075824357243],[-84.04540636306363,43.99666421263212],[-84.16744235882358,43.99666421263212],[-84.16744235882358,44.16160367322672]]]}},{"type":"Feature","id":"26013","properties":{"name":"Baraga","county_fips":"26013","state_abbr":"MI"},"geometry":{"type":"Polygon","coordinates":[[[-88.44947009240092,46.93894365292652],[-88.48536303233033,46.83156119160191],[-88.46382726837268,46.78689008769087],[-88.49613091430913,46.75682299851998],[-88.4566486803868,46.75940017759177],[-88.384862800528,46.8341383706737],[-88.37409491854918,46.87193699705996],[-88.3489698605986,46.8607692210822],[-88.24488033480334,46.92949399632995],[-88.14438010300103,46.966433563025625],[-88.1874516309163,46.91918528004279],[-88.23052315883159,46.89856784746847],[-88.28436256872568,46.832420251292504],[-88.17668374893749,46.904581265302646],[-88.08336210512105,46.92004433973339],[-88.04387987119871,46.91231280251802],[-88.04387987119871,46.76541359542595],[-87.99004046130462,46.76541359542595],[-87.99004046130462,46.67950762636626],[-88.1156657510575,46.67864856667566],[-88.1156657510575,46.42007159980599],[-88.67918490794908,46.42007159980599],[-88.67918490794908,46.85217862417623],[-88.55355961819618,46.85217862417623],[-88.55355961819618,46.93894365292652],[-88.44947009240092,46.93894365292652]]]}},{"type":"Feature","id":"26015","properties":{"name":"Barry","county_fips":"26015","state_abbr":"MI"},"geometry":{"type":"Polygon","coordinates":[[[-85.54573125211252,42.76820885507854],[-85.30883784857848,42.769926974459736],[-85.07553373903738,42.77078603415033],[-85.07194444504445,42.42114874007739],[-85.29806996659967,42.4194306206962],[-85.54214195811957,42.42114874007739],[-85.54573125211252,42.76820885507854]]]}},{"type":"Feature","id":"26017","properties":{"name":"Bay","county_fips":"26017","state_abbr":"MI"},"geometry":{"type":"Polygon","coordinates":[[[-84.16744235882358,43.82571133420333],[-84.16744235882358,43.99666421263212],[-84.04540636306363,43.99666421263212],[-84.04540636306363,43.91075824357243],[-83.90901319133191,43.91075824357243],[-83.9269596612966,43.787053648126474],[-83.95567401324013,43.750973141121406],[-83.90901319133191,43.67279870927709],[-83.85158448744487,43.64530879917798],[-83.81928084150842,43.67365776896768],[-83.80133437154372,43.641013500725],[-83.72954849168491,43.62297324722247],[-83.70083413974139,43.601496754957545],[-83.69724484574846,43.478651219202185],[-83.81928084150842,43.478651219202185],[-83.81569154751547,43.52246326342263],[-84.05258495104951,43.52418138280382],[-84.04899565705657,43.567134367333665],[-84.16744235882358,43.56885248671486],[-84.16744235882358,43.82571133420333]]]}},{"type":"Feature","id":"26019","properties":{"name":"Benzie","county_fips":"26019","state_abbr":"MI"},"geometry":{"type":"Polygon","coordinates":[[[-86.0733574690747,44.7784085310753],[-85.81492830158301,44.77411323262232],[-85.81851759557595,44.51295908668086],[-86.23487569875698,44.51811344482444],[-86.22410781677816,44.594569757287566],[-86.26000075670757,44.66329453253532],[-86.25641146271462,44.691643502325014],[-86.15950052490524,44.72858306902068],[-86.08771464504645,44.741468964379635],[-86.0733574690747,44.7784085310753]]]}},{"type":"Feature","id":"26021","properties":{"name":"Berrien","county_fips":"26021","state_abbr":"MI"},"geometry":{"type":"Polygon","coordinates":[[[-86.82351991359913,41.760531838008376],[-86.71584109381094,41.818947896968965],[-86.61893015600155,41.89368609005089],[-86.48612627826277,42.11790066929669],[-86.36409028250281,42.24332338412383],[-86.22410781677816,42.24332338412383],[-86.22410781677816,42.07151144600445],[-86.2276971107711,41.75967277831778],[-86.52560851218512,41.75967277831778],[-86.82351991359913,41.760531838008376]]]}},{"type":"Feature","id":"26023","properties":{"name":"Branch","county_fips":"26023","state_abbr":"MI"},"geometry":{"type":"Polygon","coordinates":[[[-85.29448067260672,42.07151144600445],[-84.82787245352453,42.07237050569505],[-84.82428315953159,41.75967277831778],[-85.19756973479734,41.75967277831778],[-85.29089137861378,41.75967277831778],[-85.29448067260672,42.07151144600445]]]}},{"type":"Feature","id":"26025","properties":{"name":"Calhoun","county_fips":"26025","state_abbr":"MI"},"geometry":{"type":"Polygon","coordinates":[[[-85.29806996659967,42.4194306206962],[-85.07194444504445,42.42114874007739],[-84.72019363373633,42.42114874007739],[-84.72019363373633,42.334383711327106],[-84.70942575175751,42.07065238631385],[-84.82787245352453,42.07237050569505],[-85.29448067260672,42.07151144600445],[-85.29806996659967,42.4194306206962]]]}},{"type":"Feature","id":"26027","properties":{"name":"Cass","county_fips":"26027","state_abbr":"MI"},"geometry":{"type":"Polygon","coordinates":[[[-86.2276971107711,41.75967277831778],[-86.22410781677816,42.07151144600445],[-85.76467818568186,42.068934266932665],[-85.76108889168891,41.799189524085236],[-85.78980324363243,41.75881371862718],[-86.06258958709587,41.760531838008376],[-86.2276971107711,41.75967277831778]]]}},{"type":"Feature","id":"26029","properties":{"name":"Charlevoix","county_fips":"26029","state_abbr":"MI"},"geometry":{"type":"MultiPolygon","coordinates":[[[[-85.09706950299503,45.36686441913418],[-85.09706950299503,45.33593827027269],[-85.04681938709386,45.3350792105821],[-85.00015856518564,45.272367853168525],[-84.96426562525625,45.291267166361656],[-84.73096151571515,45.28954904698046],[-84.7345508097081,45.20192495853958],[-84.7345508097081,45.11515992978929],[-84.85658680546805,45.11687804917048],[-85.22269479274793,45.11773710886108],[-85.22269479274793,45.20536119730197],[-85.38780231642316,45.207938376373754],[-85.36985584645846,45.27064973378733],[-85.30883784857848,45.31274365862658],[-85.27294490864908,45.31532083769837],[-85.20833761677616,45.35655570284702],[-85.09706950299503,45.36686441913418]]],[[[-85.37703443444434,45.81271639855398],[-85.35190937649377,45.79553520474204],[-85.39498090440904,45.7783540109301],[-85.37703443444434,45.81271639855398]]],[[[-85.52419548815487,45.82989759236592],[-85.44882031430313,45.796394264432635],[-85.4631774902749,45.765468115571146],[-85.53137407614076,45.79811238381383],[-85.52419548815487,45.82989759236592]]],[[[-85.62828501395013,45.59795147590475],[-85.60315995599956,45.6391863410534],[-85.59239207402074,45.69846145970459],[-85.57085631006309,45.711347355063545],[-85.56726701607016,45.76031375742757],[-85.50265972419724,45.754300339593385],[-85.50624901819018,45.68128026589265],[-85.49189184221842,45.60997831157311],[-85.56008842808427,45.572179685186846],[-85.62828501395013,45.59795147590475]]],[[[-85.70007089380894,45.73626008609085],[-85.65341007190072,45.74313256361563],[-85.67135654186542,45.696743340323394],[-85.696481599816,45.69760240001399],[-85.70007089380894,45.73626008609085]]]]}},{"type":"Feature","id":"26031","properties":{"name":"Cheboygan","county_fips":"26031","state_abbr":"MI"},"geometry":{"type":"Polygon","coordinates":[[[-84.73096151571515,45.28954904698046],[-84.73096151571515,45.78780366752667],[-84.7166043397434,45.76632717526174],[-84.5550861100611,45.70189769846698],[-84.46176446624466,45.65207223641236],[-84.41510364433644,45.669253430224295],[-84.3756214104141,45.65550847517474],[-84.32896058850588,45.66409907208072],[-84.20333529875299,45.627159505385045],[-84.25358541465414,45.62630044569445],[-84.24999612066121,45.28181750976509],[-84.24640682666826,45.19848871977719],[-84.36485352843528,45.19848871977719],[-84.7345508097081,45.20192495853958],[-84.73096151571515,45.28954904698046]]]}},{"type":"Feature","id":"26033","properties":{"name":"Chippewa","county_fips":"26033","state_abbr":"MI"},"geometry":{"type":"MultiPolygon","coordinates":[[[[-85.23705196871968,46.75596393882938],[-85.17244467684677,46.76369547604475],[-85.06476585705856,46.75768205821058],[-84.9499084492845,46.76970889387893],[-85.02887291712916,46.69754787986879],[-85.03605150511505,46.581574821638206],[-85.02887291712916,46.542917135561346],[-85.05758726907268,46.52659500144001],[-85.02528362313623,46.48278295721956],[-84.96785491924919,46.47591047969479],[-84.93555127331273,46.48965543474434],[-84.9140155093551,46.46731988278882],[-84.86017609946099,46.469897061860614],[-84.79915810158101,46.4458433905239],[-84.67712210582106,46.48793731536315],[-84.63046128391284,46.48450107660076],[-84.5909790499905,46.4449843308333],[-84.59456834398344,46.41491724166241],[-84.50483599415993,46.438970912999125],[-84.47971093620936,46.43295749516494],[-84.44381799627996,46.488796375053745],[-84.3756214104141,46.50941380762807],[-84.29306764857648,46.493091673506726],[-84.25358541465414,46.500823210722096],[-84.22487106271062,46.53432653865538],[-84.12796012490125,46.5300312402024],[-84.11001365493655,46.504259449484486],[-84.14590659486595,46.4183534804248],[-84.12078153691536,46.31526631755317],[-84.11719224292243,46.23365564694646],[-84.22128176871769,46.231937527565265],[-84.24999612066121,46.17609864767647],[-84.1961567107671,46.165789931389305],[-84.1782102408024,46.18383018489184],[-84.1243708309083,46.180393946129456],[-84.09565647896478,46.14774967788677],[-84.02745989309892,46.13142754376543],[-84.07412071500714,46.097065156141554],[-83.9879776591766,46.03263567934679],[-83.9449061312613,46.03177661965619],[-83.87312025140251,45.993118933579325],[-83.84440589945899,46.02576320182201],[-83.79415578355783,45.99569611265112],[-83.7654414316143,46.01803166460664],[-83.82287013550135,46.10393763366633],[-83.7726200196002,46.09105173830738],[-83.62545896588965,46.10221951428514],[-83.58238743797438,46.08933361892618],[-83.53213732207321,46.011159187081866],[-83.47470861818618,45.98452833667336],[-83.51060155811558,45.92954851647516],[-83.56085167401673,45.91236732266322],[-83.65776261182612,45.9458706505965],[-83.76903072560725,45.93212569554695],[-83.88029883938839,45.96820620255202],[-83.91978107331073,45.957897486264855],[-84.01669201112011,45.95875654595545],[-84.11360294892948,45.97851491883918],[-84.23922823868239,45.98452833667336],[-84.23922823868239,46.07129336542365],[-84.36485352843528,46.07129336542365],[-84.36485352843528,46.158058394173935],[-85.11142667896678,46.158058394173935],[-85.11501597295972,46.24568248261482],[-85.23705196871968,46.24568248261482],[-85.23705196871968,46.75596393882938]]]]}},{"type":"Feature","id":"26035","properties":{"name":"Clare","county_fips":"26035","state_abbr":"MI"},"geometry":{"type":"Polygon","coordinates":[[[-85.0863016210162,44.164180852298514],[-84.85299751147511,44.16160367322672],[-84.60892551995519,44.16074461353613],[-84.60533622596226,43.81540261791617],[-85.08989091500915,43.813684498534975],[-85.0863016210162,44.164180852298514]]]}},{"type":"Feature","id":"26037","properties":{"name":"Clinton","county_fips":"26037","state_abbr":"MI"},"geometry":{"type":"Polygon","coordinates":[[[-84.83864033550336,43.11870520884208],[-84.36844282242822,43.11784614915148],[-84.36485352843528,42.77594039229392],[-84.36485352843528,42.769926974459736],[-84.60174693196932,42.769926974459736],[-84.83864033550336,42.77078603415033],[-84.83864033550336,43.11870520884208]]]}},{"type":"Feature","id":"26039","properties":{"name":"Crawford","county_fips":"26039","state_abbr":"MI"},"geometry":{"type":"Polygon","coordinates":[[[-84.84581892348923,44.85830108230081],[-84.37203211642117,44.85486484353843],[-84.37203211642117,44.50694566884668],[-84.47253234822348,44.510381907609066],[-84.84940821748218,44.51124096729966],[-84.84581892348923,44.85830108230081]]]}},{"type":"Feature","id":"26041","properties":{"name":"Delta","county_fips":"26041","state_abbr":"MI"},"geometry":{"type":"MultiPolygon","coordinates":[[[[-86.69071603586036,45.61685078909788],[-86.61893015600155,45.56187096889968],[-86.64764450794507,45.54297165570655],[-86.66200168391684,45.57389780456804],[-86.71225179981799,45.610837371263706],[-86.69071603586036,45.61685078909788]]],[[[-87.369092600526,45.985387396363954],[-87.2434673107731,45.985387396363954],[-87.23987801678017,46.15891745386453],[-87.11784202102021,46.15891745386453],[-86.61534086200862,46.15891745386453],[-86.48971557225572,46.158058394173935],[-86.48971557225572,45.896045188541876],[-86.45741192631925,45.896045188541876],[-86.4610012203122,45.757736578355775],[-86.51842992419924,45.74742786206861],[-86.53996568815688,45.707911116301155],[-86.5866265100651,45.70533393722936],[-86.5866265100651,45.6666762511525],[-86.62969803798038,45.65894471393713],[-86.61534086200862,45.60654207281072],[-86.68712674186742,45.634031982909825],[-86.71943038780387,45.6683943705337],[-86.6763588598886,45.691588982179816],[-86.67276956589565,45.72079701166011],[-86.63328733197332,45.74742786206861],[-86.62969803798038,45.78179024969249],[-86.58303721607216,45.7783540109301],[-86.52919780617806,45.853092204012036],[-86.53996568815688,45.8900317707077],[-86.58303721607216,45.89862236761367],[-86.64764450794507,45.8341928908189],[-86.7840376796768,45.854810323393224],[-86.77326979769798,45.810998279172786],[-86.8199306196062,45.77062247371473],[-86.8378770895709,45.722515131041305],[-86.94555590935909,45.6958842806328],[-86.96350237932378,45.672689668986685],[-86.98503814328143,45.70619299691996],[-86.9742702613026,45.753441279902795],[-86.98862743727437,45.810998279172786],[-87.0173417892179,45.838488189271885],[-87.05323472914729,45.82216605515055],[-87.07118119911199,45.719078892278915],[-87.06041331713317,45.70877017599175],[-87.1716814309143,45.661521893008924],[-87.26500307473074,45.55070319292192],[-87.32602107261073,45.55156225261252],[-87.32602107261073,45.89862236761367],[-87.369092600526,45.89862236761367],[-87.369092600526,45.985387396363954]]]]}},{"type":"Feature","id":"26043","properties":{"name":"Dickinson","county_fips":"26043","state_abbr":"MI"},"geometry":{"type":"Polygon","coordinates":[[[-88.1156657510575,45.92181697925979],[-88.1156657510575,46.246541542305415],[-87.61675388603885,46.246541542305415],[-87.61675388603885,45.98624645605455],[-87.61675388603885,45.89862236761367],[-87.69571835388354,45.89862236761367],[-87.69571835388354,45.7233741907319],[-87.84646870158701,45.722515131041305],[-87.87877234752347,45.75515939928398],[-87.96491540335403,45.75859563804637],[-87.99721904929049,45.79553520474204],[-88.05823704717046,45.780931190001894],[-88.10489786907868,45.79123990628906],[-88.13720151501515,45.81872981638816],[-88.07618351713516,45.8634009202992],[-88.1156657510575,45.92181697925979]]]}},{"type":"Feature","id":"26045","properties":{"name":"Eaton","county_fips":"26045","state_abbr":"MI"},"geometry":{"type":"Polygon","coordinates":[[[-85.07553373903738,42.77078603415033],[-84.83864033550336,42.77078603415033],[-84.60174693196932,42.769926974459736],[-84.60174693196932,42.42200779976799],[-84.72019363373633,42.42114874007739],[-85.07194444504445,42.42114874007739],[-85.07553373903738,42.77078603415033]]]}},{"type":"Feature","id":"26047","properties":{"name":"Emmet","county_fips":"26047","state_abbr":"MI"},"geometry":{"type":"Polygon","coordinates":[[[-84.73096151571515,45.78780366752667],[-84.73096151571515,45.28954904698046],[-84.96426562525625,45.291267166361656],[-85.00015856518564,45.272367853168525],[-85.04681938709386,45.3350792105821],[-85.09706950299503,45.33593827027269],[-85.09706950299503,45.36686441913418],[-85.03246221112211,45.360851001300006],[-84.91760480334803,45.39349526954269],[-84.92119409734097,45.42184423933239],[-85.03964079910799,45.43644825407253],[-85.08989091500915,45.476824059530585],[-85.11860526695267,45.57475686425863],[-85.06117656306563,45.6391863410534],[-85.01451574115741,45.65121317672176],[-84.94272986129862,45.71048829537295],[-84.9499084492845,45.73711914578145],[-85.01451574115741,45.76031375742757],[-84.79915810158101,45.74742786206861],[-84.77403304363044,45.78952178690786],[-84.73096151571515,45.78780366752667]]]}},{"type":"Feature","id":"26049","properties":{"name":"Genesee","county_fips":"26049","state_abbr":"MI"},"geometry":{"type":"Polygon","coordinates":[[[-83.69724484574846,43.22179237171371],[-83.46035144221442,43.223510491094906],[-83.46035144221442,43.04998043359433],[-83.45317285422854,42.88074567454674],[-83.45317285422854,42.87645037609376],[-83.69006625776258,42.87129601795017],[-83.68647696376964,42.78367192950929],[-83.92337036730368,42.7810947504375],[-83.93054895528955,43.13245016389163],[-83.93054895528955,43.220074252332516],[-83.69724484574846,43.22179237171371]]]}},{"type":"Feature","id":"26051","properties":{"name":"Gladwin","county_fips":"26051","state_abbr":"MI"},"geometry":{"type":"Polygon","coordinates":[[[-84.60892551995519,44.16074461353613],[-84.36844282242822,44.16074461353613],[-84.16744235882358,44.16160367322672],[-84.16744235882358,43.99666421263212],[-84.16744235882358,43.82571133420333],[-84.36485352843528,43.828288513275126],[-84.36844282242822,43.813684498534975],[-84.60533622596226,43.81540261791617],[-84.60892551995519,44.16074461353613]]]}},{"type":"Feature","id":"26053","properties":{"name":"Gogebic","county_fips":"26053","state_abbr":"MI"},"geometry":{"type":"Polygon","coordinates":[[[-90.416403200532,46.566111747207465],[-90.34820661466614,46.60047413483134],[-90.30513508675087,46.60305131390313],[-90.16515262102621,46.64514523874238],[-90.02875944929448,46.674353268222674],[-89.88877698356983,46.76541359542595],[-89.86365192561925,46.76541359542595],[-89.86365192561925,46.59274259761597],[-89.7416159298593,46.59274259761597],[-89.7416159298593,46.50597756886568],[-89.3647400606006,46.50597756886568],[-89.3647400606006,46.3333065710557],[-88.99145348533484,46.3324475113651],[-88.99145348533484,46.097065156141554],[-89.09195371713717,46.138300021290206],[-89.92825921749217,46.299803243122426],[-90.12208109311092,46.33674280981809],[-90.11849179911799,46.35993742146421],[-90.2189920309203,46.50340038979389],[-90.31590296872969,46.51714534484344],[-90.35179590865908,46.53776277741777],[-90.35179590865908,46.53776277741777],[-90.39486743657436,46.53260841927418],[-90.416403200532,46.566111747207465]]]}},{"type":"Feature","id":"26055","properties":{"name":"Grand Traverse","county_fips":"26055","state_abbr":"MI"},"geometry":{"type":"Polygon","coordinates":[[[-85.81492830158301,44.77411323262232],[-85.63905289592896,44.77497229231292],[-85.59957066200661,44.76552263571635],[-85.53137407614076,44.8900862908529],[-85.52060619416194,44.9742741405314],[-85.47394537225372,44.991455334343335],[-85.50265972419724,44.85572390322903],[-85.55649913409134,44.817925276842765],[-85.57803489804898,44.760368277572766],[-85.52778478214782,44.748341441904415],[-85.4990704302043,44.80418032179321],[-85.44164172631726,44.86001920168201],[-85.38062372843729,44.85916014199141],[-85.3734451404514,44.82909305282052],[-85.33396290652907,44.81277091869918],[-85.33396290652907,44.51210002699026],[-85.81851759557595,44.51295908668086],[-85.81492830158301,44.77411323262232]]]}},{"type":"Feature","id":"26057","properties":{"name":"Gratiot","county_fips":"26057","state_abbr":"MI"},"geometry":{"type":"Polygon","coordinates":[[[-84.84581892348923,43.46576532384323],[-84.60892551995519,43.46576532384323],[-84.36844282242822,43.46576532384323],[-84.36844282242822,43.128154865438646],[-84.36844282242822,43.11784614915148],[-84.83864033550336,43.11870520884208],[-84.83505104151041,43.29223526634266],[-84.84581892348923,43.29223526634266],[-84.84581892348923,43.46576532384323]]]}},{"type":"Feature","id":"26059","properties":{"name":"Hillsdale","county_fips":"26059","state_abbr":"MI"},"geometry":{"type":"Polygon","coordinates":[[[-84.82787245352453,42.07237050569505],[-84.70942575175751,42.07065238631385],[-84.36485352843528,42.073229565385645],[-84.36126423444234,41.70641107750077],[-84.40074646836469,41.70555201781017],[-84.80633668956689,41.696102361213605],[-84.80633668956689,41.760531838008376],[-84.82428315953159,41.75967277831778],[-84.82787245352453,42.07237050569505]]]}},{"type":"Feature","id":"26061","properties":{"name":"Houghton","county_fips":"26061","state_abbr":"MI"},"geometry":{"type":"Polygon","coordinates":[[[-88.93402478144782,47.032581159201584],[-88.9053104295043,47.085842860018595],[-88.81557807968079,47.14168173990739],[-88.76532796377964,47.155426694956944],[-88.65764914399143,47.22586958958589],[-88.57509538215382,47.24562796246962],[-88.51407738427383,47.286003767927674],[-88.29871974469744,47.286003767927674],[-88.29871974469744,47.20009779886798],[-88.22693386483864,47.20009779886798],[-88.24846962879629,47.135668322073215],[-88.27359468674686,47.143399859288586],[-88.29871974469744,47.09872875537754],[-88.3489698605986,47.07639320342203],[-88.3669163305633,47.01883620415203],[-88.40998785847859,46.977601339003385],[-88.44229150441504,46.9724469808598],[-88.44947009240092,46.93894365292652],[-88.55355961819618,46.93894365292652],[-88.55355961819618,46.85217862417623],[-88.67918490794908,46.85217862417623],[-88.67918490794908,46.42007159980599],[-88.99145348533484,46.42007159980599],[-88.98786419134191,46.68036668605685],[-88.86582819558195,46.67950762636626],[-88.86223890158901,46.76541359542595],[-88.93402478144782,46.76455453573535],[-88.93402478144782,47.032581159201584]]]}},{"type":"Feature","id":"26063","properties":{"name":"Huron","county_fips":"26063","state_abbr":"MI"},"geometry":{"type":"Polygon","coordinates":[[[-82.60609947189472,43.69083896277962],[-83.11936851288513,43.675375888348874],[-83.4675300302003,43.667644351133504],[-83.47470861818618,43.73121476823768],[-83.49624438214381,43.77244963338633],[-83.46394073620736,43.81024825977259],[-83.4316370902709,43.88498645285452],[-83.41727991429914,43.84203346832468],[-83.34908332843328,43.86866431873318],[-83.33113685846858,43.89357704976049],[-83.40651203232032,43.920207900169],[-83.32036897648976,43.917630721097204],[-83.28088674256742,43.93824815367153],[-83.26294027260272,43.973469600986],[-83.1803865107651,43.98206019789197],[-83.05835051500515,44.006113869228685],[-83.0260468690687,44.044771555305545],[-82.91477875528754,44.070543346023456],[-82.87529652136521,44.044771555305545],[-82.7927427595276,44.02329506304062],[-82.73890334963349,43.989791735107346],[-82.67788535175352,43.88412739316392],[-82.64199241182412,43.85234218461184],[-82.61686735387353,43.76901339462394],[-82.60609947189472,43.69083896277962]]]}},{"type":"Feature","id":"26065","properties":{"name":"Ingham","county_fips":"26065","state_abbr":"MI"},"geometry":{"type":"Polygon","coordinates":[[[-84.60174693196932,42.769926974459736],[-84.36485352843528,42.769926974459736],[-84.36485352843528,42.77594039229392],[-84.15667447684477,42.776799451984516],[-84.142317300873,42.508772828518275],[-84.142317300873,42.42458497883978],[-84.60174693196932,42.42200779976799],[-84.60174693196932,42.769926974459736]]]}},{"type":"Feature","id":"26067","properties":{"name":"Ionia","county_fips":"26067","state_abbr":"MI"},"geometry":{"type":"Polygon","coordinates":[[[-85.31242714257142,43.11870520884208],[-84.83864033550336,43.11870520884208],[-84.83864033550336,42.77078603415033],[-85.07553373903738,42.77078603415033],[-85.30883784857848,42.769926974459736],[-85.31242714257142,43.11870520884208]]]}},{"type":"Feature","id":"26069","properties":{"name":"Iosco","county_fips":"26069","state_abbr":"MI"},"geometry":{"type":"Polygon","coordinates":[[[-83.88747742737426,44.50866378822788],[-83.31677968249681,44.51124096729966],[-83.33113685846858,44.34028808887088],[-83.37420838638386,44.32740219351193],[-83.42445850228502,44.272422373313724],[-83.51060155811558,44.27414049269492],[-83.55008379203792,44.22689220971209],[-83.56444096800968,44.16332179260792],[-83.88388813338133,44.16160367322672],[-83.88747742737426,44.50866378822788]]]}},{"type":"Feature","id":"26071","properties":{"name":"Iron","county_fips":"26071","state_abbr":"MI"},"geometry":{"type":"Polygon","coordinates":[[[-88.99145348533484,46.42007159980599],[-88.67918490794908,46.42007159980599],[-88.1156657510575,46.42007159980599],[-88.1156657510575,46.246541542305415],[-88.1156657510575,45.92181697925979],[-88.24488033480334,45.96305184440843],[-88.2951304507045,45.95102500874008],[-88.38127350653507,45.99140081419814],[-88.42434503445034,45.97851491883918],[-88.49972020830208,45.996555172341715],[-88.50689879628796,46.01803166460664],[-88.60380973409734,46.016313545225444],[-88.61457761607616,45.988823635126344],[-88.66482773197731,45.993118933579325],[-88.68277420194201,46.01459542584425],[-88.74020290582905,46.027481321203204],[-88.81198878568786,46.02146790336903],[-88.93402478144782,46.073870544495435],[-88.99145348533484,46.097065156141554],[-88.99145348533484,46.3324475113651],[-88.99145348533484,46.42007159980599]]]}},{"type":"Feature","id":"26073","properties":{"name":"Isabella","county_fips":"26073","state_abbr":"MI"},"geometry":{"type":"Polygon","coordinates":[[[-85.08989091500915,43.813684498534975],[-84.60533622596226,43.81540261791617],[-84.60892551995519,43.46576532384323],[-84.84581892348923,43.46576532384323],[-85.0863016210162,43.46576532384323],[-85.08989091500915,43.813684498534975]]]}},{"type":"Feature","id":"26075","properties":{"name":"Jackson","county_fips":"26075","state_abbr":"MI"},"geometry":{"type":"Polygon","coordinates":[[[-84.72019363373633,42.42114874007739],[-84.60174693196932,42.42200779976799],[-84.142317300873,42.42458497883978],[-84.13154941889418,42.42458497883978],[-84.13154941889418,42.07151144600445],[-84.36485352843528,42.073229565385645],[-84.70942575175751,42.07065238631385],[-84.72019363373633,42.334383711327106],[-84.72019363373633,42.42114874007739]]]}},{"type":"Feature","id":"26077","properties":{"name":"Kalamazoo","county_fips":"26077","state_abbr":"MI"},"geometry":{"type":"Polygon","coordinates":[[[-85.76467818568186,42.420289680386794],[-85.54214195811957,42.42114874007739],[-85.29806996659967,42.4194306206962],[-85.29448067260672,42.07151144600445],[-85.76467818568186,42.068934266932665],[-85.76467818568186,42.420289680386794]]]}},{"type":"Feature","id":"26079","properties":{"name":"Kalkaska","county_fips":"26079","state_abbr":"MI"},"geometry":{"type":"Polygon","coordinates":[[[-85.33396290652907,44.81277091869918],[-85.32678431854318,44.85056954508544],[-85.29089137861378,44.86001920168201],[-84.84581892348923,44.85830108230081],[-84.84940821748218,44.51124096729966],[-85.33396290652907,44.51210002699026],[-85.33396290652907,44.81277091869918]]]}},{"type":"Feature","id":"26081","properties":{"name":"Kent","county_fips":"26081","state_abbr":"MI"},"geometry":{"type":"Polygon","coordinates":[[[-85.78980324363243,43.293094326033255],[-85.56367772207722,43.29395338572385],[-85.31242714257142,43.29395338572385],[-85.31242714257142,43.11870520884208],[-85.30883784857848,42.769926974459736],[-85.54573125211252,42.76820885507854],[-85.78262465564656,42.76820885507854],[-85.78262465564656,42.91424900248002],[-85.78980324363243,43.0310811204012],[-85.78980324363243,43.205470237592365],[-85.78980324363243,43.293094326033255]]]}},{"type":"Feature","id":"26083","properties":{"name":"Keweenaw","county_fips":"26083","state_abbr":"MI"},"geometry":{"type":"MultiPolygon","coordinates":[[[[-88.22693386483864,47.20009779886798],[-88.29871974469744,47.20009779886798],[-88.29871974469744,47.286003767927674],[-88.51407738427383,47.286003767927674],[-88.46023797437974,47.340124528435275],[-88.38845209452094,47.38479563234632],[-88.18027304293042,47.45781570604705],[-87.9792725793258,47.479292198311974],[-87.7998078796788,47.4732787804778],[-87.71725411784118,47.43977545254452],[-87.71366482384823,47.40111776646766],[-87.75314705777058,47.405413064920644],[-87.81416505565055,47.38479563234632],[-87.88236164151641,47.39596340832408],[-87.95773681536815,47.3873728114181],[-87.93979034540345,47.34699700596005],[-88.05464775317753,47.298030603596025],[-88.16232657296572,47.216419932989325],[-88.22693386483864,47.20009779886798]]],[[[-89.25347194681946,47.87617777536774],[-89.17809677296772,47.93545289401893],[-88.83711384363843,48.056580310393095],[-88.81198878568786,48.0548621910119],[-88.65764914399143,48.1390500406904],[-88.5463810302103,48.17513054769547],[-88.52484526625265,48.1656808910989],[-88.42434503445034,48.190593622126215],[-88.42793432844329,48.1665399507895],[-88.47100585635856,48.15279499573995],[-88.57868467614676,48.084070220492194],[-88.57868467614676,48.05829842977429],[-88.66841702597026,48.01105014679146],[-88.85147101961019,47.96551998318982],[-89.00222136731367,47.90882204361043],[-88.99504277932779,47.89164084979849],[-88.91248901749017,47.89164084979849],[-89.12425736307362,47.828929492384916],[-89.18886465494654,47.83150667145671],[-89.25347194681946,47.87617777536774]]]]}},{"type":"Feature","id":"26085","properties":{"name":"Lake","county_fips":"26085","state_abbr":"MI"},"geometry":{"type":"Polygon","coordinates":[[[-86.04464311713117,44.16675803137031],[-85.82210688956889,44.164180852298514],[-85.56367772207722,44.16503991198911],[-85.56367772207722,43.81540261791617],[-86.03746452914528,43.81540261791617],[-86.04464311713117,44.16675803137031]]]}},{"type":"Feature","id":"26087","properties":{"name":"Lapeer","county_fips":"26087","state_abbr":"MI"},"geometry":{"type":"Polygon","coordinates":[[[-83.11936851288513,43.32745671365713],[-83.11936851288513,43.28364466943669],[-83.0009218111181,43.28450372912729],[-82.99733251712517,43.15392665615656],[-82.9829753411534,42.89363156990569],[-83.10142204292043,42.88847721176211],[-83.45317285422854,42.88074567454674],[-83.46035144221442,43.04998043359433],[-83.46035144221442,43.223510491094906],[-83.46035144221442,43.23296014769147],[-83.35267262242623,43.23553732676326],[-83.35267262242623,43.32230235551355],[-83.11936851288513,43.32745671365713]]]}},{"type":"Feature","id":"26089","properties":{"name":"Leelanau","county_fips":"26089","state_abbr":"MI"},"geometry":{"type":"MultiPolygon","coordinates":[[[[-85.88312488744887,45.44332073159731],[-85.83646406554065,45.42871671685716],[-85.83287477154771,45.37803219511194],[-85.88312488744887,45.44332073159731]]],[[[-86.0661788810888,45.1400726608166],[-86.04464311713117,45.15983103370033],[-85.97644653126531,45.138354541435405],[-85.99798229522295,45.05588481113811],[-86.05900029310293,45.10055591504914],[-86.0661788810888,45.1400726608166]]],[[[-85.63905289592896,44.77497229231292],[-85.81492830158301,44.77411323262232],[-86.0733574690747,44.7784085310753],[-86.0733574690747,44.88493193270932],[-86.03746452914528,44.91585808157081],[-85.99080370723706,44.90039500714006],[-85.93337500335004,44.969119782387814],[-85.8687677114771,44.93905269321692],[-85.80774971359713,44.95022046919468],[-85.77903536165361,44.97771037929378],[-85.74673171571716,45.05158951268512],[-85.71083877578775,45.06533446773467],[-85.65699936589365,45.14608607865078],[-85.61751713197131,45.18646188410884],[-85.58521348603486,45.180448466274655],[-85.54214195811957,45.21051555544555],[-85.53137407614076,45.177012227512265],[-85.59957066200661,45.149522317413165],[-85.61033854398543,45.1134418104081],[-85.56726701607016,45.04385797546975],[-85.64982077790778,44.9742741405314],[-85.60315995599956,44.99059627465274],[-85.60315995599956,44.92702585754857],[-85.6246957199572,44.92101243971439],[-85.65341007190072,44.84885142570425],[-85.63905289592896,44.77497229231292]]],[[[-86.15591123091231,45.01035464753647],[-86.11642899698997,45.04815327392273],[-86.09489323303232,45.007777468464674],[-86.15591123091231,45.01035464753647]]]]}},{"type":"Feature","id":"26091","properties":{"name":"Lenawee","county_fips":"26091","state_abbr":"MI"},"geometry":{"type":"Polygon","coordinates":[[[-84.36485352843528,42.073229565385645],[-84.13154941889418,42.07151144600445],[-84.00951342313422,42.07838392352923],[-83.7726200196002,42.08267922198221],[-83.76185213762137,41.723592271312704],[-83.88029883938839,41.72015603255032],[-84.36126423444234,41.70641107750077],[-84.36485352843528,42.073229565385645]]]}},{"type":"Feature","id":"26093","properties":{"name":"Livingston","county_fips":"26093","state_abbr":"MI"},"geometry":{"type":"Polygon","coordinates":[[[-84.15667447684477,42.776799451984516],[-83.92337036730368,42.7810947504375],[-83.68647696376964,42.78367192950929],[-83.66494119981199,42.431457456364555],[-83.9449061312613,42.423725919149184],[-84.13154941889418,42.42458497883978],[-84.142317300873,42.42458497883978],[-84.142317300873,42.508772828518275],[-84.15667447684477,42.776799451984516]]]}},{"type":"Feature","id":"26095","properties":{"name":"Luce","county_fips":"26095","state_abbr":"MI"},"geometry":{"type":"Polygon","coordinates":[[[-85.86517841748417,46.505118509175084],[-85.86517841748417,46.689816342653415],[-85.7144280697807,46.67693044729447],[-85.58880278002779,46.674353268222674],[-85.4811239602396,46.68036668605685],[-85.23705196871968,46.75596393882938],[-85.23705196871968,46.24568248261482],[-85.86517841748417,46.24482342292422],[-85.86517841748417,46.505118509175084]]]}},{"type":"Feature","id":"26097","properties":{"name":"Mackinac","county_fips":"26097","state_abbr":"MI"},"geometry":{"type":"MultiPolygon","coordinates":[[[[-84.65199704787048,45.8625418606086],[-84.62328269592696,45.877145875348745],[-84.5909790499905,45.82560229391293],[-84.3576749404494,45.77148153340533],[-84.41869293832939,45.72165607135071],[-84.501246700167,45.73711914578145],[-84.55149681606815,45.78952178690786],[-84.65199704787048,45.8625418606086]]],[[[-85.86517841748417,46.24482342292422],[-85.23705196871968,46.24568248261482],[-85.11501597295972,46.24568248261482],[-85.11142667896678,46.158058394173935],[-84.36485352843528,46.158058394173935],[-84.36485352843528,46.07129336542365],[-84.23922823868239,46.07129336542365],[-84.23922823868239,45.98452833667336],[-84.11360294892948,45.97851491883918],[-84.32896058850588,45.95617936688366],[-84.3756214104141,45.93212569554695],[-84.50842528815288,45.99140081419814],[-84.56226469804697,46.03263567934679],[-84.60892551995519,46.02662226151261],[-84.65558634186341,46.05239405223052],[-84.69147928179281,46.01717260491604],[-84.68430069380693,45.973360560695596],[-84.73814010370103,45.9458706505965],[-84.7345508097081,45.90721296451964],[-84.70224716377163,45.853092204012036],[-84.74531869168692,45.83591101020009],[-84.83146174751747,45.87199151720517],[-84.84222962949629,45.89862236761367],[-84.91760480334803,45.930407576165756],[-84.93555127331273,45.95617936688366],[-85.01451574115741,46.011159187081866],[-85.15090891288912,46.05067593284932],[-85.19756973479734,46.04466251501514],[-85.31601643656437,46.08675643985439],[-85.38062372843729,46.08246114140141],[-85.4272845503455,46.10221951428514],[-85.4452310203102,46.085038320473195],[-85.51342760617605,46.09448797706976],[-85.60315995599956,46.030058500275],[-85.66417795387953,45.96734714286142],[-85.696481599816,45.96047466533665],[-85.81133900759008,45.980233038220376],[-85.86517841748417,45.96820620255202],[-85.86517841748417,46.24482342292422]]]]}},{"type":"Feature","id":"26099","properties":{"name":"Macomb","county_fips":"26099","state_abbr":"MI"},"geometry":{"type":"Polygon","coordinates":[[[-83.10142204292043,42.88847721176211],[-82.9829753411534,42.89363156990569],[-82.73890334963349,42.897926868358674],[-82.73172476164761,42.72096057209571],[-82.70659970369704,42.68316194570945],[-82.79633205352053,42.653953916229156],[-82.8214571114711,42.62646400613006],[-82.78915346553465,42.60326939448394],[-82.78197487754878,42.56461170840708],[-82.83581428744287,42.56804794716947],[-82.87529652136521,42.523376843258426],[-82.87170722737227,42.451215829248284],[-83.08347557295572,42.4469205307953],[-83.10142204292043,42.88847721176211]]]}},{"type":"Feature","id":"26101","properties":{"name":"Manistee","county_fips":"26101","state_abbr":"MI"},"geometry":{"type":"Polygon","coordinates":[[[-86.23487569875698,44.51811344482444],[-85.81851759557595,44.51295908668086],[-85.82210688956889,44.164180852298514],[-86.04464311713117,44.16675803137031],[-86.38562604646046,44.178784867038665],[-86.34255451854519,44.24922776166761],[-86.26717934469345,44.34544244701446],[-86.23487569875698,44.51811344482444]]]}},{"type":"Feature","id":"26103","properties":{"name":"Marquette","county_fips":"26103","state_abbr":"MI"},"geometry":{"type":"Polygon","coordinates":[[[-88.1156657510575,46.42007159980599],[-88.1156657510575,46.67864856667566],[-87.99004046130462,46.67950762636626],[-87.99004046130462,46.76541359542595],[-88.04387987119871,46.76541359542595],[-88.04387987119871,46.91231280251802],[-87.90030811148111,46.909735623446224],[-87.84646870158701,46.88396383272832],[-87.8177543496435,46.89083631025309],[-87.75673635176351,46.8607692210822],[-87.72802199982,46.827265893148926],[-87.67418258992589,46.83671554974549],[-87.59521812208122,46.78259478923788],[-87.5844502401024,46.73019214811147],[-87.52343224222241,46.68809822327223],[-87.50189647826478,46.64772241781417],[-87.45164636236362,46.60562849297492],[-87.38344977649776,46.59274259761597],[-87.39062836448365,46.52487688205881],[-87.3511461305613,46.500823210722096],[-87.25782448674487,46.48793731536315],[-87.11784202102021,46.49480979288792],[-87.11784202102021,46.15891745386453],[-87.23987801678017,46.15891745386453],[-87.2434673107731,45.985387396363954],[-87.369092600526,45.985387396363954],[-87.61675388603885,45.98624645605455],[-87.61675388603885,46.246541542305415],[-88.1156657510575,46.246541542305415],[-88.1156657510575,46.42007159980599]]]}},{"type":"Feature","id":"26105","properties":{"name":"Mason","county_fips":"26105","state_abbr":"MI"},"geometry":{"type":"Polygon","coordinates":[[[-86.38562604646046,44.178784867038665],[-86.04464311713117,44.16675803137031],[-86.03746452914528,43.81540261791617],[-86.43228686836868,43.81969791636916],[-86.43228686836868,43.855778423374225],[-86.46459051430514,43.970892421914215],[-86.5148406302063,44.048207794067935],[-86.50048345423454,44.075697704167034],[-86.42869757437575,44.11950974838748],[-86.38562604646046,44.178784867038665]]]}},{"type":"Feature","id":"26107","properties":{"name":"Mecosta","county_fips":"26107","state_abbr":"MI"},"geometry":{"type":"Polygon","coordinates":[[[-85.56367772207722,43.81540261791617],[-85.08989091500915,43.813684498534975],[-85.0863016210162,43.46576532384323],[-85.56367772207722,43.46834250291502],[-85.56367772207722,43.81540261791617]]]}},{"type":"Feature","id":"26109","properties":{"name":"Menominee","county_fips":"26109","state_abbr":"MI"},"geometry":{"type":"Polygon","coordinates":[[[-87.84646870158701,45.722515131041305],[-87.69571835388354,45.7233741907319],[-87.69571835388354,45.89862236761367],[-87.61675388603885,45.89862236761367],[-87.61675388603885,45.98624645605455],[-87.369092600526,45.985387396363954],[-87.369092600526,45.89862236761367],[-87.32602107261073,45.89862236761367],[-87.32602107261073,45.55156225261252],[-87.26500307473074,45.55070319292192],[-87.32602107261073,45.42528047809478],[-87.39421765847658,45.369441598205974],[-87.46600353833539,45.27322691285912],[-87.61316459204592,45.12375052669526],[-87.59162882808828,45.095401556905564],[-87.65982541395414,45.107428392573915],[-87.68853976589766,45.14780419803197],[-87.73520058780588,45.17185786936869],[-87.74237917579175,45.19677060039599],[-87.68853976589766,45.29813964388643],[-87.64905753197532,45.33937450903508],[-87.65623611996119,45.368582538515376],[-87.69571835388354,45.3900590307803],[-87.75314705777058,45.349683225322245],[-87.85005799557995,45.34109262841628],[-87.85005799557995,45.34109262841628],[-87.87518305353053,45.38146843387433],[-87.85005799557995,45.40208586644866],[-87.86082587755877,45.43473013469134],[-87.81416505565055,45.46393816417164],[-87.79262929169292,45.49830055179551],[-87.80339717367173,45.538676357253564],[-87.77468282172822,45.59795147590475],[-87.82493293762937,45.66238095269952],[-87.7818614097141,45.67354872867728],[-87.81057576165762,45.711347355063545],[-87.84646870158701,45.722515131041305]]]}},{"type":"Feature","id":"26111","properties":{"name":"Midland","county_fips":"26111","state_abbr":"MI"},"geometry":{"type":"Polygon","coordinates":[[[-84.60533622596226,43.81540261791617],[-84.36844282242822,43.813684498534975],[-84.36485352843528,43.828288513275126],[-84.16744235882358,43.82571133420333],[-84.16744235882358,43.56885248671486],[-84.17103165281652,43.482087457964575],[-84.36844282242822,43.48122839827398],[-84.36844282242822,43.46576532384323],[-84.60892551995519,43.46576532384323],[-84.60533622596226,43.81540261791617]]]}},{"type":"Feature","id":"26113","properties":{"name":"Missaukee","county_fips":"26113","state_abbr":"MI"},"geometry":{"type":"Polygon","coordinates":[[[-85.33396290652907,44.51210002699026],[-84.84940821748218,44.51124096729966],[-84.85658680546805,44.436502774217736],[-84.85299751147511,44.16160367322672],[-85.0863016210162,44.164180852298514],[-85.33396290652907,44.16503991198911],[-85.337552200522,44.425334998239975],[-85.33396290652907,44.51210002699026]]]}},{"type":"Feature","id":"26115","properties":{"name":"Monroe","county_fips":"26115","state_abbr":"MI"},"geometry":{"type":"Polygon","coordinates":[[[-83.7726200196002,42.08267922198221],[-83.5393159100591,42.085256401054004],[-83.30242250652506,42.09384699795997],[-83.18756509875098,42.02941752116521],[-83.19115439274393,42.00622290951909],[-83.24858309663097,41.97271958158581],[-83.2701188605886,41.93921625365253],[-83.31677968249681,41.93578001489014],[-83.3419047404474,41.879941135001346],[-83.38138697436975,41.87049147840478],[-83.44240497224972,41.8086391806818],[-83.42445850228502,41.74077346512465],[-83.45317285422854,41.73304192790927],[-83.76185213762137,41.723592271312704],[-83.7726200196002,42.08267922198221]]]}},{"type":"Feature","id":"26117","properties":{"name":"Montcalm","county_fips":"26117","state_abbr":"MI"},"geometry":{"type":"Polygon","coordinates":[[[-85.56367772207722,43.46834250291502],[-85.0863016210162,43.46576532384323],[-84.84581892348923,43.46576532384323],[-84.84581892348923,43.29223526634266],[-84.83505104151041,43.29223526634266],[-84.83864033550336,43.11870520884208],[-85.31242714257142,43.11870520884208],[-85.31242714257142,43.29395338572385],[-85.56367772207722,43.29395338572385],[-85.56367772207722,43.46834250291502]]]}},{"type":"Feature","id":"26119","properties":{"name":"Montmorency","county_fips":"26119","state_abbr":"MI"},"geometry":{"type":"Polygon","coordinates":[[[-84.36485352843528,45.19848871977719],[-84.24640682666826,45.19848871977719],[-83.88029883938839,45.20192495853958],[-83.88029883938839,45.03097208011079],[-83.89106672136721,45.030113020420195],[-83.88747742737426,44.856582962919624],[-84.37203211642117,44.85486484353843],[-84.36485352843528,45.19848871977719]]]}},{"type":"Feature","id":"26121","properties":{"name":"Muskegon","county_fips":"26121","state_abbr":"MI"},"geometry":{"type":"Polygon","coordinates":[[[-86.4610012203122,43.47263780136801],[-86.04105382313823,43.467483443224424],[-86.03746452914528,43.293094326033255],[-85.78980324363243,43.293094326033255],[-85.78980324363243,43.205470237592365],[-85.90824994539945,43.20632929728296],[-85.90824994539945,43.11870520884208],[-86.27076863868638,43.11870520884208],[-86.39639392843928,43.31628893767937],[-86.43587616236162,43.39704054859548],[-86.4610012203122,43.47263780136801]]]}},{"type":"Feature","id":"26123","properties":{"name":"Newaygo","county_fips":"26123","state_abbr":"MI"},"geometry":{"type":"Polygon","coordinates":[[[-86.04105382313823,43.467483443224424],[-86.03746452914528,43.81540261791617],[-85.56367772207722,43.81540261791617],[-85.56367772207722,43.46834250291502],[-85.56367772207722,43.29395338572385],[-85.78980324363243,43.293094326033255],[-86.03746452914528,43.293094326033255],[-86.04105382313823,43.467483443224424]]]}},{"type":"Feature","id":"26125","properties":{"name":"Oakland","county_fips":"26125","state_abbr":"MI"},"geometry":{"type":"Polygon","coordinates":[[[-83.45317285422854,42.88074567454674],[-83.10142204292043,42.88847721176211],[-83.08347557295572,42.4469205307953],[-83.55367308603086,42.434893695126945],[-83.66494119981199,42.431457456364555],[-83.68647696376964,42.78367192950929],[-83.69006625776258,42.87129601795017],[-83.45317285422854,42.87645037609376],[-83.45317285422854,42.88074567454674]]]}},{"type":"Feature","id":"26127","properties":{"name":"Oceana","county_fips":"26127","state_abbr":"MI"},"geometry":{"type":"Polygon","coordinates":[[[-86.43228686836868,43.81969791636916],[-86.03746452914528,43.81540261791617],[-86.04105382313823,43.467483443224424],[-86.4610012203122,43.47263780136801],[-86.53996568815688,43.61781888907888],[-86.53996568815688,43.659053754227536],[-86.4610012203122,43.74667784266842],[-86.43228686836868,43.81969791636916]]]}},{"type":"Feature","id":"26129","properties":{"name":"Ogemaw","county_fips":"26129","state_abbr":"MI"},"geometry":{"type":"Polygon","coordinates":[[[-84.37203211642117,44.50694566884668],[-83.88747742737426,44.50866378822788],[-83.88388813338133,44.16160367322672],[-84.16744235882358,44.16160367322672],[-84.36844282242822,44.16074461353613],[-84.37203211642117,44.50694566884668]]]}},{"type":"Feature","id":"26131","properties":{"name":"Ontonagon","county_fips":"26131","state_abbr":"MI"},"geometry":{"type":"Polygon","coordinates":[[[-89.88877698356983,46.76541359542595],[-89.79186604576046,46.81867529624296],[-89.67341934399343,46.8332793109831],[-89.61957993409933,46.81867529624296],[-89.51549040830407,46.84186990788907],[-89.4365259404594,46.83929272881728],[-89.24988265282653,46.90372220561205],[-89.14220383303832,46.98447381652816],[-88.98786419134191,46.997359711887114],[-88.93402478144782,47.032581159201584],[-88.93402478144782,46.76455453573535],[-88.86223890158901,46.76541359542595],[-88.86582819558195,46.67950762636626],[-88.98786419134191,46.68036668605685],[-88.99145348533484,46.42007159980599],[-88.99145348533484,46.3324475113651],[-89.3647400606006,46.3333065710557],[-89.3647400606006,46.50597756886568],[-89.7416159298593,46.50597756886568],[-89.7416159298593,46.59274259761597],[-89.86365192561925,46.59274259761597],[-89.86365192561925,46.76541359542595],[-89.88877698356983,46.76541359542595]]]}},{"type":"Feature","id":"26133","properties":{"name":"Osceola","county_fips":"26133","state_abbr":"MI"},"geometry":{"type":"Polygon","coordinates":[[[-85.56367772207722,44.16503991198911],[-85.33396290652907,44.16503991198911],[-85.0863016210162,44.164180852298514],[-85.08989091500915,43.813684498534975],[-85.56367772207722,43.81540261791617],[-85.56367772207722,44.16503991198911]]]}},{"type":"Feature","id":"26135","properties":{"name":"Oscoda","county_fips":"26135","state_abbr":"MI"},"geometry":{"type":"Polygon","coordinates":[[[-84.37203211642117,44.85486484353843],[-83.88747742737426,44.856582962919624],[-83.88747742737426,44.50866378822788],[-84.37203211642117,44.50694566884668],[-84.37203211642117,44.85486484353843]]]}},{"type":"Feature","id":"26137","properties":{"name":"Otsego","county_fips":"26137","state_abbr":"MI"},"geometry":{"type":"Polygon","coordinates":[[[-84.85658680546805,45.11687804917048],[-84.7345508097081,45.11515992978929],[-84.7345508097081,45.20192495853958],[-84.36485352843528,45.19848871977719],[-84.37203211642117,44.85486484353843],[-84.84581892348923,44.85830108230081],[-84.85658680546805,45.030113020420195],[-84.85658680546805,45.11687804917048]]]}},{"type":"Feature","id":"26139","properties":{"name":"Ottawa","county_fips":"26139","state_abbr":"MI"},"geometry":{"type":"Polygon","coordinates":[[[-86.27076863868638,43.11870520884208],[-85.90824994539945,43.11870520884208],[-85.90824994539945,43.20632929728296],[-85.78980324363243,43.205470237592365],[-85.78980324363243,43.0310811204012],[-85.78262465564656,42.91424900248002],[-85.78262465564656,42.76820885507854],[-86.2097506408064,42.76734979538794],[-86.2097506408064,42.859269182281814],[-86.23128640476405,43.015618045970456],[-86.27076863868638,43.11870520884208]]]}},{"type":"Feature","id":"26141","properties":{"name":"Presque Isle","county_fips":"26141","state_abbr":"MI"},"geometry":{"type":"Polygon","coordinates":[[[-84.20333529875299,45.627159505385045],[-84.12796012490125,45.56187096889968],[-84.11719224292243,45.51290456653566],[-84.05617424504244,45.48970995488954],[-83.93772754327543,45.49314619365193],[-83.90901319133191,45.485414656436554],[-83.80492366553665,45.419267060260594],[-83.72236990369903,45.41325364242642],[-83.60033390793907,45.35226040439404],[-83.49624438214381,45.357414762537616],[-83.42086920829207,45.29040810667106],[-83.38138697436975,45.268931614406135],[-83.4136906203062,45.24573700276002],[-83.38856556235562,45.207079316683156],[-83.88029883938839,45.20192495853958],[-84.24640682666826,45.19848871977719],[-84.24999612066121,45.28181750976509],[-84.25358541465414,45.62630044569445],[-84.20333529875299,45.627159505385045]]]}},{"type":"Feature","id":"26143","properties":{"name":"Roscommon","county_fips":"26143","state_abbr":"MI"},"geometry":{"type":"Polygon","coordinates":[[[-84.84940821748218,44.51124096729966],[-84.47253234822348,44.510381907609066],[-84.37203211642117,44.50694566884668],[-84.36844282242822,44.16074461353613],[-84.60892551995519,44.16074461353613],[-84.85299751147511,44.16160367322672],[-84.85658680546805,44.436502774217736],[-84.84940821748218,44.51124096729966]]]}},{"type":"Feature","id":"26145","properties":{"name":"Saginaw","county_fips":"26145","state_abbr":"MI"},"geometry":{"type":"Polygon","coordinates":[[[-84.16744235882358,43.56885248671486],[-84.04899565705657,43.567134367333665],[-84.05258495104951,43.52418138280382],[-83.81569154751547,43.52246326342263],[-83.81928084150842,43.478651219202185],[-83.69724484574846,43.478651219202185],[-83.69365555175551,43.32573859427593],[-83.69724484574846,43.22179237171371],[-83.93054895528955,43.220074252332516],[-83.93054895528955,43.13245016389163],[-84.36844282242822,43.128154865438646],[-84.36844282242822,43.46576532384323],[-84.36844282242822,43.48122839827398],[-84.17103165281652,43.482087457964575],[-84.16744235882358,43.56885248671486]]]}},{"type":"Feature","id":"26151","properties":{"name":"Sanilac","county_fips":"26151","state_abbr":"MI"},"geometry":{"type":"Polygon","coordinates":[[[-83.11936851288513,43.32745671365713],[-83.10501133691336,43.32745671365713],[-83.11936851288513,43.675375888348874],[-82.60609947189472,43.69083896277962],[-82.59892088390883,43.590328978979784],[-82.53790288602886,43.43741635405353],[-82.52354571005709,43.225228610476094],[-82.50200994609946,43.1685306708967],[-82.99733251712517,43.15392665615656],[-83.0009218111181,43.28450372912729],[-83.11936851288513,43.28364466943669],[-83.11936851288513,43.32745671365713]]]}},{"type":"Feature","id":"26153","properties":{"name":"Schoolcraft","county_fips":"26153","state_abbr":"MI"},"geometry":{"type":"Polygon","coordinates":[[[-85.86517841748417,46.505118509175084],[-85.86517841748417,46.24482342292422],[-85.86517841748417,45.96820620255202],[-85.92260712137121,45.94844782966829],[-85.91542853338532,45.919239800187995],[-85.99798229522295,45.95102500874008],[-86.0733574690747,45.965629023480226],[-86.15950052490524,45.95360218781187],[-86.19539346483465,45.96305184440843],[-86.27794722667227,45.942434411834114],[-86.32460804858049,45.90635390482904],[-86.33178663656636,45.85223314432144],[-86.36409028250281,45.79038084659846],[-86.41434039840398,45.79381708536084],[-86.4610012203122,45.757736578355775],[-86.45741192631925,45.896045188541876],[-86.48971557225572,45.896045188541876],[-86.48971557225572,46.158058394173935],[-86.61534086200862,46.15891745386453],[-86.61534086200862,46.3333065710557],[-86.36409028250281,46.331588451674506],[-86.36409028250281,46.50597756886568],[-85.86517841748417,46.505118509175084]]]}},{"type":"Feature","id":"26155","properties":{"name":"Shiawassee","county_fips":"26155","state_abbr":"MI"},"geometry":{"type":"Polygon","coordinates":[[[-84.36844282242822,43.128154865438646],[-83.93054895528955,43.13245016389163],[-83.92337036730368,42.7810947504375],[-84.15667447684477,42.776799451984516],[-84.36485352843528,42.77594039229392],[-84.36844282242822,43.11784614915148],[-84.36844282242822,43.128154865438646]]]}},{"type":"Feature","id":"26147","properties":{"name":"St. Clair","county_fips":"26147","state_abbr":"MI"},"geometry":{"type":"Polygon","coordinates":[[[-82.99733251712517,43.15392665615656],[-82.50200994609946,43.1685306708967],[-82.4876527701277,43.10238307472074],[-82.42304547825478,43.00788650875508],[-82.4158668902689,42.966651643606426],[-82.45534912419124,42.92713489783897],[-82.48047418214182,42.80257124270242],[-82.46611700617005,42.762195437244365],[-82.50918853408534,42.66512169220692],[-82.52354571005709,42.607564692936926],[-82.58815300193001,42.550866753357525],[-82.64199241182412,42.554302992119915],[-82.6850639397394,42.51822248511485],[-82.68147464574645,42.57492042469424],[-82.71377829168291,42.59811503634035],[-82.67788535175352,42.611859991389906],[-82.62404594185942,42.66512169220692],[-82.67429605776057,42.68745724416244],[-82.70659970369704,42.68316194570945],[-82.73172476164761,42.72096057209571],[-82.73890334963349,42.897926868358674],[-82.9829753411534,42.89363156990569],[-82.99733251712517,43.15392665615656]]]}},{"type":"Feature","id":"26149","properties":{"name":"St. Joseph","county_fips":"26149","state_abbr":"MI"},"geometry":{"type":"Polygon","coordinates":[[[-85.76467818568186,42.068934266932665],[-85.29448067260672,42.07151144600445],[-85.29089137861378,41.75967277831778],[-85.6605886598866,41.75881371862718],[-85.78980324363243,41.75881371862718],[-85.76108889168891,41.799189524085236],[-85.76467818568186,42.068934266932665]]]}},{"type":"Feature","id":"26157","properties":{"name":"Tuscola","county_fips":"26157","state_abbr":"MI"},"geometry":{"type":"Polygon","coordinates":[[[-83.70083413974139,43.601496754957545],[-83.6469947298473,43.60407393402933],[-83.54649449804498,43.70716109690096],[-83.49624438214381,43.70716109690096],[-83.47470861818618,43.73121476823768],[-83.4675300302003,43.667644351133504],[-83.11936851288513,43.675375888348874],[-83.10501133691336,43.32745671365713],[-83.11936851288513,43.32745671365713],[-83.35267262242623,43.32230235551355],[-83.35267262242623,43.23553732676326],[-83.46035144221442,43.23296014769147],[-83.46035144221442,43.223510491094906],[-83.69724484574846,43.22179237171371],[-83.69365555175551,43.32573859427593],[-83.69724484574846,43.478651219202185],[-83.70083413974139,43.601496754957545]]]}},{"type":"Feature","id":"26159","properties":{"name":"Van Buren","county_fips":"26159","state_abbr":"MI"},"geometry":{"type":"Polygon","coordinates":[[[-86.27435793267932,42.4194306206962],[-85.76467818568186,42.420289680386794],[-85.76467818568186,42.068934266932665],[-86.22410781677816,42.07151144600445],[-86.22410781677816,42.24332338412383],[-86.36409028250281,42.24332338412383],[-86.29589369663697,42.35843738266382],[-86.27435793267932,42.4194306206962]]]}},{"type":"Feature","id":"26161","properties":{"name":"Washtenaw","county_fips":"26161","state_abbr":"MI"},"geometry":{"type":"Polygon","coordinates":[[[-84.13154941889418,42.42458497883978],[-83.9449061312613,42.423725919149184],[-83.66494119981199,42.431457456364555],[-83.55367308603086,42.434893695126945],[-83.54290520405203,42.262222697316965],[-83.5393159100591,42.085256401054004],[-83.7726200196002,42.08267922198221],[-84.00951342313422,42.07838392352923],[-84.13154941889418,42.07151144600445],[-84.13154941889418,42.42458497883978]]]}},{"type":"Feature","id":"26163","properties":{"name":"Wayne","county_fips":"26163","state_abbr":"MI"},"geometry":{"type":"Polygon","coordinates":[[[-83.55367308603086,42.434893695126945],[-83.08347557295572,42.4469205307953],[-82.87170722737227,42.451215829248284],[-82.89683228532284,42.385068233072325],[-82.95785028320283,42.339538069470684],[-83.06552910299102,42.31806157720577],[-83.13013639486394,42.234732787217865],[-83.12295780687806,42.12563220651206],[-83.13372568885688,42.087833580125796],[-83.18756509875098,42.06635708786087],[-83.18756509875098,42.02941752116521],[-83.30242250652506,42.09384699795997],[-83.5393159100591,42.085256401054004],[-83.54290520405203,42.262222697316965],[-83.55367308603086,42.434893695126945]]]}},{"type":"Feature","id":"26165","properties":{"name":"Wexford","county_fips":"26165","state_abbr":"MI"},"geometry":{"type":"Polygon","coordinates":[[[-85.81851759557595,44.51295908668086],[-85.33396290652907,44.51210002699026],[-85.337552200522,44.425334998239975],[-85.33396290652907,44.16503991198911],[-85.56367772207722,44.16503991198911],[-85.82210688956889,44.164180852298514],[-85.81851759557595,44.51295908668086]]]}}]}