{"type":"FeatureCollection","features":[{"type":"Feature","id":"27001","properties":{"name":"Aitkin","county_fips":"27001","state_abbr":"MN"},"geometry":{"type":"Polygon","coordinates":[[[-93.77598237792378,46.80321222181221],[-93.77598237792378,47.03000398012979],[-93.05453428534285,47.02656774136741],[-93.06171287332873,46.766272655116545],[-93.06530216732168,46.677789506985064],[-93.05453428534285,46.57899764256642],[-93.05453428534285,46.419212540115396],[-93.05453428534285,46.158058394173935],[-93.284249100891,46.15977651355513],[-93.43141015460154,46.15376309572095],[-93.43141015460154,46.246541542305415],[-93.79751814188141,46.243105303543025],[-93.81187531785318,46.2508368407584],[-93.81187531785318,46.58415200071],[-93.77957167191671,46.589306358853584],[-93.77598237792378,46.80321222181221]]]}},{"type":"Feature","id":"27003","properties":{"name":"Anoka","county_fips":"27003","state_abbr":"MN"},"geometry":{"type":"Polygon","coordinates":[[[-93.51037462244622,45.414971761807614],[-93.09401651926518,45.414112702117016],[-93.01864134541346,45.411535523045224],[-93.01864134541346,45.29728058419583],[-93.02223063940639,45.12375052669526],[-93.22682039700396,45.12460958638586],[-93.22682039700396,45.03526737856378],[-93.284249100891,45.03526737856378],[-93.27707051290513,45.103133094120935],[-93.31296345283452,45.14350889957899],[-93.42423156661566,45.211374615136144],[-93.51396391643917,45.24573700276002],[-93.51037462244622,45.414971761807614]]]}},{"type":"Feature","id":"27005","properties":{"name":"Becker","county_fips":"27005","state_abbr":"MN"},"geometry":{"type":"Polygon","coordinates":[[[-96.19516652916529,47.151131396503956],[-96.06595194541946,47.151990456194554],[-95.55268290442903,47.151131396503956],[-95.16862844718447,47.15284951588515],[-95.16862844718447,46.97846039869398],[-95.16144985919858,46.97846039869398],[-95.16144985919858,46.804930341193405],[-95.16503915319153,46.71730625275252],[-95.43423620266202,46.71558813337133],[-96.17363076520765,46.71816531244312],[-96.17363076520765,46.977601339003385],[-96.19516652916529,46.977601339003385],[-96.19516652916529,47.151131396503956]]]}},{"type":"Feature","id":"27007","properties":{"name":"Beltrami","county_fips":"27007","state_abbr":"MN"},"geometry":{"type":"Polygon","coordinates":[[[-95.6029330203302,48.53851279681796],[-95.34091455884558,48.54023091619916],[-95.21169997509975,48.54023091619916],[-95.21169997509975,48.36584179900798],[-94.42923388463885,48.367559918389176],[-94.41846600266003,47.84611068619685],[-94.41487670866708,47.4449298106881],[-94.41487670866708,47.41142648275482],[-94.66971658216582,47.41056742306422],[-95.18298562315623,47.413144602136015],[-95.19375350513505,47.67343968838688],[-95.19375350513505,47.87274153660536],[-95.24759291502914,47.883050252892524],[-95.27630726697267,47.944043490924905],[-95.22964644506445,48.01964074369743],[-95.58139725637255,48.02049980338803],[-95.59216513835138,48.02049980338803],[-95.59216513835138,48.17255336862368],[-95.59216513835138,48.36584179900798],[-95.6029330203302,48.36584179900798],[-95.6029330203302,48.53851279681796]]]}},{"type":"Feature","id":"27009","properties":{"name":"Benton","county_fips":"27009","state_abbr":"MN"},"geometry":{"type":"Polygon","coordinates":[[[-93.76521449594496,45.82216605515055],[-93.75803590795907,45.55929378982789],[-94.14926895318953,45.55929378982789],[-94.20310836308363,45.619427968169674],[-94.19951906909068,45.6683943705337],[-94.27130494894949,45.77491777216771],[-94.35385871078711,45.82216605515055],[-93.76521449594496,45.82216605515055]]]}},{"type":"Feature","id":"27011","properties":{"name":"Big Stone","county_fips":"27011","state_abbr":"MN"},"geometry":{"type":"Polygon","coordinates":[[[-96.83406085990859,45.58592464023639],[-96.25259523305233,45.58592464023639],[-96.24182735107351,45.58592464023639],[-96.24182735107351,45.41239458273582],[-96.1162020613206,45.41239458273582],[-96.11979135531355,45.23972358492584],[-96.10184488534885,45.177012227512265],[-96.17363076520765,45.19247530194301],[-96.22388088110881,45.22082427173271],[-96.27413099700996,45.222542391113905],[-96.28489887898878,45.246596062450614],[-96.45359569665696,45.268931614406135],[-96.47154216662166,45.326488613676126],[-96.52179228252282,45.375455016040156],[-96.6187032203322,45.408099284282834],[-96.68331051220511,45.411535523045224],[-96.73356062810628,45.45878380602805],[-96.76586427404274,45.52149516344163],[-96.83406085990859,45.58592464023639]]]}},{"type":"Feature","id":"27013","properties":{"name":"Blue Earth","county_fips":"27013","state_abbr":"MN"},"geometry":{"type":"Polygon","coordinates":[[[-94.3718051807518,44.26469083609835],[-94.28925141891419,44.239778105071046],[-94.21387624506245,44.20112041899418],[-94.11337601326012,44.18136204611045],[-94.04517942739427,44.15473119570195],[-94.00210789947899,44.1693352104421],[-94.02364366343663,44.221737851568506],[-94.01287578145781,44.239778105071046],[-93.76880378993789,44.239778105071046],[-93.76880378993789,44.1959660608506],[-93.76880378993789,43.848046886158855],[-94.2461798909989,43.848046886158855],[-94.36821588675886,43.848046886158855],[-94.36821588675886,44.10834197240972],[-94.3718051807518,44.26469083609835]]]}},{"type":"Feature","id":"27015","properties":{"name":"Brown","county_fips":"27015","state_abbr":"MN"},"geometry":{"type":"Polygon","coordinates":[[[-94.86712775177752,44.498355071940715],[-94.81328834188342,44.48461011689116],[-94.78098469594696,44.456261147101465],[-94.6948416401164,44.42791217731177],[-94.66612728817287,44.394408849378486],[-94.52255552845529,44.36520081989819],[-94.4615375305753,44.33255655165551],[-94.41128741467415,44.27328143300432],[-94.3718051807518,44.26469083609835],[-94.36821588675886,44.10834197240972],[-94.85994916379164,44.10834197240972],[-95.10043186131861,44.10834197240972],[-95.10761044930449,44.195107001160004],[-95.10761044930449,44.28187202991029],[-94.86712775177752,44.28273108960089],[-94.86712775177752,44.498355071940715]]]}},{"type":"Feature","id":"27017","properties":{"name":"Carlton","county_fips":"27017","state_abbr":"MN"},"geometry":{"type":"Polygon","coordinates":[[[-93.06171287332873,46.766272655116545],[-92.30078254682546,46.76455453573535],[-92.29360395883958,46.663185492244914],[-92.29360395883958,46.4174944207342],[-93.05453428534285,46.419212540115396],[-93.05453428534285,46.57899764256642],[-93.06530216732168,46.677789506985064],[-93.06171287332873,46.766272655116545]]]}},{"type":"Feature","id":"27019","properties":{"name":"Carver","county_fips":"27019","state_abbr":"MN"},"geometry":{"type":"Polygon","coordinates":[[[-94.01287578145781,44.97856943898438],[-93.76880378993789,44.97771037929378],[-93.76880378993789,44.8909453505435],[-93.52473179841797,44.891804410234094],[-93.52114250442504,44.80418032179321],[-93.60010697226971,44.78270382952829],[-93.63241061820618,44.73803272561725],[-93.61805344223441,44.70796563644636],[-93.66830355813558,44.695079741087405],[-93.6970179100791,44.66930795036949],[-93.76880378993789,44.6400999208892],[-93.76880378993789,44.67360324882248],[-93.88725049170492,44.67360324882248],[-93.88725049170492,44.717415293042926],[-94.00928648746488,44.717415293042926],[-94.01287578145781,44.97856943898438]]]}},{"type":"Feature","id":"27021","properties":{"name":"Cass","county_fips":"27021","state_abbr":"MN"},"geometry":{"type":"Polygon","coordinates":[[[-94.78816328393283,46.80407128150281],[-94.658948700187,46.80407128150281],[-94.658948700187,46.97674227931279],[-94.66971658216582,47.41056742306422],[-94.41487670866708,47.41142648275482],[-94.41487670866708,47.4449298106881],[-94.32873365283652,47.41572178120781],[-94.11696530725307,47.48101031769317],[-94.08107236732367,47.46812442233421],[-94.02723295742958,47.40884930368303],[-94.04159013340133,47.37276879667796],[-93.9123755496555,47.298030603596025],[-93.88725049170492,47.31864803617035],[-93.77239308393084,47.304903081120806],[-93.81187531785318,47.23446018649186],[-93.77598237792378,47.212983694226935],[-93.77598237792378,47.03000398012979],[-93.77598237792378,46.80321222181221],[-94.34309082880829,46.805789400884],[-94.34668012280122,46.63140028369283],[-94.33232294682946,46.63140028369283],[-94.32873365283652,46.28949452683526],[-94.34309082880829,46.277467691166905],[-94.4256445906459,46.3324475113651],[-94.4615375305753,46.331588451674506],[-94.5333234104341,46.30238042219421],[-94.6230557602576,46.32643409353093],[-94.65177011220112,46.34876964548645],[-94.71996669806698,46.351346824558235],[-94.73073458004579,46.36852801837018],[-94.77739540195401,46.39429980908808],[-94.78816328393283,46.80407128150281]]]}},{"type":"Feature","id":"27023","properties":{"name":"Chippewa","county_fips":"27023","state_abbr":"MN"},"geometry":{"type":"Polygon","coordinates":[[[-96.03723759347594,45.15209949648496],[-95.24759291502914,45.15209949648496],[-95.24759291502914,44.8909453505435],[-95.48448631856319,44.8909453505435],[-95.48448631856319,44.752636740357396],[-95.52755784647846,44.77067699385993],[-95.49884349453494,44.786999127981275],[-95.61370090230902,44.85056954508544],[-95.67112960619606,44.90383124590245],[-95.7106118401184,44.90383124590245],[-95.73573689806898,44.93561645445454],[-95.80393348393484,44.949361409504085],[-95.82546924789247,44.987160035890355],[-95.9798088895889,45.09711967628675],[-96.03723759347594,45.15209949648496]]]}},{"type":"Feature","id":"27025","properties":{"name":"Chisago","county_fips":"27025","state_abbr":"MN"},"geometry":{"type":"Polygon","coordinates":[[[-93.1406773411734,45.730246668256676],[-92.84276593975939,45.730246668256676],[-92.86430170371703,45.722515131041305],[-92.88583746767468,45.64434069919699],[-92.88583746767468,45.57905216271162],[-92.81046229382294,45.561011909209086],[-92.77456935389354,45.568743446424456],[-92.72431923799238,45.54125353632536],[-92.72790853198532,45.514622685916855],[-92.64535477014769,45.441602612216116],[-92.64894406414064,45.39864962768627],[-92.70278347403473,45.35827382222821],[-92.6991941800418,45.333361091200906],[-92.74585500195002,45.295562464814644],[-93.01864134541346,45.29728058419583],[-93.01864134541346,45.411535523045224],[-93.02223063940639,45.557575670446695],[-93.1406773411734,45.55843473013729],[-93.1406773411734,45.730246668256676]]]}},{"type":"Feature","id":"27027","properties":{"name":"Clay","county_fips":"27027","state_abbr":"MN"},"geometry":{"type":"Polygon","coordinates":[[[-96.83047156591566,47.15027233681336],[-96.19516652916529,47.151131396503956],[-96.19516652916529,46.977601339003385],[-96.17363076520765,46.977601339003385],[-96.17363076520765,46.71816531244312],[-96.17363076520765,46.63054122400223],[-96.28130958499584,46.63054122400223],[-96.78381074400744,46.62968216431164],[-96.79098933199332,46.63311840307402],[-96.79816791997919,46.66490361162611],[-96.7802214500145,46.7233196705867],[-96.80175721397214,46.81953435593355],[-96.78381074400744,46.8341383706737],[-96.7622749800498,46.93464835447354],[-96.78381074400744,46.92519869787697],[-96.82329297792977,46.96901074209741],[-96.81970368393684,47.115909949189486],[-96.83047156591566,47.15027233681336]]]}},{"type":"Feature","id":"27029","properties":{"name":"Clearwater","county_fips":"27029","state_abbr":"MN"},"geometry":{"type":"Polygon","coordinates":[[[-95.58139725637255,48.02049980338803],[-95.22964644506445,48.01964074369743],[-95.27630726697267,47.944043490924905],[-95.24759291502914,47.883050252892524],[-95.19375350513505,47.87274153660536],[-95.19375350513505,47.67343968838688],[-95.18298562315623,47.413144602136015],[-95.18298562315623,47.32552051369513],[-95.16862844718447,47.32552051369513],[-95.16862844718447,47.15284951588515],[-95.55268290442903,47.151131396503956],[-95.55268290442903,47.4999096308863],[-95.55268290442903,47.67343968838688],[-95.57780796237962,47.67343968838688],[-95.58139725637255,47.93373477463774],[-95.58139725637255,48.02049980338803]]]}},{"type":"Feature","id":"27031","properties":{"name":"Cook","county_fips":"27031","state_abbr":"MN"},"geometry":{"type":"Polygon","coordinates":[[[-91.03017247332473,48.18887550274502],[-90.97633306343063,48.21980165160651],[-90.88660071360714,48.245573442324414],[-90.83635059770597,48.23440566634665],[-90.83635059770597,48.17684866707666],[-90.775332599826,48.16224465233652],[-90.79686836378363,48.139909100381],[-90.76097542385423,48.098674235232345],[-90.70354671996719,48.09609705616055],[-90.5779214302143,48.121009787187866],[-90.55638566625666,48.09609705616055],[-90.46665331643317,48.10898295151951],[-90.37333167261673,48.09351987708877],[-90.30513508675087,48.10468765306652],[-90.13284897508974,48.1115601305913],[-90.02875944929448,48.087506459254584],[-89.99645580335803,48.03080851967519],[-89.87441980759807,47.98527835607355],[-89.82058039770398,48.01534544524444],[-89.74879451784517,48.02307698245982],[-89.70213369593695,48.00589578864788],[-89.61957993409933,48.01105014679146],[-89.58009770017699,47.99558707236071],[-89.4903653503535,48.014486385553845],[-89.58727628816288,47.96637904288042],[-89.62316922809228,47.98356023669236],[-89.63752640406403,47.95435220721206],[-89.69854440194402,47.94146631185311],[-89.79186604576046,47.89164084979849],[-89.92466992349924,47.8624328203182],[-89.97492003940039,47.83064761176611],[-90.16156332703326,47.79284898537985],[-90.33384943869439,47.74645976208761],[-90.38768884858848,47.74130540394403],[-90.53843919629196,47.70264771786717],[-90.55279637226371,47.690620882198814],[-90.73585036590366,47.624473286022855],[-90.86865424364244,47.556607570465694],[-91.02299388533885,47.46468818357183],[-91.0194045913459,47.8882046110361],[-91.0265831793318,47.90280862577625],[-91.03017247332473,48.18887550274502]]]}},{"type":"Feature","id":"27033","properties":{"name":"Cottonwood","county_fips":"27033","state_abbr":"MN"},"geometry":{"type":"Polygon","coordinates":[[[-95.46295055460554,44.1959660608506],[-95.10761044930449,44.195107001160004],[-95.10043186131861,44.10834197240972],[-94.85994916379164,44.10834197240972],[-94.85994916379164,43.848046886158855],[-95.45218267262672,43.848046886158855],[-95.46295055460554,43.848046886158855],[-95.46295055460554,44.1959660608506]]]}},{"type":"Feature","id":"27035","properties":{"name":"Crow Wing","county_fips":"27035","state_abbr":"MN"},"geometry":{"type":"Polygon","coordinates":[[[-94.34309082880829,46.277467691166905],[-94.32873365283652,46.28949452683526],[-94.33232294682946,46.63140028369283],[-94.34668012280122,46.63140028369283],[-94.34309082880829,46.805789400884],[-93.77598237792378,46.80321222181221],[-93.77957167191671,46.589306358853584],[-93.81187531785318,46.58415200071],[-93.81187531785318,46.2508368407584],[-93.79751814188141,46.243105303543025],[-93.81187531785318,46.243105303543025],[-93.81187531785318,46.15634027479274],[-94.37539447474474,46.15719933448334],[-94.36462659276593,46.180393946129456],[-94.39693023870238,46.212179154681536],[-94.34309082880829,46.277467691166905]]]}},{"type":"Feature","id":"27037","properties":{"name":"Dakota","county_fips":"27037","state_abbr":"MN"},"geometry":{"type":"Polygon","coordinates":[[[-93.33090992279922,44.791294426434256],[-93.25194545495455,44.811052799317984],[-93.21246322103221,44.83940176910768],[-93.18015957509574,44.888368171471704],[-93.1299094591946,44.919294320333194],[-93.05094499134991,44.919294320333194],[-93.01864134541346,44.8909453505435],[-93.00428416944169,44.77153605355053],[-92.92890899558995,44.78184476983769],[-92.88224817368173,44.77411323262232],[-92.85353382173821,44.74748238221382],[-92.80328370583706,44.74576426283262],[-92.73149782597825,44.713979054280536],[-92.73149782597825,44.629791204602036],[-92.79251582385824,44.629791204602036],[-92.79251582385824,44.54302617585175],[-92.91814111361113,44.54302617585175],[-92.91814111361113,44.517254385133846],[-92.95403405354052,44.50694566884668],[-93.04017710937109,44.51553626575265],[-93.04017710937109,44.471724221532206],[-93.28065980689806,44.471724221532206],[-93.28065980689806,44.54388523554235],[-93.27707051290513,44.63065026429263],[-93.3201420408204,44.63065026429263],[-93.31655274682747,44.717415293042926],[-93.33090992279922,44.791294426434256]]]}},{"type":"Feature","id":"27039","properties":{"name":"Dodge","county_fips":"27039","state_abbr":"MN"},"geometry":{"type":"Polygon","coordinates":[[[-93.04735569735696,44.1968251205412],[-93.04017710937109,44.1968251205412],[-92.67765841608416,44.195107001160004],[-92.67765841608416,43.84890594584945],[-92.68842629806298,43.84890594584945],[-93.04735569735696,43.848046886158855],[-93.04376640336403,43.87811397532975],[-93.04735569735696,44.1968251205412]]]}},{"type":"Feature","id":"27041","properties":{"name":"Douglas","county_fips":"27041","state_abbr":"MN"},"geometry":{"type":"Polygon","coordinates":[[[-95.76804054400543,46.10737387242872],[-95.14709268322683,46.10651481273812],[-95.14709268322683,45.93298475523755],[-95.13991409524095,45.77319965278652],[-95.13991409524095,45.75859563804637],[-95.75727266202662,45.76031375742757],[-95.75727266202662,45.93384381492814],[-95.76804054400543,45.93384381492814],[-95.76804054400543,46.10737387242872]]]}},{"type":"Feature","id":"27043","properties":{"name":"Faribault","county_fips":"27043","state_abbr":"MN"},"geometry":{"type":"Polygon","coordinates":[[[-94.2461798909989,43.848046886158855],[-93.76880378993789,43.848046886158855],[-93.64676779417793,43.848046886158855],[-93.64676779417793,43.49926865177651],[-93.96980425354253,43.49926865177651],[-94.2461798909989,43.50012771146711],[-94.2461798909989,43.848046886158855]]]}},{"type":"Feature","id":"27045","properties":{"name":"Fillmore","county_fips":"27045","state_abbr":"MN"},"geometry":{"type":"Polygon","coordinates":[[[-92.44794360053601,43.8343019311093],[-92.44794360053601,43.848046886158855],[-92.07824631926319,43.84718782646826],[-91.73008480194801,43.84718782646826],[-91.73008480194801,43.500986771157706],[-92.07824631926319,43.500986771157706],[-92.44794360053601,43.50012771146711],[-92.44794360053601,43.8343019311093]]]}},{"type":"Feature","id":"27047","properties":{"name":"Freeborn","county_fips":"27047","state_abbr":"MN"},"geometry":{"type":"Polygon","coordinates":[[[-93.64676779417793,43.848046886158855],[-93.40628509665096,43.848046886158855],[-93.05094499134991,43.848046886158855],[-93.05094499134991,43.49926865177651],[-93.49601744647445,43.49926865177651],[-93.64676779417793,43.49926865177651],[-93.64676779417793,43.848046886158855]]]}},{"type":"Feature","id":"27049","properties":{"name":"Goodhue","county_fips":"27049","state_abbr":"MN"},"geometry":{"type":"Polygon","coordinates":[[[-93.04017710937109,44.471724221532206],[-93.04017710937109,44.51553626575265],[-92.95403405354052,44.50694566884668],[-92.91814111361113,44.517254385133846],[-92.91814111361113,44.54302617585175],[-92.79251582385824,44.54302617585175],[-92.79251582385824,44.629791204602036],[-92.73149782597825,44.629791204602036],[-92.73149782597825,44.713979054280536],[-92.62022971219712,44.6392408611986],[-92.62381900619006,44.61862342862428],[-92.5735688902889,44.60487847357473],[-92.54126524435245,44.56707984718847],[-92.43358642456424,44.56536172780727],[-92.33667548675486,44.55419395182951],[-92.31513972279723,44.541308056470555],[-92.3043718408184,44.50350943008429],[-92.24335384293842,44.45454302772027],[-92.42999713057131,44.45540208741087],[-92.42999713057131,44.36863705866058],[-92.55203312633125,44.36863705866058],[-92.55203312633125,44.195107001160004],[-92.67765841608416,44.195107001160004],[-93.04017710937109,44.1968251205412],[-93.04017710937109,44.471724221532206]]]}},{"type":"Feature","id":"27051","properties":{"name":"Grant","county_fips":"27051","state_abbr":"MN"},"geometry":{"type":"Polygon","coordinates":[[[-96.26695240902409,46.02146790336903],[-96.26695240902409,46.108232932119314],[-95.76804054400543,46.10737387242872],[-95.76804054400543,45.93384381492814],[-95.75727266202662,45.93384381492814],[-95.75727266202662,45.76031375742757],[-96.25259523305233,45.75945469773697],[-96.25259523305233,45.934702874618736],[-96.26695240902409,45.934702874618736],[-96.26695240902409,46.02146790336903]]]}},{"type":"Feature","id":"27053","properties":{"name":"Hennepin","county_fips":"27053","state_abbr":"MN"},"geometry":{"type":"Polygon","coordinates":[[[-93.52114250442504,45.246596062450614],[-93.51396391643917,45.24573700276002],[-93.42423156661566,45.211374615136144],[-93.31296345283452,45.14350889957899],[-93.27707051290513,45.103133094120935],[-93.284249100891,45.03526737856378],[-93.22682039700396,45.03526737856378],[-93.20887392703926,45.03612643825438],[-93.20169533905339,44.90898560404603],[-93.18015957509574,44.888368171471704],[-93.21246322103221,44.83940176910768],[-93.25194545495455,44.811052799317984],[-93.33090992279922,44.791294426434256],[-93.38116003870039,44.78528100860008],[-93.43858874258743,44.81277091869918],[-93.52114250442504,44.80418032179321],[-93.52473179841797,44.891804410234094],[-93.76880378993789,44.8909453505435],[-93.76880378993789,44.97771037929378],[-93.76162520195201,45.08165660185601],[-93.73650014400144,45.08251566154661],[-93.70060720407204,45.13663642205422],[-93.63958920619206,45.16584445153451],[-93.63958920619206,45.20965649575495],[-93.5713926203262,45.21824709266092],[-93.52114250442504,45.246596062450614]]]}},{"type":"Feature","id":"27055","properties":{"name":"Houston","county_fips":"27055","state_abbr":"MN"},"geometry":{"type":"Polygon","coordinates":[[[-91.73008480194801,43.84718782646826],[-91.28501234682346,43.84718782646826],[-91.24553011290112,43.77330869307692],[-91.25629799487994,43.72606041009409],[-91.27424446484464,43.67623494803947],[-91.26706587685877,43.61524171000709],[-91.23117293692937,43.58345650145501],[-91.24553011290112,43.54565787506874],[-91.2168157609576,43.50012771146711],[-91.611638100181,43.50012771146711],[-91.73008480194801,43.500986771157706],[-91.73008480194801,43.84718782646826]]]}},{"type":"Feature","id":"27057","properties":{"name":"Hubbard","county_fips":"27057","state_abbr":"MN"},"geometry":{"type":"Polygon","coordinates":[[[-95.18298562315623,47.413144602136015],[-94.66971658216582,47.41056742306422],[-94.658948700187,46.97674227931279],[-94.658948700187,46.80407128150281],[-94.78816328393283,46.80407128150281],[-95.16144985919858,46.804930341193405],[-95.16144985919858,46.97846039869398],[-95.16862844718447,46.97846039869398],[-95.16862844718447,47.15284951588515],[-95.16862844718447,47.32552051369513],[-95.18298562315623,47.32552051369513],[-95.18298562315623,47.413144602136015]]]}},{"type":"Feature","id":"27059","properties":{"name":"Isanti","county_fips":"27059","state_abbr":"MN"},"geometry":{"type":"Polygon","coordinates":[[[-93.51396391643917,45.734541966709656],[-93.1406773411734,45.730246668256676],[-93.1406773411734,45.55843473013729],[-93.02223063940639,45.557575670446695],[-93.01864134541346,45.411535523045224],[-93.09401651926518,45.414112702117016],[-93.51037462244622,45.414971761807614],[-93.51037462244622,45.55843473013729],[-93.51396391643917,45.734541966709656]]]}},{"type":"Feature","id":"27061","properties":{"name":"Itasca","county_fips":"27061","state_abbr":"MN"},"geometry":{"type":"Polygon","coordinates":[[[-94.41846600266003,47.84611068619685],[-93.77598237792378,47.84611068619685],[-93.77598237792378,47.89937238701386],[-93.07965934329343,47.89164084979849],[-93.08324863728637,47.720687971369706],[-93.06171287332873,47.71982891167911],[-93.0688914613146,47.394245288942884],[-93.06530216732168,47.109037471664706],[-93.05453428534285,47.02656774136741],[-93.77598237792378,47.03000398012979],[-93.77598237792378,47.212983694226935],[-93.81187531785318,47.23446018649186],[-93.77239308393084,47.304903081120806],[-93.88725049170492,47.31864803617035],[-93.9123755496555,47.298030603596025],[-94.04159013340133,47.37276879667796],[-94.02723295742958,47.40884930368303],[-94.08107236732367,47.46812442233421],[-94.11696530725307,47.48101031769317],[-94.32873365283652,47.41572178120781],[-94.41487670866708,47.4449298106881],[-94.41846600266003,47.84611068619685]]]}},{"type":"Feature","id":"27063","properties":{"name":"Jackson","county_fips":"27063","state_abbr":"MN"},"geometry":{"type":"Polygon","coordinates":[[[-95.45218267262672,43.848046886158855],[-94.85994916379164,43.848046886158855],[-94.85277057580575,43.848046886158855],[-94.85277057580575,43.500986771157706],[-94.91378857368574,43.50012771146711],[-95.3875753807538,43.50012771146711],[-95.45577196661966,43.500986771157706],[-95.45218267262672,43.848046886158855]]]}},{"type":"Feature","id":"27065","properties":{"name":"Kanabec","county_fips":"27065","state_abbr":"MN"},"geometry":{"type":"Polygon","coordinates":[[[-93.43141015460154,46.15376309572095],[-93.284249100891,46.15977651355513],[-93.05453428534285,46.158058394173935],[-93.05453428534285,45.981092097910974],[-93.14426663516635,45.981092097910974],[-93.1406773411734,45.730246668256676],[-93.51396391643917,45.734541966709656],[-93.5175532104321,45.98195115760157],[-93.43141015460154,45.981092097910974],[-93.43141015460154,46.15376309572095]]]}},{"type":"Feature","id":"27067","properties":{"name":"Kandiyohi","county_fips":"27067","state_abbr":"MN"},"geometry":{"type":"Polygon","coordinates":[[[-95.25477150301502,45.41239458273582],[-95.13273550725506,45.41239458273582],[-94.76303822598226,45.41325364242642],[-94.76303822598226,45.326488613676126],[-94.75944893198931,44.891804410234094],[-95.24759291502914,44.8909453505435],[-95.24759291502914,45.15209949648496],[-95.25477150301502,45.23886452523524],[-95.25477150301502,45.41239458273582]]]}},{"type":"Feature","id":"27069","properties":{"name":"Kittson","county_fips":"27069","state_abbr":"MN"},"geometry":{"type":"Polygon","coordinates":[[[-97.22888319913199,49.00068691035909],[-96.93097179771797,48.999827850668495],[-96.40693487474874,48.999827850668495],[-96.4033455807558,48.71719721246212],[-96.38898840478404,48.71719721246212],[-96.38898840478404,48.54452621465214],[-97.16427590725907,48.54366715496154],[-97.13915084930849,48.61239193020929],[-97.10684720337203,48.63300936278362],[-97.0960793213932,48.68627106360063],[-97.14991873128731,48.75499583884838],[-97.17863308323082,48.861519240482394],[-97.20016884718846,48.88213667305672],[-97.23965108111081,48.96632452273522],[-97.22888319913199,49.00068691035909]]]}},{"type":"Feature","id":"27071","properties":{"name":"Koochiching","county_fips":"27071","state_abbr":"MN"},"geometry":{"type":"Polygon","coordinates":[[[-94.42923388463885,48.70087507834077],[-94.38257306273063,48.71204285431853],[-94.2641263609636,48.699156958959584],[-94.22464412704127,48.64933149690496],[-94.00569719347193,48.64331807907078],[-93.83341108181081,48.62527782556825],[-93.80469672986729,48.568579885988854],[-93.81546461184611,48.526485961149604],[-93.79392884788848,48.51617724486244],[-93.643178500185,48.517895364243635],[-93.6252320302203,48.53078125960259],[-93.54626756237562,48.529063140221396],[-93.463713800538,48.54624433403333],[-93.46730309453095,48.587479199181985],[-93.34885639276392,48.62699594494944],[-93.20887392703926,48.64245901938018],[-93.17657028110281,48.62355970618705],[-93.0868379312793,48.62785500464004],[-93.09760581325813,48.067748086370855],[-93.09042722527225,48.067748086370855],[-93.07965934329343,47.89164084979849],[-93.77598237792378,47.89937238701386],[-93.77598237792378,47.84611068619685],[-94.41846600266003,47.84611068619685],[-94.42923388463885,48.367559918389176],[-94.42923388463885,48.70087507834077]]]}},{"type":"Feature","id":"27073","properties":{"name":"Lac qui Parle","county_fips":"27073","state_abbr":"MN"},"geometry":{"type":"Polygon","coordinates":[[[-96.45359569665696,45.268931614406135],[-96.28489887898878,45.246596062450614],[-96.27413099700996,45.222542391113905],[-96.22388088110881,45.22082427173271],[-96.17363076520765,45.19247530194301],[-96.10184488534885,45.177012227512265],[-96.03723759347594,45.15209949648496],[-95.9798088895889,45.09711967628675],[-95.82546924789247,44.987160035890355],[-95.80393348393484,44.949361409504085],[-95.73573689806898,44.93561645445454],[-95.73573689806898,44.891804410234094],[-95.84700501185011,44.891804410234094],[-95.85059430584306,44.80503938148381],[-96.45000640266402,44.805898441174406],[-96.45359569665696,44.97771037929378],[-96.45359569665696,45.268931614406135]]]}},{"type":"Feature","id":"27075","properties":{"name":"Lake","county_fips":"27075","state_abbr":"MN"},"geometry":{"type":"Polygon","coordinates":[[[-91.79828138781387,48.20262045779457],[-91.71572762597626,48.19918421903218],[-91.69778115601156,48.14162721976219],[-91.71213833198331,48.11499636935368],[-91.64035245212452,48.09695611585115],[-91.5577986902869,48.10812389182891],[-91.56856657226572,48.043694415034146],[-91.48960210442104,48.067748086370855],[-91.43935198851987,48.048848773177724],[-91.37115540265403,48.06946620575205],[-91.24911940689407,48.084070220492194],[-91.08401188321884,48.18114396552965],[-91.03017247332473,48.18887550274502],[-91.0265831793318,47.90280862577625],[-91.0194045913459,47.8882046110361],[-91.02299388533885,47.46468818357183],[-91.12708341113411,47.39939964708646],[-91.18810140901408,47.340124528435275],[-91.38551257862578,47.18721190350903],[-91.47883422244222,47.12535960578605],[-91.57215586625865,47.090138158471575],[-91.66547751007509,47.01454090569905],[-91.70495974399743,47.005091249102485],[-91.79469209382093,46.939802712617116],[-91.78751350583505,47.54715791386913],[-91.79828138781387,48.20262045779457]]]}},{"type":"Feature","id":"27077","properties":{"name":"Lake of the Woods","county_fips":"27077","state_abbr":"MN"},"geometry":{"type":"Polygon","coordinates":[[[-95.31937879488794,48.998968790977905],[-95.1542712712127,48.998968790977905],[-95.1542712712127,49.384686592055914],[-95.05736033340332,49.35290138350383],[-94.95686010160101,49.37008257731576],[-94.85277057580575,49.32455241371413],[-94.82405622386223,49.29448532454324],[-94.77380610796108,49.12095526704266],[-94.74868105001049,49.09947877477774],[-94.68407375813757,48.883854792437916],[-94.70560952209522,48.82457967378673],[-94.69125234612346,48.7781904504945],[-94.6410022302223,48.74125088379883],[-94.53691270442704,48.70259319772197],[-94.42923388463885,48.70087507834077],[-94.42923388463885,48.367559918389176],[-95.21169997509975,48.36584179900798],[-95.21169997509975,48.54023091619916],[-95.34091455884558,48.54023091619916],[-95.34450385283853,48.71290191400913],[-95.08966397933979,48.71290191400913],[-95.09325327333273,48.92079435913358],[-95.13991409524095,48.895022568415676],[-95.23682503305032,48.88127761336612],[-95.30143232492324,48.90447222501224],[-95.32296808888088,48.93539837387373],[-95.31937879488794,48.998968790977905]]]}},{"type":"Feature","id":"27079","properties":{"name":"Le Sueur","county_fips":"27079","state_abbr":"MN"},"geometry":{"type":"Polygon","coordinates":[[[-93.93032201962019,44.45712020679206],[-93.88366119771197,44.51811344482444],[-93.90878625566255,44.54302617585175],[-93.52473179841797,44.54388523554235],[-93.52473179841797,44.1959660608506],[-93.76880378993789,44.1959660608506],[-93.76880378993789,44.239778105071046],[-94.01287578145781,44.239778105071046],[-94.02364366343663,44.25781835857358],[-93.95903637156371,44.3076438206282],[-93.93391131361314,44.34372432763327],[-93.96262566555666,44.36520081989819],[-93.93032201962019,44.45712020679206]]]}},{"type":"Feature","id":"27081","properties":{"name":"Lincoln","county_fips":"27081","state_abbr":"MN"},"geometry":{"type":"Polygon","coordinates":[[[-96.45359569665696,44.1968251205412],[-96.45359569665696,44.54388523554235],[-96.45000640266402,44.63150932398323],[-96.09466629736296,44.63065026429263],[-96.09466629736296,44.54388523554235],[-96.08030912139121,44.54302617585175],[-96.08030912139121,44.1968251205412],[-96.45359569665696,44.1968251205412]]]}},{"type":"Feature","id":"27083","properties":{"name":"Lyon","county_fips":"27083","state_abbr":"MN"},"geometry":{"type":"Polygon","coordinates":[[[-96.09466629736296,44.63065026429263],[-95.6029330203302,44.629791204602036],[-95.59575443234432,44.54216711616115],[-95.59216513835138,44.195107001160004],[-96.06236265142651,44.1968251205412],[-96.08030912139121,44.1968251205412],[-96.08030912139121,44.54302617585175],[-96.09466629736296,44.54388523554235],[-96.09466629736296,44.63065026429263]]]}},{"type":"Feature","id":"27087","properties":{"name":"Mahnomen","county_fips":"27087","state_abbr":"MN"},"geometry":{"type":"Polygon","coordinates":[[[-96.06595194541946,47.4990505711957],[-95.55268290442903,47.4999096308863],[-95.55268290442903,47.151131396503956],[-96.06595194541946,47.151990456194554],[-96.06595194541946,47.4990505711957]]]}},{"type":"Feature","id":"27089","properties":{"name":"Marshall","county_fips":"27089","state_abbr":"MN"},"geometry":{"type":"Polygon","coordinates":[[[-97.16427590725907,48.54366715496154],[-96.38898840478404,48.54452621465214],[-95.6029330203302,48.53851279681796],[-95.6029330203302,48.36584179900798],[-95.59216513835138,48.36584179900798],[-95.59216513835138,48.17255336862368],[-95.98339818358183,48.171694308933084],[-96.50025651856518,48.17427148800487],[-97.14632943729437,48.17341242831427],[-97.14274014330142,48.1940298608886],[-97.14274014330142,48.23440566634665],[-97.11761508535085,48.27993582994829],[-97.14632943729437,48.359828381173806],[-97.13556155531555,48.40449948508484],[-97.13915084930849,48.49641887197871],[-97.16068661326612,48.54280809527094],[-97.16427590725907,48.54366715496154]]]}},{"type":"Feature","id":"27091","properties":{"name":"Martin","county_fips":"27091","state_abbr":"MN"},"geometry":{"type":"Polygon","coordinates":[[[-94.85277057580575,43.848046886158855],[-94.36821588675886,43.848046886158855],[-94.2461798909989,43.848046886158855],[-94.2461798909989,43.50012771146711],[-94.4435910606106,43.500986771157706],[-94.85277057580575,43.500986771157706],[-94.85277057580575,43.848046886158855]]]}},{"type":"Feature","id":"27085","properties":{"name":"McLeod","county_fips":"27085","state_abbr":"MN"},"geometry":{"type":"Polygon","coordinates":[[[-94.25694777297772,44.97942849867498],[-94.01287578145781,44.97856943898438],[-94.00928648746488,44.717415293042926],[-94.25335847898478,44.71827435273352],[-94.25335847898478,44.63065026429263],[-94.4974304705047,44.629791204602036],[-94.4974304705047,44.717415293042926],[-94.50101976449764,44.89266346992469],[-94.50101976449764,44.97942849867498],[-94.25694777297772,44.97942849867498]]]}},{"type":"Feature","id":"27093","properties":{"name":"Meeker","county_fips":"27093","state_abbr":"MN"},"geometry":{"type":"Polygon","coordinates":[[[-94.76303822598226,45.326488613676126],[-94.38257306273063,45.326488613676126],[-94.38257306273063,45.28267656945569],[-94.26053706697067,45.283535629146286],[-94.25694777297772,44.97942849867498],[-94.50101976449764,44.97942849867498],[-94.50101976449764,44.89266346992469],[-94.75944893198931,44.891804410234094],[-94.76303822598226,45.326488613676126]]]}},{"type":"Feature","id":"27095","properties":{"name":"Mille Lacs","county_fips":"27095","state_abbr":"MN"},"geometry":{"type":"Polygon","coordinates":[[[-93.79751814188141,46.243105303543025],[-93.43141015460154,46.246541542305415],[-93.43141015460154,46.15376309572095],[-93.43141015460154,45.981092097910974],[-93.5175532104321,45.98195115760157],[-93.51396391643917,45.734541966709656],[-93.51037462244622,45.55843473013729],[-93.75803590795907,45.55929378982789],[-93.76521449594496,45.82216605515055],[-93.76880378993789,45.98281021729217],[-93.81187531785318,45.98281021729217],[-93.81187531785318,46.15634027479274],[-93.81187531785318,46.243105303543025],[-93.79751814188141,46.243105303543025]]]}},{"type":"Feature","id":"27097","properties":{"name":"Morrison","county_fips":"27097","state_abbr":"MN"},"geometry":{"type":"Polygon","coordinates":[[[-94.65177011220112,46.34876964548645],[-94.6230557602576,46.32643409353093],[-94.5333234104341,46.30238042219421],[-94.4615375305753,46.331588451674506],[-94.4256445906459,46.3324475113651],[-94.34309082880829,46.277467691166905],[-94.39693023870238,46.212179154681536],[-94.36462659276593,46.180393946129456],[-94.37539447474474,46.15719933448334],[-93.81187531785318,46.15634027479274],[-93.81187531785318,45.98281021729217],[-93.76880378993789,45.98281021729217],[-93.76521449594496,45.82216605515055],[-94.35385871078711,45.82216605515055],[-94.27130494894949,45.77491777216771],[-94.64459152421524,45.774058712477114],[-94.65177011220112,46.34876964548645]]]}},{"type":"Feature","id":"27099","properties":{"name":"Mower","county_fips":"27099","state_abbr":"MN"},"geometry":{"type":"Polygon","coordinates":[[[-93.05094499134991,43.848046886158855],[-93.04735569735696,43.848046886158855],[-92.68842629806298,43.84890594584945],[-92.68842629806298,43.833442871418704],[-92.44794360053601,43.8343019311093],[-92.44794360053601,43.50012771146711],[-92.55203312633125,43.50012771146711],[-93.02581993339933,43.49926865177651],[-93.05094499134991,43.49926865177651],[-93.05094499134991,43.848046886158855]]]}},{"type":"Feature","id":"27101","properties":{"name":"Murray","county_fips":"27101","state_abbr":"MN"},"geometry":{"type":"Polygon","coordinates":[[[-96.06236265142651,44.1968251205412],[-95.59216513835138,44.195107001160004],[-95.46295055460554,44.1959660608506],[-95.46295055460554,43.848046886158855],[-96.05159476944769,43.84890594584945],[-96.06595194541946,43.84890594584945],[-96.06236265142651,44.1968251205412]]]}},{"type":"Feature","id":"27103","properties":{"name":"Nicollet","county_fips":"27103","state_abbr":"MN"},"geometry":{"type":"Polygon","coordinates":[[[-94.78098469594696,44.456261147101465],[-94.6230557602576,44.456261147101465],[-93.93032201962019,44.45712020679206],[-93.96262566555666,44.36520081989819],[-93.93391131361314,44.34372432763327],[-93.95903637156371,44.3076438206282],[-94.02364366343663,44.25781835857358],[-94.01287578145781,44.239778105071046],[-94.02364366343663,44.221737851568506],[-94.00210789947899,44.1693352104421],[-94.04517942739427,44.15473119570195],[-94.11337601326012,44.18136204611045],[-94.21387624506245,44.20112041899418],[-94.28925141891419,44.239778105071046],[-94.3718051807518,44.26469083609835],[-94.41128741467415,44.27328143300432],[-94.4615375305753,44.33255655165551],[-94.52255552845529,44.36520081989819],[-94.66612728817287,44.394408849378486],[-94.6948416401164,44.42791217731177],[-94.78098469594696,44.456261147101465]]]}},{"type":"Feature","id":"27105","properties":{"name":"Nobles","county_fips":"27105","state_abbr":"MN"},"geometry":{"type":"Polygon","coordinates":[[[-96.05159476944769,43.84890594584945],[-95.46295055460554,43.848046886158855],[-95.45218267262672,43.848046886158855],[-95.45577196661966,43.500986771157706],[-95.86136218782187,43.50012771146711],[-96.05159476944769,43.50012771146711],[-96.05159476944769,43.84890594584945]]]}},{"type":"Feature","id":"27107","properties":{"name":"Norman","county_fips":"27107","state_abbr":"MN"},"geometry":{"type":"Polygon","coordinates":[[[-96.85200732987329,47.4990505711957],[-96.06595194541946,47.4990505711957],[-96.06595194541946,47.151990456194554],[-96.19516652916529,47.151131396503956],[-96.83047156591566,47.15027233681336],[-96.83406085990859,47.23789642525424],[-96.84482874188741,47.29287624545245],[-96.83406085990859,47.335829229982295],[-96.86277521185211,47.41400366182661],[-96.85200732987329,47.4990505711957]]]}},{"type":"Feature","id":"27109","properties":{"name":"Olmsted","county_fips":"27109","state_abbr":"MN"},"geometry":{"type":"Polygon","coordinates":[[[-92.68842629806298,43.84890594584945],[-92.67765841608416,43.84890594584945],[-92.67765841608416,44.195107001160004],[-92.55203312633125,44.195107001160004],[-92.31872901679016,44.194247941469406],[-92.31872901679016,44.10748291271912],[-92.07824631926319,44.10662385302852],[-92.07824631926319,43.84718782646826],[-92.44794360053601,43.848046886158855],[-92.44794360053601,43.8343019311093],[-92.68842629806298,43.833442871418704],[-92.68842629806298,43.84890594584945]]]}},{"type":"Feature","id":"27111","properties":{"name":"Otter Tail","county_fips":"27111","state_abbr":"MN"},"geometry":{"type":"Polygon","coordinates":[[[-96.28130958499584,46.63054122400223],[-96.17363076520765,46.63054122400223],[-96.17363076520765,46.71816531244312],[-95.43423620266202,46.71558813337133],[-95.16503915319153,46.71730625275252],[-95.1542712712127,46.62968216431164],[-95.1542712712127,46.36852801837018],[-95.14709268322683,46.28262204931048],[-95.14709268322683,46.10651481273812],[-95.76804054400543,46.10737387242872],[-96.26695240902409,46.108232932119314],[-96.26336311503114,46.28262204931048],[-96.28130958499584,46.28262204931048],[-96.28130958499584,46.63054122400223]]]}},{"type":"Feature","id":"27113","properties":{"name":"Pennington","county_fips":"27113","state_abbr":"MN"},"geometry":{"type":"Polygon","coordinates":[[[-96.50025651856518,48.17427148800487],[-95.98339818358183,48.171694308933084],[-95.59216513835138,48.17255336862368],[-95.59216513835138,48.02049980338803],[-95.58139725637255,48.02049980338803],[-95.58139725637255,47.93373477463774],[-95.7106118401184,47.93545289401893],[-95.7106118401184,47.964660923499224],[-96.48231004860048,47.963801863808634],[-96.48231004860048,48.021358863078625],[-96.50025651856518,48.021358863078625],[-96.50025651856518,48.17427148800487]]]}},{"type":"Feature","id":"27115","properties":{"name":"Pine","county_fips":"27115","state_abbr":"MN"},"geometry":{"type":"Polygon","coordinates":[[[-93.05453428534285,46.158058394173935],[-93.05453428534285,46.419212540115396],[-92.29360395883958,46.4174944207342],[-92.29360395883958,46.15719933448334],[-92.29360395883958,46.07472960418603],[-92.32949689876898,46.066139007280064],[-92.35103266272662,46.015454485534846],[-92.43717571855719,46.02146790336903],[-92.47306865848658,45.973360560695596],[-92.52331877438775,45.98452833667336],[-92.55203312633125,45.95188406843068],[-92.64176547615476,45.93212569554695],[-92.71355135601355,45.891749890088896],[-92.78533723587235,45.76460905588055],[-92.84276593975939,45.730246668256676],[-93.1406773411734,45.730246668256676],[-93.14426663516635,45.981092097910974],[-93.05453428534285,45.981092097910974],[-93.05453428534285,46.158058394173935]]]}},{"type":"Feature","id":"27117","properties":{"name":"Pipestone","county_fips":"27117","state_abbr":"MN"},"geometry":{"type":"Polygon","coordinates":[[[-96.45359569665696,44.1968251205412],[-96.08030912139121,44.1968251205412],[-96.06236265142651,44.1968251205412],[-96.06595194541946,43.84890594584945],[-96.45359569665696,43.84976500554005],[-96.45359569665696,44.1968251205412]]]}},{"type":"Feature","id":"27119","properties":{"name":"Polk","county_fips":"27119","state_abbr":"MN"},"geometry":{"type":"Polygon","coordinates":[[[-97.14632943729437,48.17341242831427],[-96.50025651856518,48.17427148800487],[-96.50025651856518,48.021358863078625],[-96.48231004860048,48.021358863078625],[-96.48231004860048,47.963801863808634],[-96.48231004860048,47.84782880557805],[-96.35309546485465,47.84696974588745],[-96.35309546485465,47.760204717137164],[-95.8362371298713,47.76106377682776],[-95.8362371298713,47.84782880557805],[-95.7106118401184,47.848687865268644],[-95.7106118401184,47.93545289401893],[-95.58139725637255,47.93373477463774],[-95.57780796237962,47.67343968838688],[-95.55268290442903,47.67343968838688],[-95.55268290442903,47.4999096308863],[-96.06595194541946,47.4990505711957],[-96.85200732987329,47.4990505711957],[-96.85559662386623,47.6107283309733],[-96.87354309383093,47.613305510045095],[-96.89148956379563,47.67172156900568],[-96.91661462174622,47.70264771786717],[-96.93815038570385,47.76879531404313],[-96.96686473764737,47.78339932878328],[-97.00634697156971,47.87016435753357],[-97.01711485354853,47.91998981958819],[-97.05659708747088,47.94919784906848],[-97.07454355743558,48.05314407163071],[-97.1032579093791,48.07204338482384],[-97.14632943729437,48.17341242831427]]]}},{"type":"Feature","id":"27121","properties":{"name":"Pope","county_fips":"27121","state_abbr":"MN"},"geometry":{"type":"Polygon","coordinates":[[[-95.75727266202662,45.76031375742757],[-95.13991409524095,45.75859563804637],[-95.13991409524095,45.585065580545795],[-95.13273550725506,45.585065580545795],[-95.13273550725506,45.41239458273582],[-95.25477150301502,45.41239458273582],[-95.7465047800478,45.41239458273582],[-95.7465047800478,45.58592464023639],[-95.75727266202662,45.58592464023639],[-95.75727266202662,45.76031375742757]]]}},{"type":"Feature","id":"27123","properties":{"name":"Ramsey","county_fips":"27123","state_abbr":"MN"},"geometry":{"type":"Polygon","coordinates":[[[-93.02223063940639,45.12375052669526],[-92.98633769947699,45.12375052669526],[-92.98274840548405,44.89438158930589],[-93.01864134541346,44.8909453505435],[-93.05094499134991,44.919294320333194],[-93.1299094591946,44.919294320333194],[-93.18015957509574,44.888368171471704],[-93.20169533905339,44.90898560404603],[-93.20887392703926,45.03612643825438],[-93.22682039700396,45.03526737856378],[-93.22682039700396,45.12460958638586],[-93.02223063940639,45.12375052669526]]]}},{"type":"Feature","id":"27125","properties":{"name":"Red Lake","county_fips":"27125","state_abbr":"MN"},"geometry":{"type":"Polygon","coordinates":[[[-96.48231004860048,47.963801863808634],[-95.7106118401184,47.964660923499224],[-95.7106118401184,47.93545289401893],[-95.7106118401184,47.848687865268644],[-95.8362371298713,47.84782880557805],[-95.8362371298713,47.76106377682776],[-96.35309546485465,47.760204717137164],[-96.35309546485465,47.84696974588745],[-96.48231004860048,47.84782880557805],[-96.48231004860048,47.963801863808634]]]}},{"type":"Feature","id":"27127","properties":{"name":"Redwood","county_fips":"27127","state_abbr":"MN"},"geometry":{"type":"Polygon","coordinates":[[[-95.59575443234432,44.54216711616115],[-95.35886102881028,44.54216711616115],[-95.35886102881028,44.698515979849795],[-95.31937879488794,44.69336162170621],[-95.29066444294442,44.66157641315412],[-95.2440036210362,44.66673077129771],[-95.18657491714917,44.62463684645846],[-95.01428880548805,44.54302617585175],[-94.98916374753748,44.54646241461414],[-94.86712775177752,44.498355071940715],[-94.86712775177752,44.28273108960089],[-95.10761044930449,44.28187202991029],[-95.10761044930449,44.195107001160004],[-95.46295055460554,44.1959660608506],[-95.59216513835138,44.195107001160004],[-95.59575443234432,44.54216711616115]]]}},{"type":"Feature","id":"27129","properties":{"name":"Renville","county_fips":"27129","state_abbr":"MN"},"geometry":{"type":"Polygon","coordinates":[[[-95.24759291502914,44.8909453505435],[-94.75944893198931,44.891804410234094],[-94.50101976449764,44.89266346992469],[-94.4974304705047,44.717415293042926],[-94.63023434824348,44.71655623335233],[-94.6230557602576,44.456261147101465],[-94.78098469594696,44.456261147101465],[-94.81328834188342,44.48461011689116],[-94.86712775177752,44.498355071940715],[-94.98916374753748,44.54646241461414],[-95.01428880548805,44.54302617585175],[-95.18657491714917,44.62463684645846],[-95.2440036210362,44.66673077129771],[-95.29066444294442,44.66157641315412],[-95.31937879488794,44.69336162170621],[-95.35886102881028,44.698515979849795],[-95.4414147906479,44.74318708376083],[-95.48448631856319,44.752636740357396],[-95.48448631856319,44.8909453505435],[-95.24759291502914,44.8909453505435]]]}},{"type":"Feature","id":"27131","properties":{"name":"Rice","county_fips":"27131","state_abbr":"MN"},"geometry":{"type":"Polygon","coordinates":[[[-93.52473179841797,44.54388523554235],[-93.28065980689806,44.54388523554235],[-93.28065980689806,44.471724221532206],[-93.04017710937109,44.471724221532206],[-93.04017710937109,44.1968251205412],[-93.04735569735696,44.1968251205412],[-93.40628509665096,44.1959660608506],[-93.52473179841797,44.1959660608506],[-93.52473179841797,44.54388523554235]]]}},{"type":"Feature","id":"27133","properties":{"name":"Rock","county_fips":"27133","state_abbr":"MN"},"geometry":{"type":"Polygon","coordinates":[[[-96.45359569665696,43.84976500554005],[-96.06595194541946,43.84890594584945],[-96.05159476944769,43.84890594584945],[-96.05159476944769,43.50012771146711],[-96.45359569665696,43.50012771146711],[-96.45359569665696,43.84976500554005]]]}},{"type":"Feature","id":"27135","properties":{"name":"Roseau","county_fips":"27135","state_abbr":"MN"},"geometry":{"type":"Polygon","coordinates":[[[-96.40693487474874,48.999827850668495],[-95.31937879488794,48.998968790977905],[-95.32296808888088,48.93539837387373],[-95.30143232492324,48.90447222501224],[-95.23682503305032,48.88127761336612],[-95.13991409524095,48.895022568415676],[-95.09325327333273,48.92079435913358],[-95.08966397933979,48.71290191400913],[-95.34450385283853,48.71290191400913],[-95.34091455884558,48.54023091619916],[-95.6029330203302,48.53851279681796],[-96.38898840478404,48.54452621465214],[-96.38898840478404,48.71719721246212],[-96.4033455807558,48.71719721246212],[-96.40693487474874,48.999827850668495]]]}},{"type":"Feature","id":"27139","properties":{"name":"Scott","county_fips":"27139","state_abbr":"MN"},"geometry":{"type":"Polygon","coordinates":[[[-93.76880378993789,44.6400999208892],[-93.6970179100791,44.66930795036949],[-93.66830355813558,44.695079741087405],[-93.61805344223441,44.70796563644636],[-93.63241061820618,44.73803272561725],[-93.60010697226971,44.78270382952829],[-93.52114250442504,44.80418032179321],[-93.43858874258743,44.81277091869918],[-93.38116003870039,44.78528100860008],[-93.33090992279922,44.791294426434256],[-93.31655274682747,44.717415293042926],[-93.3201420408204,44.63065026429263],[-93.27707051290513,44.63065026429263],[-93.28065980689806,44.54388523554235],[-93.52473179841797,44.54388523554235],[-93.90878625566255,44.54302617585175],[-93.90160766767667,44.58769727976279],[-93.8585361397614,44.62120060769607],[-93.76880378993789,44.6400999208892]]]}},{"type":"Feature","id":"27141","properties":{"name":"Sherburne","county_fips":"27141","state_abbr":"MN"},"geometry":{"type":"Polygon","coordinates":[[[-94.14926895318953,45.55929378982789],[-93.75803590795907,45.55929378982789],[-93.51037462244622,45.55843473013729],[-93.51037462244622,45.414971761807614],[-93.51396391643917,45.24573700276002],[-93.52114250442504,45.246596062450614],[-93.57857120831208,45.292126226052254],[-93.75803590795907,45.29470340512405],[-93.82982178781788,45.3350792105821],[-93.86930402174022,45.33937450903508],[-93.91955413764137,45.384045612946124],[-93.95903637156371,45.37803219511194],[-94.0487687213872,45.422703299022984],[-94.14209036520364,45.49314619365193],[-94.14926895318953,45.55929378982789]]]}},{"type":"Feature","id":"27143","properties":{"name":"Sibley","county_fips":"27143","state_abbr":"MN"},"geometry":{"type":"Polygon","coordinates":[[[-94.4974304705047,44.717415293042926],[-94.4974304705047,44.629791204602036],[-94.25335847898478,44.63065026429263],[-94.25335847898478,44.71827435273352],[-94.00928648746488,44.717415293042926],[-93.88725049170492,44.717415293042926],[-93.88725049170492,44.67360324882248],[-93.76880378993789,44.67360324882248],[-93.76880378993789,44.6400999208892],[-93.8585361397614,44.62120060769607],[-93.90160766767667,44.58769727976279],[-93.90878625566255,44.54302617585175],[-93.88366119771197,44.51811344482444],[-93.93032201962019,44.45712020679206],[-94.6230557602576,44.456261147101465],[-94.63023434824348,44.71655623335233],[-94.4974304705047,44.717415293042926]]]}},{"type":"Feature","id":"27137","properties":{"name":"St. Louis","county_fips":"27137","state_abbr":"MN"},"geometry":{"type":"Polygon","coordinates":[[[-93.0868379312793,48.62785500464004],[-92.9504447595476,48.63043218371183],[-92.92890899558995,48.60723757206571],[-92.72790853198532,48.53937185650856],[-92.63458688816888,48.54280809527094],[-92.63099759417594,48.5007141704317],[-92.6991941800418,48.49470075259752],[-92.71355135601355,48.46291554404543],[-92.65612265212651,48.43628469363693],[-92.50896159841598,48.44745246961469],[-92.45512218852188,48.40106324632246],[-92.47665795247953,48.371855216842164],[-92.45512218852188,48.329761292002914],[-92.36897913269132,48.22066071129711],[-92.27924678286783,48.24385532294322],[-92.30796113481135,48.31601633695336],[-92.26130031290313,48.35467402303022],[-92.20746090300902,48.345224366433655],[-92.05671055530554,48.35896932148321],[-91.99928185141852,48.321170695096946],[-92.00646043940439,48.26533181520814],[-91.9454424415244,48.23011036789367],[-91.89519232562326,48.23784190510904],[-91.86288867968679,48.206915756247554],[-91.79828138781387,48.20262045779457],[-91.78751350583505,47.54715791386913],[-91.79469209382093,46.939802712617116],[-91.84135291572915,46.92519869787697],[-92.06029984929849,46.81008469933698],[-92.09260349523495,46.788608207072066],[-92.06388914329143,46.74565522254222],[-92.01363902739027,46.70613847677476],[-92.08901420124201,46.74909146130461],[-92.13926431714317,46.739641804708036],[-92.15003219912198,46.71472907368073],[-92.20746090300902,46.70270223801237],[-92.17515725707257,46.68638010389103],[-92.21463949099491,46.64944053719537],[-92.29360395883958,46.663185492244914],[-92.30078254682546,46.76455453573535],[-93.06171287332873,46.766272655116545],[-93.05453428534285,47.02656774136741],[-93.06530216732168,47.109037471664706],[-93.0688914613146,47.394245288942884],[-93.06171287332873,47.71982891167911],[-93.08324863728637,47.720687971369706],[-93.07965934329343,47.89164084979849],[-93.09042722527225,48.067748086370855],[-93.09760581325813,48.067748086370855],[-93.0868379312793,48.62785500464004]]]}},{"type":"Feature","id":"27145","properties":{"name":"Stearns","county_fips":"27145","state_abbr":"MN"},"geometry":{"type":"Polygon","coordinates":[[[-95.13991409524095,45.75859563804637],[-95.13991409524095,45.77319965278652],[-94.64459152421524,45.774058712477114],[-94.27130494894949,45.77491777216771],[-94.19951906909068,45.6683943705337],[-94.20310836308363,45.619427968169674],[-94.14926895318953,45.55929378982789],[-94.14209036520364,45.49314619365193],[-94.0487687213872,45.422703299022984],[-94.08107236732367,45.36686441913418],[-94.16362612916129,45.30157588264882],[-94.18875118711186,45.31789801677016],[-94.25694777297772,45.3067302407924],[-94.26053706697067,45.283535629146286],[-94.38257306273063,45.28267656945569],[-94.38257306273063,45.326488613676126],[-94.76303822598226,45.326488613676126],[-94.76303822598226,45.41325364242642],[-95.13273550725506,45.41239458273582],[-95.13273550725506,45.585065580545795],[-95.13991409524095,45.585065580545795],[-95.13991409524095,45.75859563804637]]]}},{"type":"Feature","id":"27147","properties":{"name":"Steele","county_fips":"27147","state_abbr":"MN"},"geometry":{"type":"Polygon","coordinates":[[[-93.40628509665096,44.1959660608506],[-93.04735569735696,44.1968251205412],[-93.04376640336403,43.87811397532975],[-93.04735569735696,43.848046886158855],[-93.05094499134991,43.848046886158855],[-93.40628509665096,43.848046886158855],[-93.40628509665096,44.1959660608506]]]}},{"type":"Feature","id":"27149","properties":{"name":"Stevens","county_fips":"27149","state_abbr":"MN"},"geometry":{"type":"Polygon","coordinates":[[[-96.25259523305233,45.75945469773697],[-95.75727266202662,45.76031375742757],[-95.75727266202662,45.58592464023639],[-95.7465047800478,45.58592464023639],[-95.7465047800478,45.41239458273582],[-96.1162020613206,45.41239458273582],[-96.24182735107351,45.41239458273582],[-96.24182735107351,45.58592464023639],[-96.25259523305233,45.58592464023639],[-96.25259523305233,45.75945469773697]]]}},{"type":"Feature","id":"27151","properties":{"name":"Swift","county_fips":"27151","state_abbr":"MN"},"geometry":{"type":"Polygon","coordinates":[[[-96.1162020613206,45.41239458273582],[-95.7465047800478,45.41239458273582],[-95.25477150301502,45.41239458273582],[-95.25477150301502,45.23886452523524],[-95.24759291502914,45.15209949648496],[-96.03723759347594,45.15209949648496],[-96.10184488534885,45.177012227512265],[-96.11979135531355,45.23972358492584],[-96.1162020613206,45.41239458273582]]]}},{"type":"Feature","id":"27153","properties":{"name":"Todd","county_fips":"27153","state_abbr":"MN"},"geometry":{"type":"Polygon","coordinates":[[[-95.1542712712127,46.36852801837018],[-94.73073458004579,46.36852801837018],[-94.71996669806698,46.351346824558235],[-94.65177011220112,46.34876964548645],[-94.64459152421524,45.774058712477114],[-95.13991409524095,45.77319965278652],[-95.14709268322683,45.93298475523755],[-95.14709268322683,46.10651481273812],[-95.14709268322683,46.28262204931048],[-95.1542712712127,46.36852801837018]]]}},{"type":"Feature","id":"27155","properties":{"name":"Traverse","county_fips":"27155","state_abbr":"MN"},"geometry":{"type":"Polygon","coordinates":[[[-96.5648638104381,45.935561934309334],[-96.57563169241692,46.02146790336903],[-96.26695240902409,46.02146790336903],[-96.26695240902409,45.934702874618736],[-96.25259523305233,45.934702874618736],[-96.25259523305233,45.75945469773697],[-96.25259523305233,45.58592464023639],[-96.83406085990859,45.58592464023639],[-96.85918591785918,45.60568301312012],[-96.84123944789448,45.64519975888758],[-96.75150709807097,45.69846145970459],[-96.6725426302263,45.73196478763787],[-96.62947110231102,45.78608554814547],[-96.57922098640987,45.82560229391293],[-96.5648638104381,45.935561934309334]]]}},{"type":"Feature","id":"27157","properties":{"name":"Wabasha","county_fips":"27157","state_abbr":"MN"},"geometry":{"type":"Polygon","coordinates":[[[-92.24335384293842,44.45454302772027],[-92.21463949099491,44.43822089359893],[-92.08542490724906,44.40729474473744],[-91.97415679346793,44.367777998969984],[-91.92390667756678,44.333415611346105],[-91.92390667756678,44.28788544774447],[-91.89519232562326,44.274999552385516],[-91.89160303163031,44.23118750816507],[-91.85929938569386,44.19338888177881],[-92.07824631926319,44.19338888177881],[-92.07824631926319,44.10662385302852],[-92.31872901679016,44.10748291271912],[-92.31872901679016,44.194247941469406],[-92.55203312633125,44.195107001160004],[-92.55203312633125,44.36863705866058],[-92.42999713057131,44.36863705866058],[-92.42999713057131,44.45540208741087],[-92.24335384293842,44.45454302772027]]]}},{"type":"Feature","id":"27159","properties":{"name":"Wadena","county_fips":"27159","state_abbr":"MN"},"geometry":{"type":"Polygon","coordinates":[[[-95.16503915319153,46.71730625275252],[-95.16144985919858,46.804930341193405],[-94.78816328393283,46.80407128150281],[-94.77739540195401,46.39429980908808],[-94.73073458004579,46.36852801837018],[-95.1542712712127,46.36852801837018],[-95.1542712712127,46.62968216431164],[-95.16503915319153,46.71730625275252]]]}},{"type":"Feature","id":"27161","properties":{"name":"Waseca","county_fips":"27161","state_abbr":"MN"},"geometry":{"type":"Polygon","coordinates":[[[-93.76880378993789,44.1959660608506],[-93.52473179841797,44.1959660608506],[-93.40628509665096,44.1959660608506],[-93.40628509665096,43.848046886158855],[-93.64676779417793,43.848046886158855],[-93.76880378993789,43.848046886158855],[-93.76880378993789,44.1959660608506]]]}},{"type":"Feature","id":"27163","properties":{"name":"Washington","county_fips":"27163","state_abbr":"MN"},"geometry":{"type":"Polygon","coordinates":[[[-93.01864134541346,44.8909453505435],[-92.98274840548405,44.89438158930589],[-92.98633769947699,45.12375052669526],[-93.02223063940639,45.12375052669526],[-93.01864134541346,45.29728058419583],[-92.74585500195002,45.295562464814644],[-92.76021217792177,45.291267166361656],[-92.75662288392884,45.20965649575495],[-92.76739076590765,45.18560282441824],[-92.74585500195002,45.107428392573915],[-92.80328370583706,45.057602930519295],[-92.76380147191472,45.028394901039],[-92.7709800599006,44.972556021150204],[-92.74944429594295,44.937334573835734],[-92.77456935389354,44.90125406683066],[-92.76739076590765,44.8617373210632],[-92.76380147191472,44.836824590035896],[-92.80687299982999,44.768099814788144],[-92.80328370583706,44.74576426283262],[-92.85353382173821,44.74748238221382],[-92.88224817368173,44.77411323262232],[-92.92890899558995,44.78184476983769],[-93.00428416944169,44.77153605355053],[-93.01864134541346,44.8909453505435]]]}},{"type":"Feature","id":"27165","properties":{"name":"Watonwan","county_fips":"27165","state_abbr":"MN"},"geometry":{"type":"Polygon","coordinates":[[[-94.85994916379164,44.10834197240972],[-94.36821588675886,44.10834197240972],[-94.36821588675886,43.848046886158855],[-94.85277057580575,43.848046886158855],[-94.85994916379164,43.848046886158855],[-94.85994916379164,44.10834197240972]]]}},{"type":"Feature","id":"27167","properties":{"name":"Wilkin","county_fips":"27167","state_abbr":"MN"},"geometry":{"type":"Polygon","coordinates":[[[-96.78381074400744,46.62968216431164],[-96.28130958499584,46.63054122400223],[-96.28130958499584,46.28262204931048],[-96.26336311503114,46.28262204931048],[-96.26695240902409,46.108232932119314],[-96.26695240902409,46.02146790336903],[-96.57563169241692,46.02146790336903],[-96.55768522245222,46.058407470064694],[-96.59716745637456,46.219910691896914],[-96.6007567503675,46.330729391983915],[-96.64741757227571,46.35392400363003],[-96.71920345213452,46.43811185330853],[-96.73714992209922,46.48020577814778],[-96.75150709807097,46.582433881328804],[-96.78381074400744,46.62968216431164]]]}},{"type":"Feature","id":"27169","properties":{"name":"Winona","county_fips":"27169","state_abbr":"MN"},"geometry":{"type":"Polygon","coordinates":[[[-91.85929938569386,44.19338888177881],[-91.81622785777857,44.164180852298514],[-91.7193169199692,44.128959404984045],[-91.70854903799038,44.10404667395673],[-91.5936916302163,44.031026600256],[-91.5577986902869,44.025013182421816],[-91.43935198851987,44.0018185707757],[-91.42499481254812,43.98463737696376],[-91.38551257862578,43.95457028779287],[-91.28501234682346,43.84718782646826],[-91.73008480194801,43.84718782646826],[-92.07824631926319,43.84718782646826],[-92.07824631926319,44.10662385302852],[-92.07824631926319,44.19338888177881],[-91.85929938569386,44.19338888177881]]]}},{"type":"Feature","id":"27171","properties":{"name":"Wright","county_fips":"27171","state_abbr":"MN"},"geometry":{"type":"Polygon","coordinates":[[[-94.26053706697067,45.283535629146286],[-94.25694777297772,45.3067302407924],[-94.18875118711186,45.31789801677016],[-94.16362612916129,45.30157588264882],[-94.08107236732367,45.36686441913418],[-94.0487687213872,45.422703299022984],[-93.95903637156371,45.37803219511194],[-93.91955413764137,45.384045612946124],[-93.86930402174022,45.33937450903508],[-93.82982178781788,45.3350792105821],[-93.75803590795907,45.29470340512405],[-93.57857120831208,45.292126226052254],[-93.52114250442504,45.246596062450614],[-93.5713926203262,45.21824709266092],[-93.63958920619206,45.20965649575495],[-93.63958920619206,45.16584445153451],[-93.70060720407204,45.13663642205422],[-93.73650014400144,45.08251566154661],[-93.76162520195201,45.08165660185601],[-93.76880378993789,44.97771037929378],[-94.01287578145781,44.97856943898438],[-94.25694777297772,44.97942849867498],[-94.26053706697067,45.283535629146286]]]}},{"type":"Feature","id":"27173","properties":{"name":"Yellow Medicine","county_fips":"27173","state_abbr":"MN"},"geometry":{"type":"Polygon","coordinates":[[[-96.45000640266402,44.805898441174406],[-95.85059430584306,44.80503938148381],[-95.84700501185011,44.891804410234094],[-95.73573689806898,44.891804410234094],[-95.73573689806898,44.93561645445454],[-95.7106118401184,44.90383124590245],[-95.67112960619606,44.90383124590245],[-95.61370090230902,44.85056954508544],[-95.49884349453494,44.786999127981275],[-95.52755784647846,44.77067699385993],[-95.48448631856319,44.752636740357396],[-95.4414147906479,44.74318708376083],[-95.35886102881028,44.698515979849795],[-95.35886102881028,44.54216711616115],[-95.59575443234432,44.54216711616115],[-95.6029330203302,44.629791204602036],[-96.09466629736296,44.63065026429263],[-96.45000640266402,44.63150932398323],[-96.45000640266402,44.805898441174406]]]}}]}