{"type":"FeatureCollection","features":[{"type":"Feature","id":"69085","properties":{"name":"Northern Islands","county_fips":"69085","state_abbr":"MP"},"geometry":{"type":"MultiPolygon","coordinates":[[[[146.03192787837878,16.00420419453194],[146.06782081830818,16.04114376122761],[146.0821779942799,16.02739880617806],[146.0534636423364,15.9887411201012],[146.03192787837878,16.00420419453194]]],[[[145.81657023880234,17.60377333842338],[145.83451670876707,17.620954532235316],[145.83810600276001,17.578860607396074],[145.81657023880234,17.60377333842338]]],[[[145.70889141901415,18.068524631036304],[145.75914153491533,18.114054794637944],[145.75914153491533,18.164739316383162],[145.79862376883767,18.164739316383162],[145.79862376883767,18.10804137680376],[145.76632012290122,18.096873600826008],[145.73042718297182,18.049625317843173],[145.70889141901415,18.068524631036304]]],[[[145.63710553915536,18.778966995159948],[145.65864130311303,18.81247032309323],[145.69812353703537,18.788416651756513],[145.69453424304243,18.74460460753607],[145.66581989109886,18.72484623465234],[145.6406948331483,18.746322726917263],[145.63710553915536,18.778966995159948]]],[[[145.6335162451624,16.36758644365443],[145.7053021250212,16.369304563035627],[145.71607000700004,16.338378414174137],[145.6478734211342,16.331505936649364],[145.6335162451624,16.36758644365443]]]]}},{"type":"Feature","id":"69100","properties":{"name":"Rota","county_fips":"69100","state_abbr":"MP"},"geometry":{"type":"Polygon","coordinates":[[[145.12024720417202,14.124581591505912],[145.15972943809436,14.168393635726353],[145.2351046119461,14.198460724897245],[145.28894402184017,14.190729187681875],[145.28176543385433,14.160662098510983],[145.23869390593904,14.149494322533222],[145.20997955399554,14.115990994599944],[145.1704973200732,14.110836636456362],[145.15255085010847,14.130595009340091],[145.12024720417202,14.124581591505912]]]}},{"type":"Feature","id":"69110","properties":{"name":"Saipan","county_fips":"69110","state_abbr":"MP"},"geometry":{"type":"Polygon","coordinates":[[[145.68735565505654,15.132258608576084],[145.70171283102826,15.156312279912797],[145.70889141901415,15.243077308663082],[145.7411950649506,15.232768592375919],[145.8129809448094,15.290325591645914],[145.83092741477412,15.271426278452783],[145.78067729887294,15.202701503205027],[145.79503447484473,15.148580742697423],[145.7483736529365,15.154594160531602],[145.7483736529365,15.091882803118029],[145.7053021250212,15.107345877548774],[145.68735565505654,15.132258608576084]]]}},{"type":"Feature","id":"69120","properties":{"name":"Tinian","county_fips":"69120","state_abbr":"MP"},"geometry":{"type":"MultiPolygon","coordinates":[[[[145.5832661292613,15.0162855503455],[145.59762330523301,15.05494323642236],[145.64428412714125,15.101332459714595],[145.66223059710597,15.05494323642236],[145.6478734211342,15.034325803848034],[145.67299847908475,14.999963416224158],[145.66581989109886,14.947560775097749],[145.6335162451624,14.922648044070439],[145.5832661292613,15.0162855503455]]]]}}]}