{"type":"FeatureCollection","features":[{"type":"Feature","id":"31001","properties":{"name":"Adams","county_fips":"31001","state_abbr":"NE"},"geometry":{"type":"Polygon","coordinates":[[[-98.72561879418794,40.69014346352463],[-98.72202950019499,40.698734060430596],[-98.28413563305632,40.69787500074],[-98.27695704507045,40.69787500074],[-98.27695704507045,40.34995582604825],[-98.72561879418794,40.35081488573885],[-98.72561879418794,40.69014346352463]]]}},{"type":"Feature","id":"31003","properties":{"name":"Antelope","county_fips":"31003","state_abbr":"NE"},"geometry":{"type":"Polygon","coordinates":[[[-98.29849280902809,42.43661181450814],[-97.83547388393883,42.43747087419874],[-97.83547388393883,42.08955169950699],[-97.8318845899459,41.91602164200641],[-98.29490351503514,41.915162582315816],[-98.29490351503514,42.08182016229161],[-98.30208210302102,42.088692639816394],[-98.29849280902809,42.43661181450814]]]}},{"type":"Feature","id":"31005","properties":{"name":"Arthur","county_fips":"31005","state_abbr":"NE"},"geometry":{"type":"Polygon","coordinates":[[[-101.98469773977739,41.742491584505835],[-101.42476787687876,41.74335064419643],[-101.40682140691406,41.74335064419643],[-101.40682140691406,41.395431469504686],[-101.98469773977739,41.39457240981409],[-101.98469773977739,41.742491584505835]]]}},{"type":"Feature","id":"31007","properties":{"name":"Banner","county_fips":"31007","state_abbr":"NE"},"geometry":{"type":"Polygon","coordinates":[[[-104.05213107971079,41.6978204805948],[-103.3701652210522,41.699538599975995],[-103.3701652210522,41.437525394343936],[-103.37734380903808,41.39457240981409],[-104.05213107971079,41.3928542904329],[-104.05213107971079,41.56466622855228],[-104.05213107971079,41.6978204805948]]]}},{"type":"Feature","id":"31009","properties":{"name":"Blaine","county_fips":"31009","state_abbr":"NE"},"geometry":{"type":"Polygon","coordinates":[[[-100.26901521115211,42.0861154607446],[-100.1685149793498,42.0861154607446],[-99.68754958429584,42.0861154607446],[-99.68754958429584,41.73991440543405],[-100.00340745567455,41.738196286052855],[-100.25106874118741,41.73991440543405],[-100.26542591715916,41.73991440543405],[-100.26901521115211,42.0861154607446]]]}},{"type":"Feature","id":"31011","properties":{"name":"Boone","county_fips":"31011","state_abbr":"NE"},"geometry":{"type":"Polygon","coordinates":[[[-98.29490351503514,41.915162582315816],[-97.8318845899459,41.91602164200641],[-97.8318845899459,41.742491584505835],[-97.82829529595296,41.52600854247542],[-97.88572399984,41.51140452773527],[-98.0400636415364,41.510545468044675],[-98.0400636415364,41.495941453304525],[-98.10108163941639,41.49508239361393],[-98.10108163941639,41.480478378873784],[-98.2913142210422,41.480478378873784],[-98.2913142210422,41.73733722636226],[-98.29490351503514,41.74077346512465],[-98.29490351503514,41.915162582315816]]]}},{"type":"Feature","id":"31013","properties":{"name":"Box Butte","county_fips":"31013","state_abbr":"NE"},"geometry":{"type":"Polygon","coordinates":[[[-103.44554039490394,42.43747087419874],[-102.77434241822418,42.44004805327052],[-102.74921736027359,42.44004805327052],[-102.75280665426654,42.35671926328263],[-102.74203877228771,42.17803484763847],[-102.74203877228771,42.09212887857878],[-102.70255653836537,42.092987938269374],[-102.69896724437244,42.004504790137894],[-102.86407476804767,42.0010685513755],[-103.36298663306633,42.0027866707567],[-103.40246886698867,42.003645730447296],[-103.40246886698867,42.09041075919758],[-103.44554039490394,42.09041075919758],[-103.44554039490394,42.43747087419874]]]}},{"type":"Feature","id":"31015","properties":{"name":"Boyd","county_fips":"31015","state_abbr":"NE"},"geometry":{"type":"Polygon","coordinates":[[[-99.25324501115011,42.99843685215851],[-98.49949327263272,42.99843685215851],[-98.46718962669627,42.947752330413294],[-98.34515363093631,42.90308122650226],[-98.30926069100691,42.88246379392793],[-98.30567139701397,42.76133637755377],[-98.4169395107951,42.77594039229392],[-98.46360033270332,42.76649073569735],[-98.58204703447034,42.7793766310563],[-98.65742220832207,42.80944372022719],[-98.71126161821618,42.80343030239302],[-98.76151173411733,42.82748397372973],[-98.79740467404673,42.824047734967344],[-98.84047620196202,42.84552422723227],[-98.88713702387024,42.84380610785107],[-98.95533360973609,42.89449062959629],[-98.98404796167961,42.896208748977486],[-99.05583384153842,42.862705421044204],[-99.15274477934778,42.84208798846988],[-99.25683430514304,42.804289362083615],[-99.25324501115011,42.99843685215851]]]}},{"type":"Feature","id":"31017","properties":{"name":"Brown","county_fips":"31017","state_abbr":"NE"},"geometry":{"type":"Polygon","coordinates":[[[-100.19722933129331,42.846383286922865],[-100.13262203942038,42.807725600846],[-100.05724686556864,42.785390048890484],[-100.0069967496675,42.78882628765287],[-99.96751451574515,42.77250415353153],[-99.86342498994989,42.76906791476914],[-99.85624640196401,42.7527457806478],[-99.71267464224641,42.726973989929895],[-99.67678170231702,42.731269288382876],[-99.67678170231702,42.43403463543635],[-99.66242452634526,42.434893695126945],[-99.66242452634526,42.0861154607446],[-99.68754958429584,42.0861154607446],[-100.1685149793498,42.0861154607446],[-100.1685149793498,42.43317557574575],[-100.18287215532155,42.43317557574575],[-100.18287215532155,42.7810947504375],[-100.19722933129331,42.7810947504375],[-100.19722933129331,42.846383286922865]]]}},{"type":"Feature","id":"31019","properties":{"name":"Buffalo","county_fips":"31019","state_abbr":"NE"},"geometry":{"type":"Polygon","coordinates":[[[-99.42553112281122,41.04665323512234],[-99.2065841892419,41.04665323512234],[-98.74715455814558,41.04665323512234],[-98.72202950019499,41.04665323512234],[-98.72202950019499,40.698734060430596],[-98.72561879418794,40.69014346352463],[-98.82611902599025,40.674680389093886],[-98.90508349383494,40.652344837138365],[-99.11326254542544,40.65492201621016],[-99.17786983729837,40.66093543404433],[-99.24606642316422,40.65921731466314],[-99.33220947899478,40.671244150331496],[-99.41835253482535,40.671244150331496],[-99.42553112281122,40.69959312012119],[-99.42553112281122,41.04665323512234]]]}},{"type":"Feature","id":"31021","properties":{"name":"Burt","county_fips":"31021","state_abbr":"NE"},"geometry":{"type":"Polygon","coordinates":[[[-96.55409592845928,42.015672566115654],[-96.31002393693936,42.01481350642506],[-96.31002393693936,42.046598714977144],[-96.27413099700996,42.04745777466774],[-96.22029158711587,42.02598128240282],[-96.23823805708057,42.012236327353264],[-96.18439864718647,42.0027866707567],[-96.1879879411794,41.977014880038794],[-96.13055923729237,41.97186052189521],[-96.14132711927118,41.915162582315816],[-96.16286288322883,41.90571292571925],[-96.13773782527825,41.86619617995179],[-96.10902347333473,41.82066601635016],[-96.06595194541946,41.80090764346643],[-96.07671982739826,41.76139089769897],[-96.10543417934178,41.74420970388703],[-96.08389841538416,41.6978204805948],[-96.12338064930648,41.68321646585465],[-96.44641710867108,41.68321646585465],[-96.44282781467814,41.741632524815245],[-96.55409592845928,41.741632524815245],[-96.55409592845928,42.015672566115654]]]}},{"type":"Feature","id":"31023","properties":{"name":"Butler","county_fips":"31023","state_abbr":"NE"},"geometry":{"type":"Polygon","coordinates":[[[-97.36886566485664,41.396290529195284],[-97.28631190301903,41.40058582764827],[-97.25400825708256,41.384263693526925],[-97.17863308323082,41.376532156311555],[-97.01711485354853,41.41347172300722],[-96.9058467397674,41.45642470753707],[-96.9058467397674,41.452988468774684],[-96.90943603376033,41.39371335012349],[-96.90943603376033,41.045794175431745],[-97.36886566485664,41.04665323512234],[-97.36886566485664,41.396290529195284]]]}},{"type":"Feature","id":"31025","properties":{"name":"Cass","county_fips":"31025","state_abbr":"NE"},"geometry":{"type":"Polygon","coordinates":[[[-96.46436357863578,41.01572708626085],[-96.3495061708617,41.01486802657026],[-96.32079181891818,41.04493511574115],[-96.28489887898878,41.021740504095035],[-96.20593441114411,40.995968713377124],[-96.14491641326413,41.01744520564205],[-96.10902347333473,41.04837135450354],[-96.03364829948299,41.06641160800607],[-95.98698747757477,41.052666652956525],[-95.87930865778657,41.05352571264712],[-95.86136218782187,40.995109653686534],[-95.82905854188542,40.97792845987459],[-95.83982642386424,40.94012983348833],[-95.81470136591365,40.90147214741147],[-95.83982642386424,40.872264117931174],[-95.84700501185011,40.81127087989879],[-95.83264783587835,40.78378096979969],[-96.46436357863578,40.78378096979969],[-96.46436357863578,41.01572708626085]]]}},{"type":"Feature","id":"31027","properties":{"name":"Cedar","county_fips":"31027","state_abbr":"NE"},"geometry":{"type":"Polygon","coordinates":[[[-97.48372307263072,42.850678585375846],[-97.44065154471544,42.846383286922865],[-97.41552648676486,42.866141659806594],[-97.36168707687077,42.85497388382883],[-97.30784766697667,42.867000719497184],[-97.21811531715316,42.84552422723227],[-97.21452602316023,42.81287995898958],[-97.16068661326612,42.79999406363063],[-97.1319722613226,42.77164509384093],[-97.01711485354853,42.76133637755377],[-97.01711485354853,42.35156490513904],[-97.36886566485664,42.35156490513904],[-97.36886566485664,42.439188993579926],[-97.48372307263072,42.438329933889335],[-97.48372307263072,42.850678585375846]]]}},{"type":"Feature","id":"31029","properties":{"name":"Chase","county_fips":"31029","state_abbr":"NE"},"geometry":{"type":"Polygon","coordinates":[[[-102.05289432564325,40.44015709356093],[-102.05289432564325,40.69787500074],[-101.34580340903409,40.69787500074],[-101.34221411504114,40.35081488573885],[-102.05289432564325,40.349096766357654],[-102.05289432564325,40.44015709356093]]]}},{"type":"Feature","id":"31031","properties":{"name":"Cherry","county_fips":"31031","state_abbr":"NE"},"geometry":{"type":"Polygon","coordinates":[[[-102.08160867758677,42.99929591184911],[-101.6257683404834,42.99585967308673],[-101.22735670726706,42.997577792467915],[-100.88637377793778,42.997577792467915],[-100.19722933129331,42.99843685215851],[-100.19722933129331,42.846383286922865],[-100.19722933129331,42.7810947504375],[-100.18287215532155,42.7810947504375],[-100.18287215532155,42.43317557574575],[-100.1685149793498,42.43317557574575],[-100.1685149793498,42.0861154607446],[-100.26901521115211,42.0861154607446],[-100.84689154401543,42.087833580125796],[-101.42476787687876,42.09212887857878],[-102.00623350373503,42.096424177031764],[-102.0385371496715,42.096424177031764],[-102.0385371496715,42.44348429203291],[-102.067251501615,42.44348429203291],[-102.067251501615,42.785390048890484],[-102.08519797157972,42.785390048890484],[-102.08160867758677,42.99929591184911]]]}},{"type":"Feature","id":"31033","properties":{"name":"Cheyenne","county_fips":"31033","state_abbr":"NE"},"geometry":{"type":"Polygon","coordinates":[[[-103.37734380903808,41.39457240981409],[-103.3701652210522,41.437525394343936],[-102.63794924649245,41.43924351372513],[-102.63794924649245,41.395431469504686],[-102.60923489454893,41.395431469504686],[-102.60923489454893,41.221901412004115],[-102.60923489454893,41.04837135450354],[-102.62000277652776,41.002841190901904],[-102.65230642246422,41.00198213121131],[-103.38093310303103,41.00198213121131],[-103.37734380903808,41.04751229481294],[-103.37734380903808,41.39457240981409]]]}},{"type":"Feature","id":"31035","properties":{"name":"Clay","county_fips":"31035","state_abbr":"NE"},"geometry":{"type":"Polygon","coordinates":[[[-98.27695704507045,40.69787500074],[-97.82470600196001,40.698734060430596],[-97.82470600196001,40.35081488573885],[-98.2733677510775,40.34995582604825],[-98.27695704507045,40.34995582604825],[-98.27695704507045,40.69787500074]]]}},{"type":"Feature","id":"31037","properties":{"name":"Colfax","county_fips":"31037","state_abbr":"NE"},"geometry":{"type":"Polygon","coordinates":[[[-97.25400825708256,41.74335064419643],[-97.02070414754147,41.74335064419643],[-96.9058467397674,41.742491584505835],[-96.9058467397674,41.45642470753707],[-97.01711485354853,41.41347172300722],[-97.17863308323082,41.376532156311555],[-97.25400825708256,41.384263693526925],[-97.25400825708256,41.74335064419643]]]}},{"type":"Feature","id":"31039","properties":{"name":"Cuming","county_fips":"31039","state_abbr":"NE"},"geometry":{"type":"Polygon","coordinates":[[[-97.02070414754147,42.09041075919758],[-96.82329297792977,42.09041075919758],[-96.55409592845928,42.08955169950699],[-96.55409592845928,42.015672566115654],[-96.55409592845928,41.741632524815245],[-96.9058467397674,41.742491584505835],[-97.02070414754147,41.74335064419643],[-97.02070414754147,42.09041075919758]]]}},{"type":"Feature","id":"31041","properties":{"name":"Custer","county_fips":"31041","state_abbr":"NE"},"geometry":{"type":"Polygon","coordinates":[[[-100.25106874118741,41.73991440543405],[-100.00340745567455,41.738196286052855],[-99.68754958429584,41.73991440543405],[-99.22094136521365,41.74077346512465],[-99.21376277722777,41.74077346512465],[-99.21376277722777,41.39457240981409],[-99.20299489524895,41.39371335012349],[-99.2065841892419,41.04665323512234],[-99.42553112281122,41.04665323512234],[-100.22594368323682,41.04665323512234],[-100.23671156521564,41.04665323512234],[-100.23671156521564,41.39371335012349],[-100.25106874118741,41.39371335012349],[-100.25106874118741,41.73991440543405]]]}},{"type":"Feature","id":"31043","properties":{"name":"Dakota","county_fips":"31043","state_abbr":"NE"},"geometry":{"type":"Polygon","coordinates":[[[-96.63306039630396,42.52423590294902],[-96.61152463234632,42.50619564944649],[-96.52538157651576,42.51049094789947],[-96.50743510655106,42.484719157181566],[-96.44641710867108,42.49073257501574],[-96.39616699276992,42.48386009749097],[-96.38180981679817,42.446061471104706],[-96.41411346273462,42.40826284471844],[-96.41411346273462,42.342974308233075],[-96.37463122881228,42.31806157720577],[-96.35668475884758,42.276826712057115],[-96.7263820401204,42.27768577174771],[-96.72279274612745,42.52423590294902],[-96.63306039630396,42.52423590294902]]]}},{"type":"Feature","id":"31045","properties":{"name":"Dawes","county_fips":"31045","state_abbr":"NE"},"geometry":{"type":"Polygon","coordinates":[[[-103.50655839278392,43.001014031230305],[-103.0004679397794,43.00015497153971],[-102.79228888818888,43.00015497153971],[-102.79228888818888,42.785390048890484],[-102.77434241822418,42.785390048890484],[-102.77434241822418,42.44004805327052],[-103.44554039490394,42.43747087419874],[-103.48143333483334,42.43747087419874],[-103.48143333483334,42.785390048890484],[-103.50296909879098,42.78453098919989],[-103.50655839278392,43.001014031230305]]]}},{"type":"Feature","id":"31047","properties":{"name":"Dawson","county_fips":"31047","state_abbr":"NE"},"geometry":{"type":"Polygon","coordinates":[[[-100.22594368323682,41.04665323512234],[-99.42553112281122,41.04665323512234],[-99.42553112281122,40.69959312012119],[-99.41835253482535,40.671244150331496],[-99.44347759277592,40.67811662785627],[-99.58346005850058,40.67725756816567],[-99.64447805638056,40.68498910538105],[-99.69831746627466,40.69959312012119],[-99.98187169171692,40.69959312012119],[-100.22235438924389,40.70045217981179],[-100.22594368323682,41.04665323512234]]]}},{"type":"Feature","id":"31049","properties":{"name":"Deuel","county_fips":"31049","state_abbr":"NE"},"geometry":{"type":"Polygon","coordinates":[[[-102.60923489454893,41.221901412004115],[-102.0564836196362,41.221901412004115],[-102.05289432564325,41.0037002505925],[-102.05289432564325,41.00198213121131],[-102.62000277652776,41.002841190901904],[-102.60923489454893,41.04837135450354],[-102.60923489454893,41.221901412004115]]]}},{"type":"Feature","id":"31051","properties":{"name":"Dixon","county_fips":"31051","state_abbr":"NE"},"geometry":{"type":"Polygon","coordinates":[[[-97.01711485354853,42.35156490513904],[-97.01711485354853,42.76133637755377],[-96.97763261962619,42.76047731786317],[-96.94891826768267,42.71924245271452],[-96.9058467397674,42.73384646745467],[-96.80534650796507,42.70377937828378],[-96.80175721397214,42.6694169906599],[-96.7263820401204,42.66683981158811],[-96.68689980619806,42.65309485653856],[-96.71202486414863,42.608423752627516],[-96.63664969029689,42.55172581304812],[-96.63306039630396,42.52423590294902],[-96.72279274612745,42.52423590294902],[-96.7263820401204,42.27768577174771],[-96.7263820401204,42.26394081669816],[-96.82329297792977,42.26394081669816],[-97.01711485354853,42.26479987638876],[-97.01711485354853,42.35156490513904]]]}},{"type":"Feature","id":"31053","properties":{"name":"Dodge","county_fips":"31053","state_abbr":"NE"},"geometry":{"type":"Polygon","coordinates":[[[-96.9058467397674,41.742491584505835],[-96.55409592845928,41.741632524815245],[-96.44282781467814,41.741632524815245],[-96.44641710867108,41.68321646585465],[-96.44282781467814,41.52429042309422],[-96.42488134471344,41.480478378873784],[-96.3853991107911,41.46587436413363],[-96.3674526408264,41.43666633465334],[-96.32797040690406,41.43666633465334],[-96.32797040690406,41.3928542904329],[-96.47154216662166,41.3928542904329],[-96.50384581255813,41.396290529195284],[-96.56845310443104,41.43323009589095],[-96.690489100191,41.42549855867558],[-96.74791780407804,41.449552230012294],[-96.81970368393684,41.44010257341573],[-96.9058467397674,41.452988468774684],[-96.9058467397674,41.45642470753707],[-96.9058467397674,41.742491584505835]]]}},{"type":"Feature","id":"31055","properties":{"name":"Douglas","county_fips":"31055","state_abbr":"NE"},"geometry":{"type":"Polygon","coordinates":[[[-96.47154216662166,41.3928542904329],[-96.32797040690406,41.3928542904329],[-95.93673736167361,41.391136171051706],[-95.9546838316383,41.33959258961589],[-95.88289795177951,41.31639797796977],[-95.92955877368773,41.2811765306553],[-95.91161230372303,41.22705577014769],[-95.92238018570185,41.190975263142626],[-96.32797040690406,41.19011620345203],[-96.36386334683347,41.23392824767247],[-96.3495061708617,41.264854396533956],[-96.40693487474874,41.314679858588576],[-96.4212920507205,41.3645053206432],[-96.47154216662166,41.3928542904329]]]}},{"type":"Feature","id":"31057","properties":{"name":"Dundy","county_fips":"31057","state_abbr":"NE"},"geometry":{"type":"Polygon","coordinates":[[[-102.05289432564325,40.349096766357654],[-101.34221411504114,40.35081488573885],[-101.32426764507645,40.35081488573885],[-101.32426764507645,40.0028957110471],[-101.41041070090701,40.002036651356505],[-102.05289432564325,40.0028957110471],[-102.05289432564325,40.349096766357654]]]}},{"type":"Feature","id":"31059","properties":{"name":"Fillmore","county_fips":"31059","state_abbr":"NE"},"geometry":{"type":"Polygon","coordinates":[[[-97.82470600196001,40.698734060430596],[-97.36886566485664,40.698734060430596],[-97.36886566485664,40.35081488573885],[-97.82111670796708,40.35081488573885],[-97.82470600196001,40.35081488573885],[-97.82470600196001,40.698734060430596]]]}},{"type":"Feature","id":"31061","properties":{"name":"Franklin","county_fips":"31061","state_abbr":"NE"},"geometry":{"type":"Polygon","coordinates":[[[-99.17786983729837,40.35081488573885],[-98.72561879418794,40.35081488573885],[-98.72561879418794,40.002036651356505],[-99.06660172351722,40.002036651356505],[-99.17786983729837,40.002036651356505],[-99.17786983729837,40.35081488573885]]]}},{"type":"Feature","id":"31063","properties":{"name":"Frontier","county_fips":"31063","state_abbr":"NE"},"geometry":{"type":"Polygon","coordinates":[[[-100.77869495814957,40.70045217981179],[-100.22235438924389,40.70045217981179],[-99.98187169171692,40.69959312012119],[-99.98187169171692,40.43843897417973],[-100.09672909949099,40.43843897417973],[-100.09313980549805,40.35167394542945],[-100.19722933129331,40.34995582604825],[-100.75715919419194,40.349096766357654],[-100.77869495814957,40.349096766357654],[-100.78228425214252,40.655781075900755],[-100.77869495814957,40.70045217981179]]]}},{"type":"Feature","id":"31065","properties":{"name":"Furnas","county_fips":"31065","state_abbr":"NE"},"geometry":{"type":"Polygon","coordinates":[[[-100.19722933129331,40.34995582604825],[-100.09313980549805,40.35167394542945],[-99.64088876238762,40.35081488573885],[-99.6301208804088,40.35081488573885],[-99.62653158641587,40.002036651356505],[-100.1792828613286,40.00117759166591],[-100.19364003730037,40.00117759166591],[-100.19722933129331,40.34995582604825]]]}},{"type":"Feature","id":"31067","properties":{"name":"Gage","county_fips":"31067","state_abbr":"NE"},"geometry":{"type":"Polygon","coordinates":[[[-96.91661462174622,40.00117759166591],[-96.91661462174622,40.34995582604825],[-96.91302532775327,40.52348588354883],[-96.46436357863578,40.52262682385823],[-96.46436357863578,40.26233173760737],[-96.46436357863578,40.00117759166591],[-96.80534650796507,40.00117759166591],[-96.91661462174622,40.00117759166591]]]}},{"type":"Feature","id":"31069","properties":{"name":"Garden","county_fips":"31069","state_abbr":"NE"},"geometry":{"type":"Polygon","coordinates":[[[-102.6774314804148,42.00536384982849],[-102.067251501615,42.00880008859088],[-102.067251501615,41.742491584505835],[-101.98469773977739,41.742491584505835],[-101.98469773977739,41.39457240981409],[-102.0564836196362,41.395431469504686],[-102.0564836196362,41.221901412004115],[-102.60923489454893,41.221901412004115],[-102.60923489454893,41.395431469504686],[-102.63794924649245,41.395431469504686],[-102.63794924649245,41.43924351372513],[-102.63794924649245,41.74335064419643],[-102.66666359843597,41.74335064419643],[-102.6774314804148,41.80176670315702],[-102.6774314804148,42.00536384982849]]]}},{"type":"Feature","id":"31071","properties":{"name":"Garfield","county_fips":"31071","state_abbr":"NE"},"geometry":{"type":"Polygon","coordinates":[[[-99.22094136521365,42.087833580125796],[-98.76151173411733,42.088692639816394],[-98.7579224401244,41.74077346512465],[-99.21376277722777,41.74077346512465],[-99.22094136521365,41.74077346512465],[-99.22094136521365,42.087833580125796]]]}},{"type":"Feature","id":"31073","properties":{"name":"Gosper","county_fips":"31073","state_abbr":"NE"},"geometry":{"type":"Polygon","coordinates":[[[-99.98187169171692,40.69959312012119],[-99.69831746627466,40.69959312012119],[-99.64447805638056,40.68498910538105],[-99.64088876238762,40.35081488573885],[-100.09313980549805,40.35167394542945],[-100.09672909949099,40.43843897417973],[-99.98187169171692,40.43843897417973],[-99.98187169171692,40.69959312012119]]]}},{"type":"Feature","id":"31075","properties":{"name":"Grant","county_fips":"31075","state_abbr":"NE"},"geometry":{"type":"Polygon","coordinates":[[[-102.067251501615,42.00880008859088],[-102.00982279772798,42.00880008859088],[-102.00623350373503,42.096424177031764],[-101.42476787687876,42.09212887857878],[-101.42476787687876,41.74335064419643],[-101.98469773977739,41.742491584505835],[-102.067251501615,41.742491584505835],[-102.067251501615,42.00880008859088]]]}},{"type":"Feature","id":"31077","properties":{"name":"Greeley","county_fips":"31077","state_abbr":"NE"},"geometry":{"type":"Polygon","coordinates":[[[-98.75074385213851,41.74077346512465],[-98.29490351503514,41.74077346512465],[-98.2913142210422,41.73733722636226],[-98.2913142210422,41.480478378873784],[-98.2913142210422,41.39371335012349],[-98.74356526415264,41.39457240981409],[-98.75074385213851,41.39371335012349],[-98.75074385213851,41.74077346512465]]]}},{"type":"Feature","id":"31079","properties":{"name":"Hall","county_fips":"31079","state_abbr":"NE"},"geometry":{"type":"Polygon","coordinates":[[[-98.72202950019499,41.04665323512234],[-98.28772492704927,41.04665323512234],[-98.28413563305632,40.868827879168784],[-98.28413563305632,40.69787500074],[-98.72202950019499,40.698734060430596],[-98.72202950019499,41.04665323512234]]]}},{"type":"Feature","id":"31081","properties":{"name":"Hamilton","county_fips":"31081","state_abbr":"NE"},"geometry":{"type":"Polygon","coordinates":[[[-98.28413563305632,40.868827879168784],[-98.14774246132461,40.98394187770877],[-98.09031375743757,41.00971366842668],[-98.00058140761408,41.07843844367443],[-97.88572399984,41.1145189506795],[-97.82829529595296,41.17379406933069],[-97.82470600196001,41.04665323512234],[-97.82470600196001,40.698734060430596],[-98.27695704507045,40.69787500074],[-98.28413563305632,40.69787500074],[-98.28413563305632,40.868827879168784]]]}},{"type":"Feature","id":"31083","properties":{"name":"Harlan","county_fips":"31083","state_abbr":"NE"},"geometry":{"type":"Polygon","coordinates":[[[-99.6301208804088,40.35081488573885],[-99.17786983729837,40.35081488573885],[-99.17786983729837,40.002036651356505],[-99.62653158641587,40.002036651356505],[-99.6301208804088,40.35081488573885]]]}},{"type":"Feature","id":"31085","properties":{"name":"Hayes","county_fips":"31085","state_abbr":"NE"},"geometry":{"type":"Polygon","coordinates":[[[-101.34580340903409,40.69787500074],[-101.2488924712247,40.69787500074],[-100.77869495814957,40.70045217981179],[-100.78228425214252,40.655781075900755],[-100.77869495814957,40.349096766357654],[-101.32426764507645,40.35081488573885],[-101.34221411504114,40.35081488573885],[-101.34580340903409,40.69787500074]]]}},{"type":"Feature","id":"31087","properties":{"name":"Hitchcock","county_fips":"31087","state_abbr":"NE"},"geometry":{"type":"Polygon","coordinates":[[[-101.32426764507645,40.0028957110471],[-101.32426764507645,40.35081488573885],[-100.77869495814957,40.349096766357654],[-100.75715919419194,40.349096766357654],[-100.76074848818487,40.174707649166486],[-100.75715919419194,40.002036651356505],[-101.32426764507645,40.0028957110471]]]}},{"type":"Feature","id":"31089","properties":{"name":"Holt","county_fips":"31089","state_abbr":"NE"},"geometry":{"type":"Polygon","coordinates":[[[-99.25683430514304,42.804289362083615],[-99.15274477934778,42.84208798846988],[-99.05583384153842,42.862705421044204],[-98.98404796167961,42.896208748977486],[-98.95533360973609,42.89449062959629],[-98.88713702387024,42.84380610785107],[-98.84047620196202,42.84552422723227],[-98.79740467404673,42.824047734967344],[-98.76151173411733,42.82748397372973],[-98.71126161821618,42.80343030239302],[-98.65742220832207,42.80944372022719],[-98.58204703447034,42.7793766310563],[-98.46360033270332,42.76649073569735],[-98.4169395107951,42.77594039229392],[-98.30567139701397,42.76133637755377],[-98.30567139701397,42.43661181450814],[-98.29849280902809,42.43661181450814],[-98.30208210302102,42.088692639816394],[-98.76151173411733,42.088692639816394],[-99.22094136521365,42.087833580125796],[-99.2352985411854,42.087833580125796],[-99.2352985411854,42.434893695126945],[-99.24606642316422,42.434893695126945],[-99.24606642316422,42.78281286981869],[-99.25683430514304,42.804289362083615]]]}},{"type":"Feature","id":"31091","properties":{"name":"Hooker","county_fips":"31091","state_abbr":"NE"},"geometry":{"type":"Polygon","coordinates":[[[-101.42476787687876,42.09212887857878],[-100.84689154401543,42.087833580125796],[-100.84330225002249,41.74077346512465],[-101.40682140691406,41.74335064419643],[-101.42476787687876,41.74335064419643],[-101.42476787687876,42.09212887857878]]]}},{"type":"Feature","id":"31093","properties":{"name":"Howard","county_fips":"31093","state_abbr":"NE"},"geometry":{"type":"Polygon","coordinates":[[[-98.74356526415264,41.39457240981409],[-98.2913142210422,41.39371335012349],[-98.28772492704927,41.39371335012349],[-98.28772492704927,41.04665323512234],[-98.72202950019499,41.04665323512234],[-98.74715455814558,41.04665323512234],[-98.74356526415264,41.39457240981409]]]}},{"type":"Feature","id":"31095","properties":{"name":"Jefferson","county_fips":"31095","state_abbr":"NE"},"geometry":{"type":"Polygon","coordinates":[[[-97.36886566485664,40.002036651356505],[-97.36886566485664,40.35081488573885],[-96.91661462174622,40.34995582604825],[-96.91661462174622,40.00117759166591],[-97.36886566485664,40.002036651356505]]]}},{"type":"Feature","id":"31097","properties":{"name":"Johnson","county_fips":"31097","state_abbr":"NE"},"geometry":{"type":"Polygon","coordinates":[[[-96.46436357863578,40.52262682385823],[-96.06595194541946,40.52348588354883],[-96.06595194541946,40.26233173760737],[-96.46436357863578,40.26233173760737],[-96.46436357863578,40.52262682385823]]]}},{"type":"Feature","id":"31099","properties":{"name":"Kearney","county_fips":"31099","state_abbr":"NE"},"geometry":{"type":"Polygon","coordinates":[[[-99.17786983729837,40.66093543404433],[-99.11326254542544,40.65492201621016],[-98.90508349383494,40.652344837138365],[-98.82611902599025,40.674680389093886],[-98.72561879418794,40.69014346352463],[-98.72561879418794,40.35081488573885],[-99.17786983729837,40.35081488573885],[-99.17786983729837,40.66093543404433]]]}},{"type":"Feature","id":"31101","properties":{"name":"Keith","county_fips":"31101","state_abbr":"NE"},"geometry":{"type":"Polygon","coordinates":[[[-102.0564836196362,41.221901412004115],[-102.0564836196362,41.395431469504686],[-101.98469773977739,41.39457240981409],[-101.40682140691406,41.395431469504686],[-101.27042823518235,41.39457240981409],[-101.27042823518235,41.04751229481294],[-101.2488924712247,41.04751229481294],[-101.2488924712247,41.0037002505925],[-102.05289432564325,41.0037002505925],[-102.0564836196362,41.221901412004115]]]}},{"type":"Feature","id":"31103","properties":{"name":"Keya Paha","county_fips":"31103","state_abbr":"NE"},"geometry":{"type":"Polygon","coordinates":[[[-100.19722933129331,42.99843685215851],[-99.53320994259943,42.99843685215851],[-99.25324501115011,42.99843685215851],[-99.25683430514304,42.804289362083615],[-99.33579877298773,42.7802356907469],[-99.4147632408324,42.77250415353153],[-99.43629900479004,42.7536048403384],[-99.53679923659236,42.71752433333332],[-99.67678170231702,42.731269288382876],[-99.71267464224641,42.726973989929895],[-99.85624640196401,42.7527457806478],[-99.86342498994989,42.76906791476914],[-99.96751451574515,42.77250415353153],[-100.0069967496675,42.78882628765287],[-100.05724686556864,42.785390048890484],[-100.13262203942038,42.807725600846],[-100.19722933129331,42.846383286922865],[-100.19722933129331,42.99843685215851]]]}},{"type":"Feature","id":"31105","properties":{"name":"Kimball","county_fips":"31105","state_abbr":"NE"},"geometry":{"type":"Polygon","coordinates":[[[-104.05213107971079,41.3928542904329],[-103.37734380903808,41.39457240981409],[-103.37734380903808,41.04751229481294],[-103.38093310303103,41.00198213121131],[-103.57475497864978,41.00198213121131],[-104.05213107971079,41.00112307152071],[-104.05213107971079,41.3928542904329]]]}},{"type":"Feature","id":"31107","properties":{"name":"Knox","county_fips":"31107","state_abbr":"NE"},"geometry":{"type":"Polygon","coordinates":[[[-98.30926069100691,42.88246379392793],[-98.25901057510575,42.87473225671256],[-98.17286751927519,42.83693363032629],[-98.15133175531754,42.83865174970749],[-98.01852787757878,42.762195437244365],[-97.95033129171291,42.769926974459736],[-97.90725976379764,42.79483970548705],[-97.87495611786117,42.858410122591216],[-97.84624176591765,42.86785977918778],[-97.77445588605886,42.84981952568525],[-97.68472353623535,42.84208798846988],[-97.6344734203342,42.85153764506644],[-97.48372307263072,42.850678585375846],[-97.48372307263072,42.438329933889335],[-97.83547388393883,42.43747087419874],[-98.29849280902809,42.43661181450814],[-98.30567139701397,42.43661181450814],[-98.30567139701397,42.76133637755377],[-98.30926069100691,42.88246379392793]]]}},{"type":"Feature","id":"31109","properties":{"name":"Lancaster","county_fips":"31109","state_abbr":"NE"},"geometry":{"type":"Polygon","coordinates":[[[-96.91302532775327,40.69787500074],[-96.90943603376033,40.69787500074],[-96.90943603376033,41.045794175431745],[-96.46436357863578,41.04493511574115],[-96.46436357863578,41.01572708626085],[-96.46436357863578,40.78378096979969],[-96.46436357863578,40.52262682385823],[-96.91302532775327,40.52348588354883],[-96.91302532775327,40.69787500074]]]}},{"type":"Feature","id":"31111","properties":{"name":"Lincoln","county_fips":"31111","state_abbr":"NE"},"geometry":{"type":"Polygon","coordinates":[[[-101.27042823518235,41.39457240981409],[-100.71408766627665,41.39371335012349],[-100.25106874118741,41.39371335012349],[-100.23671156521564,41.39371335012349],[-100.23671156521564,41.04665323512234],[-100.22594368323682,41.04665323512234],[-100.22235438924389,40.70045217981179],[-100.77869495814957,40.70045217981179],[-101.2488924712247,40.69787500074],[-101.2488924712247,41.0037002505925],[-101.2488924712247,41.04751229481294],[-101.27042823518235,41.04751229481294],[-101.27042823518235,41.39457240981409]]]}},{"type":"Feature","id":"31113","properties":{"name":"Logan","county_fips":"31113","state_abbr":"NE"},"geometry":{"type":"Polygon","coordinates":[[[-100.71049837228372,41.73991440543405],[-100.26542591715916,41.73991440543405],[-100.25106874118741,41.73991440543405],[-100.25106874118741,41.39371335012349],[-100.71408766627665,41.39371335012349],[-100.71049837228372,41.73991440543405]]]}},{"type":"Feature","id":"31115","properties":{"name":"Loup","county_fips":"31115","state_abbr":"NE"},"geometry":{"type":"Polygon","coordinates":[[[-99.68754958429584,42.0861154607446],[-99.66242452634526,42.0861154607446],[-99.2352985411854,42.087833580125796],[-99.22094136521365,42.087833580125796],[-99.22094136521365,41.74077346512465],[-99.68754958429584,41.73991440543405],[-99.68754958429584,42.0861154607446]]]}},{"type":"Feature","id":"31119","properties":{"name":"Madison","county_fips":"31119","state_abbr":"NE"},"geometry":{"type":"Polygon","coordinates":[[[-97.83547388393883,42.08955169950699],[-97.36886566485664,42.09126981888818],[-97.36886566485664,41.74335064419643],[-97.8318845899459,41.742491584505835],[-97.8318845899459,41.91602164200641],[-97.83547388393883,42.08955169950699]]]}},{"type":"Feature","id":"31117","properties":{"name":"McPherson","county_fips":"31117","state_abbr":"NE"},"geometry":{"type":"Polygon","coordinates":[[[-101.40682140691406,41.74335064419643],[-100.84330225002249,41.74077346512465],[-100.71049837228372,41.73991440543405],[-100.71408766627665,41.39371335012349],[-101.27042823518235,41.39457240981409],[-101.40682140691406,41.395431469504686],[-101.40682140691406,41.74335064419643]]]}},{"type":"Feature","id":"31121","properties":{"name":"Merrick","county_fips":"31121","state_abbr":"NE"},"geometry":{"type":"Polygon","coordinates":[[[-98.28772492704927,41.39371335012349],[-98.2733677510775,41.39371335012349],[-98.27695704507045,41.26399533684336],[-98.10108163941639,41.26399533684336],[-98.05442081750817,41.29320336632366],[-97.89649188181882,41.29320336632366],[-97.89649188181882,41.3078073810638],[-97.706259300193,41.309525500445],[-97.70267000620005,41.39457240981409],[-97.5985804804048,41.395431469504686],[-97.5985804804048,41.33272011209112],[-97.5985804804048,41.31725703766037],[-97.65959847828478,41.30523020199201],[-97.76727729807297,41.234787307363064],[-97.82829529595296,41.17379406933069],[-97.88572399984,41.1145189506795],[-98.00058140761408,41.07843844367443],[-98.09031375743757,41.00971366842668],[-98.14774246132461,40.98394187770877],[-98.28413563305632,40.868827879168784],[-98.28772492704927,41.04665323512234],[-98.28772492704927,41.39371335012349]]]}},{"type":"Feature","id":"31123","properties":{"name":"Morrill","county_fips":"31123","state_abbr":"NE"},"geometry":{"type":"Polygon","coordinates":[[[-103.36298663306633,42.0027866707567],[-102.86407476804767,42.0010685513755],[-102.69896724437244,42.004504790137894],[-102.6774314804148,42.00536384982849],[-102.6774314804148,41.80176670315702],[-102.66666359843597,41.74335064419643],[-102.63794924649245,41.74335064419643],[-102.63794924649245,41.43924351372513],[-103.3701652210522,41.437525394343936],[-103.3701652210522,41.699538599975995],[-103.36298663306633,41.74335064419643],[-103.36298663306633,42.0027866707567]]]}},{"type":"Feature","id":"31125","properties":{"name":"Nance","county_fips":"31125","state_abbr":"NE"},"geometry":{"type":"Polygon","coordinates":[[[-98.2913142210422,41.480478378873784],[-98.10108163941639,41.480478378873784],[-98.10108163941639,41.49508239361393],[-98.0400636415364,41.495941453304525],[-98.0400636415364,41.510545468044675],[-97.88572399984,41.51140452773527],[-97.82829529595296,41.52600854247542],[-97.70267000620005,41.526867602166014],[-97.70267000620005,41.39457240981409],[-97.706259300193,41.309525500445],[-97.89649188181882,41.3078073810638],[-97.89649188181882,41.29320336632366],[-98.05442081750817,41.29320336632366],[-98.10108163941639,41.26399533684336],[-98.27695704507045,41.26399533684336],[-98.2733677510775,41.39371335012349],[-98.28772492704927,41.39371335012349],[-98.2913142210422,41.39371335012349],[-98.2913142210422,41.480478378873784]]]}},{"type":"Feature","id":"31127","properties":{"name":"Nemaha","county_fips":"31127","state_abbr":"NE"},"geometry":{"type":"Polygon","coordinates":[[[-96.06595194541946,40.52348588354883],[-95.7106118401184,40.52348588354883],[-95.69266537015369,40.55698921148211],[-95.65318313623136,40.54152613705136],[-95.69984395813958,40.505445630046296],[-95.69625466414664,40.47108324242242],[-95.6567724302243,40.44187521294212],[-95.66036172421724,40.40837188500884],[-95.61729019630197,40.313875319043184],[-95.55268290442903,40.29153976708766],[-95.55627219842198,40.264049856988564],[-95.55268290442903,40.26233173760737],[-96.00852324153242,40.26147267791677],[-96.06595194541946,40.26233173760737],[-96.06595194541946,40.52348588354883]]]}},{"type":"Feature","id":"31129","properties":{"name":"Nuckolls","county_fips":"31129","state_abbr":"NE"},"geometry":{"type":"Polygon","coordinates":[[[-98.2733677510775,40.0028957110471],[-98.2733677510775,40.34995582604825],[-97.82470600196001,40.35081488573885],[-97.82111670796708,40.35081488573885],[-97.82111670796708,40.002036651356505],[-97.93238482174822,40.002036651356505],[-98.2733677510775,40.0028957110471]]]}},{"type":"Feature","id":"31131","properties":{"name":"Otoe","county_fips":"31131","state_abbr":"NE"},"geometry":{"type":"Polygon","coordinates":[[[-96.46436357863578,40.78378096979969],[-95.83264783587835,40.78378096979969],[-95.87930865778657,40.752854820938204],[-95.88648724577246,40.72106961238612],[-95.83264783587835,40.671244150331496],[-95.78598701397013,40.65749919528194],[-95.75009407404073,40.60939185260852],[-95.7644512500125,40.58533818127181],[-95.76804054400543,40.5312174207642],[-95.7106118401184,40.52348588354883],[-96.06595194541946,40.52348588354883],[-96.46436357863578,40.52262682385823],[-96.46436357863578,40.78378096979969]]]}},{"type":"Feature","id":"31133","properties":{"name":"Pawnee","county_fips":"31133","state_abbr":"NE"},"geometry":{"type":"Polygon","coordinates":[[[-96.46436357863578,40.26233173760737],[-96.06595194541946,40.26233173760737],[-96.00852324153242,40.26147267791677],[-96.01211253552535,40.00031853197531],[-96.23823805708057,40.00031853197531],[-96.46436357863578,40.00117759166591],[-96.46436357863578,40.26233173760737]]]}},{"type":"Feature","id":"31135","properties":{"name":"Perkins","county_fips":"31135","state_abbr":"NE"},"geometry":{"type":"Polygon","coordinates":[[[-102.05289432564325,41.0037002505925],[-101.2488924712247,41.0037002505925],[-101.2488924712247,40.69787500074],[-101.34580340903409,40.69787500074],[-102.05289432564325,40.69787500074],[-102.05289432564325,40.749418582175814],[-102.05289432564325,41.00198213121131],[-102.05289432564325,41.0037002505925]]]}},{"type":"Feature","id":"31137","properties":{"name":"Phelps","county_fips":"31137","state_abbr":"NE"},"geometry":{"type":"Polygon","coordinates":[[[-99.64447805638056,40.68498910538105],[-99.58346005850058,40.67725756816567],[-99.44347759277592,40.67811662785627],[-99.41835253482535,40.671244150331496],[-99.33220947899478,40.671244150331496],[-99.24606642316422,40.65921731466314],[-99.17786983729837,40.66093543404433],[-99.17786983729837,40.35081488573885],[-99.6301208804088,40.35081488573885],[-99.64088876238762,40.35081488573885],[-99.64447805638056,40.68498910538105]]]}},{"type":"Feature","id":"31139","properties":{"name":"Pierce","county_fips":"31139","state_abbr":"NE"},"geometry":{"type":"Polygon","coordinates":[[[-97.83547388393883,42.43747087419874],[-97.48372307263072,42.438329933889335],[-97.36886566485664,42.439188993579926],[-97.36886566485664,42.35156490513904],[-97.36886566485664,42.09126981888818],[-97.83547388393883,42.08955169950699],[-97.83547388393883,42.43747087419874]]]}},{"type":"Feature","id":"31141","properties":{"name":"Platte","county_fips":"31141","state_abbr":"NE"},"geometry":{"type":"Polygon","coordinates":[[[-97.8318845899459,41.742491584505835],[-97.36886566485664,41.74335064419643],[-97.25400825708256,41.74335064419643],[-97.25400825708256,41.384263693526925],[-97.28631190301903,41.40058582764827],[-97.36886566485664,41.396290529195284],[-97.45141942669426,41.368800619096184],[-97.52320530655307,41.36192814157141],[-97.5985804804048,41.33272011209112],[-97.5985804804048,41.395431469504686],[-97.70267000620005,41.39457240981409],[-97.70267000620005,41.526867602166014],[-97.82829529595296,41.52600854247542],[-97.8318845899459,41.742491584505835]]]}},{"type":"Feature","id":"31143","properties":{"name":"Polk","county_fips":"31143","state_abbr":"NE"},"geometry":{"type":"Polygon","coordinates":[[[-97.82829529595296,41.17379406933069],[-97.76727729807297,41.234787307363064],[-97.65959847828478,41.30523020199201],[-97.5985804804048,41.31725703766037],[-97.5985804804048,41.33272011209112],[-97.52320530655307,41.36192814157141],[-97.45141942669426,41.368800619096184],[-97.36886566485664,41.396290529195284],[-97.36886566485664,41.04665323512234],[-97.82470600196001,41.04665323512234],[-97.82829529595296,41.17379406933069]]]}},{"type":"Feature","id":"31145","properties":{"name":"Red Willow","county_fips":"31145","state_abbr":"NE"},"geometry":{"type":"Polygon","coordinates":[[[-100.75715919419194,40.349096766357654],[-100.19722933129331,40.34995582604825],[-100.19364003730037,40.00117759166591],[-100.73921272422724,40.002036651356505],[-100.75715919419194,40.002036651356505],[-100.76074848818487,40.174707649166486],[-100.75715919419194,40.349096766357654]]]}},{"type":"Feature","id":"31147","properties":{"name":"Richardson","county_fips":"31147","state_abbr":"NE"},"geometry":{"type":"Polygon","coordinates":[[[-96.01211253552535,40.00031853197531],[-96.00852324153242,40.26147267791677],[-95.55268290442903,40.26233173760737],[-95.48448631856319,40.247727722867225],[-95.4773077305773,40.18158012669126],[-95.39116467474675,40.1162915902059],[-95.41987902669027,40.04842587464874],[-95.30861091290913,40.00031853197531],[-95.34091455884558,40.00031853197531],[-95.78957630796307,40.00031853197531],[-96.01211253552535,40.00031853197531]]]}},{"type":"Feature","id":"31149","properties":{"name":"Rock","county_fips":"31149","state_abbr":"NE"},"geometry":{"type":"Polygon","coordinates":[[[-99.67678170231702,42.731269288382876],[-99.53679923659236,42.71752433333332],[-99.43629900479004,42.7536048403384],[-99.4147632408324,42.77250415353153],[-99.33579877298773,42.7802356907469],[-99.25683430514304,42.804289362083615],[-99.24606642316422,42.78281286981869],[-99.24606642316422,42.434893695126945],[-99.2352985411854,42.434893695126945],[-99.2352985411854,42.087833580125796],[-99.66242452634526,42.0861154607446],[-99.66242452634526,42.434893695126945],[-99.67678170231702,42.43403463543635],[-99.67678170231702,42.731269288382876]]]}},{"type":"Feature","id":"31151","properties":{"name":"Saline","county_fips":"31151","state_abbr":"NE"},"geometry":{"type":"Polygon","coordinates":[[[-97.36886566485664,40.698734060430596],[-96.91302532775327,40.69787500074],[-96.91302532775327,40.52348588354883],[-96.91661462174622,40.34995582604825],[-97.36886566485664,40.35081488573885],[-97.36886566485664,40.698734060430596]]]}},{"type":"Feature","id":"31153","properties":{"name":"Sarpy","county_fips":"31153","state_abbr":"NE"},"geometry":{"type":"Polygon","coordinates":[[[-96.32797040690406,41.19011620345203],[-95.92238018570185,41.190975263142626],[-95.83982642386424,41.17465312902128],[-95.87930865778657,41.160049114281136],[-95.86495148181481,41.080156563055624],[-95.87930865778657,41.05352571264712],[-95.98698747757477,41.052666652956525],[-96.03364829948299,41.06641160800607],[-96.10902347333473,41.04837135450354],[-96.14491641326413,41.01744520564205],[-96.20593441114411,40.995968713377124],[-96.28489887898878,41.021740504095035],[-96.32079181891818,41.04493511574115],[-96.33873828888288,41.08273374212742],[-96.31002393693936,41.115378010370094],[-96.32797040690406,41.19011620345203]]]}},{"type":"Feature","id":"31155","properties":{"name":"Saunders","county_fips":"31155","state_abbr":"NE"},"geometry":{"type":"Polygon","coordinates":[[[-96.9058467397674,41.452988468774684],[-96.81970368393684,41.44010257341573],[-96.74791780407804,41.449552230012294],[-96.690489100191,41.42549855867558],[-96.56845310443104,41.43323009589095],[-96.50384581255813,41.396290529195284],[-96.47154216662166,41.3928542904329],[-96.4212920507205,41.3645053206432],[-96.40693487474874,41.314679858588576],[-96.3495061708617,41.264854396533956],[-96.36386334683347,41.23392824767247],[-96.32797040690406,41.19011620345203],[-96.31002393693936,41.115378010370094],[-96.33873828888288,41.08273374212742],[-96.32079181891818,41.04493511574115],[-96.3495061708617,41.01486802657026],[-96.46436357863578,41.01572708626085],[-96.46436357863578,41.04493511574115],[-96.90943603376033,41.045794175431745],[-96.90943603376033,41.39371335012349],[-96.9058467397674,41.452988468774684]]]}},{"type":"Feature","id":"31157","properties":{"name":"Scotts Bluff","county_fips":"31157","state_abbr":"NE"},"geometry":{"type":"Polygon","coordinates":[[[-104.05213107971079,42.0019276110661],[-103.40246886698867,42.003645730447296],[-103.36298663306633,42.0027866707567],[-103.36298663306633,41.74335064419643],[-103.3701652210522,41.699538599975995],[-104.05213107971079,41.6978204805948],[-104.05213107971079,42.0019276110661]]]}},{"type":"Feature","id":"31159","properties":{"name":"Seward","county_fips":"31159","state_abbr":"NE"},"geometry":{"type":"Polygon","coordinates":[[[-97.36886566485664,41.04665323512234],[-96.90943603376033,41.045794175431745],[-96.90943603376033,40.69787500074],[-96.91302532775327,40.69787500074],[-97.36886566485664,40.698734060430596],[-97.36886566485664,41.04665323512234]]]}},{"type":"Feature","id":"31161","properties":{"name":"Sheridan","county_fips":"31161","state_abbr":"NE"},"geometry":{"type":"Polygon","coordinates":[[[-102.79228888818888,43.00015497153971],[-102.08160867758677,42.99929591184911],[-102.08519797157972,42.785390048890484],[-102.067251501615,42.785390048890484],[-102.067251501615,42.44348429203291],[-102.0385371496715,42.44348429203291],[-102.0385371496715,42.096424177031764],[-102.00623350373503,42.096424177031764],[-102.00982279772798,42.00880008859088],[-102.067251501615,42.00880008859088],[-102.6774314804148,42.00536384982849],[-102.69896724437244,42.004504790137894],[-102.70255653836537,42.092987938269374],[-102.74203877228771,42.09212887857878],[-102.74203877228771,42.17803484763847],[-102.75280665426654,42.35671926328263],[-102.74921736027359,42.44004805327052],[-102.77434241822418,42.44004805327052],[-102.77434241822418,42.785390048890484],[-102.79228888818888,42.785390048890484],[-102.79228888818888,43.00015497153971]]]}},{"type":"Feature","id":"31163","properties":{"name":"Sherman","county_fips":"31163","state_abbr":"NE"},"geometry":{"type":"Polygon","coordinates":[[[-99.20299489524895,41.39371335012349],[-98.75074385213851,41.39371335012349],[-98.74356526415264,41.39457240981409],[-98.74715455814558,41.04665323512234],[-99.2065841892419,41.04665323512234],[-99.20299489524895,41.39371335012349]]]}},{"type":"Feature","id":"31165","properties":{"name":"Sioux","county_fips":"31165","state_abbr":"NE"},"geometry":{"type":"Polygon","coordinates":[[[-104.05213107971079,43.001014031230305],[-103.50655839278392,43.001014031230305],[-103.50296909879098,42.78453098919989],[-103.48143333483334,42.785390048890484],[-103.48143333483334,42.43747087419874],[-103.44554039490394,42.43747087419874],[-103.44554039490394,42.09041075919758],[-103.40246886698867,42.09041075919758],[-103.40246886698867,42.003645730447296],[-104.05213107971079,42.0019276110661],[-104.05213107971079,42.611859991389906],[-104.05213107971079,43.001014031230305]]]}},{"type":"Feature","id":"31167","properties":{"name":"Stanton","county_fips":"31167","state_abbr":"NE"},"geometry":{"type":"Polygon","coordinates":[[[-97.36886566485664,42.09126981888818],[-97.02070414754147,42.09041075919758],[-97.02070414754147,41.74335064419643],[-97.25400825708256,41.74335064419643],[-97.36886566485664,41.74335064419643],[-97.36886566485664,42.09126981888818]]]}},{"type":"Feature","id":"31169","properties":{"name":"Thayer","county_fips":"31169","state_abbr":"NE"},"geometry":{"type":"Polygon","coordinates":[[[-97.82111670796708,40.35081488573885],[-97.36886566485664,40.35081488573885],[-97.36886566485664,40.002036651356505],[-97.82111670796708,40.002036651356505],[-97.82111670796708,40.35081488573885]]]}},{"type":"Feature","id":"31171","properties":{"name":"Thomas","county_fips":"31171","state_abbr":"NE"},"geometry":{"type":"Polygon","coordinates":[[[-100.84689154401543,42.087833580125796],[-100.26901521115211,42.0861154607446],[-100.26542591715916,41.73991440543405],[-100.71049837228372,41.73991440543405],[-100.84330225002249,41.74077346512465],[-100.84689154401543,42.087833580125796]]]}},{"type":"Feature","id":"31173","properties":{"name":"Thurston","county_fips":"31173","state_abbr":"NE"},"geometry":{"type":"Polygon","coordinates":[[[-96.82329297792977,42.26394081669816],[-96.7263820401204,42.26394081669816],[-96.7263820401204,42.27768577174771],[-96.35668475884758,42.276826712057115],[-96.32438111291113,42.22957842907429],[-96.35668475884758,42.21497441433414],[-96.3495061708617,42.16686707166071],[-96.27054170301703,42.118759728987285],[-96.27413099700996,42.04745777466774],[-96.31002393693936,42.046598714977144],[-96.31002393693936,42.01481350642506],[-96.55409592845928,42.015672566115654],[-96.55409592845928,42.08955169950699],[-96.82329297792977,42.09041075919758],[-96.82329297792977,42.26394081669816]]]}},{"type":"Feature","id":"31175","properties":{"name":"Valley","county_fips":"31175","state_abbr":"NE"},"geometry":{"type":"Polygon","coordinates":[[[-99.21376277722777,41.74077346512465],[-98.7579224401244,41.74077346512465],[-98.75074385213851,41.74077346512465],[-98.75074385213851,41.39371335012349],[-99.20299489524895,41.39371335012349],[-99.21376277722777,41.39457240981409],[-99.21376277722777,41.74077346512465]]]}},{"type":"Feature","id":"31177","properties":{"name":"Washington","county_fips":"31177","state_abbr":"NE"},"geometry":{"type":"Polygon","coordinates":[[[-96.44641710867108,41.68321646585465],[-96.12338064930648,41.68321646585465],[-96.09466629736296,41.64713595884958],[-96.11979135531355,41.6136326309163],[-96.08030912139121,41.580129302983025],[-96.09107700337003,41.5320219603096],[-96.03723759347594,41.50796828897288],[-96.03005900549005,41.53975349752497],[-95.9977553595536,41.53889443783437],[-95.9977553595536,41.507109229282285],[-96.00493394753947,41.47274684165841],[-95.93314806768068,41.46415624475244],[-95.93673736167361,41.391136171051706],[-96.32797040690406,41.3928542904329],[-96.32797040690406,41.43666633465334],[-96.3674526408264,41.43666633465334],[-96.3853991107911,41.46587436413363],[-96.42488134471344,41.480478378873784],[-96.44282781467814,41.52429042309422],[-96.44641710867108,41.68321646585465]]]}},{"type":"Feature","id":"31179","properties":{"name":"Wayne","county_fips":"31179","state_abbr":"NE"},"geometry":{"type":"Polygon","coordinates":[[[-97.36886566485664,42.35156490513904],[-97.01711485354853,42.35156490513904],[-97.01711485354853,42.26479987638876],[-96.82329297792977,42.26394081669816],[-96.82329297792977,42.09041075919758],[-97.02070414754147,42.09041075919758],[-97.36886566485664,42.09126981888818],[-97.36886566485664,42.35156490513904]]]}},{"type":"Feature","id":"31181","properties":{"name":"Webster","county_fips":"31181","state_abbr":"NE"},"geometry":{"type":"Polygon","coordinates":[[[-98.72561879418794,40.35081488573885],[-98.27695704507045,40.34995582604825],[-98.2733677510775,40.34995582604825],[-98.2733677510775,40.0028957110471],[-98.50308256662566,40.002036651356505],[-98.72561879418794,40.002036651356505],[-98.72561879418794,40.35081488573885]]]}},{"type":"Feature","id":"31183","properties":{"name":"Wheeler","county_fips":"31183","state_abbr":"NE"},"geometry":{"type":"Polygon","coordinates":[[[-98.76151173411733,42.088692639816394],[-98.30208210302102,42.088692639816394],[-98.29490351503514,42.08182016229161],[-98.29490351503514,41.915162582315816],[-98.29490351503514,41.74077346512465],[-98.75074385213851,41.74077346512465],[-98.7579224401244,41.74077346512465],[-98.76151173411733,42.088692639816394]]]}},{"type":"Feature","id":"31185","properties":{"name":"York","county_fips":"31185","state_abbr":"NE"},"geometry":{"type":"Polygon","coordinates":[[[-97.82470600196001,41.04665323512234],[-97.36886566485664,41.04665323512234],[-97.36886566485664,40.698734060430596],[-97.82470600196001,40.698734060430596],[-97.82470600196001,41.04665323512234]]]}}]}