{"type":"FeatureCollection","features":[{"type":"Feature","id":"33001","properties":{"name":"Belknap","county_fips":"33001","state_abbr":"NH"},"geometry":{"type":"Polygon","coordinates":[[[-71.53312750367503,43.76128185740857],[-71.25675186621866,43.57142966578665],[-71.16343022240223,43.53878539754397],[-71.19214457434575,43.51473172620725],[-71.15984092840928,43.35494662375623],[-71.23521610226102,43.28536278881788],[-71.55107397363973,43.45202036879368],[-71.6013240895409,43.43483917498174],[-71.63721702947029,43.49153711456114],[-71.67669926339263,43.50012771146711],[-71.72694937929379,43.563698128571275],[-71.73053867328673,43.590328978979784],[-71.68746714537146,43.594624277432764],[-71.65157420544205,43.62125512784127],[-71.64798491144911,43.68482554494544],[-71.52235962169621,43.697711440304396],[-71.53312750367503,43.76128185740857]]]}},{"type":"Feature","id":"33003","properties":{"name":"Carroll","county_fips":"33003","state_abbr":"NH"},"geometry":{"type":"Polygon","coordinates":[[[-71.41468080190802,44.21228819497194],[-71.35725209802098,44.16589897167971],[-71.34289492204923,44.09201983828837],[-71.31059127611276,44.09201983828837],[-71.30341268812688,44.13755000189001],[-71.25316257222572,44.24407340352403],[-71.04139422664227,44.237200925999254],[-71.0449835206352,44.283590149291484],[-71.0090905807058,44.28530826867268],[-70.98755481674817,43.79220800627006],[-70.9731976407764,43.570570606096055],[-70.96242975879758,43.54136257661576],[-71.02344775667757,43.48294651765517],[-71.03780493264932,43.530194800638],[-71.11318010650106,43.50700018899188],[-71.12753728247283,43.57314778516785],[-71.16343022240223,43.53878539754397],[-71.25675186621866,43.57142966578665],[-71.53312750367503,43.76128185740857],[-71.5654311496115,43.89357704976049],[-71.36084139201392,43.91591260171601],[-71.38237715597155,44.02243600335002],[-71.34648421604216,44.06882522664226],[-71.38237715597155,44.098033256122555],[-71.3859664499645,44.155590255392546],[-71.41468080190802,44.167617091060904],[-71.41468080190802,44.21228819497194]]]}},{"type":"Feature","id":"33005","properties":{"name":"Cheshire","county_fips":"33005","state_abbr":"NH"},"geometry":{"type":"Polygon","coordinates":[[[-72.45198676586766,43.16165819337193],[-72.43045100191001,43.135886402654016],[-72.37302229802297,43.13245016389163],[-72.37661159201592,43.15736289491894],[-72.15766465844658,43.182275625946254],[-72.17920042240422,43.131591104201036],[-72.03921795667956,43.12901392512924],[-72.05716442664426,43.01905428473284],[-72.06075372063721,42.94517515134151],[-72.0069143107431,42.943457031960314],[-71.97461066480665,42.789685347343465],[-71.94589631286313,42.78882628765287],[-71.92794984289843,42.712369975189745],[-72.28328994819948,42.72181963178631],[-72.45916535385354,42.726973989929895],[-72.49146899979,42.77250415353153],[-72.51300476374763,42.76391355662556],[-72.55607629166292,42.85153764506644],[-72.52377264572645,42.91424900248002],[-72.52018335173352,42.96321540484404],[-72.4735225298253,42.97180600175001],[-72.44480817788178,43.01046368782687],[-72.46634394183941,43.05513479173791],[-72.43404029590296,43.08348376152761],[-72.45198676586766,43.16165819337193]]]}},{"type":"Feature","id":"33007","properties":{"name":"Coos","county_fips":"33007","state_abbr":"NH"},"geometry":{"type":"Polygon","coordinates":[[[-71.76643161321613,44.406435685046844],[-71.70900290932909,44.41159004319042],[-71.65875279342794,44.445093371123704],[-71.63362773547735,44.483751057200564],[-71.57619903159032,44.502650370393695],[-71.59773479554795,44.55333489213891],[-71.55825256162561,44.564502668116674],[-71.55107397363973,44.62721402553025],[-71.58696691356913,44.65985829377293],[-71.62644914749147,44.74748238221382],[-71.57260973759738,44.79215348612485],[-71.55825256162561,44.84713330632306],[-71.49364526975269,44.91156278311782],[-71.54030609166091,44.988019095580945],[-71.50082385773858,45.01379088629886],[-71.49005597575976,45.072206945259445],[-71.42544868388684,45.127186765457644],[-71.43621656586566,45.1400726608166],[-71.39673433194332,45.20364307792077],[-71.44339515385154,45.23456922678226],[-71.37878786197862,45.24401888337883],[-71.36443068600686,45.26635443533434],[-71.28546621816218,45.30243494233942],[-71.23162680826808,45.250032301213004],[-71.13112657646576,45.24573700276002],[-71.08446575455754,45.30587118110181],[-71.03062634466345,44.65556299531995],[-71.0090905807058,44.28530826867268],[-71.0449835206352,44.283590149291484],[-71.04139422664227,44.237200925999254],[-71.25316257222572,44.24407340352403],[-71.30341268812688,44.13755000189001],[-71.31059127611276,44.09201983828837],[-71.34289492204923,44.09201983828837],[-71.35725209802098,44.16589897167971],[-71.41468080190802,44.21228819497194],[-71.44339515385154,44.24922776166761],[-71.50800244572446,44.26297271671716],[-71.57619903159032,44.25438211981119],[-71.58696691356913,44.30506664155641],[-71.69823502735028,44.33169749196491],[-71.76643161321613,44.406435685046844]]]}},{"type":"Feature","id":"33009","properties":{"name":"Grafton","county_fips":"33009","state_abbr":"NH"},"geometry":{"type":"Polygon","coordinates":[[[-72.2043254803548,43.770731514005135],[-72.18278971639717,43.8085301403914],[-72.1863790103901,43.863509960589596],[-72.11818242452425,43.921066959859594],[-72.11818242452425,43.99408703356033],[-72.07511089660896,44.03188565994659],[-72.03203936869369,44.09116077859778],[-72.05357513265132,44.11006009179091],[-72.03921795667956,44.15816743446434],[-72.06793230862309,44.189952643016426],[-72.04639654466544,44.23891904538045],[-72.06793230862309,44.26812707486074],[-72.03203936869369,44.32052971598715],[-71.98178925279252,44.33771090979909],[-71.83821749307494,44.348019626086256],[-71.81309243512435,44.35489210361103],[-71.79514596515965,44.39956320752207],[-71.76643161321613,44.406435685046844],[-71.69823502735028,44.33169749196491],[-71.58696691356913,44.30506664155641],[-71.57619903159032,44.25438211981119],[-71.50800244572446,44.26297271671716],[-71.44339515385154,44.24922776166761],[-71.41468080190802,44.21228819497194],[-71.41468080190802,44.167617091060904],[-71.3859664499645,44.155590255392546],[-71.38237715597155,44.098033256122555],[-71.34648421604216,44.06882522664226],[-71.38237715597155,44.02243600335002],[-71.36084139201392,43.91591260171601],[-71.5654311496115,43.89357704976049],[-71.53312750367503,43.76128185740857],[-71.52235962169621,43.697711440304396],[-71.64798491144911,43.68482554494544],[-71.65157420544205,43.62125512784127],[-71.68746714537146,43.594624277432764],[-71.73053867328673,43.590328978979784],[-71.72694937929379,43.563698128571275],[-71.75925302523025,43.56799342702426],[-71.81668172911729,43.543939755687546],[-71.84898537505374,43.61094641155411],[-71.9351284308843,43.528476681256805],[-72.06793230862309,43.543939755687546],[-72.20791477434774,43.5851746208362],[-72.3299507701077,43.59977863557635],[-72.30482571215713,43.6959933209232],[-72.27252206622066,43.73379194730946],[-72.2043254803548,43.770731514005135]]]}},{"type":"Feature","id":"33011","properties":{"name":"Hillsborough","county_fips":"33011","state_abbr":"NH"},"geometry":{"type":"Polygon","coordinates":[[[-72.03921795667956,43.12901392512924],[-72.01050360473604,43.18828904378043],[-71.91359266692666,43.20718835697356],[-71.85616396303963,43.1152689700797],[-71.66952067540676,43.15220853677536],[-71.64080632346324,43.054275732047316],[-71.51877032770328,43.06887974678746],[-71.4398058598586,43.01819522504224],[-71.39314503795038,43.00960462813627],[-71.38237715597155,42.93830267381673],[-71.45057374183742,42.93057113660136],[-71.42544868388684,42.82490679465794],[-71.3859664499645,42.82318867527675],[-71.3500735100351,42.77250415353153],[-71.2603411602116,42.75532295971959],[-71.24598398423984,42.74243706436064],[-71.25675186621866,42.73642364652646],[-71.29264480614806,42.696906900759004],[-71.89923549095491,42.71151091549915],[-71.92794984289843,42.712369975189745],[-71.94589631286313,42.78882628765287],[-71.97461066480665,42.789685347343465],[-72.0069143107431,42.943457031960314],[-72.06075372063721,42.94517515134151],[-72.05716442664426,43.01905428473284],[-72.03921795667956,43.12901392512924]]]}},{"type":"Feature","id":"33013","properties":{"name":"Merrimack","county_fips":"33013","state_abbr":"NH"},"geometry":{"type":"Polygon","coordinates":[[[-71.9351284308843,43.528476681256805],[-71.84898537505374,43.61094641155411],[-71.81668172911729,43.543939755687546],[-71.75925302523025,43.56799342702426],[-71.72694937929379,43.563698128571275],[-71.67669926339263,43.50012771146711],[-71.63721702947029,43.49153711456114],[-71.6013240895409,43.43483917498174],[-71.55107397363973,43.45202036879368],[-71.23521610226102,43.28536278881788],[-71.24598398423984,43.275054072530715],[-71.38955574395744,43.04138983668836],[-71.39314503795038,43.00960462813627],[-71.4398058598586,43.01819522504224],[-71.51877032770328,43.06887974678746],[-71.64080632346324,43.054275732047316],[-71.66952067540676,43.15220853677536],[-71.85616396303963,43.1152689700797],[-71.91359266692666,43.20718835697356],[-72.01050360473604,43.18828904378043],[-72.06434301463014,43.255295699646986],[-72.08946807258073,43.32230235551355],[-72.04998583865839,43.378141235402346],[-72.05357513265132,43.44085259281592],[-72.01050360473604,43.436557294362935],[-71.9351284308843,43.528476681256805]]]}},{"type":"Feature","id":"33015","properties":{"name":"Rockingham","county_fips":"33015","state_abbr":"NH"},"geometry":{"type":"Polygon","coordinates":[[[-71.39314503795038,43.00960462813627],[-71.38955574395744,43.04138983668836],[-71.24598398423984,43.275054072530715],[-71.0270370506705,43.13760452203521],[-71.07369787257872,43.081765642146415],[-70.93371540685406,43.09035623905238],[-70.87628670296702,43.08004752276522],[-70.86192952699527,43.12471862667626],[-70.81885799908,43.12300050729507],[-70.70400059130591,43.059430090190894],[-70.8116794110941,42.90995370402703],[-70.81885799908,42.87215507764077],[-70.84757235102352,42.86098730166301],[-70.90141176091761,42.88675909238091],[-71.03062634466345,42.859269182281814],[-71.0629299905999,42.80600748146481],[-71.13112657646576,42.82147055589555],[-71.18496598635986,42.79054440703406],[-71.18137669236692,42.73728270621706],[-71.24598398423984,42.74243706436064],[-71.2603411602116,42.75532295971959],[-71.3500735100351,42.77250415353153],[-71.3859664499645,42.82318867527675],[-71.42544868388684,42.82490679465794],[-71.45057374183742,42.93057113660136],[-71.38237715597155,42.93830267381673],[-71.39314503795038,43.00960462813627]]]}},{"type":"Feature","id":"33017","properties":{"name":"Strafford","county_fips":"33017","state_abbr":"NH"},"geometry":{"type":"Polygon","coordinates":[[[-71.23521610226102,43.28536278881788],[-71.15984092840928,43.35494662375623],[-71.19214457434575,43.51473172620725],[-71.16343022240223,43.53878539754397],[-71.12753728247283,43.57314778516785],[-71.11318010650106,43.50700018899188],[-71.03780493264932,43.530194800638],[-71.02344775667757,43.48294651765517],[-70.96242975879758,43.54136257661576],[-70.95884046480465,43.466624383533826],[-70.98755481674817,43.37985935478354],[-70.9552511708117,43.33432919118191],[-70.80809011710117,43.224369550785504],[-70.8296258810588,43.18828904378043],[-70.81885799908,43.12300050729507],[-70.86192952699527,43.12471862667626],[-70.87628670296702,43.08004752276522],[-70.93371540685406,43.09035623905238],[-71.07369787257872,43.081765642146415],[-71.0270370506705,43.13760452203521],[-71.24598398423984,43.275054072530715],[-71.23521610226102,43.28536278881788]]]}},{"type":"Feature","id":"33019","properties":{"name":"Sullivan","county_fips":"33019","state_abbr":"NH"},"geometry":{"type":"Polygon","coordinates":[[[-72.43404029590296,43.23296014769147],[-72.39455806198062,43.312852698916984],[-72.41609382593826,43.3643962803528],[-72.38020088600886,43.48036933858338],[-72.39814735597356,43.51043642775427],[-72.38020088600886,43.57400684485844],[-72.3299507701077,43.59977863557635],[-72.20791477434774,43.5851746208362],[-72.06793230862309,43.543939755687546],[-71.9351284308843,43.528476681256805],[-72.01050360473604,43.436557294362935],[-72.05357513265132,43.44085259281592],[-72.04998583865839,43.378141235402346],[-72.08946807258073,43.32230235551355],[-72.06434301463014,43.255295699646986],[-72.01050360473604,43.18828904378043],[-72.03921795667956,43.12901392512924],[-72.17920042240422,43.131591104201036],[-72.15766465844658,43.182275625946254],[-72.37661159201592,43.15736289491894],[-72.37302229802297,43.13245016389163],[-72.43045100191001,43.135886402654016],[-72.45198676586766,43.16165819337193],[-72.43404029590296,43.23296014769147]]]}}]}