{"type":"FeatureCollection","features":[{"type":"Feature","id":"34001","properties":{"name":"Atlantic","county_fips":"34001","state_abbr":"NJ"},"geometry":{"type":"Polygon","coordinates":[[[-74.87834950509504,39.608587313063126],[-74.73477774537746,39.72971472943729],[-74.65940257152572,39.66872149140491],[-74.65940257152572,39.63092286501865],[-74.61992033760338,39.62662756656566],[-74.53018798777988,39.569929626986266],[-74.47634857788577,39.551889373483725],[-74.41891987399873,39.55704373162731],[-74.3794376400764,39.49862767266672],[-74.31124105421054,39.49948673235732],[-74.30047317223172,39.47886929978299],[-74.33636611216112,39.431621016800165],[-74.45840210792107,39.34485598804987],[-74.54095586975869,39.30018488413884],[-74.58761669166691,39.310493600426],[-74.61633104361043,39.293312406614056],[-74.69888480544805,39.289017108161076],[-74.86040303513035,39.324238555475546],[-74.85681374113742,39.42388947958479],[-74.98602832488325,39.51494980678806],[-74.87834950509504,39.608587313063126]]]}},{"type":"Feature","id":"34003","properties":{"name":"Bergen","county_fips":"34003","state_abbr":"NJ"},"geometry":{"type":"Polygon","coordinates":[[[-74.21074082240823,41.133418263872635],[-73.90565083300832,40.99768683275832],[-73.8948829510295,40.99682777306772],[-73.91641871498715,40.91779428153281],[-73.93436518495184,40.88171377452774],[-73.98461530085301,40.799244044230434],[-74.01691894678946,40.82329771556715],[-74.09947270862709,40.77604943258432],[-74.14613353053531,40.78635814887148],[-74.13177635456354,40.81986147680476],[-74.12100847258472,40.85851916288162],[-74.14254423654236,40.96676068389683],[-74.25022305633055,40.99167341492414],[-74.2717588202882,41.02088144440444],[-74.21074082240823,41.133418263872635]]]}},{"type":"Feature","id":"34005","properties":{"name":"Burlington","county_fips":"34005","state_abbr":"NJ"},"geometry":{"type":"Polygon","coordinates":[[[-74.97526044290443,40.04928493433934],[-74.86040303513035,40.08364732196321],[-74.81733150721507,40.12745936618366],[-74.78143856728568,40.12058688865888],[-74.72400986339863,40.15065397782977],[-74.70965268742687,40.18158012669126],[-74.62350963159632,40.1429224406144],[-74.58761669166691,40.13862714216142],[-74.55172375173751,40.079352023510225],[-74.39020552205523,39.77352677365773],[-74.39020552205523,39.59570141770417],[-74.41891987399873,39.55704373162731],[-74.47634857788577,39.551889373483725],[-74.53018798777988,39.569929626986266],[-74.61992033760338,39.62662756656566],[-74.65940257152572,39.63092286501865],[-74.65940257152572,39.66872149140491],[-74.73477774537746,39.72971472943729],[-74.820920801208,39.78813078839788],[-74.90347456304563,39.790707967469665],[-74.93218891498915,39.886063593125925],[-74.97526044290443,39.93846623425234],[-75.01474267682677,39.94705683115831],[-75.01115338283383,39.979701099400984],[-75.06140349873499,39.99172793506934],[-74.97526044290443,40.04928493433934]]]}},{"type":"Feature","id":"34007","properties":{"name":"Camden","county_fips":"34007","state_abbr":"NJ"},"geometry":{"type":"Polygon","coordinates":[[[-75.06140349873499,39.99172793506934],[-75.01115338283383,39.979701099400984],[-75.01474267682677,39.94705683115831],[-74.97526044290443,39.93846623425234],[-74.93218891498915,39.886063593125925],[-74.90347456304563,39.790707967469665],[-74.820920801208,39.78813078839788],[-74.73477774537746,39.72971472943729],[-74.87834950509504,39.608587313063126],[-74.94295679696796,39.6987885805758],[-74.98602832488325,39.70652011779117],[-75.09011785067851,39.81476163880638],[-75.08293926269262,39.840533429524285],[-75.14036796657966,39.88864077219772],[-75.12960008460084,39.959083666826665],[-75.06140349873499,39.99172793506934]]]}},{"type":"Feature","id":"34009","properties":{"name":"Cape May","county_fips":"34009","state_abbr":"NJ"},"geometry":{"type":"Polygon","coordinates":[[[-74.91424244502444,39.17733934838348],[-74.92142103301033,39.224587631366305],[-74.89629597505974,39.23489634765347],[-74.88193879908799,39.308775481044805],[-74.86040303513035,39.324238555475546],[-74.69888480544805,39.289017108161076],[-74.61633104361043,39.293312406614056],[-74.58761669166691,39.310493600426],[-74.54095586975869,39.30018488413884],[-74.63786680756807,39.22115139260392],[-74.71324198141981,39.119782349113486],[-74.79220644926448,38.99178245521455],[-74.86399232912329,38.94023887377873],[-74.93218891498915,38.928212038110374],[-74.97167114891148,38.94023887377873],[-74.95013538495385,39.01583612655126],[-74.89629597505974,39.09916491653916],[-74.88552809308094,39.158440035190345],[-74.91424244502444,39.17733934838348]]]}},{"type":"Feature","id":"34011","properties":{"name":"Cumberland","county_fips":"34011","state_abbr":"NJ"},"geometry":{"type":"Polygon","coordinates":[[[-75.06140349873499,39.56907056729567],[-74.98602832488325,39.51494980678806],[-74.85681374113742,39.42388947958479],[-74.86040303513035,39.324238555475546],[-74.88193879908799,39.308775481044805],[-74.89629597505974,39.23489634765347],[-74.92142103301033,39.224587631366305],[-74.91424244502444,39.17733934838348],[-75.02551055880559,39.193661482504815],[-75.04704632276322,39.21513797476974],[-75.11165361463614,39.212560795697954],[-75.13677867258673,39.181634646836464],[-75.16908231852318,39.20225207941079],[-75.17626090650906,39.242627884868845],[-75.24086819838197,39.274413093420925],[-75.2516360803608,39.30018488413884],[-75.28752902029021,39.28987616785167],[-75.3413684301843,39.34829222681226],[-75.36649348813488,39.34141974928749],[-75.40597572205722,39.381795554745544],[-75.4131543100431,39.45309750906508],[-75.36649348813488,39.45653374782747],[-75.23727890438904,39.558761851008505],[-75.08293926269262,39.45739280751807],[-75.07576067470674,39.544157836268354],[-75.06140349873499,39.56907056729567]]]}},{"type":"Feature","id":"34013","properties":{"name":"Essex","county_fips":"34013","state_abbr":"NJ"},"geometry":{"type":"Polygon","coordinates":[[[-74.2717588202882,40.89717684895848],[-74.13177635456354,40.81986147680476],[-74.14613353053531,40.78635814887148],[-74.16766929449294,40.74770046279462],[-74.12100847258472,40.74168704496044],[-74.11382988459884,40.70302935888358],[-74.13536564855649,40.674680389093886],[-74.21074082240823,40.691002523215225],[-74.22150870438705,40.707324657336564],[-74.28611599625997,40.721928672076714],[-74.3255982301823,40.71677431393313],[-74.37225905209051,40.73996892557925],[-74.36866975809758,40.79323062639626],[-74.33636611216112,40.813848058970585],[-74.3255982301823,40.90834462493624],[-74.2717588202882,40.89717684895848]]]}},{"type":"Feature","id":"34015","properties":{"name":"Gloucester","county_fips":"34015","state_abbr":"NJ"},"geometry":{"type":"Polygon","coordinates":[[[-75.41674360403604,39.801875743447425],[-75.35572560615606,39.839674369833695],[-75.2695825503255,39.84912402643026],[-75.21215384643847,39.8654461605516],[-75.14036796657966,39.88864077219772],[-75.08293926269262,39.840533429524285],[-75.09011785067851,39.81476163880638],[-74.98602832488325,39.70652011779117],[-74.94295679696796,39.6987885805758],[-74.87834950509504,39.608587313063126],[-74.98602832488325,39.51494980678806],[-75.06140349873499,39.56907056729567],[-75.20138596445965,39.667003372023714],[-75.32701125421254,39.69019798366983],[-75.3772613701137,39.7262784906749],[-75.4131543100431,39.794144206232055],[-75.41674360403604,39.801875743447425]]]}},{"type":"Feature","id":"34017","properties":{"name":"Hudson","county_fips":"34017","state_abbr":"NJ"},"geometry":{"type":"Polygon","coordinates":[[[-74.14613353053531,40.78635814887148],[-74.09947270862709,40.77604943258432],[-74.01691894678946,40.82329771556715],[-73.98461530085301,40.799244044230434],[-74.00974035880358,40.76488165660656],[-74.02409753477535,40.70904277671776],[-74.04563329873298,40.69014346352463],[-74.07075835668357,40.66093543404433],[-74.16049070650706,40.644613299922995],[-74.13536564855649,40.674680389093886],[-74.11382988459884,40.70302935888358],[-74.12100847258472,40.74168704496044],[-74.16766929449294,40.74770046279462],[-74.14613353053531,40.78635814887148]]]}},{"type":"Feature","id":"34019","properties":{"name":"Hunterdon","county_fips":"34019","state_abbr":"NJ"},"geometry":{"type":"Polygon","coordinates":[[[-75.19061808248082,40.591351599105984],[-75.14754655456554,40.62829116580165],[-75.10806432064321,40.63945894177941],[-75.0183319708197,40.694438761977615],[-74.96808185491855,40.710760896098954],[-74.88911738707387,40.788076268252674],[-74.82451009520095,40.74254610465104],[-74.72400986339863,40.71935149300492],[-74.72759915739157,40.632586464254636],[-74.70247409944099,40.621418688276876],[-74.71324198141981,40.58362006189061],[-74.77425997929979,40.5037275106651],[-74.79938503725037,40.51575434633346],[-74.74913492134921,40.42383495943959],[-74.8101529192292,40.416962481914815],[-74.8029743312433,40.38517727336273],[-74.87117091710917,40.37744573614736],[-74.85681374113742,40.34651958728587],[-74.94295679696796,40.34136522914228],[-74.96808185491855,40.39978128810287],[-75.05781420474204,40.41610342222422],[-75.07217138071381,40.45476110830108],[-75.06499279272792,40.536371778907785],[-75.10088573265732,40.568156987459865],[-75.1619037305373,40.563861689006885],[-75.19061808248082,40.591351599105984]]]}},{"type":"Feature","id":"34021","properties":{"name":"Mercer","county_fips":"34021","state_abbr":"NJ"},"geometry":{"type":"Polygon","coordinates":[[[-74.94295679696796,40.34136522914228],[-74.85681374113742,40.34651958728587],[-74.87117091710917,40.37744573614736],[-74.8029743312433,40.38517727336273],[-74.8101529192292,40.416962481914815],[-74.74913492134921,40.42383495943959],[-74.72042056940569,40.374868557075565],[-74.65222398353983,40.391190691196904],[-74.61992033760338,40.37400949738497],[-74.62350963159632,40.325043095020945],[-74.48352716587166,40.27349951358513],[-74.48352716587166,40.2537411407014],[-74.54454516375164,40.216801574005736],[-74.56249163371633,40.19017072359723],[-74.61633104361043,40.182439186381856],[-74.58761669166691,40.13862714216142],[-74.62350963159632,40.1429224406144],[-74.70965268742687,40.18158012669126],[-74.72400986339863,40.15065397782977],[-74.77067068530685,40.21508345462454],[-74.84245656516565,40.25030490193901],[-74.86758162311622,40.29497600585005],[-74.94295679696796,40.34136522914228]]]}},{"type":"Feature","id":"34023","properties":{"name":"Middlesex","county_fips":"34023","state_abbr":"NJ"},"geometry":{"type":"Polygon","coordinates":[[[-74.61992033760338,40.37400949738497],[-74.58402739767398,40.417821541605406],[-74.53018798777988,40.441016153251525],[-74.45840210792107,40.49599597344973],[-74.52659869378694,40.5595663905539],[-74.51224151781517,40.58190194250942],[-74.46199140191402,40.599083136321354],[-74.30406246622466,40.60853279291792],[-74.2897052902529,40.59221065879658],[-74.21433011640116,40.60423749446494],[-74.20356223442234,40.59306971848718],[-74.2179194103941,40.5587073308633],[-74.25022305633055,40.54496237581375],[-74.26099093830938,40.502009391283906],[-74.26099093830938,40.46506982458824],[-74.22509799837998,40.45304298891988],[-74.24663376233762,40.40751282531825],[-74.35431258212581,40.325043095020945],[-74.39379481604816,40.279512931419305],[-74.48352716587166,40.2537411407014],[-74.48352716587166,40.27349951358513],[-74.62350963159632,40.325043095020945],[-74.61992033760338,40.37400949738497]]]}},{"type":"Feature","id":"34025","properties":{"name":"Monmouth","county_fips":"34025","state_abbr":"NJ"},"geometry":{"type":"Polygon","coordinates":[[[-74.48352716587166,40.2537411407014],[-74.39379481604816,40.279512931419305],[-74.35431258212581,40.325043095020945],[-74.24663376233762,40.40751282531825],[-74.22509799837998,40.45304298891988],[-74.13536564855649,40.45647922768227],[-74.04922259272593,40.418680601296],[-73.99897247682476,40.41094906408063],[-73.98461530085301,40.448747690466895],[-73.97025812488124,40.371432318313175],[-73.98102600686006,40.279512931419305],[-74.03127612276123,40.12316406773067],[-74.03127612276123,40.10082851577515],[-74.07075835668357,40.0888016801068],[-74.10665129661297,40.13690902278022],[-74.15331211852119,40.09996945608455],[-74.24304446834468,40.1154325305153],[-74.26099093830938,40.166976111951115],[-74.40815199201992,40.17213047009469],[-74.55172375173751,40.079352023510225],[-74.58761669166691,40.13862714216142],[-74.61633104361043,40.182439186381856],[-74.56249163371633,40.19017072359723],[-74.54454516375164,40.216801574005736],[-74.48352716587166,40.2537411407014]]]}},{"type":"Feature","id":"34027","properties":{"name":"Morris","county_fips":"34027","state_abbr":"NJ"},"geometry":{"type":"Polygon","coordinates":[[[-74.77067068530685,40.910921804008034],[-74.73118845138451,40.9212305202952],[-74.70965268742687,40.898894968339675],[-74.65222398353983,40.9212305202952],[-74.64145610156102,40.964183504825044],[-74.50147363583636,41.0861699808898],[-74.50147363583636,41.04235793666936],[-74.44763422594225,41.05438477233772],[-74.39020552205523,41.01229084749847],[-74.30047317223172,40.999404952139514],[-74.27893740827407,40.97363316142161],[-74.2717588202882,40.89717684895848],[-74.3255982301823,40.90834462493624],[-74.33636611216112,40.813848058970585],[-74.36866975809758,40.79323062639626],[-74.37225905209051,40.73996892557925],[-74.46199140191402,40.67382132940329],[-74.52300939979399,40.648908598375975],[-74.51224151781517,40.69787500074],[-74.55531304573046,40.75800917908178],[-74.72400986339863,40.71935149300492],[-74.82451009520095,40.74254610465104],[-74.88911738707387,40.788076268252674],[-74.81733150721507,40.8370426706167],[-74.80656362523625,40.88171377452774],[-74.77067068530685,40.910921804008034]]]}},{"type":"Feature","id":"34029","properties":{"name":"Ocean","county_fips":"34029","state_abbr":"NJ"},"geometry":{"type":"Polygon","coordinates":[[[-74.03127612276123,40.10082851577515],[-74.07793694466945,39.91097632415323],[-74.09588341463414,39.76235899767997],[-74.23945517435175,39.555325612246115],[-74.31124105421054,39.49948673235732],[-74.3794376400764,39.49862767266672],[-74.41891987399873,39.55704373162731],[-74.39020552205523,39.59570141770417],[-74.39020552205523,39.77352677365773],[-74.55172375173751,40.079352023510225],[-74.40815199201992,40.17213047009469],[-74.26099093830938,40.166976111951115],[-74.24304446834468,40.1154325305153],[-74.15331211852119,40.09996945608455],[-74.10665129661297,40.13690902278022],[-74.07075835668357,40.0888016801068],[-74.03127612276123,40.10082851577515]]]}},{"type":"Feature","id":"34031","properties":{"name":"Passaic","county_fips":"34031","state_abbr":"NJ"},"geometry":{"type":"Polygon","coordinates":[[[-74.50147363583636,41.0861699808898],[-74.36866975809758,41.20386115850158],[-74.2358658803588,41.1428679204692],[-74.21074082240823,41.133418263872635],[-74.2717588202882,41.02088144440444],[-74.25022305633055,40.99167341492414],[-74.14254423654236,40.96676068389683],[-74.12100847258472,40.85851916288162],[-74.13177635456354,40.81986147680476],[-74.2717588202882,40.89717684895848],[-74.27893740827407,40.97363316142161],[-74.30047317223172,40.999404952139514],[-74.39020552205523,41.01229084749847],[-74.44763422594225,41.05438477233772],[-74.50147363583636,41.04235793666936],[-74.50147363583636,41.0861699808898]]]}},{"type":"Feature","id":"34033","properties":{"name":"Salem","county_fips":"34033","state_abbr":"NJ"},"geometry":{"type":"Polygon","coordinates":[[[-75.56031536375363,39.63006380532805],[-75.51006524785248,39.685902685216845],[-75.47776160191601,39.713392595315945],[-75.45981513195132,39.76579523644236],[-75.4131543100431,39.794144206232055],[-75.3772613701137,39.7262784906749],[-75.32701125421254,39.69019798366983],[-75.20138596445965,39.667003372023714],[-75.06140349873499,39.56907056729567],[-75.07576067470674,39.544157836268354],[-75.08293926269262,39.45739280751807],[-75.23727890438904,39.558761851008505],[-75.36649348813488,39.45653374782747],[-75.4131543100431,39.45309750906508],[-75.40597572205722,39.381795554745544],[-75.4311007800078,39.39124521134211],[-75.4669937199372,39.439352554015535],[-75.53519030580306,39.46082904628046],[-75.51365454184541,39.581097402964026],[-75.5567260697607,39.60601013399133],[-75.56031536375363,39.63006380532805]]]}},{"type":"Feature","id":"34035","properties":{"name":"Somerset","county_fips":"34035","state_abbr":"NJ"},"geometry":{"type":"Polygon","coordinates":[[[-74.72400986339863,40.71935149300492],[-74.55531304573046,40.75800917908178],[-74.51224151781517,40.69787500074],[-74.52300939979399,40.648908598375975],[-74.46199140191402,40.67382132940329],[-74.4512235199352,40.65406295651956],[-74.40456269802698,40.66694885187851],[-74.42609846198462,40.61970056889568],[-74.46199140191402,40.599083136321354],[-74.51224151781517,40.58190194250942],[-74.52659869378694,40.5595663905539],[-74.45840210792107,40.49599597344973],[-74.53018798777988,40.441016153251525],[-74.58402739767398,40.417821541605406],[-74.61992033760338,40.37400949738497],[-74.65222398353983,40.391190691196904],[-74.72042056940569,40.374868557075565],[-74.74913492134921,40.42383495943959],[-74.79938503725037,40.51575434633346],[-74.77425997929979,40.5037275106651],[-74.71324198141981,40.58362006189061],[-74.70247409944099,40.621418688276876],[-74.72759915739157,40.632586464254636],[-74.72400986339863,40.71935149300492]]]}},{"type":"Feature","id":"34037","properties":{"name":"Sussex","county_fips":"34037","state_abbr":"NJ"},"geometry":{"type":"Polygon","coordinates":[[[-74.99320691286913,41.09218339872398],[-74.92142103301033,41.13857262201621],[-74.88193879908799,41.18066654685546],[-74.83168868318683,41.28718994848948],[-74.75272421534216,41.34646506714066],[-74.69529551145511,41.357632843118424],[-74.36866975809758,41.20386115850158],[-74.50147363583636,41.0861699808898],[-74.64145610156102,40.964183504825044],[-74.65222398353983,40.9212305202952],[-74.70965268742687,40.898894968339675],[-74.73118845138451,40.9212305202952],[-74.77067068530685,40.910921804008034],[-74.96808185491855,41.09476057779577],[-74.99320691286913,41.09218339872398]]]}},{"type":"Feature","id":"34039","properties":{"name":"Union","county_fips":"34039","state_abbr":"NJ"},"geometry":{"type":"Polygon","coordinates":[[[-74.46199140191402,40.599083136321354],[-74.42609846198462,40.61970056889568],[-74.40456269802698,40.66694885187851],[-74.4512235199352,40.65406295651956],[-74.46199140191402,40.67382132940329],[-74.37225905209051,40.73996892557925],[-74.3255982301823,40.71677431393313],[-74.28611599625997,40.721928672076714],[-74.22150870438705,40.707324657336564],[-74.21074082240823,40.691002523215225],[-74.13536564855649,40.674680389093886],[-74.16049070650706,40.644613299922995],[-74.20356223442234,40.63086834487344],[-74.20356223442234,40.59306971848718],[-74.21433011640116,40.60423749446494],[-74.2897052902529,40.59221065879658],[-74.30406246622466,40.60853279291792],[-74.46199140191402,40.599083136321354]]]}},{"type":"Feature","id":"34041","properties":{"name":"Warren","county_fips":"34041","state_abbr":"NJ"},"geometry":{"type":"Polygon","coordinates":[[[-75.11883220262203,40.968478803278025],[-75.13318937859378,40.98909623585235],[-75.02551055880559,41.03978075759757],[-74.96808185491855,41.09476057779577],[-74.77067068530685,40.910921804008034],[-74.80656362523625,40.88171377452774],[-74.81733150721507,40.8370426706167],[-74.88911738707387,40.788076268252674],[-74.96808185491855,40.710760896098954],[-75.0183319708197,40.694438761977615],[-75.10806432064321,40.63945894177941],[-75.14754655456554,40.62829116580165],[-75.19061808248082,40.591351599105984],[-75.1977966704667,40.60853279291792],[-75.20138596445965,40.64719047899478],[-75.17626090650906,40.67296226971269],[-75.20497525845258,40.69186158290582],[-75.17267161251613,40.77776755196551],[-75.13318937859378,40.77347225351253],[-75.05063561675617,40.87054599854998],[-75.09729643866439,40.92380769936699],[-75.11883220262203,40.968478803278025]]]}}]}