{"type":"FeatureCollection","features":[{"type":"Feature","id":"35001","properties":{"name":"Bernalillo","county_fips":"35001","state_abbr":"NM"},"geometry":{"type":"Polygon","coordinates":[[[-107.19635261752617,35.219651353803535],[-106.65795851858518,35.21793323442234],[-106.64001204862048,35.20332921968219],[-106.5969405207052,35.21793323442234],[-106.24518970939708,35.21535605535055],[-106.24518970939708,35.04010787846878],[-106.24518970939708,34.95334284971849],[-106.14827877158771,34.949906610956106],[-106.14827877158771,34.87001405973059],[-106.41029723307233,34.87001405973059],[-106.42824370303703,34.90351738766387],[-106.6866728705287,34.90609456673566],[-106.7225658104581,34.87001405973059],[-107.02406650586505,34.87001405973059],[-107.06713803378034,34.95677908848088],[-107.19635261752617,35.219651353803535]]]}},{"type":"Feature","id":"35003","properties":{"name":"Catron","county_fips":"35003","state_abbr":"NM"},"geometry":{"type":"Polygon","coordinates":[[[-109.04842831788318,33.77814919298192],[-109.04483902389023,33.87522293801938],[-109.04842831788318,33.999786593155925],[-109.04483902389023,34.57965188430884],[-107.72397883448834,34.57793376492764],[-107.72397883448834,34.26008167940679],[-107.71680024650246,34.26008167940679],[-107.71680024650246,33.825397475964756],[-107.71321095250951,33.8116525209152],[-107.71321095250951,33.47661924158241],[-107.93933647406473,33.47404206251062],[-108.00035447194472,33.47833736096361],[-108.00035447194472,33.2008610809008],[-108.44901622106221,33.2008610809008],[-108.6464273906739,33.209451677806776],[-109.04842831788318,33.20859261811618],[-109.04842831788318,33.77814919298192]]]}},{"type":"Feature","id":"35005","properties":{"name":"Chaves","county_fips":"35005","state_abbr":"NM"},"geometry":{"type":"Polygon","coordinates":[[[-105.31556256522565,33.13213630565305],[-105.10738351363513,33.13213630565305],[-104.9063830500305,33.13900878317783],[-104.90279375603755,33.30566636315363],[-104.88484728607285,33.30566636315363],[-104.89202587405873,33.398444809738095],[-104.89202587405873,33.821961237202366],[-104.89561516805168,33.82453841627416],[-104.89202587405873,34.088269741287405],[-104.78793634826347,34.08741068159681],[-104.78434705427054,33.999786593155925],[-104.31773883518835,33.995491294702944],[-104.15622060550605,33.995491294702944],[-104.15622060550605,34.08311538314383],[-103.9444522599226,34.08225632345323],[-103.84036273412734,34.08225632345323],[-103.84036273412734,33.819384058130574],[-103.71832673836738,33.819384058130574],[-103.71832673836738,33.656162716917166],[-103.51014768677686,33.65702177660776],[-103.51014768677686,33.57025674785747],[-103.72191603236031,33.56939768816687],[-103.72191603236031,33.395008570975705],[-103.7649875602756,33.395008570975705],[-103.7649875602756,32.96547872567725],[-103.81523767617675,32.96547872567725],[-104.84177575815758,32.96290154660546],[-104.84177575815758,32.520485805948056],[-104.85254364013639,32.520485805948056],[-105.35504479914799,32.51876768656686],[-105.35145550515504,32.96204248691486],[-105.31556256522565,32.96204248691486],[-105.31556256522565,33.13213630565305]]]}},{"type":"Feature","id":"35006","properties":{"name":"Cibola","county_fips":"35006","state_abbr":"NM"},"geometry":{"type":"Polygon","coordinates":[[[-109.04483902389023,34.96021532724327],[-108.47055198501984,34.95935626755267],[-108.46696269102691,35.30641638255382],[-107.73474671646716,35.304698263172625],[-107.73474671646716,35.34851030739307],[-107.62706789667897,35.34851030739307],[-107.62706789667897,35.304698263172625],[-107.30762073130731,35.30555732286322],[-107.23942414544145,35.30555732286322],[-107.19635261752617,35.219651353803535],[-107.06713803378034,34.95677908848088],[-107.20353120551205,34.957638148171476],[-107.20353120551205,34.57879282461824],[-107.69167518855188,34.57965188430884],[-107.72397883448834,34.57793376492764],[-109.04483902389023,34.57965188430884],[-109.04483902389023,34.96021532724327]]]}},{"type":"Feature","id":"35007","properties":{"name":"Colfax","county_fips":"35007","state_abbr":"NM"},"geometry":{"type":"Polygon","coordinates":[[[-105.22224092140921,36.995327734267335],[-105.15404433554335,36.995327734267335],[-104.99970469384694,36.99360961488614],[-104.33927459914598,36.99360961488614],[-104.00905955179552,36.99618679395793],[-104.00905955179552,36.217878714277134],[-104.43618553695536,36.21873777396773],[-104.86690081610816,36.217878714277134],[-104.86690081610816,36.26169075849758],[-105.34068762317622,36.26169075849758],[-105.32633044720447,36.405153726827265],[-105.35504479914799,36.45240200981009],[-105.3191518592186,36.49191875557755],[-105.37658056310562,36.552052933919335],[-105.35145550515504,36.5615025905159],[-105.37658056310562,36.60875087349873],[-105.35145550515504,36.637099843288425],[-105.36940197511974,36.68091188750887],[-105.32633044720447,36.698093081320806],[-105.3119732712327,36.72300581234812],[-105.22941950939509,36.72386487203872],[-105.23659809738096,36.790871527905274],[-105.22941950939509,36.84756946748467],[-105.20070515745157,36.91543518304182],[-105.23659809738096,36.96268346602466],[-105.22224092140921,36.995327734267335]]]}},{"type":"Feature","id":"35009","properties":{"name":"Curry","county_fips":"35009","state_abbr":"NM"},"geometry":{"type":"Polygon","coordinates":[[[-103.73986250232502,34.604564615336145],[-103.70755885638856,34.60542367502674],[-103.70755885638856,34.692188703777035],[-103.49579051080511,34.69132964408644],[-103.49579051080511,34.77895373252732],[-103.39170098500985,34.77809467283672],[-103.3881116910169,34.865718761277606],[-103.28402216522164,34.86485970158701],[-103.28402216522164,34.954201909409086],[-103.04353946769467,34.954201909409086],[-103.04353946769467,34.74716852397523],[-103.04353946769467,34.3124843205332],[-103.04353946769467,34.303034663936636],[-103.73986250232502,34.303034663936636],[-103.73986250232502,34.604564615336145]]]}},{"type":"Feature","id":"35011","properties":{"name":"De Baca","county_fips":"35011","state_abbr":"NM"},"geometry":{"type":"Polygon","coordinates":[[[-104.89202587405873,34.346846708157074],[-104.89202587405873,34.604564615336145],[-104.44336412494124,34.604564615336145],[-104.44336412494124,34.69132964408644],[-104.33927459914598,34.692188703777035],[-104.33927459914598,34.77895373252732],[-104.12750625356253,34.77895373252732],[-104.12750625356253,34.60542367502674],[-103.94804155391553,34.60542367502674],[-103.94804155391553,34.25922261971619],[-103.9444522599226,34.08225632345323],[-104.15622060550605,34.08311538314383],[-104.15622060550605,33.995491294702944],[-104.31773883518835,33.995491294702944],[-104.78434705427054,33.999786593155925],[-104.78793634826347,34.08741068159681],[-104.89202587405873,34.088269741287405],[-104.89202587405873,34.346846708157074]]]}},{"type":"Feature","id":"35013","properties":{"name":"Doña Ana","county_fips":"35013","state_abbr":"NM"},"geometry":{"type":"Polygon","coordinates":[[[-107.30044214332143,32.605532715317146],[-107.30044214332143,32.77992183250832],[-106.88767333413334,32.779062772817724],[-106.88767333413334,32.82287481703816],[-106.34210064720646,33.053102814118134],[-106.34210064720646,32.95860624815248],[-106.37799358713586,32.95774718846188],[-106.37799358713586,32.000754693136926],[-106.61847628466285,32.000754693136926],[-106.62206557865578,31.91398966438664],[-106.64719063660635,31.898526589955893],[-106.63642275462755,31.865882321713208],[-106.60052981469813,31.84440582944829],[-106.60411910869108,31.824647456564563],[-106.54669040480404,31.80746626275262],[-106.52874393483934,31.78341259141591],[-107.29685284932849,31.78341259141591],[-107.29685284932849,32.21981491423914],[-107.30044214332143,32.605532715317146]]]}},{"type":"Feature","id":"35015","properties":{"name":"Eddy","county_fips":"35015","state_abbr":"NM"},"geometry":{"type":"Polygon","coordinates":[[[-104.85254364013639,32.520485805948056],[-104.84177575815758,32.520485805948056],[-104.84177575815758,32.96290154660546],[-103.81523767617675,32.96547872567725],[-103.81523767617675,32.52220392532925],[-103.72191603236031,32.52220392532925],[-103.72191603236031,31.99989563344633],[-103.980345199852,31.99989563344633],[-104.02341672776727,31.99989563344633],[-104.53309647476475,31.99989563344633],[-104.84895434614346,32.000754693136926],[-104.84895434614346,32.25331824217242],[-104.85254364013639,32.26019071969719],[-104.85254364013639,32.520485805948056]]]}},{"type":"Feature","id":"35017","properties":{"name":"Grant","county_fips":"35017","state_abbr":"NM"},"geometry":{"type":"Polygon","coordinates":[[[-109.04842831788318,33.20859261811618],[-108.6464273906739,33.209451677806776],[-108.44901622106221,33.2008610809008],[-108.00035447194472,33.2008610809008],[-107.86396130021299,33.2000020212102],[-107.83524694826947,33.067706828858284],[-107.85319341823417,33.056539052880524],[-107.85678271222712,33.002418292372916],[-107.8280683602836,32.963760606296056],[-107.7742289503895,32.952592830318295],[-107.76346106841068,32.91479420393203],[-107.7742289503895,32.85380096589965],[-107.7203895404954,32.77820371312713],[-107.72397883448834,32.66137159520595],[-107.7383360104601,32.62958638665386],[-107.60912142671427,32.605532715317146],[-107.92497929809298,32.60467365562655],[-107.92497929809298,32.517049567185666],[-108.23006928749287,32.517049567185666],[-108.23006928749287,32.07978818467184],[-108.21571211152111,32.07978818467184],[-108.21571211152111,31.86416420233202],[-108.52439139491395,31.863305142641423],[-108.52439139491395,32.07978818467184],[-108.5387485708857,32.07978818467184],[-108.53515927689276,32.270499435984355],[-108.5387485708857,32.51619050749507],[-108.6464273906739,32.51619050749507],[-108.6464273906739,32.60381459593595],[-108.85460644226441,32.602955536245354],[-108.85460644226441,32.77734465343653],[-109.04842831788318,32.77820371312713],[-109.04842831788318,33.20859261811618]]]}},{"type":"Feature","id":"35019","properties":{"name":"Guadalupe","county_fips":"35019","state_abbr":"NM"},"geometry":{"type":"Polygon","coordinates":[[[-105.29043750727507,35.04182599784997],[-105.29043750727507,35.216215115041145],[-104.89202587405873,35.216215115041145],[-104.12391695956958,35.21535605535055],[-104.12391695956958,35.14233598164981],[-104.12750625356253,34.77895373252732],[-104.33927459914598,34.77895373252732],[-104.33927459914598,34.692188703777035],[-104.44336412494124,34.69132964408644],[-104.44336412494124,34.604564615336145],[-104.89202587405873,34.604564615336145],[-104.89202587405873,34.346846708157074],[-105.3119732712327,34.346846708157074],[-105.3119732712327,34.60714179440794],[-105.29043750727507,34.60714179440794],[-105.29043750727507,35.04182599784997]]]}},{"type":"Feature","id":"35021","properties":{"name":"Harding","county_fips":"35021","state_abbr":"NM"},"geometry":{"type":"Polygon","coordinates":[[[-104.43618553695536,36.21873777396773],[-104.00905955179552,36.217878714277134],[-104.00905955179552,36.174925729747294],[-103.79370191221912,36.174066670056696],[-103.79370191221912,36.085583521925216],[-103.36657592705926,36.08644258161581],[-103.37375451504515,35.99881849317492],[-103.37375451504515,35.73938246661466],[-103.38093310303103,35.65261743786437],[-103.38093310303103,35.396617650066496],[-103.3881116910169,35.38974517254172],[-103.63577297652976,35.38974517254172],[-103.63577297652976,35.4223894407844],[-103.72191603236031,35.4223894407844],[-103.97675590585905,35.80209382402823],[-104.02341672776727,35.78147639145391],[-104.37157824508245,35.778899212382115],[-104.38952471504714,35.859650823298225],[-104.34286389313893,35.91205346442464],[-104.35363177511775,35.940402434214334],[-104.32850671716717,35.96016080709806],[-104.35722106911068,35.982496359053584],[-104.37157824508245,36.066684208732084],[-104.41464977299772,36.12338214831148],[-104.4038818910189,36.155167356863565],[-104.43977483094831,36.193825042940425],[-104.43618553695536,36.21873777396773]]]}},{"type":"Feature","id":"35023","properties":{"name":"Hidalgo","county_fips":"35023","state_abbr":"NM"},"geometry":{"type":"Polygon","coordinates":[[[-109.04842831788318,32.42598923998239],[-109.04842831788318,32.77820371312713],[-108.85460644226441,32.77734465343653],[-108.85460644226441,32.602955536245354],[-108.6464273906739,32.60381459593595],[-108.6464273906739,32.51619050749507],[-108.5387485708857,32.51619050749507],[-108.53515927689276,32.270499435984355],[-108.5387485708857,32.07978818467184],[-108.52439139491395,32.07978818467184],[-108.52439139491395,31.863305142641423],[-108.21571211152111,31.86416420233202],[-108.20853352353522,31.78341259141591],[-108.20853352353522,31.33326531354313],[-109.04842831788318,31.332406253852533],[-109.04842831788318,32.42598923998239]]]}},{"type":"Feature","id":"35025","properties":{"name":"Lea","county_fips":"35025","state_abbr":"NM"},"geometry":{"type":"Polygon","coordinates":[[[-103.81523767617675,32.96547872567725],[-103.7649875602756,32.96547872567725],[-103.7649875602756,33.395008570975705],[-103.72191603236031,33.395008570975705],[-103.72191603236031,33.56939768816687],[-103.51014768677686,33.57025674785747],[-103.0543073496735,33.57025674785747],[-103.05789664366642,33.38813609345093],[-103.05789664366642,33.26013619955199],[-103.06507523165232,32.959465307843075],[-103.06507523165232,32.52220392532925],[-103.06507523165232,32.086660662196614],[-103.06507523165232,32.000754693136926],[-103.32709369313693,32.000754693136926],[-103.72191603236031,31.99989563344633],[-103.72191603236031,32.52220392532925],[-103.81523767617675,32.52220392532925],[-103.81523767617675,32.96547872567725]]]}},{"type":"Feature","id":"35027","properties":{"name":"Lincoln","county_fips":"35027","state_abbr":"NM"},"geometry":{"type":"Polygon","coordinates":[[[-105.92574254402544,34.26008167940679],[-105.3119732712327,34.26008167940679],[-105.3119732712327,34.346846708157074],[-104.89202587405873,34.346846708157074],[-104.89202587405873,34.088269741287405],[-104.89561516805168,33.82453841627416],[-104.89202587405873,33.821961237202366],[-104.89202587405873,33.398444809738095],[-104.88484728607285,33.30566636315363],[-104.90279375603755,33.30566636315363],[-104.9063830500305,33.13900878317783],[-105.10738351363513,33.13213630565305],[-105.31556256522565,33.13213630565305],[-105.3191518592186,33.30566636315363],[-105.7247420804208,33.30480730346303],[-105.72833137441374,33.39071327252272],[-106.34568994119941,33.39071327252272],[-106.37081499914999,33.39071327252272],[-106.37440429314293,33.480055480344795],[-106.37440429314293,33.660458015370146],[-106.26672547335473,33.660458015370146],[-106.15904665356653,33.65014929908298],[-106.05136783377833,33.65014929908298],[-106.05136783377833,33.825397475964756],[-105.92574254402544,33.825397475964756],[-105.92574254402544,34.26008167940679]]]}},{"type":"Feature","id":"35028","properties":{"name":"Los Alamos","county_fips":"35028","state_abbr":"NM"},"geometry":{"type":"Polygon","coordinates":[[[-106.24877900339003,35.966174224932246],[-106.24518970939708,35.93095277761777],[-106.24877900339003,35.855355524845244],[-106.24877900339003,35.8390333907239],[-106.17340382953829,35.827865614746145],[-106.20929676946768,35.778040152691524],[-106.24877900339003,35.755704600736],[-106.28108264932649,35.79178510774107],[-106.35645782317823,35.816697838768384],[-106.41029723307233,35.8106844209342],[-106.3995293510935,35.827865614746145],[-106.3995293510935,35.96016080709806],[-106.31697558925589,35.95242926988269],[-106.29902911929119,35.97304670245702],[-106.24877900339003,35.966174224932246]]]}},{"type":"Feature","id":"35029","properties":{"name":"Luna","county_fips":"35029","state_abbr":"NM"},"geometry":{"type":"Polygon","coordinates":[[[-107.60912142671427,32.605532715317146],[-107.30044214332143,32.605532715317146],[-107.29685284932849,32.21981491423914],[-107.29685284932849,31.78341259141591],[-108.20853352353522,31.78341259141591],[-108.21571211152111,31.86416420233202],[-108.21571211152111,32.07978818467184],[-108.23006928749287,32.07978818467184],[-108.23006928749287,32.517049567185666],[-107.92497929809298,32.517049567185666],[-107.92497929809298,32.60467365562655],[-107.60912142671427,32.605532715317146]]]}},{"type":"Feature","id":"35031","properties":{"name":"McKinley","county_fips":"35031","state_abbr":"NM"},"geometry":{"type":"Polygon","coordinates":[[[-109.04483902389023,36.00311379162791],[-108.53515927689276,36.00311379162791],[-107.62706789667897,36.00053661255612],[-107.30762073130731,35.99881849317492],[-107.30762073130731,35.30555732286322],[-107.62706789667897,35.304698263172625],[-107.62706789667897,35.34851030739307],[-107.73474671646716,35.34851030739307],[-107.73474671646716,35.304698263172625],[-108.46696269102691,35.30641638255382],[-108.47055198501984,34.95935626755267],[-109.04483902389023,34.96021532724327],[-109.04483902389023,35.31672509884098],[-109.04842831788318,35.34249688955889],[-109.04483902389023,35.54609403623036],[-109.04483902389023,36.00311379162791]]]}},{"type":"Feature","id":"35033","properties":{"name":"Mora","county_fips":"35033","state_abbr":"NM"},"geometry":{"type":"Polygon","coordinates":[[[-105.71756349243492,35.979060120291194],[-105.64577761257613,35.96187892647926],[-105.63142043660436,35.97991917998179],[-105.56681314473144,35.973905762147616],[-105.53092020480204,36.013422507915074],[-105.48784867688677,36.03747617925178],[-105.41965209102091,36.131972745217446],[-105.42324138501384,36.16977137160371],[-105.39811632706326,36.19124786386863],[-105.40888420904209,36.236778027470265],[-105.34068762317622,36.26169075849758],[-104.86690081610816,36.26169075849758],[-104.86690081610816,36.217878714277134],[-104.43618553695536,36.21873777396773],[-104.43977483094831,36.193825042940425],[-104.4038818910189,36.155167356863565],[-104.41464977299772,36.12338214831148],[-104.37157824508245,36.066684208732084],[-104.35722106911068,35.982496359053584],[-104.32850671716717,35.96016080709806],[-104.35363177511775,35.940402434214334],[-104.34286389313893,35.91205346442464],[-104.38952471504714,35.859650823298225],[-104.37157824508245,35.778899212382115],[-104.75204340833407,35.7831945108351],[-105.00688328183281,35.771167675166744],[-105.02482975179751,35.75398648135481],[-105.11097280762807,35.808107241862416],[-105.3478662111621,35.870818599275985],[-105.7247420804208,35.870818599275985],[-105.71756349243492,35.979060120291194]]]}},{"type":"Feature","id":"35035","properties":{"name":"Otero","county_fips":"35035","state_abbr":"NM"},"geometry":{"type":"Polygon","coordinates":[[[-106.34210064720646,33.053102814118134],[-106.34568994119941,33.39071327252272],[-105.72833137441374,33.39071327252272],[-105.7247420804208,33.30480730346303],[-105.3191518592186,33.30566636315363],[-105.31556256522565,33.13213630565305],[-105.31556256522565,32.96204248691486],[-105.35145550515504,32.96204248691486],[-105.35504479914799,32.51876768656686],[-104.85254364013639,32.520485805948056],[-104.85254364013639,32.26019071969719],[-104.84895434614346,32.25331824217242],[-104.84895434614346,32.000754693136926],[-104.91715093200932,32.000754693136926],[-105.43041997299973,32.000754693136926],[-105.99752842388423,32.00247281251812],[-106.37799358713586,32.000754693136926],[-106.37799358713586,32.95774718846188],[-106.34210064720646,32.95860624815248],[-106.34210064720646,33.053102814118134]]]}},{"type":"Feature","id":"35037","properties":{"name":"Quay","county_fips":"35037","state_abbr":"NM"},"geometry":{"type":"Polygon","coordinates":[[[-104.12391695956958,35.14233598164981],[-103.85830920409204,35.26432245771457],[-103.85830920409204,35.24198690575905],[-103.63577297652976,35.24112784606845],[-103.63577297652976,35.38974517254172],[-103.3881116910169,35.38974517254172],[-103.38093310303103,35.396617650066496],[-103.38093310303103,35.65261743786437],[-103.37375451504515,35.73938246661466],[-103.03995017370173,35.73938246661466],[-103.03995017370173,35.62255034869348],[-103.04353946769467,35.18357084679846],[-103.04353946769467,34.954201909409086],[-103.28402216522164,34.954201909409086],[-103.28402216522164,34.86485970158701],[-103.3881116910169,34.865718761277606],[-103.39170098500985,34.77809467283672],[-103.49579051080511,34.77895373252732],[-103.49579051080511,34.69132964408644],[-103.70755885638856,34.692188703777035],[-103.70755885638856,34.60542367502674],[-103.73986250232502,34.604564615336145],[-103.94804155391553,34.60542367502674],[-104.12750625356253,34.60542367502674],[-104.12750625356253,34.77895373252732],[-104.12391695956958,35.14233598164981]]]}},{"type":"Feature","id":"35039","properties":{"name":"Rio Arriba","county_fips":"35039","state_abbr":"NM"},"geometry":{"type":"Polygon","coordinates":[[[-107.42247813908139,36.99962303272032],[-106.87690545215452,37.00048209241092],[-106.86972686416864,36.99275055519555],[-106.47490452494525,36.99360961488614],[-106.00470701187011,36.995327734267335],[-105.97240336593366,36.88622715356153],[-105.98317124791248,36.74620042399423],[-105.96522477794777,36.598442157211565],[-105.95445689596896,36.575247545565446],[-105.94009971999719,36.46528790516905],[-105.95804618996189,36.35446920508205],[-106.03701065780658,36.32526117560175],[-106.0585464217642,36.29691220581205],[-105.85754595815958,36.23076460963609],[-105.73550996239962,36.10018753666536],[-105.53092020480204,36.013422507915074],[-105.56681314473144,35.973905762147616],[-105.63142043660436,35.97991917998179],[-105.64577761257613,35.96187892647926],[-105.71756349243492,35.979060120291194],[-105.71756349243492,36.00225473193731],[-106.05136783377833,36.00225473193731],[-106.05495712777127,35.93095277761777],[-106.24518970939708,35.93095277761777],[-106.24877900339003,35.966174224932246],[-106.24877900339003,36.001395672246716],[-106.8840840401404,35.99881849317492],[-106.8840840401404,36.216160594895946],[-107.30403143731436,36.21444247551475],[-107.62347860268602,36.21959683365833],[-107.62706789667897,36.53916703856038],[-107.61988930869308,36.67661658905588],[-107.61988930869308,36.79774400543005],[-107.60194283872838,36.821797676766764],[-107.51938907689076,36.87763655665556],[-107.45478178501784,36.901690227992276],[-107.44760319703197,36.964401585405845],[-107.42247813908139,36.99962303272032]]]}},{"type":"Feature","id":"35041","properties":{"name":"Roosevelt","county_fips":"35041","state_abbr":"NM"},"geometry":{"type":"Polygon","coordinates":[[[-103.94804155391553,34.60542367502674],[-103.73986250232502,34.604564615336145],[-103.73986250232502,34.303034663936636],[-103.04353946769467,34.303034663936636],[-103.04353946769467,33.945665832648324],[-103.04712876168762,33.82453841627416],[-103.0543073496735,33.57025674785747],[-103.51014768677686,33.57025674785747],[-103.51014768677686,33.65702177660776],[-103.71832673836738,33.656162716917166],[-103.71832673836738,33.819384058130574],[-103.84036273412734,33.819384058130574],[-103.84036273412734,34.08225632345323],[-103.9444522599226,34.08225632345323],[-103.94804155391553,34.25922261971619],[-103.94804155391553,34.60542367502674]]]}},{"type":"Feature","id":"35045","properties":{"name":"San Juan","county_fips":"35045","state_abbr":"NM"},"geometry":{"type":"Polygon","coordinates":[[[-109.04483902389023,36.998763973029725],[-108.38081963519635,36.99962303272032],[-108.24801575745757,36.998763973029725],[-107.48349613696136,36.99962303272032],[-107.42247813908139,36.99962303272032],[-107.44760319703197,36.964401585405845],[-107.45478178501784,36.901690227992276],[-107.51938907689076,36.87763655665556],[-107.60194283872838,36.821797676766764],[-107.61988930869308,36.79774400543005],[-107.61988930869308,36.67661658905588],[-107.62706789667897,36.53916703856038],[-107.62347860268602,36.21959683365833],[-107.62706789667897,36.00053661255612],[-108.53515927689276,36.00311379162791],[-109.04483902389023,36.00311379162791],[-109.04483902389023,36.998763973029725]]]}},{"type":"Feature","id":"35047","properties":{"name":"San Miguel","county_fips":"35047","state_abbr":"NM"},"geometry":{"type":"Polygon","coordinates":[[[-105.7247420804208,35.870818599275985],[-105.3478662111621,35.870818599275985],[-105.11097280762807,35.808107241862416],[-105.02482975179751,35.75398648135481],[-105.00688328183281,35.771167675166744],[-104.75204340833407,35.7831945108351],[-104.37157824508245,35.778899212382115],[-104.02341672776727,35.78147639145391],[-103.97675590585905,35.80209382402823],[-103.72191603236031,35.4223894407844],[-103.63577297652976,35.4223894407844],[-103.63577297652976,35.38974517254172],[-103.63577297652976,35.24112784606845],[-103.85830920409204,35.24198690575905],[-103.85830920409204,35.26432245771457],[-104.12391695956958,35.14233598164981],[-104.12391695956958,35.21535605535055],[-104.89202587405873,35.216215115041145],[-105.29043750727507,35.216215115041145],[-105.29043750727507,35.04182599784997],[-105.71397419844197,35.04182599784997],[-105.71756349243492,35.30383920348203],[-105.71756349243492,35.65433555724557],[-105.7247420804208,35.870818599275985]]]}},{"type":"Feature","id":"35043","properties":{"name":"Sandoval","county_fips":"35043","state_abbr":"NM"},"geometry":{"type":"MultiPolygon","coordinates":[[[[-106.24877900339003,35.855355524845244],[-106.24877900339003,35.8390333907239],[-106.24877900339003,35.855355524845244],[-106.24877900339003,35.855355524845244]]],[[[-107.62347860268602,36.21959683365833],[-107.30403143731436,36.21444247551475],[-106.8840840401404,36.216160594895946],[-106.8840840401404,35.99881849317492],[-106.24877900339003,36.001395672246716],[-106.24877900339003,35.966174224932246],[-106.29902911929119,35.97304670245702],[-106.31697558925589,35.95242926988269],[-106.3995293510935,35.96016080709806],[-106.3995293510935,35.827865614746145],[-106.41029723307233,35.8106844209342],[-106.35645782317823,35.816697838768384],[-106.28108264932649,35.79178510774107],[-106.24877900339003,35.755704600736],[-106.24877900339003,35.304698263172625],[-106.24518970939708,35.21535605535055],[-106.5969405207052,35.21793323442234],[-106.64001204862048,35.20332921968219],[-106.65795851858518,35.21793323442234],[-107.19635261752617,35.219651353803535],[-107.23942414544145,35.30555732286322],[-107.30762073130731,35.30555732286322],[-107.30762073130731,35.99881849317492],[-107.62706789667897,36.00053661255612],[-107.62347860268602,36.21959683365833]]]]}},{"type":"Feature","id":"35049","properties":{"name":"Santa Fe","county_fips":"35049","state_abbr":"NM"},"geometry":{"type":"Polygon","coordinates":[[[-106.24877900339003,35.755704600736],[-106.20929676946768,35.778040152691524],[-106.17340382953829,35.827865614746145],[-106.24877900339003,35.8390333907239],[-106.24877900339003,35.855355524845244],[-106.24518970939708,35.93095277761777],[-106.05495712777127,35.93095277761777],[-106.05136783377833,36.00225473193731],[-105.71756349243492,36.00225473193731],[-105.71756349243492,35.979060120291194],[-105.7247420804208,35.870818599275985],[-105.71756349243492,35.65433555724557],[-105.71756349243492,35.30383920348203],[-105.71397419844197,35.04182599784997],[-106.24518970939708,35.04010787846878],[-106.24518970939708,35.21535605535055],[-106.24877900339003,35.304698263172625],[-106.24877900339003,35.755704600736]]]}},{"type":"Feature","id":"35051","properties":{"name":"Sierra","county_fips":"35051","state_abbr":"NM"},"geometry":{"type":"Polygon","coordinates":[[[-107.71321095250951,33.47661924158241],[-106.47490452494525,33.475760181891815],[-106.37440429314293,33.480055480344795],[-106.37081499914999,33.39071327252272],[-106.34568994119941,33.39071327252272],[-106.34210064720646,33.053102814118134],[-106.88767333413334,32.82287481703816],[-106.88767333413334,32.779062772817724],[-107.30044214332143,32.77992183250832],[-107.30044214332143,32.605532715317146],[-107.60912142671427,32.605532715317146],[-107.7383360104601,32.62958638665386],[-107.72397883448834,32.66137159520595],[-107.7203895404954,32.77820371312713],[-107.7742289503895,32.85380096589965],[-107.76346106841068,32.91479420393203],[-107.7742289503895,32.952592830318295],[-107.8280683602836,32.963760606296056],[-107.85678271222712,33.002418292372916],[-107.85319341823417,33.056539052880524],[-107.83524694826947,33.067706828858284],[-107.86396130021299,33.2000020212102],[-108.00035447194472,33.2008610809008],[-108.00035447194472,33.47833736096361],[-107.93933647406473,33.47404206251062],[-107.71321095250951,33.47661924158241]]]}},{"type":"Feature","id":"35053","properties":{"name":"Socorro","county_fips":"35053","state_abbr":"NM"},"geometry":{"type":"Polygon","coordinates":[[[-107.72397883448834,34.57793376492764],[-107.69167518855188,34.57965188430884],[-107.20353120551205,34.57879282461824],[-106.8840840401404,34.57965188430884],[-106.76922663236631,34.53154454163541],[-106.50361887688877,34.45680634855348],[-106.45695805498055,34.43704797566975],[-106.4174758210582,34.43962515474154],[-106.4174758210582,34.26008167940679],[-105.92574254402544,34.26008167940679],[-105.92574254402544,33.825397475964756],[-106.05136783377833,33.825397475964756],[-106.05136783377833,33.65014929908298],[-106.15904665356653,33.65014929908298],[-106.26672547335473,33.660458015370146],[-106.37440429314293,33.660458015370146],[-106.37440429314293,33.480055480344795],[-106.47490452494525,33.475760181891815],[-107.71321095250951,33.47661924158241],[-107.71321095250951,33.8116525209152],[-107.71680024650246,33.825397475964756],[-107.71680024650246,34.26008167940679],[-107.72397883448834,34.26008167940679],[-107.72397883448834,34.57793376492764]]]}},{"type":"Feature","id":"35055","properties":{"name":"Taos","county_fips":"35055","state_abbr":"NM"},"geometry":{"type":"Polygon","coordinates":[[[-106.00470701187011,36.995327734267335],[-105.71756349243492,36.99618679395793],[-105.22224092140921,36.995327734267335],[-105.23659809738096,36.96268346602466],[-105.20070515745157,36.91543518304182],[-105.22941950939509,36.84756946748467],[-105.23659809738096,36.790871527905274],[-105.22941950939509,36.72386487203872],[-105.3119732712327,36.72300581234812],[-105.32633044720447,36.698093081320806],[-105.36940197511974,36.68091188750887],[-105.35145550515504,36.637099843288425],[-105.37658056310562,36.60875087349873],[-105.35145550515504,36.5615025905159],[-105.37658056310562,36.552052933919335],[-105.3191518592186,36.49191875557755],[-105.35504479914799,36.45240200981009],[-105.32633044720447,36.405153726827265],[-105.34068762317622,36.26169075849758],[-105.40888420904209,36.236778027470265],[-105.39811632706326,36.19124786386863],[-105.42324138501384,36.16977137160371],[-105.41965209102091,36.131972745217446],[-105.48784867688677,36.03747617925178],[-105.53092020480204,36.013422507915074],[-105.73550996239962,36.10018753666536],[-105.85754595815958,36.23076460963609],[-106.0585464217642,36.29691220581205],[-106.03701065780658,36.32526117560175],[-105.95804618996189,36.35446920508205],[-105.94009971999719,36.46528790516905],[-105.95445689596896,36.575247545565446],[-105.96522477794777,36.598442157211565],[-105.98317124791248,36.74620042399423],[-105.97240336593366,36.88622715356153],[-106.00470701187011,36.995327734267335]]]}},{"type":"Feature","id":"35057","properties":{"name":"Torrance","county_fips":"35057","state_abbr":"NM"},"geometry":{"type":"Polygon","coordinates":[[[-106.41029723307233,34.87001405973059],[-106.14827877158771,34.87001405973059],[-106.14827877158771,34.949906610956106],[-106.24518970939708,34.95334284971849],[-106.24518970939708,35.04010787846878],[-105.71397419844197,35.04182599784997],[-105.29043750727507,35.04182599784997],[-105.29043750727507,34.60714179440794],[-105.3119732712327,34.60714179440794],[-105.3119732712327,34.346846708157074],[-105.3119732712327,34.26008167940679],[-105.92574254402544,34.26008167940679],[-106.4174758210582,34.26008167940679],[-106.4174758210582,34.43962515474154],[-106.4174758210582,34.52209488503885],[-106.4713152309523,34.52123582534825],[-106.46413664296642,34.608000854098535],[-106.46772593695937,34.71710143480434],[-106.46413664296642,34.87001405973059],[-106.41029723307233,34.87001405973059]]]}},{"type":"Feature","id":"35059","properties":{"name":"Union","county_fips":"35059","state_abbr":"NM"},"geometry":{"type":"Polygon","coordinates":[[[-104.00905955179552,36.99618679395793],[-103.08661099560995,37.00048209241092],[-103.0004679397794,37.00048209241092],[-103.0004679397794,36.60273745566455],[-103.00405723377233,36.50050935248352],[-103.04353946769467,36.50050935248352],[-103.03995017370173,36.317529638386375],[-103.03995017370173,36.055516432754324],[-103.03995017370173,35.73938246661466],[-103.37375451504515,35.73938246661466],[-103.37375451504515,35.99881849317492],[-103.36657592705926,36.08644258161581],[-103.79370191221912,36.085583521925216],[-103.79370191221912,36.174066670056696],[-104.00905955179552,36.174925729747294],[-104.00905955179552,36.217878714277134],[-104.00905955179552,36.99618679395793]]]}},{"type":"Feature","id":"35061","properties":{"name":"Valencia","county_fips":"35061","state_abbr":"NM"},"geometry":{"type":"Polygon","coordinates":[[[-107.06713803378034,34.95677908848088],[-107.02406650586505,34.87001405973059],[-106.7225658104581,34.87001405973059],[-106.6866728705287,34.90609456673566],[-106.42824370303703,34.90351738766387],[-106.41029723307233,34.87001405973059],[-106.46413664296642,34.87001405973059],[-106.46772593695937,34.71710143480434],[-106.46413664296642,34.608000854098535],[-106.4713152309523,34.52123582534825],[-106.4174758210582,34.52209488503885],[-106.4174758210582,34.43962515474154],[-106.45695805498055,34.43704797566975],[-106.50361887688877,34.45680634855348],[-106.76922663236631,34.53154454163541],[-106.8840840401404,34.57965188430884],[-107.20353120551205,34.57879282461824],[-107.20353120551205,34.957638148171476],[-107.06713803378034,34.95677908848088]]]}}]}