{"type":"FeatureCollection","features":[{"type":"Feature","id":"32510","properties":{"name":"Carson City","county_fips":"32510","state_abbr":"NV"},"geometry":{"type":"Polygon","coordinates":[[[-120.00295358433584,39.16531251271512],[-119.88091758857587,39.16531251271512],[-119.82707817868177,39.208265497244966],[-119.76964947479473,39.21513797476974],[-119.75170300483003,39.24434600425003],[-119.71222077090769,39.25121848177481],[-119.68350641896419,39.20912455693556],[-119.64761347903479,39.19537960188601],[-119.56147042320423,39.19452054219541],[-119.57223830518305,39.14469508014079],[-119.5507025412254,39.085419961489606],[-119.75170300483003,39.08456090179901],[-119.76247088680887,39.1137689312793],[-120.00295358433584,39.11290987158871],[-120.00295358433584,39.16531251271512]]]}},{"type":"Feature","id":"32001","properties":{"name":"Churchill","county_fips":"32001","state_abbr":"NV"},"geometry":{"type":"Polygon","coordinates":[[[-119.22407678786787,39.99945947228472],[-118.24419952779527,40.002036651356505],[-117.54069790517904,40.00117759166591],[-117.46891202532024,39.92214410013099],[-117.46173343733437,39.88692265281652],[-117.48685849528495,39.82678847447474],[-117.49403708327083,39.74861404263042],[-117.4653227313273,39.67559396892968],[-117.48685849528495,39.64466782006819],[-117.46173343733437,39.632640984399835],[-117.483269201292,39.59827859677596],[-117.48685849528495,39.54587595564955],[-117.59094802108021,39.51752698585985],[-117.58735872708726,39.5029229711197],[-117.65555531295311,39.46770152380523],[-117.6447874309743,39.42646665865658],[-117.67350178291782,39.42388947958479],[-117.69503754687545,39.386090853198525],[-117.74528766277662,39.386090853198525],[-117.76323413274132,39.35258752526524],[-117.72375189881899,39.250359422084216],[-117.72016260482604,39.213419855388544],[-117.80630566065659,39.14555413983139],[-117.77400201472014,39.093151498704984],[-117.86373436454363,39.073393125821255],[-118.75387927479274,39.074252185511845],[-118.75387927479274,39.112050811898115],[-118.79336150871508,39.112050811898115],[-118.79336150871508,39.14125884137841],[-118.82925444864448,39.15586285611855],[-118.89027244652445,39.228023870128695],[-118.92975468044679,39.242627884868845],[-118.96564762037619,39.285580869398686],[-119.02666561825617,39.31564795856958],[-119.09845149811497,39.38780897257972],[-119.11998726207261,39.38866803227032],[-119.11639796807967,39.51838604555045],[-119.09127291012909,39.51838604555045],[-119.08768361613616,39.63693628285282],[-119.07691573415732,39.63693628285282],[-119.07691573415732,39.72284225191251],[-119.1630587899879,39.654976536355356],[-119.18818384793848,39.650681237902376],[-119.17023737797376,39.68074832707327],[-119.17023737797376,39.78813078839788],[-119.2097196118961,39.8096072806628],[-119.2097196118961,39.89980854817548],[-119.2276660818608,39.89980854817548],[-119.22407678786787,39.99945947228472]]]}},{"type":"Feature","id":"32003","properties":{"name":"Clark","county_fips":"32003","state_abbr":"NV"},"geometry":{"type":"Polygon","coordinates":[[[-115.89680125641256,36.84241510934109],[-115.74246161471615,36.84155604965049],[-115.74246161471615,36.85272382562825],[-114.76258435464354,36.85358288531884],[-114.76258435464354,36.84413322872228],[-114.05190414404143,36.84327416903169],[-114.05190414404143,36.62507300762007],[-114.04472555605555,36.39140877177771],[-114.0483148500485,36.193825042940425],[-114.0662613200132,36.18093914758147],[-114.15240437584376,36.02373122420224],[-114.2385474316743,36.01428156760567],[-114.31392260552605,36.05809361182611],[-114.30674401754017,36.082147283162826],[-114.37135130941309,36.14314052119521],[-114.4180121313213,36.145717700267],[-114.50415518715187,36.129395566145654],[-114.51133377513774,36.15087205841058],[-114.57235177301773,36.151731118101175],[-114.615423300933,36.13025462583625],[-114.6333697708977,36.14228146150461],[-114.66567341683417,36.117368730477295],[-114.75540576665766,36.090737880068794],[-114.73028070870708,36.02201310482104],[-114.74463788467884,35.98507353812538],[-114.70156635676356,35.901744748137475],[-114.66567341683417,35.87511389772897],[-114.69797706277062,35.85449646515465],[-114.71233423874239,35.80638912248122],[-114.69438776877769,35.755704600736],[-114.7051556507565,35.71189255651556],[-114.68003059280592,35.685261706107056],[-114.69079847478474,35.651758378173774],[-114.65849482884828,35.61911410993109],[-114.65849482884828,35.53063096179961],[-114.68003059280592,35.49970481293812],[-114.66567341683417,35.4498793508835],[-114.62619118291182,35.40950354542545],[-114.60465541895418,35.35366466553665],[-114.57235177301773,35.2007520406104],[-114.57235177301773,35.138899742887425],[-114.64772694686947,35.10196017619175],[-114.61183400694006,35.08306086299862],[-114.6333697708977,35.00145019239192],[-115.16099598785988,35.424107560165595],[-115.41224656736566,35.62512752776527],[-115.64913997089971,35.809825361243604],[-115.8465511405114,35.96445610555105],[-115.8465511405114,36.170630431294306],[-115.89680125641256,36.1723485506755],[-115.89680125641256,36.84241510934109]]]}},{"type":"Feature","id":"32005","properties":{"name":"Douglas","county_fips":"32005","state_abbr":"NV"},"geometry":{"type":"Polygon","coordinates":[[[-120.00295358433584,39.11290987158871],[-119.76247088680887,39.1137689312793],[-119.75170300483003,39.08456090179901],[-119.5507025412254,39.085419961489606],[-119.31021984369843,39.08370184210841],[-119.31021984369843,38.99092339552395],[-119.39995219352193,38.98319185830858],[-119.42148795747957,38.954842888518876],[-119.42148795747957,38.823406755857555],[-119.40354148751487,38.808802741117404],[-119.40713078150782,38.73320548834488],[-119.34970207762078,38.72891018989189],[-119.34611278362783,38.64815857897578],[-119.32816631366313,38.64815857897578],[-119.32816631366313,38.534762699816994],[-119.5865954811548,38.71344711546115],[-119.90604264652646,38.93336639625396],[-119.9993642903429,38.99951399242992],[-120.00295358433584,39.06737970798707],[-120.00295358433584,39.11290987158871]]]}},{"type":"Feature","id":"32007","properties":{"name":"Elko","county_fips":"32007","state_abbr":"NV"},"geometry":{"type":"Polygon","coordinates":[[[-117.01666098220981,41.999350431994316],[-116.36699876948768,41.995914193231926],[-115.31533562955629,41.995914193231926],[-115.03895999209992,41.995914193231926],[-114.80565588255882,42.0019276110661],[-114.5974768309683,41.99419607385073],[-114.2816189595896,41.99419607385073],[-114.04113626206261,41.99333701416013],[-114.04113626206261,41.00026401183011],[-114.04472555605555,40.771754134131335],[-114.04472555605555,40.23226464843648],[-114.0483148500485,40.117150649896494],[-114.52928024510244,40.11886876927769],[-115.50197891718916,40.128318425874255],[-115.83578325853259,40.12745936618366],[-116.00089078220782,40.12745936618366],[-116.15881971789717,40.66608979218792],[-116.15881971789717,41.00026401183011],[-116.58594570305702,41.00026401183011],[-117.01666098220981,41.00026401183011],[-117.01666098220981,41.999350431994316]]]}},{"type":"Feature","id":"32009","properties":{"name":"Esmeralda","county_fips":"32009","state_abbr":"NV"},"geometry":{"type":"Polygon","coordinates":[[[-117.69144825288252,38.47376946178461],[-117.16382203592036,38.00128663195631],[-117.16382203592036,37.36901869967699],[-117.16741132991329,36.971274062930625],[-117.83143071860718,37.46523338502384],[-118.05396694616945,37.62501848747487],[-118.4272535214352,37.89648134970349],[-118.35187834758347,37.8939041706317],[-117.69144825288252,38.47376946178461]]]}},{"type":"Feature","id":"32011","properties":{"name":"Eureka","county_fips":"32011","state_abbr":"NV"},"geometry":{"type":"Polygon","coordinates":[[[-116.58594570305702,41.00026401183011],[-116.15881971789717,41.00026401183011],[-116.15881971789717,40.66608979218792],[-116.00089078220782,40.12745936618366],[-115.83578325853259,40.12745936618366],[-115.82501537655375,40.05272117310172],[-115.83219396453964,40.002036651356505],[-115.80347961259612,39.91097632415323],[-115.79630102461024,39.85427838457384],[-115.81424749457494,39.81562069849698],[-115.810658200582,39.76407711706116],[-115.83219396453964,39.727996610056096],[-115.81424749457494,39.5879698804888],[-115.83219396453964,39.569929626986266],[-115.84296184651845,39.508936388953884],[-115.86808690446904,39.47199682225821],[-115.90756913839138,39.458251867208666],[-115.90756913839138,39.161876273952736],[-116.60030287902879,39.161876273952736],[-116.5931242910429,39.397258629176285],[-116.60030287902879,40.07419766536665],[-116.5931242910429,40.31988873687736],[-116.59671358503584,40.9461432513225],[-116.58594570305702,41.00026401183011]]]}},{"type":"Feature","id":"32013","properties":{"name":"Humboldt","county_fips":"32013","state_abbr":"NV"},"geometry":{"type":"Polygon","coordinates":[[[-119.32457701967019,41.99419607385073],[-118.69645057090571,41.99161889477894],[-118.19753870588704,41.99677325292252],[-117.62325166701666,41.99849137230372],[-117.02742886418864,42.00020949168491],[-117.01666098220981,41.999350431994316],[-117.01666098220981,41.00026401183011],[-117.02025027620274,40.6428951805418],[-117.24637579775796,40.6420361208512],[-117.30021520765207,40.52606306262062],[-117.30021520765207,40.67639850847508],[-117.6447874309743,40.68413004569045],[-117.6447874309743,40.85766010319102],[-118.43802140341403,40.85594198380983],[-118.7861829207292,40.85594198380983],[-118.7861829207292,40.960747266062654],[-119.31021984369843,40.960747266062654],[-119.32816631366313,40.960747266062654],[-119.33175560765608,41.234787307363064],[-119.30663054970549,41.234787307363064],[-119.30304125571254,41.41433078269782],[-119.32457701967019,41.41433078269782],[-119.32816631366313,41.59043801927019],[-119.32457701967019,41.99419607385073]]]}},{"type":"Feature","id":"32015","properties":{"name":"Lander","county_fips":"32015","state_abbr":"NV"},"geometry":{"type":"Polygon","coordinates":[[[-117.54069790517904,40.00117759166591],[-117.30021520765207,40.52606306262062],[-117.24637579775796,40.6420361208512],[-117.02025027620274,40.6428951805418],[-117.01666098220981,41.00026401183011],[-116.58594570305702,41.00026401183011],[-116.59671358503584,40.9461432513225],[-116.5931242910429,40.31988873687736],[-116.60030287902879,40.07419766536665],[-116.5931242910429,39.397258629176285],[-116.60030287902879,39.161876273952736],[-117.33251885358854,39.16359439333392],[-117.77400201472014,39.093151498704984],[-117.80630566065659,39.14555413983139],[-117.72016260482604,39.213419855388544],[-117.72375189881899,39.250359422084216],[-117.76323413274132,39.35258752526524],[-117.74528766277662,39.386090853198525],[-117.69503754687545,39.386090853198525],[-117.67350178291782,39.42388947958479],[-117.6447874309743,39.42646665865658],[-117.65555531295311,39.46770152380523],[-117.58735872708726,39.5029229711197],[-117.59094802108021,39.51752698585985],[-117.48685849528495,39.54587595564955],[-117.483269201292,39.59827859677596],[-117.46173343733437,39.632640984399835],[-117.48685849528495,39.64466782006819],[-117.4653227313273,39.67559396892968],[-117.49403708327083,39.74861404263042],[-117.48685849528495,39.82678847447474],[-117.46173343733437,39.88692265281652],[-117.46891202532024,39.92214410013099],[-117.54069790517904,40.00117759166591]]]}},{"type":"Feature","id":"32017","properties":{"name":"Lincoln","county_fips":"32017","state_abbr":"NV"},"geometry":{"type":"Polygon","coordinates":[[[-114.99947775817758,38.677366608456076],[-114.0483148500485,38.677366608456076],[-114.05190414404143,38.57256132620326],[-114.0483148500485,38.14904489873898],[-114.05190414404143,37.99956851257512],[-114.0483148500485,37.76590427673276],[-114.05190414404143,37.60440105490054],[-114.05190414404143,37.00048209241092],[-114.05190414404143,36.84327416903169],[-114.76258435464354,36.84413322872228],[-114.76258435464354,36.85358288531884],[-115.74246161471615,36.85272382562825],[-115.74246161471615,36.84155604965049],[-115.89680125641256,36.84241510934109],[-115.89321196241963,36.86131442253422],[-115.89321196241963,38.050253034320335],[-114.99947775817758,38.05111209401093],[-114.99947775817758,38.677366608456076]]]}},{"type":"Feature","id":"32019","properties":{"name":"Lyon","county_fips":"32019","state_abbr":"NV"},"geometry":{"type":"Polygon","coordinates":[[[-119.71222077090769,39.25121848177481],[-119.64761347903479,39.266681556205555],[-119.47891666136661,39.3371244508345],[-119.28509478574784,39.621473208422074],[-119.25996972779727,39.64896311852118],[-119.18818384793848,39.650681237902376],[-119.1630587899879,39.654976536355356],[-119.07691573415732,39.72284225191251],[-119.07691573415732,39.63693628285282],[-119.08768361613616,39.63693628285282],[-119.09127291012909,39.51838604555045],[-119.11639796807967,39.51838604555045],[-119.11998726207261,39.38866803227032],[-119.09845149811497,39.38780897257972],[-119.02666561825617,39.31564795856958],[-118.96564762037619,39.285580869398686],[-118.92975468044679,39.242627884868845],[-118.89027244652445,39.228023870128695],[-118.82925444864448,39.15586285611855],[-118.79336150871508,39.14125884137841],[-118.79336150871508,39.112050811898115],[-118.75387927479274,39.112050811898115],[-118.75387927479274,39.074252185511845],[-118.92975468044679,39.07253406613066],[-119.01589773627735,38.94367511254112],[-119.01589773627735,38.850896665956654],[-118.90104032850329,38.85175572564725],[-118.90821891648915,38.764990696896966],[-118.90821891648915,38.41449434313343],[-119.15588020200201,38.41449434313343],[-119.32816631366313,38.534762699816994],[-119.32816631366313,38.64815857897578],[-119.34611278362783,38.64815857897578],[-119.34970207762078,38.72891018989189],[-119.40713078150782,38.73320548834488],[-119.40354148751487,38.808802741117404],[-119.42148795747957,38.823406755857555],[-119.42148795747957,38.954842888518876],[-119.39995219352193,38.98319185830858],[-119.31021984369843,38.99092339552395],[-119.31021984369843,39.08370184210841],[-119.5507025412254,39.085419961489606],[-119.57223830518305,39.14469508014079],[-119.56147042320423,39.19452054219541],[-119.64761347903479,39.19537960188601],[-119.68350641896419,39.20912455693556],[-119.71222077090769,39.25121848177481]]]}},{"type":"Feature","id":"32021","properties":{"name":"Mineral","county_fips":"32021","state_abbr":"NV"},"geometry":{"type":"Polygon","coordinates":[[[-119.15588020200201,38.41449434313343],[-118.90821891648915,38.41449434313343],[-118.90821891648915,38.764990696896966],[-118.90104032850329,38.85175572564725],[-119.01589773627735,38.850896665956654],[-119.01589773627735,38.94367511254112],[-118.92975468044679,39.07253406613066],[-118.75387927479274,39.074252185511845],[-117.86373436454363,39.073393125821255],[-118.19753870588704,38.99951399242992],[-118.19753870588704,38.91876238151381],[-117.69144825288252,38.47376946178461],[-118.35187834758347,37.8939041706317],[-118.4272535214352,37.89648134970349],[-118.857968800588,38.20488377862778],[-119.08409432214322,38.361232642316416],[-119.15588020200201,38.41449434313343]]]}},{"type":"Feature","id":"32023","properties":{"name":"Nye","county_fips":"32023","state_abbr":"NV"},"geometry":{"type":"Polygon","coordinates":[[[-117.86373436454363,39.073393125821255],[-117.77400201472014,39.093151498704984],[-117.33251885358854,39.16359439333392],[-116.60030287902879,39.161876273952736],[-115.90756913839138,39.161876273952736],[-114.99947775817758,38.677366608456076],[-114.99947775817758,38.05111209401093],[-115.89321196241963,38.050253034320335],[-115.89321196241963,36.86131442253422],[-115.89680125641256,36.84241510934109],[-115.89680125641256,36.1723485506755],[-115.8465511405114,36.170630431294306],[-115.8465511405114,35.96445610555105],[-116.25214136171361,36.27715383292832],[-117.16741132991329,36.971274062930625],[-117.16382203592036,37.36901869967699],[-117.16382203592036,38.00128663195631],[-117.69144825288252,38.47376946178461],[-118.19753870588704,38.91876238151381],[-118.19753870588704,38.99951399242992],[-117.86373436454363,39.073393125821255]]]}},{"type":"Feature","id":"32027","properties":{"name":"Pershing","county_fips":"32027","state_abbr":"NV"},"geometry":{"type":"Polygon","coordinates":[[[-119.31021984369843,40.960747266062654],[-118.7861829207292,40.960747266062654],[-118.7861829207292,40.85594198380983],[-118.43802140341403,40.85594198380983],[-117.6447874309743,40.85766010319102],[-117.6447874309743,40.68413004569045],[-117.30021520765207,40.67639850847508],[-117.30021520765207,40.52606306262062],[-117.54069790517904,40.00117759166591],[-118.24419952779527,40.002036651356505],[-119.22407678786787,39.99945947228472],[-119.33893419564194,39.99860041259412],[-119.33893419564194,40.51747246571465],[-119.31380913769138,40.518331525405245],[-119.31021984369843,40.960747266062654]]]}},{"type":"Feature","id":"32029","properties":{"name":"Storey","county_fips":"32029","state_abbr":"NV"},"geometry":{"type":"Polygon","coordinates":[[[-119.28509478574784,39.621473208422074],[-119.47891666136661,39.3371244508345],[-119.64761347903479,39.266681556205555],[-119.71222077090769,39.25121848177481],[-119.6763278309783,39.281285570945705],[-119.6763278309783,39.33197009269092],[-119.6583813610136,39.33197009269092],[-119.68709571295713,39.389527091960915],[-119.6583813610136,39.40413110670106],[-119.65479206702067,39.447084091230906],[-119.69786359493594,39.447084091230906],[-119.694274300943,39.516667926169255],[-119.6224884210842,39.51151356802568],[-119.58300618716186,39.547594075030744],[-119.5327560712607,39.56563432853328],[-119.47173807338072,39.56563432853328],[-119.46814877938779,39.58453364172641],[-119.3712378415784,39.5871108207982],[-119.28509478574784,39.621473208422074]]]}},{"type":"Feature","id":"32031","properties":{"name":"Washoe","county_fips":"32031","state_abbr":"NV"},"geometry":{"type":"Polygon","coordinates":[[[-120.00654287832877,39.316507018260175],[-120.00295358433584,39.44536597184971],[-120.00295358433584,39.72284225191251],[-119.9993642903429,39.73401002789027],[-119.99577499634995,40.071620486294854],[-119.99577499634995,40.72106961238612],[-119.9993642903429,40.75027764186641],[-119.9993642903429,41.18410278561785],[-119.9993642903429,41.99419607385073],[-119.9993642903429,41.99505513354133],[-119.88809617656176,41.99763231261312],[-119.36046995959958,41.99419607385073],[-119.32457701967019,41.99419607385073],[-119.32816631366313,41.59043801927019],[-119.32457701967019,41.41433078269782],[-119.30304125571254,41.41433078269782],[-119.30663054970549,41.234787307363064],[-119.33175560765608,41.234787307363064],[-119.32816631366313,40.960747266062654],[-119.31021984369843,40.960747266062654],[-119.31380913769138,40.518331525405245],[-119.33893419564194,40.51747246571465],[-119.33893419564194,39.99860041259412],[-119.22407678786787,39.99945947228472],[-119.2276660818608,39.89980854817548],[-119.2097196118961,39.89980854817548],[-119.2097196118961,39.8096072806628],[-119.17023737797376,39.78813078839788],[-119.17023737797376,39.68074832707327],[-119.18818384793848,39.650681237902376],[-119.25996972779727,39.64896311852118],[-119.28509478574784,39.621473208422074],[-119.3712378415784,39.5871108207982],[-119.46814877938779,39.58453364172641],[-119.47173807338072,39.56563432853328],[-119.5327560712607,39.56563432853328],[-119.58300618716186,39.547594075030744],[-119.6224884210842,39.51151356802568],[-119.694274300943,39.516667926169255],[-119.69786359493594,39.447084091230906],[-119.65479206702067,39.447084091230906],[-119.6583813610136,39.40413110670106],[-119.68709571295713,39.389527091960915],[-119.6583813610136,39.33197009269092],[-119.6763278309783,39.33197009269092],[-119.6763278309783,39.281285570945705],[-119.71222077090769,39.25121848177481],[-119.75170300483003,39.24434600425003],[-119.76964947479473,39.21513797476974],[-119.82707817868177,39.208265497244966],[-119.88091758857587,39.16531251271512],[-120.00295358433584,39.16531251271512],[-120.00654287832877,39.316507018260175]]]}},{"type":"Feature","id":"32033","properties":{"name":"White Pine","county_fips":"32033","state_abbr":"NV"},"geometry":{"type":"Polygon","coordinates":[[[-115.83578325853259,40.12745936618366],[-115.50197891718916,40.128318425874255],[-114.52928024510244,40.11886876927769],[-114.0483148500485,40.117150649896494],[-114.0483148500485,39.905821966009654],[-114.0483148500485,39.54243971688716],[-114.0483148500485,38.677366608456076],[-114.99947775817758,38.677366608456076],[-115.90756913839138,39.161876273952736],[-115.90756913839138,39.458251867208666],[-115.86808690446904,39.47199682225821],[-115.84296184651845,39.508936388953884],[-115.83219396453964,39.569929626986266],[-115.81424749457494,39.5879698804888],[-115.83219396453964,39.727996610056096],[-115.810658200582,39.76407711706116],[-115.81424749457494,39.81562069849698],[-115.79630102461024,39.85427838457384],[-115.80347961259612,39.91097632415323],[-115.83219396453964,40.002036651356505],[-115.82501537655375,40.05272117310172],[-115.83578325853259,40.12745936618366]]]}}]}