{"type":"FeatureCollection","features":[{"type":"Feature","id":"39001","properties":{"name":"Adams","county_fips":"39001","state_abbr":"OH"},"geometry":{"type":"Polygon","coordinates":[[[-83.70442343373433,38.63956798206981],[-83.70442343373433,38.67908472783727],[-83.67211978779787,39.020131425004244],[-83.6111017899179,39.01927236531365],[-83.38497626836268,39.055352872318714],[-83.31319038850388,39.05191663355633],[-83.2701188605886,39.01583612655126],[-83.26652956659566,38.61809148980489],[-83.30960109451094,38.60091029599295],[-83.32754756447564,38.63784986268862],[-83.36702979839798,38.658467295262945],[-83.4675300302003,38.67564848907488],[-83.5213694400944,38.70313839917399],[-83.61469108391084,38.684239085980856],[-83.6469947298473,38.63699080299802],[-83.70442343373433,38.63956798206981]]]}},{"type":"Feature","id":"39003","properties":{"name":"Allen","county_fips":"39003","state_abbr":"OH"},"geometry":{"type":"Polygon","coordinates":[[[-84.3397284704847,40.85937822257222],[-84.11001365493655,40.86109634195341],[-84.11001365493655,40.90490838617386],[-83.99515624716247,40.90490838617386],[-83.99515624716247,40.919512400914],[-83.88029883938839,40.9203714606046],[-83.88029883938839,40.81986147680476],[-83.88029883938839,40.644613299922995],[-84.1064243609436,40.6428951805418],[-84.1064243609436,40.65835825497254],[-84.22128176871769,40.65664013559135],[-84.22128176871769,40.68584816507165],[-84.39715717437174,40.68498910538105],[-84.39715717437174,40.81556617835178],[-84.3397284704847,40.81642523804237],[-84.3397284704847,40.85937822257222]]]}},{"type":"Feature","id":"39005","properties":{"name":"Ashland","county_fips":"39005","state_abbr":"OH"},"geometry":{"type":"Polygon","coordinates":[[[-82.33690242242422,41.06555254831547],[-82.17179489874898,41.063834428934285],[-82.17179489874898,40.99167341492414],[-82.12872337083371,40.99167341492414],[-82.12513407684077,40.667807911569106],[-82.22204501465015,40.667807911569106],[-82.2184557206572,40.568156987459865],[-82.33690242242422,40.55527109210092],[-82.34049171641716,40.72708303022029],[-82.3799739503395,40.72708303022029],[-82.38715253832538,40.8078346411364],[-82.41945618426183,40.82329771556715],[-82.41945618426183,40.99253247461474],[-82.4338133602336,40.99253247461474],[-82.43740265422655,41.06555254831547],[-82.33690242242422,41.06555254831547]]]}},{"type":"Feature","id":"39007","properties":{"name":"Ashtabula","county_fips":"39007","state_abbr":"OH"},"geometry":{"type":"Polygon","coordinates":[[[-81.00168505705057,41.85502840397403],[-80.90118482524825,41.868773359023585],[-80.81504176941769,41.89798138850388],[-80.5817376598766,41.957256507155066],[-80.52071966199662,41.97787393972939],[-80.52071966199662,41.849874045830454],[-80.52071966199662,41.50023675175751],[-81.00168505705057,41.50195487113871],[-81.00527435104351,41.715001674406736],[-81.00168505705057,41.85502840397403]]]}},{"type":"Feature","id":"39009","properties":{"name":"Athens","county_fips":"39009","state_abbr":"OH"},"geometry":{"type":"Polygon","coordinates":[[[-82.290241600516,39.38437273381733],[-82.27947371853718,39.47285588194881],[-82.16820560475604,39.46598340442404],[-82.15743772277723,39.55618467193671],[-82.04616960899608,39.551030313793134],[-82.0569374909749,39.45996998658986],[-81.84516914539145,39.450520329993296],[-81.85234773337733,39.31822513764137],[-81.81645479344793,39.30190300352003],[-81.82004408744088,39.27269497403974],[-81.7231331496315,39.26925873527735],[-81.72672244362444,39.21599703446034],[-81.75543679556796,39.18077558714587],[-81.96002655316553,39.18850712436124],[-82.26870583655837,39.20397019879198],[-82.26152724857248,39.293312406614056],[-82.29742018850189,39.29503052599525],[-82.290241600516,39.38437273381733]]]}},{"type":"Feature","id":"39011","properties":{"name":"Auglaize","county_fips":"39011","state_abbr":"OH"},"geometry":{"type":"Polygon","coordinates":[[[-84.45458587825878,40.68498910538105],[-84.39715717437174,40.68498910538105],[-84.22128176871769,40.68584816507165],[-84.22128176871769,40.65664013559135],[-84.1064243609436,40.65835825497254],[-84.1064243609436,40.6428951805418],[-83.88029883938839,40.644613299922995],[-83.88029883938839,40.53894895797957],[-83.99515624716247,40.53551271921719],[-84.00233483514835,40.483110078090775],[-84.3397284704847,40.48139195870958],[-84.3397284704847,40.379163855528546],[-84.43305011430114,40.37830479583795],[-84.43305011430114,40.35425112450124],[-84.45458587825878,40.35854642295422],[-84.45458587825878,40.68498910538105]]]}},{"type":"Feature","id":"39013","properties":{"name":"Belmont","county_fips":"39013","state_abbr":"OH"},"geometry":{"type":"Polygon","coordinates":[[[-81.23498916659166,39.95135212961129],[-81.22422128461284,40.1704123507135],[-81.2206319906199,40.17298952978529],[-80.88323835528355,40.15924457473574],[-80.70377365563655,40.15752645535455],[-80.7073629496295,40.101687575465746],[-80.73966659556595,40.07591578474784],[-80.73248800758007,40.032962800217994],[-80.73966659556595,39.971110502495016],[-80.76479165351654,39.95392930868308],[-80.75761306553065,39.909258204772044],[-80.80427388743887,39.91870786136861],[-80.78991671146711,39.867164279932794],[-80.82222035740357,39.84998308612086],[-81.2385784605846,39.86802333962339],[-81.23498916659166,39.95135212961129]]]}},{"type":"Feature","id":"39015","properties":{"name":"Brown","county_fips":"39015","state_abbr":"OH"},"geometry":{"type":"Polygon","coordinates":[[[-84.05258495104951,38.77100411473114],[-83.99156695316952,39.2546547205372],[-83.86594166341663,39.246923183321826],[-83.87312025140251,39.02099048469484],[-83.67211978779787,39.020131425004244],[-83.70442343373433,38.67908472783727],[-83.70442343373433,38.63956798206981],[-83.7654414316143,38.65245387742877],[-83.78338790157902,38.69540686195861],[-83.83722731147311,38.71774241391413],[-83.84799519345194,38.746950443394425],[-83.90542389733898,38.76842693565935],[-83.97720977719777,38.78732624885248],[-84.05258495104951,38.77100411473114]]]}},{"type":"Feature","id":"39017","properties":{"name":"Butler","county_fips":"39017","state_abbr":"OH"},"geometry":{"type":"Polygon","coordinates":[[[-84.81710457154571,39.52182228431283],[-84.81351527755277,39.56735244791447],[-84.47971093620936,39.56907056729567],[-84.47971093620936,39.59140611925118],[-84.36485352843528,39.589687999869994],[-84.36485352843528,39.544157836268354],[-84.33254988249882,39.54845313472134],[-84.3397284704847,39.412721703607026],[-84.35408564645647,39.292453346923466],[-84.63046128391284,39.312211719807195],[-84.64122916589166,39.305339242282415],[-84.82069386553866,39.305339242282415],[-84.81710457154571,39.52182228431283]]]}},{"type":"Feature","id":"39019","properties":{"name":"Carroll","county_fips":"39019","state_abbr":"OH"},"geometry":{"type":"Polygon","coordinates":[[[-81.31754292842928,40.65148577744777],[-81.24216775457754,40.65062671775717],[-81.2385784605846,40.72364679145791],[-81.08782811288113,40.72794208991089],[-80.91554200122,40.72708303022029],[-80.91913129521295,40.6437542402324],[-80.86170259132591,40.6428951805418],[-80.86170259132591,40.599083136321354],[-80.86529188531885,40.55527109210092],[-80.91913129521295,40.556130151791514],[-80.92630988319883,40.467647003660026],[-80.9406670591706,40.424694019130186],[-81.27088210652106,40.433284616036154],[-81.26370351853518,40.56472074869748],[-81.32113222242222,40.56643886807868],[-81.31754292842928,40.65148577744777]]]}},{"type":"Feature","id":"39021","properties":{"name":"Champaign","county_fips":"39021","state_abbr":"OH"},"geometry":{"type":"Polygon","coordinates":[[[-84.02387059910599,40.18415730576305],[-84.01310271712717,40.27349951358513],[-83.78338790157902,40.259754558535576],[-83.78697719557195,40.24515054379543],[-83.55008379203792,40.229687469364684],[-83.49624438214381,40.225392170911704],[-83.5034229701297,40.11113723206231],[-83.51778014610146,40.009768188571876],[-84.03463848108481,40.03983527774277],[-84.02387059910599,40.18415730576305]]]}},{"type":"Feature","id":"39023","properties":{"name":"Clark","county_fips":"39023","state_abbr":"OH"},"geometry":{"type":"Polygon","coordinates":[[[-84.05258495104951,39.88005017529175],[-84.03463848108481,40.03983527774277],[-83.51778014610146,40.009768188571876],[-83.51060155811558,40.009768188571876],[-83.58956602596025,39.76837241551415],[-83.6469947298473,39.77266771396713],[-83.83004872348724,39.797580444994445],[-83.82645942949429,39.82249317602175],[-83.94131683726837,39.828506593855934],[-83.94131683726837,39.843969668286675],[-84.05258495104951,39.85084214581145],[-84.05258495104951,39.88005017529175]]]}},{"type":"Feature","id":"39025","properties":{"name":"Clermont","county_fips":"39025","state_abbr":"OH"},"geometry":{"type":"Polygon","coordinates":[[[-84.26076400264002,39.27097685465854],[-84.00592412914129,39.2546547205372],[-83.99156695316952,39.2546547205372],[-84.05258495104951,38.77100411473114],[-84.2141031807318,38.805366502355014],[-84.23204965069651,38.827702054310535],[-84.23204965069651,38.87495033729336],[-84.23922823868239,38.900722128011274],[-84.28947835458354,38.95570194820947],[-84.31819270652706,39.02184954438544],[-84.30024623656236,39.174762169311684],[-84.27512117861178,39.20397019879198],[-84.32178200052,39.22372857167571],[-84.26076400264002,39.27097685465854]]]}},{"type":"Feature","id":"39027","properties":{"name":"Clinton","county_fips":"39027","state_abbr":"OH"},"geometry":{"type":"Polygon","coordinates":[[[-84.00592412914129,39.2546547205372],[-83.97720977719777,39.56907056729567],[-83.66853049380494,39.55017125410254],[-83.5752088499885,39.544157836268354],[-83.58956602596025,39.378359315983154],[-83.78338790157902,39.263245317443165],[-83.81210225352253,39.22286951198512],[-83.86594166341663,39.246923183321826],[-83.99156695316952,39.2546547205372],[-84.00592412914129,39.2546547205372]]]}},{"type":"Feature","id":"39029","properties":{"name":"Columbiana","county_fips":"39029","state_abbr":"OH"},"geometry":{"type":"Polygon","coordinates":[[[-81.08782811288113,40.90147214741147],[-80.8975955312553,40.90061308772087],[-80.8975955312553,40.929821117201165],[-80.82222035740357,40.929821117201165],[-80.82222035740357,40.90061308772087],[-80.52071966199662,40.90061308772087],[-80.52071966199662,40.85164668535685],[-80.52071966199662,40.63859988208881],[-80.58532695386954,40.6154052704427],[-80.63557706977069,40.6162643301333],[-80.66788071570716,40.582761002200016],[-80.74684518355183,40.58362006189061],[-80.74684518355183,40.59736501694016],[-80.86170259132591,40.599083136321354],[-80.86170259132591,40.6428951805418],[-80.91913129521295,40.6437542402324],[-80.91554200122,40.72708303022029],[-81.08782811288113,40.72794208991089],[-81.08782811288113,40.90147214741147]]]}},{"type":"Feature","id":"39031","properties":{"name":"Coshocton","county_fips":"39031","state_abbr":"OH"},"geometry":{"type":"Polygon","coordinates":[[[-82.18615207472074,40.45647922768227],[-81.70877597365974,40.444452392013915],[-81.71236526765267,40.37057325862258],[-81.6154543298433,40.367996079550785],[-81.62263291782918,40.221096872458716],[-81.6692937397374,40.22281499183991],[-81.6692937397374,40.15065397782977],[-81.71595456164562,40.152372097210964],[-82.18615207472074,40.166976111951115],[-82.1825627807278,40.23827806627066],[-82.19691995669956,40.23913712596125],[-82.18615207472074,40.45647922768227]]]}},{"type":"Feature","id":"39033","properties":{"name":"Crawford","county_fips":"39033","state_abbr":"OH"},"geometry":{"type":"Polygon","coordinates":[[[-83.11218992489924,40.99339153430534],[-82.85376075740757,40.99339153430534],[-82.828635699457,40.99682777306772],[-82.72454617366174,40.995968713377124],[-82.72813546765467,40.71161995578955],[-82.85735005140052,40.71247901548015],[-82.85735005140052,40.70474747826478],[-83.11218992489924,40.70302935888358],[-83.11218992489924,40.99339153430534]]]}},{"type":"Feature","id":"39035","properties":{"name":"Cuyahoga","county_fips":"39035","state_abbr":"OH"},"geometry":{"type":"Polygon","coordinates":[[[-81.96720514115141,41.50625016959169],[-81.8774727913279,41.48305555794557],[-81.80927620546206,41.495941453304525],[-81.73749032560325,41.488209916089154],[-81.633400799808,41.54061255721557],[-81.52931127401274,41.6144916906069],[-81.4898290400904,41.63167288441884],[-81.48623974609745,41.56982058669586],[-81.38932880828808,41.56982058669586],[-81.39291810228102,41.34818318652186],[-81.59750785987859,41.35076036559365],[-81.56520421394214,41.27774029189291],[-81.68365091570915,41.276881232202314],[-81.8774727913279,41.27516311282112],[-81.8774727913279,41.35076036559365],[-81.97079443514434,41.35161942528425],[-81.96720514115141,41.50625016959169]]]}},{"type":"Feature","id":"39037","properties":{"name":"Darke","county_fips":"39037","state_abbr":"OH"},"geometry":{"type":"Polygon","coordinates":[[[-84.81351527755277,39.916989741987415],[-84.80992598355984,40.005472890118895],[-84.80992598355984,40.129177485564846],[-84.80274739557396,40.310439080280794],[-84.80274739557396,40.352533005120044],[-84.43305011430114,40.35425112450124],[-84.43305011430114,40.19704320112201],[-84.42587152631526,39.91956692105921],[-84.48688952419523,39.91870786136861],[-84.81351527755277,39.916989741987415]]]}},{"type":"Feature","id":"39039","properties":{"name":"Defiance","county_fips":"39039","state_abbr":"OH"},"geometry":{"type":"Polygon","coordinates":[[[-84.80274739557396,41.426357618366175],[-84.34331776447765,41.42721667805677],[-84.22846035670356,41.42807573774737],[-84.22846035670356,41.16606253211531],[-84.34331776447765,41.165203472424714],[-84.34331776447765,41.20901551664516],[-84.45817517225171,41.20901551664516],[-84.45817517225171,41.2536866205562],[-84.80274739557396,41.252827560865605],[-84.80274739557396,41.27086781436814],[-84.80274739557396,41.426357618366175]]]}},{"type":"Feature","id":"39041","properties":{"name":"Delaware","county_fips":"39041","state_abbr":"OH"},"geometry":{"type":"Polygon","coordinates":[[[-83.24858309663097,40.44359333232332],[-83.02245757507575,40.43414367572675],[-83.02245757507575,40.418680601296],[-82.92554663726636,40.41524436253362],[-82.92913593125931,40.35854642295422],[-82.74608193761938,40.34995582604825],[-82.74967123161231,40.27693575234752],[-82.76043911359113,40.12574124680246],[-83.16961862878628,40.1429224406144],[-83.17320792277923,40.244291484104835],[-83.24858309663097,40.244291484104835],[-83.24858309663097,40.44359333232332]]]}},{"type":"Feature","id":"39043","properties":{"name":"Erie","county_fips":"39043","state_abbr":"OH"},"geometry":{"type":"MultiPolygon","coordinates":[[[[-82.73531405564056,41.60332391462914],[-82.67788535175352,41.61792792936929],[-82.6850639397394,41.5870017805078],[-82.73531405564056,41.60332391462914]]],[[[-82.95067169521695,41.45814282691826],[-82.81786781747817,41.484773677326764],[-82.73890334963349,41.47790119980199],[-82.69583182171822,41.49422333392333],[-82.61686735387353,41.42807573774737],[-82.5594386499865,41.399726767957674],[-82.48047418214182,41.38168651445514],[-82.34767030440304,41.42807573774737],[-82.34408101041011,41.283753709727094],[-82.84299287542875,41.28976712756127],[-82.8465821694217,41.43065291681916],[-82.95426098920989,41.429793857128566],[-82.95067169521695,41.45814282691826]]]]}},{"type":"Feature","id":"39045","properties":{"name":"Fairfield","county_fips":"39045","state_abbr":"OH"},"geometry":{"type":"Polygon","coordinates":[[[-82.82504640546405,39.79500326592265],[-82.8035106415064,39.82335223571235],[-82.78197487754878,39.939325293942936],[-82.47329559415594,39.924721279202785],[-82.46252771217712,39.93073469703696],[-82.47329559415594,39.8370971907619],[-82.3979204203042,39.832801892308915],[-82.40509900829008,39.744318744177434],[-82.36561677436774,39.74260062479624],[-82.37279536235361,39.654976536355356],[-82.49124206412064,39.66184901388013],[-82.49483135811357,39.60257389522894],[-82.61686735387353,39.608587313063126],[-82.62045664786648,39.56391620915208],[-82.73172476164761,39.56907056729567],[-82.73172476164761,39.55446655255552],[-82.84299287542875,39.5613390300803],[-82.82504640546405,39.79500326592265]]]}},{"type":"Feature","id":"39047","properties":{"name":"Fayette","county_fips":"39047","state_abbr":"OH"},"geometry":{"type":"Polygon","coordinates":[[[-83.65417331783317,39.716828834078335],[-83.2521723906239,39.69535234181341],[-83.26652956659566,39.516667926169255],[-83.37420838638386,39.37750025629256],[-83.58956602596025,39.378359315983154],[-83.5752088499885,39.544157836268354],[-83.66853049380494,39.55017125410254],[-83.65417331783317,39.716828834078335]]]}},{"type":"Feature","id":"39049","properties":{"name":"Franklin","county_fips":"39049","state_abbr":"OH"},"geometry":{"type":"Polygon","coordinates":[[[-83.20551156871568,40.10770099329993],[-83.16961862878628,40.10684193360933],[-83.16961862878628,40.1429224406144],[-82.76043911359113,40.12574124680246],[-82.78197487754878,39.939325293942936],[-82.8035106415064,39.82335223571235],[-82.82504640546405,39.79500326592265],[-83.24499380263802,39.81218445973459],[-83.2521723906239,39.916989741987415],[-83.22704733267332,39.932452816418156],[-83.24858309663097,39.97025144280442],[-83.25576168461684,40.04842587464874],[-83.21269015670157,40.04842587464874],[-83.20551156871568,40.10770099329993]]]}},{"type":"Feature","id":"39051","properties":{"name":"Fulton","county_fips":"39051","state_abbr":"OH"},"geometry":{"type":"Polygon","coordinates":[[[-84.40074646836469,41.70555201781017],[-84.36126423444234,41.70641107750077],[-83.88029883938839,41.72015603255032],[-83.88388813338133,41.48735085639856],[-84.34331776447765,41.48563273701736],[-84.34331776447765,41.51398170680706],[-84.37921070440704,41.51398170680706],[-84.38279999839997,41.61706886967869],[-84.39715717437174,41.61706886967869],[-84.40074646836469,41.70555201781017]]]}},{"type":"Feature","id":"39053","properties":{"name":"Gallia","county_fips":"39053","state_abbr":"OH"},"geometry":{"type":"Polygon","coordinates":[[[-82.57379582595826,38.84488324812247],[-82.57379582595826,38.85347384502845],[-82.45534912419124,38.84488324812247],[-82.4338133602336,39.03473543974439],[-82.32254524645246,39.027862962219615],[-82.32254524645246,39.01325894747947],[-82.09641972489725,39.00295023119231],[-82.10000901889019,38.958279127281266],[-82.14308054680546,38.89814494893948],[-82.14308054680546,38.84058794966949],[-82.2184557206572,38.79591684575845],[-82.1825627807278,38.70571557824577],[-82.17179489874898,38.61895054949549],[-82.2184557206572,38.59146063939639],[-82.28665230652307,38.58287004249042],[-82.3620274803748,38.58544722156221],[-82.35484889238892,38.67564848907488],[-82.47329559415594,38.68252096659966],[-82.46611700617005,38.74179608525085],[-82.48406347613476,38.77186317442174],[-82.58097441394413,38.77873565194651],[-82.57379582595826,38.84488324812247]]]}},{"type":"Feature","id":"39055","properties":{"name":"Geauga","county_fips":"39055","state_abbr":"OH"},"geometry":{"type":"Polygon","coordinates":[[[-81.38932880828808,41.56982058669586],[-81.29600716447165,41.56982058669586],[-81.29600716447165,41.641122541015406],[-81.10218528885288,41.641122541015406],[-81.10218528885288,41.71414261471614],[-81.00527435104351,41.715001674406736],[-81.00168505705057,41.50195487113871],[-81.00168505705057,41.34818318652186],[-81.39291810228102,41.34818318652186],[-81.38932880828808,41.56982058669586]]]}},{"type":"Feature","id":"39057","properties":{"name":"Greene","county_fips":"39057","state_abbr":"OH"},"geometry":{"type":"Polygon","coordinates":[[[-84.05258495104951,39.85084214581145],[-83.94131683726837,39.843969668286675],[-83.94131683726837,39.828506593855934],[-83.82645942949429,39.82249317602175],[-83.83004872348724,39.797580444994445],[-83.6469947298473,39.77266771396713],[-83.65417331783317,39.716828834078335],[-83.66853049380494,39.55017125410254],[-83.97720977719777,39.56907056729567],[-84.11360294892948,39.577661164201636],[-84.11360294892948,39.62662756656566],[-84.09206718497185,39.8379562504525],[-84.05258495104951,39.85084214581145]]]}},{"type":"Feature","id":"39059","properties":{"name":"Guernsey","county_fips":"39059","state_abbr":"OH"},"geometry":{"type":"Polygon","coordinates":[[[-81.71595456164562,40.152372097210964],[-81.6692937397374,40.15065397782977],[-81.6692937397374,40.22281499183991],[-81.62263291782918,40.221096872458716],[-81.33907869238692,40.21422439493394],[-81.33907869238692,40.17213047009469],[-81.22422128461284,40.1704123507135],[-81.23498916659166,39.95135212961129],[-81.38573951429514,39.95049306992069],[-81.38573951429514,39.921285040440395],[-81.46111468814688,39.92386221951219],[-81.46470398213982,39.89465419003189],[-81.57956138991389,39.89809042879428],[-81.57956138991389,39.8388153101431],[-81.69441879768797,39.84225154890548],[-81.69082950369503,39.93073469703696],[-81.73031173761737,39.93159375672756],[-81.71595456164562,40.152372097210964]]]}},{"type":"Feature","id":"39061","properties":{"name":"Hamilton","county_fips":"39061","state_abbr":"OH"},"geometry":{"type":"Polygon","coordinates":[[[-84.82069386553866,39.305339242282415],[-84.64122916589166,39.305339242282415],[-84.63046128391284,39.312211719807195],[-84.35408564645647,39.292453346923466],[-84.26076400264002,39.28815804847048],[-84.26076400264002,39.27097685465854],[-84.32178200052,39.22372857167571],[-84.27512117861178,39.20397019879198],[-84.30024623656236,39.174762169311684],[-84.31819270652706,39.02184954438544],[-84.4294608203082,39.055352872318714],[-84.44381799627996,39.1146279909699],[-84.47253234822348,39.12150046849468],[-84.50483599415993,39.09486961808617],[-84.55149681606815,39.09916491653916],[-84.62328269592696,39.074252185511845],[-84.67712210582106,39.09830585684856],[-84.73096151571515,39.14469508014079],[-84.75608657366574,39.14641319952199],[-84.82069386553866,39.105178334373335],[-84.82069386553866,39.305339242282415]]]}},{"type":"Feature","id":"39063","properties":{"name":"Hancock","county_fips":"39063","state_abbr":"OH"},"geometry":{"type":"Polygon","coordinates":[[[-83.88029883938839,41.16778065149651],[-83.42086920829207,41.16692159180591],[-83.42086920829207,40.99167341492414],[-83.45676214822149,40.99167341492414],[-83.45676214822149,40.948720430394296],[-83.47829791217912,40.948720430394296],[-83.47829791217912,40.90490838617386],[-83.51419085210851,40.90490838617386],[-83.51419085210851,40.818143357423565],[-83.88029883938839,40.81986147680476],[-83.88029883938839,40.9203714606046],[-83.88029883938839,41.16778065149651]]]}},{"type":"Feature","id":"39065","properties":{"name":"Hardin","county_fips":"39065","state_abbr":"OH"},"geometry":{"type":"Polygon","coordinates":[[[-83.88029883938839,40.81986147680476],[-83.51419085210851,40.818143357423565],[-83.49624438214381,40.818143357423565],[-83.49624438214381,40.70131123950239],[-83.43881567825677,40.702170299192986],[-83.42086920829207,40.68670722476224],[-83.41727991429914,40.505445630046296],[-83.5213694400944,40.5037275106651],[-83.5213694400944,40.50888186880868],[-83.88029883938839,40.5320764804548],[-83.88029883938839,40.53894895797957],[-83.88029883938839,40.644613299922995],[-83.88029883938839,40.81986147680476]]]}},{"type":"Feature","id":"39067","properties":{"name":"Harrison","county_fips":"39067","state_abbr":"OH"},"geometry":{"type":"Polygon","coordinates":[[[-81.33907869238692,40.21422439493394],[-81.33548939839397,40.30442566244662],[-81.274471400514,40.30356660275602],[-81.27088210652106,40.433284616036154],[-80.9406670591706,40.424694019130186],[-80.86529188531885,40.42297589974899],[-80.88323835528355,40.15924457473574],[-81.2206319906199,40.17298952978529],[-81.22422128461284,40.1704123507135],[-81.33907869238692,40.17213047009469],[-81.33907869238692,40.21422439493394]]]}},{"type":"Feature","id":"39069","properties":{"name":"Henry","county_fips":"39069","state_abbr":"OH"},"geometry":{"type":"Polygon","coordinates":[[[-84.34331776447765,41.48563273701736],[-83.88388813338133,41.48735085639856],[-83.88388813338133,41.41433078269782],[-83.88029883938839,41.16778065149651],[-84.22846035670356,41.16606253211531],[-84.22846035670356,41.42807573774737],[-84.34331776447765,41.42721667805677],[-84.34331776447765,41.48563273701736]]]}},{"type":"Feature","id":"39071","properties":{"name":"Highland","county_fips":"39071","state_abbr":"OH"},"geometry":{"type":"Polygon","coordinates":[[[-83.86594166341663,39.246923183321826],[-83.81210225352253,39.22286951198512],[-83.78338790157902,39.263245317443165],[-83.58956602596025,39.378359315983154],[-83.37420838638386,39.37750025629256],[-83.39215485634855,39.26754061589615],[-83.34549403444034,39.250359422084216],[-83.35267262242623,39.1979567809578],[-83.38497626836268,39.055352872318714],[-83.6111017899179,39.01927236531365],[-83.67211978779787,39.020131425004244],[-83.87312025140251,39.02099048469484],[-83.86594166341663,39.246923183321826]]]}},{"type":"Feature","id":"39073","properties":{"name":"Hocking","county_fips":"39073","state_abbr":"OH"},"geometry":{"type":"Polygon","coordinates":[[[-82.74249264362643,39.46856058349583],[-82.73172476164761,39.55446655255552],[-82.73172476164761,39.56907056729567],[-82.62045664786648,39.56391620915208],[-82.61686735387353,39.608587313063126],[-82.49483135811357,39.60257389522894],[-82.49124206412064,39.66184901388013],[-82.37279536235361,39.654976536355356],[-82.3799739503395,39.59656047739477],[-82.26152724857248,39.59054705956059],[-82.26511654256542,39.56219808977089],[-82.15743772277723,39.55618467193671],[-82.16820560475604,39.46598340442404],[-82.27947371853718,39.47285588194881],[-82.290241600516,39.38437273381733],[-82.51277782807828,39.39554050979509],[-82.51636712207122,39.369768719077186],[-82.63481382383823,39.37578213691136],[-82.63481382383823,39.36117812217122],[-82.74967123161231,39.36805059969599],[-82.74249264362643,39.46856058349583]]]}},{"type":"Feature","id":"39075","properties":{"name":"Holmes","county_fips":"39075","state_abbr":"OH"},"geometry":{"type":"Polygon","coordinates":[[[-82.12513407684077,40.667807911569106],[-81.6513472697727,40.667807911569106],[-81.64775797577975,40.63516364332643],[-81.6692937397374,40.632586464254636],[-81.6692937397374,40.44359333232332],[-81.70877597365974,40.444452392013915],[-82.18615207472074,40.45647922768227],[-82.17897348673486,40.57331134560345],[-82.2184557206572,40.568156987459865],[-82.22204501465015,40.667807911569106],[-82.12513407684077,40.667807911569106]]]}},{"type":"Feature","id":"39077","properties":{"name":"Huron","county_fips":"39077","state_abbr":"OH"},"geometry":{"type":"Polygon","coordinates":[[[-82.84299287542875,41.28976712756127],[-82.34408101041011,41.283753709727094],[-82.33690242242422,41.06555254831547],[-82.43740265422655,41.06555254831547],[-82.4338133602336,40.99253247461474],[-82.72454617366174,40.995968713377124],[-82.828635699457,40.99682777306772],[-82.83940358143582,41.25540473993739],[-82.84299287542875,41.28976712756127]]]}},{"type":"Feature","id":"39079","properties":{"name":"Jackson","county_fips":"39079","state_abbr":"OH"},"geometry":{"type":"Polygon","coordinates":[[[-82.78556417154171,39.16874875147751],[-82.76402840758408,39.208265497244966],[-82.64917099981,39.20225207941079],[-82.65276029380294,39.189366184051835],[-82.53790288602886,39.18077558714587],[-82.54149218002179,39.14469508014079],[-82.42304547825478,39.13782260261602],[-82.4338133602336,39.03473543974439],[-82.45534912419124,38.84488324812247],[-82.57379582595826,38.85347384502845],[-82.57379582595826,38.84488324812247],[-82.64917099981,38.84917854657546],[-82.76043911359113,38.855191964409634],[-82.75326052560526,38.94539323192231],[-82.80709993549935,38.9479704109941],[-82.78556417154171,39.16874875147751]]]}},{"type":"Feature","id":"39081","properties":{"name":"Jefferson","county_fips":"39081","state_abbr":"OH"},"geometry":{"type":"Polygon","coordinates":[[[-80.86170259132591,40.599083136321354],[-80.74684518355183,40.59736501694016],[-80.74684518355183,40.58362006189061],[-80.66788071570716,40.582761002200016],[-80.62839848178481,40.53551271921719],[-80.59609483584836,40.463351705207046],[-80.62839848178481,40.394626929959294],[-80.60686271782717,40.36971419893198],[-80.5996841298413,40.32074779656796],[-80.61763059980599,40.26490891667916],[-80.65352353973539,40.24515054379543],[-80.68223789167891,40.185875425144246],[-80.70377365563655,40.15752645535455],[-80.88323835528355,40.15924457473574],[-80.86529188531885,40.42297589974899],[-80.9406670591706,40.424694019130186],[-80.92630988319883,40.467647003660026],[-80.91913129521295,40.556130151791514],[-80.86529188531885,40.55527109210092],[-80.86170259132591,40.599083136321354]]]}},{"type":"Feature","id":"39083","properties":{"name":"Knox","county_fips":"39083","state_abbr":"OH"},"geometry":{"type":"Polygon","coordinates":[[[-82.74608193761938,40.34995582604825],[-82.64558170581705,40.344801467904674],[-82.64199241182412,40.55011673395733],[-82.62404594185942,40.55011673395733],[-82.37638465634656,40.55097579364793],[-82.33690242242422,40.55527109210092],[-82.2184557206572,40.568156987459865],[-82.17897348673486,40.57331134560345],[-82.18615207472074,40.45647922768227],[-82.19691995669956,40.23913712596125],[-82.47688488814887,40.24600960348603],[-82.47688488814887,40.26490891667916],[-82.74967123161231,40.27693575234752],[-82.74608193761938,40.34995582604825]]]}},{"type":"Feature","id":"39085","properties":{"name":"Lake","county_fips":"39085","state_abbr":"OH"},"geometry":{"type":"Polygon","coordinates":[[[-81.4898290400904,41.63167288441884],[-81.44316821818218,41.672907749567486],[-81.28523928249282,41.760531838008376],[-81.24934634256343,41.76139089769897],[-81.1129531708317,41.81722977758777],[-81.00168505705057,41.85502840397403],[-81.00527435104351,41.715001674406736],[-81.10218528885288,41.71414261471614],[-81.10218528885288,41.641122541015406],[-81.29600716447165,41.641122541015406],[-81.29600716447165,41.56982058669586],[-81.38932880828808,41.56982058669586],[-81.48623974609745,41.56982058669586],[-81.4898290400904,41.63167288441884]]]}},{"type":"Feature","id":"39087","properties":{"name":"Lawrence","county_fips":"39087","state_abbr":"OH"},"geometry":{"type":"Polygon","coordinates":[[[-82.81427852348523,38.57084320682206],[-82.73890334963349,38.59747405723056],[-82.76761770157701,38.6447223402134],[-82.76402840758408,38.67994378752787],[-82.70659970369704,38.677366608456076],[-82.69583182171822,38.750386682156815],[-82.66352817578175,38.74780950308502],[-82.64917099981,38.84917854657546],[-82.57379582595826,38.84488324812247],[-82.58097441394413,38.77873565194651],[-82.48406347613476,38.77186317442174],[-82.46611700617005,38.74179608525085],[-82.47329559415594,38.68252096659966],[-82.35484889238892,38.67564848907488],[-82.3620274803748,38.58544722156221],[-82.28665230652307,38.58287004249042],[-82.30459877648777,38.49095065559655],[-82.32254524645246,38.4488567307573],[-82.40509900829008,38.439407074160734],[-82.50918853408534,38.41105810437104],[-82.55226006200061,38.403326567155666],[-82.5953315899159,38.4222258803488],[-82.61686735387353,38.477205700546996],[-82.6671174697747,38.5055546703367],[-82.72454617366174,38.557957311463106],[-82.81427852348523,38.57084320682206]]]}},{"type":"Feature","id":"39089","properties":{"name":"Licking","county_fips":"39089","state_abbr":"OH"},"geometry":{"type":"Polygon","coordinates":[[[-82.76043911359113,40.12574124680246],[-82.74967123161231,40.27693575234752],[-82.47688488814887,40.26490891667916],[-82.47688488814887,40.24600960348603],[-82.19691995669956,40.23913712596125],[-82.1825627807278,40.23827806627066],[-82.18615207472074,40.166976111951115],[-82.2005092506925,39.95049306992069],[-82.23281289662896,39.95135212961129],[-82.23281289662896,39.913553503225025],[-82.41945618426183,39.92214410013099],[-82.46252771217712,39.93073469703696],[-82.47329559415594,39.924721279202785],[-82.78197487754878,39.939325293942936],[-82.76043911359113,40.12574124680246]]]}},{"type":"Feature","id":"39091","properties":{"name":"Logan","county_fips":"39091","state_abbr":"OH"},"geometry":{"type":"Polygon","coordinates":[[[-84.00233483514835,40.483110078090775],[-83.99515624716247,40.53551271921719],[-83.88029883938839,40.53894895797957],[-83.88029883938839,40.5320764804548],[-83.5213694400944,40.50888186880868],[-83.5213694400944,40.5037275106651],[-83.55008379203792,40.229687469364684],[-83.78697719557195,40.24515054379543],[-83.78338790157902,40.259754558535576],[-84.01310271712717,40.27349951358513],[-84.00233483514835,40.31301625935259],[-84.00233483514835,40.483110078090775]]]}},{"type":"Feature","id":"39093","properties":{"name":"Lorain","county_fips":"39093","state_abbr":"OH"},"geometry":{"type":"Polygon","coordinates":[[[-82.34767030440304,41.42807573774737],[-82.2543486605866,41.434089155581546],[-82.19333066270663,41.46415624475244],[-82.01027666906668,41.51569982618825],[-81.96720514115141,41.50625016959169],[-81.97079443514434,41.35161942528425],[-81.8774727913279,41.35076036559365],[-81.8774727913279,41.27516311282112],[-81.97079443514434,41.27516311282112],[-81.97438372913729,41.199565860048594],[-82.07129466694667,41.199565860048594],[-82.0748839609396,41.13685450263502],[-82.16820560475604,41.13685450263502],[-82.17179489874898,41.063834428934285],[-82.33690242242422,41.06555254831547],[-82.34408101041011,41.283753709727094],[-82.34767030440304,41.42807573774737]]]}},{"type":"Feature","id":"39095","properties":{"name":"Lucas","county_fips":"39095","state_abbr":"OH"},"geometry":{"type":"Polygon","coordinates":[[[-83.88388813338133,41.48735085639856],[-83.88029883938839,41.72015603255032],[-83.76185213762137,41.723592271312704],[-83.45317285422854,41.73304192790927],[-83.4495835602356,41.710706375953755],[-83.37420838638386,41.68665270461704],[-83.32754756447564,41.70125671935719],[-83.2342259206592,41.64541783946839],[-83.16602933479335,41.623082287512865],[-83.41727991429914,41.618786989059885],[-83.57161955599555,41.61706886967869],[-83.6111017899179,41.57067964638646],[-83.70442343373433,41.52858572154721],[-83.71160202172021,41.49250521454214],[-83.74749496164961,41.46587436413363],[-83.88388813338133,41.41433078269782],[-83.88388813338133,41.48735085639856]]]}},{"type":"Feature","id":"39097","properties":{"name":"Madison","county_fips":"39097","state_abbr":"OH"},"geometry":{"type":"Polygon","coordinates":[[[-83.6469947298473,39.77266771396713],[-83.58956602596025,39.76837241551415],[-83.51060155811558,40.009768188571876],[-83.51778014610146,40.009768188571876],[-83.5034229701297,40.11113723206231],[-83.20551156871568,40.10770099329993],[-83.21269015670157,40.04842587464874],[-83.25576168461684,40.04842587464874],[-83.24858309663097,39.97025144280442],[-83.22704733267332,39.932452816418156],[-83.2521723906239,39.916989741987415],[-83.24499380263802,39.81218445973459],[-83.2521723906239,39.69535234181341],[-83.65417331783317,39.716828834078335],[-83.6469947298473,39.77266771396713]]]}},{"type":"Feature","id":"39099","properties":{"name":"Mahoning","county_fips":"39099","state_abbr":"OH"},"geometry":{"type":"Polygon","coordinates":[[[-81.08782811288113,40.98823717616175],[-81.00168505705057,40.987378116471156],[-81.00168505705057,41.13427732356323],[-80.52071966199662,41.133418263872635],[-80.52071966199662,41.12482766696666],[-80.52071966199662,40.90061308772087],[-80.82222035740357,40.90061308772087],[-80.82222035740357,40.929821117201165],[-80.8975955312553,40.929821117201165],[-80.8975955312553,40.90061308772087],[-81.08782811288113,40.90147214741147],[-81.08782811288113,40.98823717616175]]]}},{"type":"Feature","id":"39101","properties":{"name":"Marion","county_fips":"39101","state_abbr":"OH"},"geometry":{"type":"Polygon","coordinates":[[[-83.42086920829207,40.68670722476224],[-83.30601180051801,40.68670722476224],[-83.30601180051801,40.702170299192986],[-83.11218992489924,40.70302935888358],[-82.85735005140052,40.70474747826478],[-82.86093934539345,40.64633141930419],[-82.95785028320283,40.63602270301703],[-82.95785028320283,40.490841615306145],[-83.01527898708987,40.48482819747197],[-83.02245757507575,40.43414367572675],[-83.24858309663097,40.44359333232332],[-83.24858309663097,40.50716374942749],[-83.41727991429914,40.505445630046296],[-83.42086920829207,40.68670722476224]]]}},{"type":"Feature","id":"39103","properties":{"name":"Medina","county_fips":"39103","state_abbr":"OH"},"geometry":{"type":"Polygon","coordinates":[[[-82.17179489874898,41.063834428934285],[-82.16820560475604,41.13685450263502],[-82.0748839609396,41.13685450263502],[-82.07129466694667,41.199565860048594],[-81.97438372913729,41.199565860048594],[-81.97079443514434,41.27516311282112],[-81.8774727913279,41.27516311282112],[-81.68365091570915,41.276881232202314],[-81.6872402097021,40.98823717616175],[-82.12872337083371,40.99167341492414],[-82.17179489874898,40.99167341492414],[-82.17179489874898,41.063834428934285]]]}},{"type":"Feature","id":"39105","properties":{"name":"Meigs","county_fips":"39105","state_abbr":"OH"},"geometry":{"type":"Polygon","coordinates":[[[-82.32254524645246,39.027862962219615],[-82.3081880704807,39.20568831817317],[-82.26870583655837,39.20397019879198],[-81.96002655316553,39.18850712436124],[-81.75543679556796,39.18077558714587],[-81.74825820758207,39.09572867777677],[-81.81286549945499,39.08198372272722],[-81.80209761747618,39.04504415603155],[-81.76620467754677,39.020131425004244],[-81.78056185351853,38.924775799347984],[-81.81286549945499,38.94625229161291],[-81.84516914539145,38.92907109780097],[-81.85593702737027,38.892990590795904],[-81.90977643726437,38.87838657605575],[-81.92772290722907,38.90158118770187],[-81.89900855528555,38.92563485903858],[-81.94208008320084,38.99350057459574],[-81.98156231712316,38.99435963428633],[-82.02822313903138,39.02872202191021],[-82.10000901889019,38.958279127281266],[-82.09641972489725,39.00295023119231],[-82.32254524645246,39.01325894747947],[-82.32254524645246,39.027862962219615]]]}},{"type":"Feature","id":"39107","properties":{"name":"Mercer","county_fips":"39107","state_abbr":"OH"},"geometry":{"type":"Polygon","coordinates":[[[-84.80274739557396,40.57245228591285],[-84.80274739557396,40.72794208991089],[-84.45458587825878,40.72794208991089],[-84.45458587825878,40.68498910538105],[-84.45458587825878,40.35854642295422],[-84.43305011430114,40.35425112450124],[-84.80274739557396,40.352533005120044],[-84.80274739557396,40.57245228591285]]]}},{"type":"Feature","id":"39109","properties":{"name":"Miami","county_fips":"39109","state_abbr":"OH"},"geometry":{"type":"Polygon","coordinates":[[[-84.43305011430114,40.19704320112201],[-84.21769247472474,40.19962038019379],[-84.02387059910599,40.18415730576305],[-84.03463848108481,40.03983527774277],[-84.05258495104951,39.88005017529175],[-84.15667447684477,39.88520453343533],[-84.15667447684477,39.92300315982159],[-84.42587152631526,39.91956692105921],[-84.43305011430114,40.19704320112201]]]}},{"type":"Feature","id":"39111","properties":{"name":"Monroe","county_fips":"39111","state_abbr":"OH"},"geometry":{"type":"Polygon","coordinates":[[[-81.2385784605846,39.86802333962339],[-80.82222035740357,39.84998308612086],[-80.82580965139651,39.79843950468504],[-80.86888117931178,39.75720463953639],[-80.83298823938239,39.721124132531315],[-80.86529188531885,39.69191610305102],[-80.8796490612906,39.620614148731484],[-80.94425635316352,39.60686919368193],[-81.03757799697996,39.539862537815374],[-81.03757799697996,39.57250680605805],[-81.24575704857048,39.57937928358283],[-81.28164998849988,39.60601013399133],[-81.28164998849988,39.70737917748177],[-81.31754292842928,39.70737917748177],[-81.31395363443634,39.86974145900459],[-81.2385784605846,39.86802333962339]]]}},{"type":"Feature","id":"39113","properties":{"name":"Montgomery","county_fips":"39113","state_abbr":"OH"},"geometry":{"type":"Polygon","coordinates":[[[-84.48688952419523,39.91870786136861],[-84.42587152631526,39.91956692105921],[-84.15667447684477,39.92300315982159],[-84.15667447684477,39.88520453343533],[-84.05258495104951,39.88005017529175],[-84.05258495104951,39.85084214581145],[-84.09206718497185,39.8379562504525],[-84.11360294892948,39.62662756656566],[-84.11360294892948,39.577661164201636],[-84.36485352843528,39.589687999869994],[-84.47971093620936,39.59140611925118],[-84.48688952419523,39.91870786136861]]]}},{"type":"Feature","id":"39115","properties":{"name":"Morgan","county_fips":"39115","state_abbr":"OH"},"geometry":{"type":"Polygon","coordinates":[[[-82.0748839609396,39.770949594585936],[-81.69800809168092,39.755486520155195],[-81.64057938779388,39.753768400774],[-81.64416868178681,39.66528525264252],[-81.58673997789978,39.663567133261324],[-81.58673997789978,39.5871108207982],[-81.71595456164562,39.58367458203581],[-81.7231331496315,39.531271940909406],[-81.7051866796668,39.531271940909406],[-81.70877597365974,39.48058741916419],[-81.82363338143381,39.494332374213734],[-81.84516914539145,39.450520329993296],[-82.0569374909749,39.45996998658986],[-82.04616960899608,39.551030313793134],[-82.02463384503845,39.724560371293705],[-82.07847325493255,39.727996610056096],[-82.0748839609396,39.770949594585936]]]}},{"type":"Feature","id":"39117","properties":{"name":"Morrow","county_fips":"39117","state_abbr":"OH"},"geometry":{"type":"Polygon","coordinates":[[[-83.02245757507575,40.43414367572675],[-83.01527898708987,40.48482819747197],[-82.95785028320283,40.490841615306145],[-82.95785028320283,40.63602270301703],[-82.86093934539345,40.64633141930419],[-82.85735005140052,40.70474747826478],[-82.85735005140052,40.71247901548015],[-82.72813546765467,40.71161995578955],[-82.62763523585235,40.70904277671776],[-82.62404594185942,40.55011673395733],[-82.64199241182412,40.55011673395733],[-82.64558170581705,40.344801467904674],[-82.74608193761938,40.34995582604825],[-82.92913593125931,40.35854642295422],[-82.92554663726636,40.41524436253362],[-83.02245757507575,40.418680601296],[-83.02245757507575,40.43414367572675]]]}},{"type":"Feature","id":"39119","properties":{"name":"Muskingum","county_fips":"39119","state_abbr":"OH"},"geometry":{"type":"Polygon","coordinates":[[[-82.18615207472074,40.166976111951115],[-81.71595456164562,40.152372097210964],[-81.73031173761737,39.93159375672756],[-81.69082950369503,39.93073469703696],[-81.69441879768797,39.84225154890548],[-81.69800809168092,39.755486520155195],[-82.0748839609396,39.770949594585936],[-82.07129466694667,39.816479758187576],[-82.17179489874898,39.82077505664056],[-82.16102701677016,39.909258204772044],[-82.23281289662896,39.913553503225025],[-82.23281289662896,39.95135212961129],[-82.2005092506925,39.95049306992069],[-82.18615207472074,40.166976111951115]]]}},{"type":"Feature","id":"39121","properties":{"name":"Noble","county_fips":"39121","state_abbr":"OH"},"geometry":{"type":"Polygon","coordinates":[[[-81.69441879768797,39.84225154890548],[-81.57956138991389,39.8388153101431],[-81.57956138991389,39.89809042879428],[-81.46470398213982,39.89465419003189],[-81.46111468814688,39.92386221951219],[-81.38573951429514,39.921285040440395],[-81.38573951429514,39.95049306992069],[-81.23498916659166,39.95135212961129],[-81.2385784605846,39.86802333962339],[-81.31395363443634,39.86974145900459],[-81.31754292842928,39.70737917748177],[-81.28164998849988,39.70737917748177],[-81.28164998849988,39.60601013399133],[-81.28523928249282,39.59226517894178],[-81.39650739627396,39.601714835538345],[-81.41445386623866,39.63092286501865],[-81.4718825701257,39.64638593944939],[-81.4718825701257,39.58367458203581],[-81.58673997789978,39.5871108207982],[-81.58673997789978,39.663567133261324],[-81.64416868178681,39.66528525264252],[-81.64057938779388,39.753768400774],[-81.69800809168092,39.755486520155195],[-81.69441879768797,39.84225154890548]]]}},{"type":"Feature","id":"39123","properties":{"name":"Ottawa","county_fips":"39123","state_abbr":"OH"},"geometry":{"type":"MultiPolygon","coordinates":[[[[-82.84299287542875,41.64713595884958],[-82.8214571114711,41.7244513310033],[-82.78197487754878,41.69438424183241],[-82.7927427595276,41.66431715266152],[-82.84299287542875,41.62823664565645],[-82.84299287542875,41.64713595884958]]],[[[-83.41727991429914,41.618786989059885],[-83.16602933479335,41.623082287512865],[-83.06552910299102,41.595592377413766],[-83.0009218111181,41.53889443783437],[-82.93272522525226,41.51398170680706],[-82.86811793337932,41.53374007969079],[-82.86093934539345,41.576693064220635],[-82.83581428744287,41.587860840198395],[-82.78556417154171,41.54061255721557],[-82.71736758567586,41.54233067659676],[-82.69583182171822,41.49422333392333],[-82.73890334963349,41.47790119980199],[-82.81786781747817,41.484773677326764],[-82.95067169521695,41.45814282691826],[-83.33831544645446,41.457283767227665],[-83.33831544645446,41.50109581144811],[-83.4136906203062,41.50023675175751],[-83.41727991429914,41.618786989059885]]]]}},{"type":"Feature","id":"39125","properties":{"name":"Paulding","county_fips":"39125","state_abbr":"OH"},"geometry":{"type":"Polygon","coordinates":[[[-84.80274739557396,41.252827560865605],[-84.45817517225171,41.2536866205562],[-84.45817517225171,41.20901551664516],[-84.34331776447765,41.20901551664516],[-84.34331776447765,41.165203472424714],[-84.34331776447765,40.990814355233546],[-84.40074646836469,40.98995529554295],[-84.80274739557396,40.98909623585235],[-84.80274739557396,41.252827560865605]]]}},{"type":"Feature","id":"39127","properties":{"name":"Perry","county_fips":"39127","state_abbr":"OH"},"geometry":{"type":"Polygon","coordinates":[[[-82.46252771217712,39.93073469703696],[-82.41945618426183,39.92214410013099],[-82.23281289662896,39.913553503225025],[-82.16102701677016,39.909258204772044],[-82.17179489874898,39.82077505664056],[-82.07129466694667,39.816479758187576],[-82.0748839609396,39.770949594585936],[-82.07847325493255,39.727996610056096],[-82.02463384503845,39.724560371293705],[-82.04616960899608,39.551030313793134],[-82.15743772277723,39.55618467193671],[-82.26511654256542,39.56219808977089],[-82.26152724857248,39.59054705956059],[-82.3799739503395,39.59656047739477],[-82.37279536235361,39.654976536355356],[-82.36561677436774,39.74260062479624],[-82.40509900829008,39.744318744177434],[-82.3979204203042,39.832801892308915],[-82.47329559415594,39.8370971907619],[-82.46252771217712,39.93073469703696]]]}},{"type":"Feature","id":"39129","properties":{"name":"Pickaway","county_fips":"39129","state_abbr":"OH"},"geometry":{"type":"Polygon","coordinates":[[[-83.2521723906239,39.69535234181341],[-83.24499380263802,39.81218445973459],[-82.82504640546405,39.79500326592265],[-82.84299287542875,39.5613390300803],[-82.73172476164761,39.55446655255552],[-82.74249264362643,39.46856058349583],[-82.99733251712517,39.47972835947359],[-82.99374322313223,39.50635920988209],[-83.26652956659566,39.516667926169255],[-83.2521723906239,39.69535234181341]]]}},{"type":"Feature","id":"39131","properties":{"name":"Pike","county_fips":"39131","state_abbr":"OH"},"geometry":{"type":"Polygon","coordinates":[[[-83.35267262242623,39.1979567809578],[-82.78556417154171,39.16874875147751],[-82.80709993549935,38.9479704109941],[-83.0009218111181,38.95656100790007],[-83.21269015670157,38.95999724666246],[-83.2162794506945,38.99178245521455],[-83.2701188605886,39.01583612655126],[-83.31319038850388,39.05191663355633],[-83.38497626836268,39.055352872318714],[-83.35267262242623,39.1979567809578]]]}},{"type":"Feature","id":"39133","properties":{"name":"Portage","county_fips":"39133","state_abbr":"OH"},"geometry":{"type":"Polygon","coordinates":[[[-81.39291810228102,41.34818318652186],[-81.00168505705057,41.34818318652186],[-81.00168505705057,41.13427732356323],[-81.00168505705057,40.987378116471156],[-81.08782811288113,40.98823717616175],[-81.39291810228102,40.98823717616175],[-81.39291810228102,41.34818318652186]]]}},{"type":"Feature","id":"39135","properties":{"name":"Preble","county_fips":"39135","state_abbr":"OH"},"geometry":{"type":"Polygon","coordinates":[[[-84.81351527755277,39.7262784906749],[-84.81351527755277,39.916989741987415],[-84.48688952419523,39.91870786136861],[-84.47971093620936,39.59140611925118],[-84.47971093620936,39.56907056729567],[-84.81351527755277,39.56735244791447],[-84.81351527755277,39.7262784906749]]]}},{"type":"Feature","id":"39137","properties":{"name":"Putnam","county_fips":"39137","state_abbr":"OH"},"geometry":{"type":"Polygon","coordinates":[[[-84.40074646836469,40.98995529554295],[-84.34331776447765,40.990814355233546],[-84.34331776447765,41.165203472424714],[-84.22846035670356,41.16606253211531],[-83.88029883938839,41.16778065149651],[-83.88029883938839,40.9203714606046],[-83.99515624716247,40.919512400914],[-83.99515624716247,40.90490838617386],[-84.11001365493655,40.90490838617386],[-84.11001365493655,40.86109634195341],[-84.3397284704847,40.85937822257222],[-84.3397284704847,40.90319026679266],[-84.39715717437174,40.90319026679266],[-84.40074646836469,40.98995529554295]]]}},{"type":"Feature","id":"39139","properties":{"name":"Richland","county_fips":"39139","state_abbr":"OH"},"geometry":{"type":"Polygon","coordinates":[[[-82.72454617366174,40.995968713377124],[-82.4338133602336,40.99253247461474],[-82.41945618426183,40.99253247461474],[-82.41945618426183,40.82329771556715],[-82.38715253832538,40.8078346411364],[-82.3799739503395,40.72708303022029],[-82.34049171641716,40.72708303022029],[-82.33690242242422,40.55527109210092],[-82.37638465634656,40.55097579364793],[-82.62404594185942,40.55011673395733],[-82.62763523585235,40.70904277671776],[-82.72813546765467,40.71161995578955],[-82.72454617366174,40.995968713377124]]]}},{"type":"Feature","id":"39141","properties":{"name":"Ross","county_fips":"39141","state_abbr":"OH"},"geometry":{"type":"Polygon","coordinates":[[[-83.37420838638386,39.37750025629256],[-83.26652956659566,39.516667926169255],[-82.99374322313223,39.50635920988209],[-82.99733251712517,39.47972835947359],[-82.74249264362643,39.46856058349583],[-82.74967123161231,39.36805059969599],[-82.76402840758408,39.208265497244966],[-82.78556417154171,39.16874875147751],[-83.35267262242623,39.1979567809578],[-83.34549403444034,39.250359422084216],[-83.39215485634855,39.26754061589615],[-83.37420838638386,39.37750025629256]]]}},{"type":"Feature","id":"39143","properties":{"name":"Sandusky","county_fips":"39143","state_abbr":"OH"},"geometry":{"type":"Polygon","coordinates":[[[-83.4136906203062,41.50023675175751],[-83.33831544645446,41.50109581144811],[-83.33831544645446,41.457283767227665],[-82.95067169521695,41.45814282691826],[-82.95426098920989,41.429793857128566],[-82.8465821694217,41.43065291681916],[-82.84299287542875,41.28976712756127],[-82.83940358143582,41.25540473993739],[-83.07629698496984,41.257122859318585],[-83.24858309663097,41.252827560865605],[-83.42086920829207,41.2536866205562],[-83.4136906203062,41.50023675175751]]]}},{"type":"Feature","id":"39145","properties":{"name":"Scioto","county_fips":"39145","state_abbr":"OH"},"geometry":{"type":"Polygon","coordinates":[[[-83.2701188605886,39.01583612655126],[-83.2162794506945,38.99178245521455],[-83.21269015670157,38.95999724666246],[-83.0009218111181,38.95656100790007],[-82.80709993549935,38.9479704109941],[-82.75326052560526,38.94539323192231],[-82.76043911359113,38.855191964409634],[-82.64917099981,38.84917854657546],[-82.66352817578175,38.74780950308502],[-82.69583182171822,38.750386682156815],[-82.70659970369704,38.677366608456076],[-82.76402840758408,38.67994378752787],[-82.76761770157701,38.6447223402134],[-82.73890334963349,38.59747405723056],[-82.81427852348523,38.57084320682206],[-82.8465821694217,38.59489687815878],[-82.87888581535815,38.69025250381503],[-82.86811793337932,38.728051130201294],[-82.89324299132991,38.75640009999099],[-82.96861816518165,38.72891018989189],[-83.02245757507575,38.72891018989189],[-83.04399333903339,38.70571557824577],[-83.11936851288513,38.666198832478315],[-83.13731498284983,38.62840020609205],[-83.26652956659566,38.61809148980489],[-83.2701188605886,39.01583612655126]]]}},{"type":"Feature","id":"39147","properties":{"name":"Seneca","county_fips":"39147","state_abbr":"OH"},"geometry":{"type":"Polygon","coordinates":[[[-83.42086920829207,41.16692159180591],[-83.42086920829207,41.2536866205562],[-83.24858309663097,41.252827560865605],[-83.07629698496984,41.257122859318585],[-82.83940358143582,41.25540473993739],[-82.828635699457,40.99682777306772],[-82.85376075740757,40.99339153430534],[-83.11218992489924,40.99339153430534],[-83.42086920829207,40.99167341492414],[-83.42086920829207,41.16692159180591]]]}},{"type":"Feature","id":"39149","properties":{"name":"Shelby","county_fips":"39149","state_abbr":"OH"},"geometry":{"type":"Polygon","coordinates":[[[-84.43305011430114,40.35425112450124],[-84.43305011430114,40.37830479583795],[-84.3397284704847,40.379163855528546],[-84.3397284704847,40.48139195870958],[-84.00233483514835,40.483110078090775],[-84.00233483514835,40.31301625935259],[-84.01310271712717,40.27349951358513],[-84.02387059910599,40.18415730576305],[-84.21769247472474,40.19962038019379],[-84.43305011430114,40.19704320112201],[-84.43305011430114,40.35425112450124]]]}},{"type":"Feature","id":"39151","properties":{"name":"Stark","county_fips":"39151","state_abbr":"OH"},"geometry":{"type":"Polygon","coordinates":[[[-81.6513472697727,40.667807911569106],[-81.64775797577975,40.914358042770424],[-81.42163245422454,40.906626505555046],[-81.4180431602316,40.98823717616175],[-81.39291810228102,40.98823717616175],[-81.08782811288113,40.98823717616175],[-81.08782811288113,40.90147214741147],[-81.08782811288113,40.72794208991089],[-81.2385784605846,40.72364679145791],[-81.24216775457754,40.65062671775717],[-81.31754292842928,40.65148577744777],[-81.46829327613275,40.655781075900755],[-81.64775797577975,40.63516364332643],[-81.6513472697727,40.667807911569106]]]}},{"type":"Feature","id":"39153","properties":{"name":"Summit","county_fips":"39153","state_abbr":"OH"},"geometry":{"type":"Polygon","coordinates":[[[-81.68365091570915,41.276881232202314],[-81.56520421394214,41.27774029189291],[-81.59750785987859,41.35076036559365],[-81.39291810228102,41.34818318652186],[-81.39291810228102,40.98823717616175],[-81.4180431602316,40.98823717616175],[-81.42163245422454,40.906626505555046],[-81.64775797577975,40.914358042770424],[-81.64775797577975,40.98823717616175],[-81.6872402097021,40.98823717616175],[-81.68365091570915,41.276881232202314]]]}},{"type":"Feature","id":"39155","properties":{"name":"Trumbull","county_fips":"39155","state_abbr":"OH"},"geometry":{"type":"Polygon","coordinates":[[[-81.00168505705057,41.34818318652186],[-81.00168505705057,41.50195487113871],[-80.52071966199662,41.50023675175751],[-80.52071966199662,41.48906897577975],[-80.51713036800368,41.20901551664516],[-80.52071966199662,41.133418263872635],[-81.00168505705057,41.13427732356323],[-81.00168505705057,41.34818318652186]]]}},{"type":"Feature","id":"39157","properties":{"name":"Tuscarawas","county_fips":"39157","state_abbr":"OH"},"geometry":{"type":"Polygon","coordinates":[[[-81.70877597365974,40.444452392013915],[-81.6692937397374,40.44359333232332],[-81.6692937397374,40.632586464254636],[-81.64775797577975,40.63516364332643],[-81.46829327613275,40.655781075900755],[-81.31754292842928,40.65148577744777],[-81.32113222242222,40.56643886807868],[-81.26370351853518,40.56472074869748],[-81.27088210652106,40.433284616036154],[-81.274471400514,40.30356660275602],[-81.33548939839397,40.30442566244662],[-81.33907869238692,40.21422439493394],[-81.62263291782918,40.221096872458716],[-81.6154543298433,40.367996079550785],[-81.71236526765267,40.37057325862258],[-81.70877597365974,40.444452392013915]]]}},{"type":"Feature","id":"39159","properties":{"name":"Union","county_fips":"39159","state_abbr":"OH"},"geometry":{"type":"Polygon","coordinates":[[[-83.5213694400944,40.5037275106651],[-83.41727991429914,40.505445630046296],[-83.24858309663097,40.50716374942749],[-83.24858309663097,40.44359333232332],[-83.24858309663097,40.244291484104835],[-83.17320792277923,40.244291484104835],[-83.16961862878628,40.1429224406144],[-83.16961862878628,40.10684193360933],[-83.20551156871568,40.10770099329993],[-83.5034229701297,40.11113723206231],[-83.49624438214381,40.225392170911704],[-83.55008379203792,40.229687469364684],[-83.5213694400944,40.5037275106651]]]}},{"type":"Feature","id":"39161","properties":{"name":"Van Wert","county_fips":"39161","state_abbr":"OH"},"geometry":{"type":"Polygon","coordinates":[[[-84.80274739557396,40.98909623585235],[-84.40074646836469,40.98995529554295],[-84.39715717437174,40.90319026679266],[-84.3397284704847,40.90319026679266],[-84.3397284704847,40.85937822257222],[-84.3397284704847,40.81642523804237],[-84.39715717437174,40.81556617835178],[-84.39715717437174,40.68498910538105],[-84.45458587825878,40.68498910538105],[-84.45458587825878,40.72794208991089],[-84.80274739557396,40.72794208991089],[-84.80274739557396,40.92294863967639],[-84.80274739557396,40.98909623585235]]]}},{"type":"Feature","id":"39163","properties":{"name":"Vinton","county_fips":"39163","state_abbr":"OH"},"geometry":{"type":"Polygon","coordinates":[[[-82.74967123161231,39.36805059969599],[-82.63481382383823,39.36117812217122],[-82.63481382383823,39.37578213691136],[-82.51636712207122,39.369768719077186],[-82.51277782807828,39.39554050979509],[-82.290241600516,39.38437273381733],[-82.29742018850189,39.29503052599525],[-82.26152724857248,39.293312406614056],[-82.26870583655837,39.20397019879198],[-82.3081880704807,39.20568831817317],[-82.32254524645246,39.027862962219615],[-82.4338133602336,39.03473543974439],[-82.42304547825478,39.13782260261602],[-82.54149218002179,39.14469508014079],[-82.53790288602886,39.18077558714587],[-82.65276029380294,39.189366184051835],[-82.64917099981,39.20225207941079],[-82.76402840758408,39.208265497244966],[-82.74967123161231,39.36805059969599]]]}},{"type":"Feature","id":"39165","properties":{"name":"Warren","county_fips":"39165","state_abbr":"OH"},"geometry":{"type":"Polygon","coordinates":[[[-84.36485352843528,39.589687999869994],[-84.11360294892948,39.577661164201636],[-83.97720977719777,39.56907056729567],[-84.00592412914129,39.2546547205372],[-84.26076400264002,39.27097685465854],[-84.26076400264002,39.28815804847048],[-84.35408564645647,39.292453346923466],[-84.3397284704847,39.412721703607026],[-84.33254988249882,39.54845313472134],[-84.36485352843528,39.544157836268354],[-84.36485352843528,39.589687999869994]]]}},{"type":"Feature","id":"39167","properties":{"name":"Washington","county_fips":"39167","state_abbr":"OH"},"geometry":{"type":"Polygon","coordinates":[[[-81.84516914539145,39.450520329993296],[-81.82363338143381,39.494332374213734],[-81.70877597365974,39.48058741916419],[-81.7051866796668,39.531271940909406],[-81.7231331496315,39.531271940909406],[-81.71595456164562,39.58367458203581],[-81.58673997789978,39.5871108207982],[-81.4718825701257,39.58367458203581],[-81.4718825701257,39.64638593944939],[-81.41445386623866,39.63092286501865],[-81.39650739627396,39.601714835538345],[-81.28523928249282,39.59226517894178],[-81.28164998849988,39.60601013399133],[-81.24575704857048,39.57937928358283],[-81.03757799697996,39.57250680605805],[-81.03757799697996,39.539862537815374],[-81.10218528885288,39.48745989668896],[-81.12013175881758,39.45739280751807],[-81.17038187471874,39.439352554015535],[-81.20986410864109,39.3929633307233],[-81.27088210652106,39.386090853198525],[-81.37138233832339,39.34227880897809],[-81.4359896301963,39.408426405154046],[-81.46829327613275,39.40413110670106],[-81.55802562595626,39.3388425702157],[-81.56879350793507,39.26754061589615],[-81.68006162171622,39.27355403373033],[-81.69082950369503,39.2263057507475],[-81.72672244362444,39.21599703446034],[-81.7231331496315,39.26925873527735],[-81.82004408744088,39.27269497403974],[-81.81645479344793,39.30190300352003],[-81.85234773337733,39.31822513764137],[-81.84516914539145,39.450520329993296]]]}},{"type":"Feature","id":"39169","properties":{"name":"Wayne","county_fips":"39169","state_abbr":"OH"},"geometry":{"type":"Polygon","coordinates":[[[-82.12872337083371,40.99167341492414],[-81.6872402097021,40.98823717616175],[-81.64775797577975,40.98823717616175],[-81.64775797577975,40.914358042770424],[-81.6513472697727,40.667807911569106],[-82.12513407684077,40.667807911569106],[-82.12872337083371,40.99167341492414]]]}},{"type":"Feature","id":"39171","properties":{"name":"Williams","county_fips":"39171","state_abbr":"OH"},"geometry":{"type":"Polygon","coordinates":[[[-84.80633668956689,41.696102361213605],[-84.40074646836469,41.70555201781017],[-84.39715717437174,41.61706886967869],[-84.38279999839997,41.61706886967869],[-84.37921070440704,41.51398170680706],[-84.34331776447765,41.51398170680706],[-84.34331776447765,41.48563273701736],[-84.34331776447765,41.42721667805677],[-84.80274739557396,41.426357618366175],[-84.80633668956689,41.530303840928404],[-84.80633668956689,41.696102361213605]]]}},{"type":"Feature","id":"39173","properties":{"name":"Wood","county_fips":"39173","state_abbr":"OH"},"geometry":{"type":"Polygon","coordinates":[[[-83.88388813338133,41.41433078269782],[-83.74749496164961,41.46587436413363],[-83.71160202172021,41.49250521454214],[-83.70442343373433,41.52858572154721],[-83.6111017899179,41.57067964638646],[-83.57161955599555,41.61706886967869],[-83.41727991429914,41.618786989059885],[-83.4136906203062,41.50023675175751],[-83.42086920829207,41.2536866205562],[-83.42086920829207,41.16692159180591],[-83.88029883938839,41.16778065149651],[-83.88388813338133,41.41433078269782]]]}},{"type":"Feature","id":"39175","properties":{"name":"Wyandot","county_fips":"39175","state_abbr":"OH"},"geometry":{"type":"Polygon","coordinates":[[[-83.42086920829207,40.99167341492414],[-83.11218992489924,40.99339153430534],[-83.11218992489924,40.70302935888358],[-83.30601180051801,40.702170299192986],[-83.30601180051801,40.68670722476224],[-83.42086920829207,40.68670722476224],[-83.43881567825677,40.702170299192986],[-83.49624438214381,40.70131123950239],[-83.49624438214381,40.818143357423565],[-83.51419085210851,40.818143357423565],[-83.51419085210851,40.90490838617386],[-83.47829791217912,40.90490838617386],[-83.47829791217912,40.948720430394296],[-83.45676214822149,40.948720430394296],[-83.45676214822149,40.99167341492414],[-83.42086920829207,40.99167341492414]]]}}]}