{"type":"FeatureCollection","features":[{"type":"Feature","id":"40001","properties":{"name":"Adair","county_fips":"40001","state_abbr":"OK"},"geometry":{"type":"Polygon","coordinates":[[[-94.79893116591165,36.16118077469774],[-94.56203776237761,36.16203983438834],[-94.5512698803988,36.101905656046554],[-94.49384117651176,35.759140839498386],[-94.47230541255412,35.638872482814826],[-94.80610975389753,35.638872482814826],[-94.80610975389753,35.90088568844688],[-94.79893116591165,35.90088568844688],[-94.79893116591165,36.16118077469774]]]}},{"type":"Feature","id":"40003","properties":{"name":"Alfalfa","county_fips":"40003","state_abbr":"OK"},"geometry":{"type":"Polygon","coordinates":[[[-98.54615409454094,36.998763973029725],[-98.34874292492924,36.99790491333913],[-98.11184952139521,36.99790491333913],[-98.10826022740227,36.595005918449175],[-98.10467093340932,36.59328779906799],[-98.10467093340932,36.46271072609726],[-98.53538621256212,36.463569785787854],[-98.53179691856919,36.594146858758585],[-98.53897550655506,36.94206603345033],[-98.54615409454094,36.998763973029725]]]}},{"type":"Feature","id":"40005","properties":{"name":"Atoka","county_fips":"40005","state_abbr":"OK"},"geometry":{"type":"Polygon","coordinates":[[[-96.40693487474874,34.41814866247662],[-96.14491641326413,34.419007722167215],[-96.14491641326413,34.5057727509175],[-96.09107700337003,34.5057727509175],[-96.09107700337003,34.68016186810868],[-95.88289795177951,34.68016186810868],[-95.88289795177951,34.59339683935839],[-95.67112960619606,34.59425589904898],[-95.67112960619606,34.5066318106081],[-95.77880842598425,34.5066318106081],[-95.77880842598425,34.15699451653516],[-95.99057677156772,34.15699451653516],[-96.40693487474874,34.15699451653516],[-96.40693487474874,34.41814866247662]]]}},{"type":"Feature","id":"40007","properties":{"name":"Beaver","county_fips":"40007","state_abbr":"OK"},"geometry":{"type":"Polygon","coordinates":[[[-100.94380248182482,36.99790491333913],[-100.63153390443904,36.99962303272032],[-100.08955051150511,37.002200211792115],[-100.00340745567455,37.00134115210152],[-100.00340745567455,36.59328779906799],[-100.00340745567455,36.49965029279292],[-100.54539084860848,36.49965029279292],[-100.95457036380363,36.49965029279292],[-100.95457036380363,36.848428527175265],[-100.94380248182482,36.848428527175265],[-100.94380248182482,36.99790491333913]]]}},{"type":"Feature","id":"40009","properties":{"name":"Beckham","county_fips":"40009","state_abbr":"OK"},"geometry":{"type":"Polygon","coordinates":[[[-99.99981816168162,35.4223894407844],[-99.5762814705147,35.4215303810938],[-99.5762814705147,35.50915446953469],[-99.36451312493125,35.50915446953469],[-99.36451312493125,35.46534242531425],[-99.3609238309383,35.1165641909319],[-99.40758465284652,35.11484607155071],[-99.43988829878299,35.10883265371653],[-99.78446052210522,35.1165641909319],[-99.78446052210522,35.02979916218162],[-99.88855004790048,35.030658221872216],[-99.99981816168162,35.030658221872216],[-99.99981816168162,35.18271178710786],[-99.99981816168162,35.4223894407844]]]}},{"type":"Feature","id":"40011","properties":{"name":"Blaine","county_fips":"40011","state_abbr":"OK"},"geometry":{"type":"Polygon","coordinates":[[[-98.63588644436444,36.16461701346013],[-98.20876045920458,36.16461701346013],[-98.20517116521165,35.84075151010509],[-98.20876045920458,35.72477845187451],[-98.31284998499984,35.72477845187451],[-98.31284998499984,35.551248394373935],[-98.62152926839268,35.551248394373935],[-98.6322971503715,35.551248394373935],[-98.6322971503715,35.8124025403154],[-98.63588644436444,35.89916756906568],[-98.63588644436444,36.16461701346013]]]}},{"type":"Feature","id":"40013","properties":{"name":"Bryan","county_fips":"40013","state_abbr":"OK"},"geometry":{"type":"Polygon","coordinates":[[[-96.58998886838867,33.894981310903106],[-96.59716745637456,33.94394771326713],[-96.57563169241692,33.964565145841455],[-96.62588180831808,34.00923624975249],[-96.5828102804028,34.0066590706807],[-96.5469173404734,34.064216069950696],[-96.58639957439574,34.11404153200532],[-96.45359569665696,34.11404153200532],[-96.45359569665696,34.15699451653516],[-96.40693487474874,34.15699451653516],[-95.99057677156772,34.15699451653516],[-95.93673736167361,34.12520930798308],[-95.93673736167361,33.941370534195336],[-95.87930865778657,33.91559874347743],[-95.83982642386424,33.87436387832878],[-95.76086195601955,33.872645758947584],[-95.77162983799838,33.84343772946729],[-95.8003441899419,33.861477982969824],[-95.84700501185011,33.8408605503955],[-95.93673736167361,33.88724977368773],[-95.94032665566655,33.861477982969824],[-96.04800547545474,33.83656525194252],[-96.10184488534885,33.84773302792027],[-96.09825559135591,33.830551834108334],[-96.14850570725707,33.83742431163311],[-96.1772200592006,33.76010893947939],[-96.22747017510174,33.74808210381103],[-96.2956667609676,33.764404237932375],[-96.32079181891818,33.694820402994026],[-96.36386334683347,33.69224322392223],[-96.37822052280522,33.725746551855515],[-96.42847063870639,33.77900825267252],[-96.50384581255813,33.77385389452894],[-96.53256016450165,33.822820296892964],[-96.57204239842397,33.819384058130574],[-96.62947110231102,33.845155848848485],[-96.58998886838867,33.894981310903106]]]}},{"type":"Feature","id":"40015","properties":{"name":"Caddo","county_fips":"40015","state_abbr":"OK"},"geometry":{"type":"Polygon","coordinates":[[[-98.62511856238562,35.46448336562365],[-98.62152926839268,35.551248394373935],[-98.31284998499984,35.551248394373935],[-98.30567139701397,35.516026947059466],[-98.30567139701397,35.37685927718277],[-98.09749234542345,35.377718336873365],[-98.09031375743757,35.20332921968219],[-98.09390305143052,35.08821522114221],[-98.09390305143052,34.854550985299845],[-98.62152926839268,34.854550985299845],[-98.62152926839268,35.09766487773877],[-98.62511856238562,35.20418827937279],[-98.62511856238562,35.46448336562365]]]}},{"type":"Feature","id":"40017","properties":{"name":"Canadian","county_fips":"40017","state_abbr":"OK"},"geometry":{"type":"Polygon","coordinates":[[[-98.20876045920458,35.72477845187451],[-97.67395565425653,35.72563751156511],[-97.6703663602636,35.37685927718277],[-97.6703663602636,35.33734253141531],[-97.6703663602636,35.335624412034115],[-97.73856294612946,35.323597576365756],[-97.77086659206591,35.34593312832128],[-97.79240235602356,35.33304723296232],[-97.9216169397694,35.35366466553665],[-97.94674199771997,35.37514115780157],[-97.95392058570586,35.34593312832128],[-98.01852787757878,35.377718336873365],[-98.09749234542345,35.377718336873365],[-98.30567139701397,35.37685927718277],[-98.30567139701397,35.516026947059466],[-98.31284998499984,35.551248394373935],[-98.31284998499984,35.72477845187451],[-98.20876045920458,35.72477845187451]]]}},{"type":"Feature","id":"40019","properties":{"name":"Carter","county_fips":"40019","state_abbr":"OK"},"geometry":{"type":"Polygon","coordinates":[[[-97.5626875404754,34.28928970888708],[-97.5626875404754,34.5066318106081],[-97.35091919489194,34.5066318106081],[-97.35091919489194,34.37605473763737],[-97.04941849948499,34.37519567794677],[-97.02788273552736,34.33224269341693],[-96.93456109171092,34.33224269341693],[-96.93456109171092,34.172457590965905],[-96.96686473764737,34.172457590965905],[-96.97045403164032,34.07108854747547],[-97.55909824648246,34.07108854747547],[-97.5626875404754,34.28928970888708]]]}},{"type":"Feature","id":"40021","properties":{"name":"Cherokee","county_fips":"40021","state_abbr":"OK"},"geometry":{"type":"Polygon","coordinates":[[[-95.2081106811068,36.074415745947455],[-95.11837833128331,36.074415745947455],[-95.11837833128331,36.16203983438834],[-95.0106995114951,36.16203983438834],[-94.79893116591165,36.16118077469774],[-94.79893116591165,35.90088568844688],[-94.80610975389753,35.90088568844688],[-94.80610975389753,35.638872482814826],[-95.12914621326213,35.638872482814826],[-95.12555691926919,35.8124025403154],[-95.26553938499384,35.813261600005994],[-95.2260571510715,35.86222800237002],[-95.27989656096561,35.90432192720927],[-95.27989656096561,35.96445610555105],[-95.2260571510715,36.009127209462086],[-95.2081106811068,36.074415745947455]]]}},{"type":"Feature","id":"40023","properties":{"name":"Choctaw","county_fips":"40023","state_abbr":"OK"},"geometry":{"type":"Polygon","coordinates":[[[-95.99057677156772,34.15699451653516],[-95.77880842598425,34.15699451653516],[-95.15786056520565,34.15699451653516],[-95.1542712712127,33.93707523574235],[-95.22964644506445,33.961128907079065],[-95.25477150301502,33.902712848118476],[-95.30861091290913,33.880377296162955],[-95.34091455884558,33.869209520185194],[-95.46295055460554,33.872645758947584],[-95.46295055460554,33.88553165430654],[-95.53832572845728,33.87951823647236],[-95.56345078640786,33.93192087759877],[-95.59934372633725,33.93449805667056],[-95.68548678216781,33.88982695275952],[-95.75727266202662,33.89240413183131],[-95.76086195601955,33.872645758947584],[-95.83982642386424,33.87436387832878],[-95.87930865778657,33.91559874347743],[-95.93673736167361,33.941370534195336],[-95.93673736167361,34.12520930798308],[-95.99057677156772,34.15699451653516]]]}},{"type":"Feature","id":"40025","properties":{"name":"Cimarron","county_fips":"40025","state_abbr":"OK"},"geometry":{"type":"Polygon","coordinates":[[[-103.0004679397794,37.00048209241092],[-102.77793171221711,36.99962303272032],[-102.69896724437244,36.995327734267335],[-102.04212644366443,36.99275055519555],[-102.02776926769268,36.99275055519555],[-102.03135856168561,36.84928758686586],[-102.03135856168561,36.50050935248352],[-102.16416243942439,36.50050935248352],[-103.00405723377233,36.50050935248352],[-103.0004679397794,36.60273745566455],[-103.0004679397794,37.00048209241092]]]}},{"type":"Feature","id":"40027","properties":{"name":"Cleveland","county_fips":"40027","state_abbr":"OK"},"geometry":{"type":"Polygon","coordinates":[[[-97.6703663602636,35.37685927718277],[-97.14274014330142,35.37685927718277],[-97.14274014330142,34.92843011869118],[-97.26118684506845,34.94561131250312],[-97.2755440210402,34.962792506315054],[-97.34015131291312,34.96365156600565],[-97.35809778287782,35.0340944606346],[-97.35450848888489,35.077047445164446],[-97.40116931079311,35.08649710176101],[-97.40834789877898,35.13804068319683],[-97.5626875404754,35.23425536854368],[-97.55909824648246,35.29095330812307],[-97.6165269503695,35.30555732286322],[-97.6703663602636,35.33734253141531],[-97.6703663602636,35.37685927718277]]]}},{"type":"Feature","id":"40029","properties":{"name":"Coal","county_fips":"40029","state_abbr":"OK"},"geometry":{"type":"Polygon","coordinates":[[[-96.51461369453695,34.5057727509175],[-96.511024400544,34.68016186810868],[-96.40693487474874,34.68016186810868],[-96.40693487474874,34.76778595654956],[-96.09107700337003,34.76778595654956],[-96.09107700337003,34.68016186810868],[-96.09107700337003,34.5057727509175],[-96.14491641326413,34.5057727509175],[-96.14491641326413,34.419007722167215],[-96.40693487474874,34.41814866247662],[-96.51461369453695,34.41986678185781],[-96.51461369453695,34.5057727509175]]]}},{"type":"Feature","id":"40031","properties":{"name":"Comanche","county_fips":"40031","state_abbr":"OK"},"geometry":{"type":"Polygon","coordinates":[[[-98.62152926839268,34.854550985299845],[-98.09390305143052,34.854550985299845],[-98.09031375743757,34.681020927799274],[-98.14056387333873,34.681020927799274],[-98.14056387333873,34.5066318106081],[-98.24465339913398,34.507490870298696],[-98.24465339913398,34.46367882607826],[-98.29490351503514,34.44907481133811],[-98.5066718606186,34.44907481133811],[-98.5066718606186,34.42072584154841],[-98.61076138641386,34.42072584154841],[-98.66101150231502,34.40612182680826],[-98.66101150231502,34.507490870298696],[-98.82611902599025,34.507490870298696],[-98.82611902599025,34.59425589904898],[-98.82611902599025,34.85541004499044],[-98.62152926839268,34.854550985299845]]]}},{"type":"Feature","id":"40033","properties":{"name":"Cotton","county_fips":"40033","state_abbr":"OK"},"geometry":{"type":"Polygon","coordinates":[[[-98.66101150231502,34.40612182680826],[-98.61076138641386,34.42072584154841],[-98.5066718606186,34.42072584154841],[-98.5066718606186,34.44907481133811],[-98.29490351503514,34.44907481133811],[-98.24465339913398,34.46367882607826],[-98.24465339913398,34.507490870298696],[-98.14056387333873,34.5066318106081],[-98.14056387333873,34.29014876857768],[-98.14056387333873,34.141531442104416],[-98.16927822528224,34.11404153200532],[-98.24106410514105,34.13294084519845],[-98.29490351503514,34.13294084519845],[-98.36310010090101,34.15699451653516],[-98.42411809878098,34.083974442834425],[-98.48513609666097,34.0624979505695],[-98.57127915249151,34.144967680866806],[-98.61076138641386,34.15699451653516],[-98.61076138641386,34.333960812798125],[-98.66101150231502,34.33310175310753],[-98.66101150231502,34.40612182680826]]]}},{"type":"Feature","id":"40035","properties":{"name":"Craig","county_fips":"40035","state_abbr":"OK"},"geometry":{"type":"Polygon","coordinates":[[[-95.40911114471145,36.99962303272032],[-95.07171750937509,36.99962303272032],[-95.00711021750217,36.99962303272032],[-95.0358245694457,36.99446867457674],[-94.9999316295163,36.94292509314093],[-94.9999316295163,36.67060317122171],[-95.00711021750217,36.509959009080085],[-95.32655738287383,36.509959009080085],[-95.33014667686676,36.59758309752097],[-95.43064690866908,36.59758309752097],[-95.43064690866908,36.94292509314093],[-95.40911114471145,36.94292509314093],[-95.40911114471145,36.99962303272032]]]}},{"type":"Feature","id":"40037","properties":{"name":"Creek","county_fips":"40037","state_abbr":"OK"},"geometry":{"type":"Polygon","coordinates":[[[-96.62229251432514,36.16032171500714],[-96.6187032203322,36.16375795376953],[-96.29925605496055,36.16203983438834],[-96.29925605496055,36.07613386532865],[-96.03005900549005,36.07527480563805],[-96.03364829948299,35.85707364422644],[-96.19157723517235,35.85707364422644],[-96.19157723517235,35.638872482814826],[-96.62229251432514,35.638872482814826],[-96.62229251432514,35.94126149390493],[-96.62229251432514,36.16032171500714]]]}},{"type":"Feature","id":"40039","properties":{"name":"Custer","county_fips":"40039","state_abbr":"OK"},"geometry":{"type":"Polygon","coordinates":[[[-99.37528100691006,35.8124025403154],[-98.6322971503715,35.8124025403154],[-98.6322971503715,35.551248394373935],[-98.62152926839268,35.551248394373935],[-98.62511856238562,35.46448336562365],[-99.36451312493125,35.46534242531425],[-99.36451312493125,35.50915446953469],[-99.37528100691006,35.55210745406453],[-99.37528100691006,35.8124025403154]]]}},{"type":"Feature","id":"40041","properties":{"name":"Delaware","county_fips":"40041","state_abbr":"OK"},"geometry":{"type":"Polygon","coordinates":[[[-95.00711021750217,36.509959009080085],[-94.9999316295163,36.67060317122171],[-94.61946646626465,36.668025992149914],[-94.61946646626465,36.49965029279292],[-94.56203776237761,36.16203983438834],[-94.79893116591165,36.16118077469774],[-95.0106995114951,36.16203983438834],[-95.00711021750217,36.24966392282922],[-95.00711021750217,36.509959009080085]]]}},{"type":"Feature","id":"40043","properties":{"name":"Dewey","county_fips":"40043","state_abbr":"OK"},"geometry":{"type":"Polygon","coordinates":[[[-99.38245959489595,36.16461701346013],[-98.95533360973609,36.16118077469774],[-98.63588644436444,36.16461701346013],[-98.63588644436444,35.89916756906568],[-98.6322971503715,35.8124025403154],[-99.37528100691006,35.8124025403154],[-99.38245959489595,35.89916756906568],[-99.38245959489595,36.012563448224476],[-99.38245959489595,36.16461701346013]]]}},{"type":"Feature","id":"40045","properties":{"name":"Ellis","county_fips":"40045","state_abbr":"OK"},"geometry":{"type":"Polygon","coordinates":[[[-100.00340745567455,36.59328779906799],[-99.60499582245822,36.59242873937739],[-99.60499582245822,36.24622768406684],[-99.5942279404794,36.24708674375743],[-99.59781723447234,36.16375795376953],[-99.38245959489595,36.16461701346013],[-99.38245959489595,36.012563448224476],[-99.45424547475474,36.004831911009106],[-99.49731700267002,35.979060120291194],[-99.51526347263471,35.92579841947419],[-99.55115641256413,35.90002662875628],[-99.55833500055,35.86566424113241],[-99.61935299842997,35.84246962948629],[-99.71626393623936,35.859650823298225],[-99.77728193411933,35.88799979308792],[-99.8095855800558,35.929234658236574],[-99.8095855800558,35.99967755286552],[-99.85624640196401,36.00397285131851],[-99.91367510585106,35.955006448954485],[-99.92444298782988,35.91377158380583],[-99.99981816168162,35.88112731556315],[-99.99981816168162,36.055516432754324],[-99.99981816168162,36.49965029279292],[-100.00340745567455,36.49965029279292],[-100.00340745567455,36.59328779906799]]]}},{"type":"Feature","id":"40047","properties":{"name":"Garfield","county_fips":"40047","state_abbr":"OK"},"geometry":{"type":"Polygon","coordinates":[[[-98.10467093340932,36.59328779906799],[-97.46218730867308,36.59328779906799],[-97.46218730867308,36.16461701346013],[-97.67395565425653,36.16461701346013],[-98.10467093340932,36.16461701346013],[-98.10467093340932,36.46271072609726],[-98.10467093340932,36.59328779906799]]]}},{"type":"Feature","id":"40049","properties":{"name":"Garvin","county_fips":"40049","state_abbr":"OK"},"geometry":{"type":"Polygon","coordinates":[[[-97.66677706627065,34.85541004499044],[-96.93097179771797,34.854550985299845],[-96.93097179771797,34.63720888357883],[-97.14274014330142,34.63720888357883],[-97.14274014330142,34.622604868838685],[-97.20016884718846,34.622604868838685],[-97.15709731927319,34.55130291451914],[-97.14274014330142,34.5066318106081],[-97.35091919489194,34.5066318106081],[-97.5626875404754,34.5066318106081],[-97.5626875404754,34.677584689036884],[-97.66677706627065,34.681020927799274],[-97.66677706627065,34.85541004499044]]]}},{"type":"Feature","id":"40051","properties":{"name":"Grady","county_fips":"40051","state_abbr":"OK"},"geometry":{"type":"Polygon","coordinates":[[[-98.09749234542345,35.377718336873365],[-98.01852787757878,35.377718336873365],[-97.95392058570586,35.34593312832128],[-97.94674199771997,35.37514115780157],[-97.9216169397694,35.35366466553665],[-97.79240235602356,35.33304723296232],[-97.77086659206591,35.34593312832128],[-97.73856294612946,35.323597576365756],[-97.6703663602636,35.335624412034115],[-97.6703663602636,34.857987224062235],[-97.66677706627065,34.85541004499044],[-97.66677706627065,34.681020927799274],[-98.09031375743757,34.681020927799274],[-98.09390305143052,34.854550985299845],[-98.09390305143052,35.08821522114221],[-98.09031375743757,35.20332921968219],[-98.09749234542345,35.377718336873365]]]}},{"type":"Feature","id":"40053","properties":{"name":"Grant","county_fips":"40053","state_abbr":"OK"},"geometry":{"type":"Polygon","coordinates":[[[-98.11184952139521,36.99790491333913],[-97.80317023800238,36.998763973029725],[-97.46218730867308,36.998763973029725],[-97.46218730867308,36.59328779906799],[-98.10467093340932,36.59328779906799],[-98.10826022740227,36.595005918449175],[-98.11184952139521,36.99790491333913]]]}},{"type":"Feature","id":"40055","properties":{"name":"Greer","county_fips":"40055","state_abbr":"OK"},"geometry":{"type":"Polygon","coordinates":[[[-99.88855004790048,35.030658221872216],[-99.78446052210522,35.02979916218162],[-99.78446052210522,35.1165641909319],[-99.43988829878299,35.10883265371653],[-99.40758465284652,35.11484607155071],[-99.36810241892418,35.08821522114221],[-99.36451312493125,35.05986625135251],[-99.32862018500184,35.04182599784997],[-99.33220947899478,34.94475225281252],[-99.29990583305833,34.924134820238194],[-99.30708442104421,34.857987224062235],[-99.24606642316422,34.82190671705717],[-99.24965571715717,34.8124570604606],[-99.40758465284652,34.81331612015119],[-99.40399535885358,34.76864501624016],[-99.43629900479004,34.769504075930755],[-99.42194182881828,34.72569203171031],[-99.6660138203382,34.72483297201971],[-99.6660138203382,34.754041001500006],[-99.7198532302323,34.76864501624016],[-99.7198532302323,34.85712816437164],[-99.73062111221111,34.94389319312192],[-99.88855004790048,34.94389319312192],[-99.88855004790048,35.030658221872216]]]}},{"type":"Feature","id":"40057","properties":{"name":"Harmon","county_fips":"40057","state_abbr":"OK"},"geometry":{"type":"Polygon","coordinates":[[[-99.99981816168162,35.030658221872216],[-99.88855004790048,35.030658221872216],[-99.88855004790048,34.94389319312192],[-99.73062111221111,34.94389319312192],[-99.7198532302323,34.85712816437164],[-99.7198532302323,34.76864501624016],[-99.6660138203382,34.754041001500006],[-99.6660138203382,34.72483297201971],[-99.6660138203382,34.507490870298696],[-99.84547851998519,34.5066318106081],[-99.92803228182281,34.577074705237045],[-99.99622886768867,34.56075257111571],[-99.99981816168162,34.746309464284636],[-99.99981816168162,35.030658221872216]]]}},{"type":"Feature","id":"40059","properties":{"name":"Harper","county_fips":"40059","state_abbr":"OK"},"geometry":{"type":"Polygon","coordinates":[[[-100.00340745567455,37.00134115210152],[-99.5403885305853,36.99962303272032],[-99.45783476874769,36.99962303272032],[-99.37528100691006,36.879354676036755],[-99.31426300903009,36.856160064390636],[-99.29631653906539,36.81922049769497],[-99.29631653906539,36.595005918449175],[-99.60499582245822,36.59242873937739],[-100.00340745567455,36.59328779906799],[-100.00340745567455,37.00134115210152]]]}},{"type":"Feature","id":"40061","properties":{"name":"Haskell","county_fips":"40061","state_abbr":"OK"},"geometry":{"type":"Polygon","coordinates":[[[-95.45218267262672,35.29610766626666],[-95.39116467474675,35.327892874818744],[-95.34450385283853,35.29267142750427],[-95.31220020690206,35.30298014379143],[-95.24041432704327,35.262604338333375],[-95.17580703517035,35.301262024410235],[-95.17580703517035,35.350228426774265],[-95.12196762527626,35.37256397872978],[-95.05018174541745,35.458469947789474],[-95.02505668746687,35.45331558964589],[-95.00352092350923,35.41379884387843],[-94.94968151361513,35.408644485734854],[-94.89225280972809,35.38459081439814],[-94.91737786767867,35.34851030739307],[-94.82764551785517,35.36139620275202],[-94.81328834188342,35.323597576365756],[-94.81328834188342,35.20247015999159],[-94.92814574965749,35.20247015999159],[-94.92814574965749,35.058148131971315],[-95.34809314683146,35.058148131971315],[-95.34809314683146,35.16037623515235],[-95.45577196661966,35.16037623515235],[-95.45218267262672,35.29610766626666]]]}},{"type":"Feature","id":"40063","properties":{"name":"Hughes","county_fips":"40063","state_abbr":"OK"},"geometry":{"type":"Polygon","coordinates":[[[-96.44282781467814,35.29009424843248],[-95.9798088895889,35.29009424843248],[-95.98339818358183,35.15178563824637],[-96.01211253552535,35.14147692195921],[-96.08748770937709,35.04955753506535],[-96.09107700337003,34.76778595654956],[-96.40693487474874,34.76778595654956],[-96.40693487474874,34.931007297762974],[-96.42488134471344,34.90351738766387],[-96.48948863658636,34.91038986518865],[-96.48948863658636,35.115705131241306],[-96.44282781467814,35.115705131241306],[-96.44282781467814,35.29009424843248]]]}},{"type":"Feature","id":"40065","properties":{"name":"Jackson","county_fips":"40065","state_abbr":"OK"},"geometry":{"type":"Polygon","coordinates":[[[-99.84547851998519,34.5066318106081],[-99.6660138203382,34.507490870298696],[-99.6660138203382,34.72483297201971],[-99.42194182881828,34.72569203171031],[-99.43629900479004,34.769504075930755],[-99.40399535885358,34.76864501624016],[-99.40758465284652,34.81331612015119],[-99.24965571715717,34.8124570604606],[-99.24606642316422,34.82190671705717],[-99.21376277722777,34.82620201551015],[-99.1814591312913,34.85970534344343],[-99.14556619136191,34.84939662715627],[-99.14915548535485,34.79785304572045],[-99.17428054330543,34.754900061190604],[-99.14915548535485,34.7024974200642],[-99.05224454754547,34.7016383603736],[-99.0450659595596,34.676725629346286],[-99.09531607546074,34.668994092130916],[-99.10249466344663,34.63806794326943],[-99.08454819348194,34.5908196602866],[-99.1635126613266,34.588242481214806],[-99.22094136521365,34.49460497493974],[-99.22811995319952,34.38722251361513],[-99.19222701327013,34.35457824537245],[-99.21017348323483,34.33653799186991],[-99.27478077510774,34.384645334543336],[-99.26042359913599,34.403544647736474],[-99.31785230302303,34.407839946189455],[-99.38245959489595,34.45680634855348],[-99.3968167708677,34.37777285701856],[-99.43988829878299,34.37433661825618],[-99.47578123871239,34.396672170211694],[-99.51885276662766,34.41471242371423],[-99.57987076450765,34.41643054309542],[-99.60140652846528,34.37433661825618],[-99.70908534825348,34.38722251361513],[-99.79522840408404,34.45422916948169],[-99.84547851998519,34.5066318106081]]]}},{"type":"Feature","id":"40067","properties":{"name":"Jefferson","county_fips":"40067","state_abbr":"OK"},"geometry":{"type":"Polygon","coordinates":[[[-98.14056387333873,34.29014876857768],[-97.5626875404754,34.28928970888708],[-97.55909824648246,34.07108854747547],[-97.5626875404754,33.89755848997489],[-97.5985804804048,33.91817592254922],[-97.58781259842598,33.953397369863694],[-97.65600918429183,33.98947787686876],[-97.6883128302283,33.98690069779697],[-97.73138435814357,33.93707523574235],[-97.83547388393883,33.85804174420743],[-97.87854541185412,33.85031020699206],[-97.97904564365643,33.88982695275952],[-97.95392058570586,33.937934295432946],[-97.97186705567056,33.93707523574235],[-97.94674199771997,33.988618817178164],[-97.97186705567056,34.00580001099011],[-98.01852787757878,33.99377317532175],[-98.08672446344463,34.003222831918315],[-98.12261740337402,34.08139726376263],[-98.09390305143052,34.111464352933524],[-98.10826022740227,34.15441733746337],[-98.14056387333873,34.141531442104416],[-98.14056387333873,34.29014876857768]]]}},{"type":"Feature","id":"40069","properties":{"name":"Johnston","county_fips":"40069","state_abbr":"OK"},"geometry":{"type":"Polygon","coordinates":[[[-96.93456109171092,34.33224269341693],[-96.88072168181681,34.33310175310753],[-96.88072168181681,34.5057727509175],[-96.82688227192271,34.5057727509175],[-96.51461369453695,34.5057727509175],[-96.51461369453695,34.41986678185781],[-96.40693487474874,34.41814866247662],[-96.40693487474874,34.15699451653516],[-96.45359569665696,34.15699451653516],[-96.45359569665696,34.11404153200532],[-96.58639957439574,34.11404153200532],[-96.6187032203322,34.161289814988145],[-96.66895333623336,34.172457590965905],[-96.93456109171092,34.172457590965905],[-96.93456109171092,34.33224269341693]]]}},{"type":"Feature","id":"40071","properties":{"name":"Kay","county_fips":"40071","state_abbr":"OK"},"geometry":{"type":"Polygon","coordinates":[[[-97.46218730867308,36.998763973029725],[-97.14632943729437,36.998763973029725],[-96.75150709807097,36.998763973029725],[-96.75150709807097,36.782280930999306],[-96.82329297792977,36.767676916259155],[-96.83406085990859,36.743623244922446],[-96.8879002698027,36.75135478213782],[-96.93097179771797,36.68606624565245],[-97.03147202952029,36.701529320083196],[-97.06377567545675,36.68434812627125],[-97.04582920549205,36.60273745566455],[-97.05659708747088,36.59328779906799],[-97.46218730867308,36.59328779906799],[-97.46218730867308,36.998763973029725]]]}},{"type":"Feature","id":"40073","properties":{"name":"Kingfisher","county_fips":"40073","state_abbr":"OK"},"geometry":{"type":"Polygon","coordinates":[[[-98.20876045920458,36.16461701346013],[-98.10467093340932,36.16461701346013],[-97.67395565425653,36.16461701346013],[-97.67395565425653,35.72563751156511],[-98.20876045920458,35.72477845187451],[-98.20517116521165,35.84075151010509],[-98.20876045920458,36.16461701346013]]]}},{"type":"Feature","id":"40075","properties":{"name":"Kiowa","county_fips":"40075","state_abbr":"OK"},"geometry":{"type":"Polygon","coordinates":[[[-99.3609238309383,35.1165641909319],[-98.75074385213851,35.1165641909319],[-98.73638667616676,35.10196017619175],[-98.6502436203362,35.124295728147274],[-98.62152926839268,35.09766487773877],[-98.62152926839268,34.854550985299845],[-98.82611902599025,34.85541004499044],[-98.82611902599025,34.59425589904898],[-99.0019944316443,34.59425589904898],[-99.0019944316443,34.63806794326943],[-99.10249466344663,34.63806794326943],[-99.09531607546074,34.668994092130916],[-99.0450659595596,34.676725629346286],[-99.05224454754547,34.7016383603736],[-99.14915548535485,34.7024974200642],[-99.17428054330543,34.754900061190604],[-99.14915548535485,34.79785304572045],[-99.14556619136191,34.84939662715627],[-99.1814591312913,34.85970534344343],[-99.21376277722777,34.82620201551015],[-99.24606642316422,34.82190671705717],[-99.30708442104421,34.857987224062235],[-99.29990583305833,34.924134820238194],[-99.33220947899478,34.94475225281252],[-99.32862018500184,35.04182599784997],[-99.36451312493125,35.05986625135251],[-99.36810241892418,35.08821522114221],[-99.40758465284652,35.11484607155071],[-99.3609238309383,35.1165641909319]]]}},{"type":"Feature","id":"40077","properties":{"name":"Latimer","county_fips":"40077","state_abbr":"OK"},"geometry":{"type":"Polygon","coordinates":[[[-95.34809314683146,35.058148131971315],[-94.92814574965749,35.058148131971315],[-94.92814574965749,34.94217507374073],[-94.99634233552335,34.94217507374073],[-94.99634233552335,34.85541004499044],[-95.06094962739627,34.85541004499044],[-95.06094962739627,34.681020927799274],[-95.5132006705067,34.681020927799274],[-95.50602208252081,34.854550985299845],[-95.50602208252081,35.02894010249102],[-95.34809314683146,35.02894010249102],[-95.34809314683146,35.058148131971315]]]}},{"type":"Feature","id":"40079","properties":{"name":"Le Flore","county_fips":"40079","state_abbr":"OK"},"geometry":{"type":"Polygon","coordinates":[[[-94.92814574965749,35.058148131971315],[-94.92814574965749,35.20247015999159],[-94.81328834188342,35.20247015999159],[-94.81328834188342,35.323597576365756],[-94.75585963799638,35.35710090429904],[-94.69125234612346,35.32961099419994],[-94.66971658216582,35.29524860657606],[-94.61587717227172,35.30383920348203],[-94.59434140831408,35.327892874818744],[-94.55485917439174,35.30985262131621],[-94.47948400054,35.30985262131621],[-94.49384117651176,35.32961099419994],[-94.47230541255412,35.37600021749217],[-94.43282317863178,35.38630893377933],[-94.44718035460355,34.93358447683476],[-94.45435894258942,34.7291282704727],[-94.4615375305753,34.507490870298696],[-94.93891363163631,34.5066318106081],[-94.93891363163631,34.681020927799274],[-95.06094962739627,34.681020927799274],[-95.06094962739627,34.85541004499044],[-94.99634233552335,34.85541004499044],[-94.99634233552335,34.94217507374073],[-94.92814574965749,34.94217507374073],[-94.92814574965749,35.058148131971315]]]}},{"type":"Feature","id":"40081","properties":{"name":"Lincoln","county_fips":"40081","state_abbr":"OK"},"geometry":{"type":"Polygon","coordinates":[[[-97.14274014330142,35.72477845187451],[-97.13915084930849,35.94212055359553],[-96.62229251432514,35.94126149390493],[-96.62229251432514,35.638872482814826],[-96.62588180831808,35.462765246242455],[-97.14274014330142,35.46362430593305],[-97.14274014330142,35.72477845187451]]]}},{"type":"Feature","id":"40083","properties":{"name":"Logan","county_fips":"40083","state_abbr":"OK"},"geometry":{"type":"Polygon","coordinates":[[[-97.67395565425653,36.16461701346013],[-97.46218730867308,36.16461701346013],[-97.35450848888489,36.159462655316545],[-97.35450848888489,35.98507353812538],[-97.32220484294842,36.01084532884328],[-97.2934904910049,36.0056909706997],[-97.2755440210402,35.97304670245702],[-97.22170461114611,35.96445610555105],[-97.20375814118141,35.94469773266732],[-97.13915084930849,35.94212055359553],[-97.14274014330142,35.72477845187451],[-97.67395565425653,35.72563751156511],[-97.67395565425653,36.16461701346013]]]}},{"type":"Feature","id":"40085","properties":{"name":"Love","county_fips":"40085","state_abbr":"OK"},"geometry":{"type":"Polygon","coordinates":[[[-97.55909824648246,34.07108854747547],[-96.97045403164032,34.07108854747547],[-96.97045403164032,34.01267248851488],[-96.93456109171092,34.01267248851488],[-96.93456109171092,33.95425642955429],[-96.94532897368973,33.94910207141071],[-96.99557908959089,33.94910207141071],[-96.98481120761207,33.88639071399714],[-97.04223991149911,33.83742431163311],[-97.08890073340733,33.85374644575445],[-97.04941849948499,33.81766593874938],[-97.0960793213932,33.79876662555625],[-97.08531143941438,33.74378680535805],[-97.12479367333673,33.71715595494955],[-97.16427590725907,33.7291827906179],[-97.20734743517434,33.80993440153401],[-97.17145449524494,33.83570619225192],[-97.17863308323082,33.89240413183131],[-97.21093672916729,33.91645780316803],[-97.24682966909668,33.90013566904668],[-97.25400825708256,33.864055162041616],[-97.30066907899078,33.880377296162955],[-97.33297272492725,33.87436387832878],[-97.37245495884959,33.819384058130574],[-97.44424083870838,33.82367935658356],[-97.46218730867308,33.849451147301465],[-97.45859801468015,33.903571907809074],[-97.48372307263072,33.91559874347743],[-97.5626875404754,33.89755848997489],[-97.55909824648246,34.07108854747547]]]}},{"type":"Feature","id":"40093","properties":{"name":"Major","county_fips":"40093","state_abbr":"OK"},"geometry":{"type":"Polygon","coordinates":[[[-98.95892290372903,36.506522770317694],[-98.84406549595495,36.506522770317694],[-98.80817255602555,36.46099260671606],[-98.72561879418794,36.44552953228531],[-98.70049373623736,36.41632150280502],[-98.62511856238562,36.39226783146831],[-98.53179691856919,36.39742218961189],[-98.53538621256212,36.463569785787854],[-98.10467093340932,36.46271072609726],[-98.10467093340932,36.16461701346013],[-98.20876045920458,36.16461701346013],[-98.63588644436444,36.16461701346013],[-98.95533360973609,36.16118077469774],[-98.96251219772198,36.24708674375743],[-98.95892290372903,36.506522770317694]]]}},{"type":"Feature","id":"40095","properties":{"name":"Marshall","county_fips":"40095","state_abbr":"OK"},"geometry":{"type":"Polygon","coordinates":[[[-96.97045403164032,34.07108854747547],[-96.96686473764737,34.172457590965905],[-96.93456109171092,34.172457590965905],[-96.66895333623336,34.172457590965905],[-96.6187032203322,34.161289814988145],[-96.58639957439574,34.11404153200532],[-96.5469173404734,34.064216069950696],[-96.5828102804028,34.0066590706807],[-96.62588180831808,34.00923624975249],[-96.57563169241692,33.964565145841455],[-96.59716745637456,33.94394771326713],[-96.58998886838867,33.894981310903106],[-96.67613192421923,33.90872626595265],[-96.70484627616275,33.83484713256132],[-96.76945356803567,33.827115595345944],[-96.78381074400744,33.86319610235102],[-96.83047156591566,33.87522293801938],[-96.85200732987329,33.84687396822968],[-96.88431097580975,33.8683504604946],[-96.9058467397674,33.949961131101304],[-96.93456109171092,33.95425642955429],[-96.93456109171092,34.01267248851488],[-96.97045403164032,34.01267248851488],[-96.97045403164032,34.07108854747547]]]}},{"type":"Feature","id":"40097","properties":{"name":"Mayes","county_fips":"40097","state_abbr":"OK"},"geometry":{"type":"Polygon","coordinates":[[[-95.32655738287383,36.509959009080085],[-95.00711021750217,36.509959009080085],[-95.00711021750217,36.24966392282922],[-95.0106995114951,36.16203983438834],[-95.11837833128331,36.16203983438834],[-95.11837833128331,36.074415745947455],[-95.2081106811068,36.074415745947455],[-95.4414147906479,36.07527480563805],[-95.4414147906479,36.24880486313862],[-95.43423620266202,36.24966392282922],[-95.43423620266202,36.509959009080085],[-95.32655738287383,36.509959009080085]]]}},{"type":"Feature","id":"40087","properties":{"name":"McClain","county_fips":"40087","state_abbr":"OK"},"geometry":{"type":"Polygon","coordinates":[[[-97.6703663602636,35.33734253141531],[-97.6165269503695,35.30555732286322],[-97.55909824648246,35.29095330812307],[-97.5626875404754,35.23425536854368],[-97.40834789877898,35.13804068319683],[-97.40116931079311,35.08649710176101],[-97.35450848888489,35.077047445164446],[-97.35809778287782,35.0340944606346],[-97.34015131291312,34.96365156600565],[-97.2755440210402,34.962792506315054],[-97.26118684506845,34.94561131250312],[-97.14274014330142,34.92843011869118],[-97.0781328514285,34.92928917838178],[-97.01711485354853,34.90695362642626],[-96.93097179771797,34.96451062569625],[-96.93097179771797,34.854550985299845],[-97.66677706627065,34.85541004499044],[-97.6703663602636,34.857987224062235],[-97.6703663602636,35.335624412034115],[-97.6703663602636,35.33734253141531]]]}},{"type":"Feature","id":"40089","properties":{"name":"McCurtain","county_fips":"40089","state_abbr":"OK"},"geometry":{"type":"Polygon","coordinates":[[[-95.15786056520565,34.15699451653516],[-95.15068197721976,34.24375954528545],[-95.04659245142452,34.24375954528545],[-95.04659245142452,34.507490870298696],[-94.93891363163631,34.5066318106081],[-94.4615375305753,34.507490870298696],[-94.46871611856118,34.18963878477784],[-94.47589470654707,33.94051147450474],[-94.48666258852587,33.638122463414625],[-94.51896623446234,33.61664597114971],[-94.5871628203282,33.67935732856328],[-94.64459152421524,33.66818955258552],[-94.64818081820817,33.687947925469246],[-94.70919881608816,33.687088865778655],[-94.73791316803168,33.705988178971786],[-94.77380610796108,33.75495458133581],[-94.82764551785517,33.741209626286256],[-94.87071704577045,33.745504924739244],[-94.94609221962219,33.8125115806058],[-94.97121727757278,33.86233704266042],[-95.05018174541745,33.864055162041616],[-95.12196762527626,33.93106181790817],[-95.1542712712127,33.93707523574235],[-95.15786056520565,34.15699451653516]]]}},{"type":"Feature","id":"40091","properties":{"name":"McIntosh","county_fips":"40091","state_abbr":"OK"},"geometry":{"type":"Polygon","coordinates":[[[-95.9798088895889,35.29009424843248],[-95.9798088895889,35.37685927718277],[-95.87571936379364,35.37685927718277],[-95.87571936379364,35.46362430593305],[-95.82187995389954,35.46362430593305],[-95.82187995389954,35.55210745406453],[-95.71420113411133,35.55210745406453],[-95.34450385283853,35.55210745406453],[-95.34450385283853,35.29267142750427],[-95.39116467474675,35.327892874818744],[-95.45218267262672,35.29610766626666],[-95.49884349453494,35.301262024410235],[-95.5132006705067,35.266040577095765],[-95.6208794902949,35.22480571194711],[-95.61011160831607,35.24971844297443],[-95.67112960619606,35.227382891018905],[-95.67471890018899,35.208483577825774],[-95.75727266202662,35.177557428964285],[-95.79316560195602,35.19731580184801],[-95.87213006980069,35.18614802587025],[-95.90802300973009,35.143195041340405],[-95.98339818358183,35.15178563824637],[-95.9798088895889,35.29009424843248]]]}},{"type":"Feature","id":"40099","properties":{"name":"Murray","county_fips":"40099","state_abbr":"OK"},"geometry":{"type":"Polygon","coordinates":[[[-97.35091919489194,34.5066318106081],[-97.14274014330142,34.5066318106081],[-97.15709731927319,34.55130291451914],[-97.20016884718846,34.622604868838685],[-97.14274014330142,34.622604868838685],[-97.14274014330142,34.63720888357883],[-96.93097179771797,34.63720888357883],[-96.93097179771797,34.59339683935839],[-96.82688227192271,34.59339683935839],[-96.82688227192271,34.5057727509175],[-96.88072168181681,34.5057727509175],[-96.88072168181681,34.33310175310753],[-96.93456109171092,34.33224269341693],[-97.02788273552736,34.33224269341693],[-97.04941849948499,34.37519567794677],[-97.35091919489194,34.37605473763737],[-97.35091919489194,34.5066318106081]]]}},{"type":"Feature","id":"40101","properties":{"name":"Muskogee","county_fips":"40101","state_abbr":"OK"},"geometry":{"type":"Polygon","coordinates":[[[-95.7644512500125,35.85621458453584],[-95.64959384223842,35.85707364422644],[-95.6388259602596,35.78748980928809],[-95.58857584435845,35.76515425733257],[-95.56345078640786,35.78748980928809],[-95.4773077305773,35.80381194340943],[-95.41987902669027,35.79951664495644],[-95.36245032280323,35.82271125660256],[-95.26553938499384,35.813261600005994],[-95.12555691926919,35.8124025403154],[-95.12914621326213,35.638872482814826],[-95.13273550725506,35.52633566334663],[-95.08248539135391,35.46018806717066],[-95.05018174541745,35.458469947789474],[-95.12196762527626,35.37256397872978],[-95.17580703517035,35.350228426774265],[-95.17580703517035,35.301262024410235],[-95.24041432704327,35.262604338333375],[-95.31220020690206,35.30298014379143],[-95.34450385283853,35.29267142750427],[-95.34450385283853,35.55210745406453],[-95.71420113411133,35.55210745406453],[-95.71420113411133,35.72563751156511],[-95.76804054400543,35.72563751156511],[-95.7644512500125,35.85621458453584]]]}},{"type":"Feature","id":"40103","properties":{"name":"Noble","county_fips":"40103","state_abbr":"OK"},"geometry":{"type":"Polygon","coordinates":[[[-97.46218730867308,36.59328779906799],[-97.05659708747088,36.59328779906799],[-97.00275767757677,36.582979082780824],[-96.92020391573915,36.60101933628336],[-96.8879002698027,36.575247545565446],[-96.90225744577445,36.55119387422874],[-96.99557908959089,36.528858322273216],[-97.00993626556266,36.506522770317694],[-97.03147202952029,36.50738183000829],[-97.03147202952029,36.33299271281712],[-96.9237932097321,36.33299271281712],[-96.9237932097321,36.24622768406684],[-97.14274014330142,36.24622768406684],[-97.13915084930849,36.159462655316545],[-97.35450848888489,36.159462655316545],[-97.46218730867308,36.16461701346013],[-97.46218730867308,36.59328779906799]]]}},{"type":"Feature","id":"40105","properties":{"name":"Nowata","county_fips":"40105","state_abbr":"OK"},"geometry":{"type":"Polygon","coordinates":[[[-95.78598701397013,36.99962303272032],[-95.52396855248551,36.99962303272032],[-95.40911114471145,36.99962303272032],[-95.40911114471145,36.94292509314093],[-95.43064690866908,36.94292509314093],[-95.43064690866908,36.59758309752097],[-95.81111207192072,36.59758309752097],[-95.81111207192072,36.94206603345033],[-95.78598701397013,36.94206603345033],[-95.78598701397013,36.99962303272032]]]}},{"type":"Feature","id":"40107","properties":{"name":"Okfuskee","county_fips":"40107","state_abbr":"OK"},"geometry":{"type":"Polygon","coordinates":[[[-96.62588180831808,35.462765246242455],[-96.62229251432514,35.638872482814826],[-96.19157723517235,35.638872482814826],[-96.19157723517235,35.55210745406453],[-96.08748770937709,35.55210745406453],[-96.08748770937709,35.37685927718277],[-95.9798088895889,35.37685927718277],[-95.9798088895889,35.29009424843248],[-96.44282781467814,35.29009424843248],[-96.44282781467814,35.46791960438604],[-96.47154216662166,35.46362430593305],[-96.49666722457223,35.42926191830918],[-96.55409592845928,35.45417464933649],[-96.56845310443104,35.43785251521515],[-96.53614945849458,35.39146329192291],[-96.58639957439574,35.41122166480664],[-96.62229251432514,35.400912948519476],[-96.62588180831808,35.462765246242455]]]}},{"type":"Feature","id":"40109","properties":{"name":"Oklahoma","county_fips":"40109","state_abbr":"OK"},"geometry":{"type":"Polygon","coordinates":[[[-97.67395565425653,35.72563751156511],[-97.14274014330142,35.72477845187451],[-97.14274014330142,35.46362430593305],[-97.14274014330142,35.37685927718277],[-97.6703663602636,35.37685927718277],[-97.67395565425653,35.72563751156511]]]}},{"type":"Feature","id":"40111","properties":{"name":"Okmulgee","county_fips":"40111","state_abbr":"OK"},"geometry":{"type":"Polygon","coordinates":[[[-96.19157723517235,35.638872482814826],[-96.19157723517235,35.85707364422644],[-96.03364829948299,35.85707364422644],[-95.8182906599066,35.85621458453584],[-95.7644512500125,35.85621458453584],[-95.76804054400543,35.72563751156511],[-95.71420113411133,35.72563751156511],[-95.71420113411133,35.55210745406453],[-95.82187995389954,35.55210745406453],[-95.82187995389954,35.46362430593305],[-95.87571936379364,35.46362430593305],[-95.87571936379364,35.37685927718277],[-95.9798088895889,35.37685927718277],[-96.08748770937709,35.37685927718277],[-96.08748770937709,35.55210745406453],[-96.19157723517235,35.55210745406453],[-96.19157723517235,35.638872482814826]]]}},{"type":"Feature","id":"40113","properties":{"name":"Osage","county_fips":"40113","state_abbr":"OK"},"geometry":{"type":"Polygon","coordinates":[[[-96.75150709807097,36.998763973029725],[-96.52538157651576,36.998763973029725],[-96.00134465354652,36.998763973029725],[-96.00134465354652,36.4240530400204],[-96.00134465354652,36.16118077469774],[-96.26695240902409,36.16203983438834],[-96.24182735107351,36.20241563984639],[-96.25618452704526,36.22561025149251],[-96.33873828888288,36.22990554994549],[-96.3853991107911,36.26684511664116],[-96.43205993269932,36.285744429834295],[-96.4571849906499,36.332133653126526],[-96.51461369453695,36.298630325193244],[-96.57204239842397,36.31581151900519],[-96.55768522245222,36.348455787247865],[-96.52179228252282,36.36563698105981],[-96.53973875248752,36.39999936868368],[-96.57563169241692,36.374227577965776],[-96.6007567503675,36.38195911518115],[-96.63664969029689,36.425771159401584],[-96.67613192421923,36.42061680125801],[-96.71202486414863,36.43779799506994],[-96.70484627616275,36.4773147408374],[-96.73714992209922,36.55033481453814],[-96.76945356803567,36.56579788896888],[-96.83765015390154,36.521126785057845],[-96.87354309383093,36.471301323003225],[-96.9417396796968,36.455838248572476],[-97.00634697156971,36.48590533774337],[-97.00993626556266,36.506522770317694],[-96.99557908959089,36.528858322273216],[-96.90225744577445,36.55119387422874],[-96.8879002698027,36.575247545565446],[-96.92020391573915,36.60101933628336],[-97.00275767757677,36.582979082780824],[-97.05659708747088,36.59328779906799],[-97.04582920549205,36.60273745566455],[-97.06377567545675,36.68434812627125],[-97.03147202952029,36.701529320083196],[-96.93097179771797,36.68606624565245],[-96.8879002698027,36.75135478213782],[-96.83406085990859,36.743623244922446],[-96.82329297792977,36.767676916259155],[-96.75150709807097,36.782280930999306],[-96.75150709807097,36.998763973029725]]]}},{"type":"Feature","id":"40115","properties":{"name":"Ottawa","county_fips":"40115","state_abbr":"OK"},"geometry":{"type":"Polygon","coordinates":[[[-95.00711021750217,36.99962303272032],[-94.61946646626465,36.998763973029725],[-94.61946646626465,36.76681785656856],[-94.61946646626465,36.668025992149914],[-94.9999316295163,36.67060317122171],[-94.9999316295163,36.94292509314093],[-95.0358245694457,36.99446867457674],[-95.00711021750217,36.99962303272032]]]}},{"type":"Feature","id":"40117","properties":{"name":"Pawnee","county_fips":"40117","state_abbr":"OK"},"geometry":{"type":"Polygon","coordinates":[[[-97.00993626556266,36.506522770317694],[-97.00634697156971,36.48590533774337],[-96.9417396796968,36.455838248572476],[-96.87354309383093,36.471301323003225],[-96.83765015390154,36.521126785057845],[-96.76945356803567,36.56579788896888],[-96.73714992209922,36.55033481453814],[-96.70484627616275,36.4773147408374],[-96.71202486414863,36.43779799506994],[-96.67613192421923,36.42061680125801],[-96.63664969029689,36.425771159401584],[-96.6007567503675,36.38195911518115],[-96.57563169241692,36.374227577965776],[-96.53973875248752,36.39999936868368],[-96.52179228252282,36.36563698105981],[-96.55768522245222,36.348455787247865],[-96.57204239842397,36.31581151900519],[-96.51461369453695,36.298630325193244],[-96.4571849906499,36.332133653126526],[-96.43205993269932,36.285744429834295],[-96.3853991107911,36.26684511664116],[-96.33873828888288,36.22990554994549],[-96.25618452704526,36.22561025149251],[-96.24182735107351,36.20241563984639],[-96.26695240902409,36.16203983438834],[-96.29925605496055,36.16203983438834],[-96.6187032203322,36.16375795376953],[-96.62229251432514,36.16032171500714],[-96.81970368393684,36.15860359562595],[-96.81970368393684,36.24622768406684],[-96.9237932097321,36.24622768406684],[-96.9237932097321,36.33299271281712],[-97.03147202952029,36.33299271281712],[-97.03147202952029,36.50738183000829],[-97.00993626556266,36.506522770317694]]]}},{"type":"Feature","id":"40119","properties":{"name":"Payne","county_fips":"40119","state_abbr":"OK"},"geometry":{"type":"Polygon","coordinates":[[[-97.35450848888489,36.159462655316545],[-97.13915084930849,36.159462655316545],[-97.14274014330142,36.24622768406684],[-96.9237932097321,36.24622768406684],[-96.81970368393684,36.24622768406684],[-96.81970368393684,36.15860359562595],[-96.62229251432514,36.16032171500714],[-96.62229251432514,35.94126149390493],[-97.13915084930849,35.94212055359553],[-97.20375814118141,35.94469773266732],[-97.22170461114611,35.96445610555105],[-97.2755440210402,35.97304670245702],[-97.2934904910049,36.0056909706997],[-97.32220484294842,36.01084532884328],[-97.35450848888489,35.98507353812538],[-97.35450848888489,36.159462655316545]]]}},{"type":"Feature","id":"40121","properties":{"name":"Pittsburg","county_fips":"40121","state_abbr":"OK"},"geometry":{"type":"Polygon","coordinates":[[[-96.09107700337003,34.76778595654956],[-96.08748770937709,35.04955753506535],[-96.01211253552535,35.14147692195921],[-95.98339818358183,35.15178563824637],[-95.90802300973009,35.143195041340405],[-95.87213006980069,35.18614802587025],[-95.79316560195602,35.19731580184801],[-95.75727266202662,35.177557428964285],[-95.67471890018899,35.208483577825774],[-95.67112960619606,35.227382891018905],[-95.61011160831607,35.24971844297443],[-95.6208794902949,35.22480571194711],[-95.5132006705067,35.266040577095765],[-95.49884349453494,35.301262024410235],[-95.45218267262672,35.29610766626666],[-95.45577196661966,35.16037623515235],[-95.34809314683146,35.16037623515235],[-95.34809314683146,35.058148131971315],[-95.34809314683146,35.02894010249102],[-95.50602208252081,35.02894010249102],[-95.50602208252081,34.854550985299845],[-95.5132006705067,34.681020927799274],[-95.5132006705067,34.59425589904898],[-95.67112960619606,34.59425589904898],[-95.88289795177951,34.59339683935839],[-95.88289795177951,34.68016186810868],[-96.09107700337003,34.68016186810868],[-96.09107700337003,34.76778595654956]]]}},{"type":"Feature","id":"40123","properties":{"name":"Pontotoc","county_fips":"40123","state_abbr":"OK"},"geometry":{"type":"Polygon","coordinates":[[[-96.93097179771797,34.854550985299845],[-96.93097179771797,34.96451062569625],[-96.88431097580975,34.92585293961939],[-96.81252509595096,34.94475225281252],[-96.77663215602155,34.900081148901485],[-96.75509639206392,34.900081148901485],[-96.7263820401204,34.85712816437164],[-96.69407839418393,34.8682959403494],[-96.70125698216982,34.93014823807238],[-96.66895333623336,34.92928917838178],[-96.64741757227571,34.90179926828268],[-96.55768522245222,34.91382610395103],[-96.54332804648045,34.880322776017756],[-96.511024400544,34.87516841787417],[-96.48948863658636,34.91038986518865],[-96.42488134471344,34.90351738766387],[-96.40693487474874,34.931007297762974],[-96.40693487474874,34.76778595654956],[-96.40693487474874,34.68016186810868],[-96.511024400544,34.68016186810868],[-96.51461369453695,34.5057727509175],[-96.82688227192271,34.5057727509175],[-96.82688227192271,34.59339683935839],[-96.93097179771797,34.59339683935839],[-96.93097179771797,34.63720888357883],[-96.93097179771797,34.854550985299845]]]}},{"type":"Feature","id":"40125","properties":{"name":"Pottawatomie","county_fips":"40125","state_abbr":"OK"},"geometry":{"type":"Polygon","coordinates":[[[-97.14274014330142,35.37685927718277],[-97.14274014330142,35.46362430593305],[-96.62588180831808,35.462765246242455],[-96.62229251432514,35.400912948519476],[-96.6545961602616,35.39232235161351],[-96.7263820401204,35.42496661985619],[-96.77663215602155,35.405208246972464],[-96.77663215602155,34.900081148901485],[-96.81252509595096,34.94475225281252],[-96.88431097580975,34.92585293961939],[-96.93097179771797,34.96451062569625],[-97.01711485354853,34.90695362642626],[-97.0781328514285,34.92928917838178],[-97.14274014330142,34.92843011869118],[-97.14274014330142,35.37685927718277]]]}},{"type":"Feature","id":"40127","properties":{"name":"Pushmataha","county_fips":"40127","state_abbr":"OK"},"geometry":{"type":"Polygon","coordinates":[[[-95.67112960619606,34.59425589904898],[-95.5132006705067,34.59425589904898],[-95.5132006705067,34.681020927799274],[-95.06094962739627,34.681020927799274],[-94.93891363163631,34.681020927799274],[-94.93891363163631,34.5066318106081],[-95.04659245142452,34.507490870298696],[-95.04659245142452,34.24375954528545],[-95.15068197721976,34.24375954528545],[-95.15786056520565,34.15699451653516],[-95.77880842598425,34.15699451653516],[-95.77880842598425,34.5066318106081],[-95.67112960619606,34.5066318106081],[-95.67112960619606,34.59425589904898]]]}},{"type":"Feature","id":"40129","properties":{"name":"Roger Mills","county_fips":"40129","state_abbr":"OK"},"geometry":{"type":"Polygon","coordinates":[[[-99.99981816168162,35.88112731556315],[-99.92444298782988,35.91377158380583],[-99.91367510585106,35.955006448954485],[-99.85624640196401,36.00397285131851],[-99.8095855800558,35.99967755286552],[-99.8095855800558,35.929234658236574],[-99.77728193411933,35.88799979308792],[-99.71626393623936,35.859650823298225],[-99.61935299842997,35.84246962948629],[-99.55833500055,35.86566424113241],[-99.55115641256413,35.90002662875628],[-99.51526347263471,35.92579841947419],[-99.49731700267002,35.979060120291194],[-99.45424547475474,36.004831911009106],[-99.38245959489595,36.012563448224476],[-99.38245959489595,35.89916756906568],[-99.37528100691006,35.8124025403154],[-99.37528100691006,35.55210745406453],[-99.36451312493125,35.50915446953469],[-99.5762814705147,35.50915446953469],[-99.5762814705147,35.4215303810938],[-99.99981816168162,35.4223894407844],[-99.99981816168162,35.61911410993109],[-99.99981816168162,35.88112731556315]]]}},{"type":"Feature","id":"40131","properties":{"name":"Rogers","county_fips":"40131","state_abbr":"OK"},"geometry":{"type":"Polygon","coordinates":[[[-95.81111207192072,36.4231939803298],[-95.81111207192072,36.59758309752097],[-95.43064690866908,36.59758309752097],[-95.33014667686676,36.59758309752097],[-95.32655738287383,36.509959009080085],[-95.43423620266202,36.509959009080085],[-95.43423620266202,36.24966392282922],[-95.4414147906479,36.24880486313862],[-95.4414147906479,36.07527480563805],[-95.57062937439375,36.07527480563805],[-95.55268290442903,36.09159693975939],[-95.5670400804008,36.129395566145654],[-95.6029330203302,36.13369086459864],[-95.6208794902949,36.162898894078936],[-95.76086195601955,36.162898894078936],[-95.81470136591365,36.162898894078936],[-95.81111207192072,36.4231939803298]]]}},{"type":"Feature","id":"40133","properties":{"name":"Seminole","county_fips":"40133","state_abbr":"OK"},"geometry":{"type":"Polygon","coordinates":[[[-96.62229251432514,35.400912948519476],[-96.58639957439574,35.41122166480664],[-96.53614945849458,35.39146329192291],[-96.56845310443104,35.43785251521515],[-96.55409592845928,35.45417464933649],[-96.49666722457223,35.42926191830918],[-96.47154216662166,35.46362430593305],[-96.44282781467814,35.46791960438604],[-96.44282781467814,35.29009424843248],[-96.44282781467814,35.115705131241306],[-96.48948863658636,35.115705131241306],[-96.48948863658636,34.91038986518865],[-96.511024400544,34.87516841787417],[-96.54332804648045,34.880322776017756],[-96.55768522245222,34.91382610395103],[-96.64741757227571,34.90179926828268],[-96.66895333623336,34.92928917838178],[-96.70125698216982,34.93014823807238],[-96.69407839418393,34.8682959403494],[-96.7263820401204,34.85712816437164],[-96.75509639206392,34.900081148901485],[-96.77663215602155,34.900081148901485],[-96.77663215602155,35.405208246972464],[-96.7263820401204,35.42496661985619],[-96.6545961602616,35.39232235161351],[-96.62229251432514,35.400912948519476]]]}},{"type":"Feature","id":"40135","properties":{"name":"Sequoyah","county_fips":"40135","state_abbr":"OK"},"geometry":{"type":"Polygon","coordinates":[[[-95.12914621326213,35.638872482814826],[-94.80610975389753,35.638872482814826],[-94.47230541255412,35.638872482814826],[-94.43641247262472,35.42840285861858],[-94.43282317863178,35.38630893377933],[-94.47230541255412,35.37600021749217],[-94.49384117651176,35.32961099419994],[-94.47948400054,35.30985262131621],[-94.55485917439174,35.30985262131621],[-94.59434140831408,35.327892874818744],[-94.61587717227172,35.30383920348203],[-94.66971658216582,35.29524860657606],[-94.69125234612346,35.32961099419994],[-94.75585963799638,35.35710090429904],[-94.81328834188342,35.323597576365756],[-94.82764551785517,35.36139620275202],[-94.91737786767867,35.34851030739307],[-94.89225280972809,35.38459081439814],[-94.94968151361513,35.408644485734854],[-95.00352092350923,35.41379884387843],[-95.02505668746687,35.45331558964589],[-95.05018174541745,35.458469947789474],[-95.08248539135391,35.46018806717066],[-95.13273550725506,35.52633566334663],[-95.12914621326213,35.638872482814826]]]}},{"type":"Feature","id":"40137","properties":{"name":"Stephens","county_fips":"40137","state_abbr":"OK"},"geometry":{"type":"Polygon","coordinates":[[[-98.09031375743757,34.681020927799274],[-97.66677706627065,34.681020927799274],[-97.5626875404754,34.677584689036884],[-97.5626875404754,34.5066318106081],[-97.5626875404754,34.28928970888708],[-98.14056387333873,34.29014876857768],[-98.14056387333873,34.5066318106081],[-98.14056387333873,34.681020927799274],[-98.09031375743757,34.681020927799274]]]}},{"type":"Feature","id":"40139","properties":{"name":"Texas","county_fips":"40139","state_abbr":"OK"},"geometry":{"type":"Polygon","coordinates":[[[-102.02776926769268,36.99275055519555],[-101.5539824606246,36.995327734267335],[-101.06583847758478,36.99790491333913],[-100.94380248182482,36.99790491333913],[-100.94380248182482,36.848428527175265],[-100.95457036380363,36.848428527175265],[-100.95457036380363,36.49965029279292],[-101.08378494754947,36.49965029279292],[-101.62217904649046,36.49965029279292],[-102.03135856168561,36.50050935248352],[-102.03135856168561,36.84928758686586],[-102.02776926769268,36.99275055519555]]]}},{"type":"Feature","id":"40141","properties":{"name":"Tillman","county_fips":"40141","state_abbr":"OK"},"geometry":{"type":"Polygon","coordinates":[[[-99.10249466344663,34.63806794326943],[-99.0019944316443,34.63806794326943],[-99.0019944316443,34.59425589904898],[-98.82611902599025,34.59425589904898],[-98.82611902599025,34.507490870298696],[-98.66101150231502,34.507490870298696],[-98.66101150231502,34.40612182680826],[-98.66101150231502,34.33310175310753],[-98.61076138641386,34.333960812798125],[-98.61076138641386,34.15699451653516],[-98.64665432634325,34.164726053750535],[-98.68972585425854,34.13294084519845],[-98.76510102811028,34.13637708396083],[-98.8117618500185,34.15871263591635],[-98.85842267192672,34.161289814988145],[-98.91944066980669,34.18190724756247],[-98.95174431574316,34.21283339642396],[-98.98763725567255,34.22142399332993],[-99.0450659595596,34.19822938168381],[-99.07736960549605,34.211115277042765],[-99.12044113341133,34.2016656204462],[-99.12761972139721,34.218846814258136],[-99.19222701327013,34.21626963518634],[-99.21017348323483,34.33653799186991],[-99.19222701327013,34.35457824537245],[-99.22811995319952,34.38722251361513],[-99.22094136521365,34.49460497493974],[-99.1635126613266,34.588242481214806],[-99.08454819348194,34.5908196602866],[-99.10249466344663,34.63806794326943]]]}},{"type":"Feature","id":"40143","properties":{"name":"Tulsa","county_fips":"40143","state_abbr":"OK"},"geometry":{"type":"Polygon","coordinates":[[[-96.29925605496055,36.16203983438834],[-96.26695240902409,36.16203983438834],[-96.00134465354652,36.16118077469774],[-96.00134465354652,36.4240530400204],[-95.81111207192072,36.4231939803298],[-95.81470136591365,36.162898894078936],[-95.76086195601955,36.162898894078936],[-95.76086195601955,35.90088568844688],[-95.8182906599066,35.90088568844688],[-95.8182906599066,35.85621458453584],[-96.03364829948299,35.85707364422644],[-96.03005900549005,36.07527480563805],[-96.29925605496055,36.07613386532865],[-96.29925605496055,36.16203983438834]]]}},{"type":"Feature","id":"40145","properties":{"name":"Wagoner","county_fips":"40145","state_abbr":"OK"},"geometry":{"type":"Polygon","coordinates":[[[-95.76086195601955,36.162898894078936],[-95.6208794902949,36.162898894078936],[-95.6029330203302,36.13369086459864],[-95.5670400804008,36.129395566145654],[-95.55268290442903,36.09159693975939],[-95.57062937439375,36.07527480563805],[-95.4414147906479,36.07527480563805],[-95.2081106811068,36.074415745947455],[-95.2260571510715,36.009127209462086],[-95.27989656096561,35.96445610555105],[-95.27989656096561,35.90432192720927],[-95.2260571510715,35.86222800237002],[-95.26553938499384,35.813261600005994],[-95.36245032280323,35.82271125660256],[-95.41987902669027,35.79951664495644],[-95.4773077305773,35.80381194340943],[-95.56345078640786,35.78748980928809],[-95.58857584435845,35.76515425733257],[-95.6388259602596,35.78748980928809],[-95.64959384223842,35.85707364422644],[-95.7644512500125,35.85621458453584],[-95.8182906599066,35.85621458453584],[-95.8182906599066,35.90088568844688],[-95.76086195601955,35.90088568844688],[-95.76086195601955,36.162898894078936]]]}},{"type":"Feature","id":"40147","properties":{"name":"Washington","county_fips":"40147","state_abbr":"OK"},"geometry":{"type":"Polygon","coordinates":[[[-96.00134465354652,36.998763973029725],[-95.96545171361713,36.998763973029725],[-95.78598701397013,36.99962303272032],[-95.78598701397013,36.94206603345033],[-95.81111207192072,36.94206603345033],[-95.81111207192072,36.59758309752097],[-95.81111207192072,36.4231939803298],[-96.00134465354652,36.4240530400204],[-96.00134465354652,36.998763973029725]]]}},{"type":"Feature","id":"40149","properties":{"name":"Washita","county_fips":"40149","state_abbr":"OK"},"geometry":{"type":"Polygon","coordinates":[[[-99.36451312493125,35.46534242531425],[-98.62511856238562,35.46448336562365],[-98.62511856238562,35.20418827937279],[-98.62152926839268,35.09766487773877],[-98.6502436203362,35.124295728147274],[-98.73638667616676,35.10196017619175],[-98.75074385213851,35.1165641909319],[-99.3609238309383,35.1165641909319],[-99.36451312493125,35.46534242531425]]]}},{"type":"Feature","id":"40151","properties":{"name":"Woods","county_fips":"40151","state_abbr":"OK"},"geometry":{"type":"Polygon","coordinates":[[[-99.45783476874769,36.99962303272032],[-99.0019944316443,36.99962303272032],[-98.54615409454094,36.998763973029725],[-98.53897550655506,36.94206603345033],[-98.53179691856919,36.594146858758585],[-98.53538621256212,36.463569785787854],[-98.53179691856919,36.39742218961189],[-98.62511856238562,36.39226783146831],[-98.70049373623736,36.41632150280502],[-98.72561879418794,36.44552953228531],[-98.80817255602555,36.46099260671606],[-98.84406549595495,36.506522770317694],[-98.95892290372903,36.506522770317694],[-98.95892290372903,36.59930121690216],[-99.01276231362313,36.640536082050815],[-99.06301242952429,36.71527427513274],[-99.08454819348194,36.721287692966925],[-99.13838760337603,36.783139990689904],[-99.24965571715717,36.78485811007109],[-99.29631653906539,36.81922049769497],[-99.31426300903009,36.856160064390636],[-99.37528100691006,36.879354676036755],[-99.45783476874769,36.99962303272032]]]}},{"type":"Feature","id":"40153","properties":{"name":"Woodward","county_fips":"40153","state_abbr":"OK"},"geometry":{"type":"Polygon","coordinates":[[[-99.60499582245822,36.59242873937739],[-99.29631653906539,36.595005918449175],[-99.29631653906539,36.81922049769497],[-99.24965571715717,36.78485811007109],[-99.13838760337603,36.783139990689904],[-99.08454819348194,36.721287692966925],[-99.06301242952429,36.71527427513274],[-99.01276231362313,36.640536082050815],[-98.95892290372903,36.59930121690216],[-98.95892290372903,36.506522770317694],[-98.96251219772198,36.24708674375743],[-98.95533360973609,36.16118077469774],[-99.38245959489595,36.16461701346013],[-99.59781723447234,36.16375795376953],[-99.5942279404794,36.24708674375743],[-99.60499582245822,36.24622768406684],[-99.60499582245822,36.59242873937739]]]}}]}