{"type":"FeatureCollection","features":[{"type":"Feature","id":"41001","properties":{"name":"Baker","county_fips":"41001","state_abbr":"OR"},"geometry":{"type":"Polygon","coordinates":[[[-118.24419952779527,44.95881106610065],[-118.21548517585175,45.006918408774084],[-118.16164576595764,45.01550900568005],[-118.12934212002119,45.044717035160346],[-118.00012753627536,44.99403251341513],[-117.9678238903389,44.99575063279632],[-117.90680589245892,45.030113020420195],[-117.88885942249422,45.057602930519295],[-117.842198600586,45.05846199020989],[-117.79194848468484,45.025817721967215],[-117.77759130871308,44.99231439403393],[-117.56582296312962,44.99317345372453],[-117.56223366913667,45.07907942278422],[-117.26791156171561,45.08079754216541],[-116.78335687266872,45.07822036309362],[-116.84796416454164,45.022381483204825],[-116.85873204652046,44.97856943898438],[-116.83360698856987,44.92874397692976],[-116.86591063450633,44.87032791796917],[-116.90180357443575,44.841119888488876],[-116.93051792637925,44.786999127981275],[-117.04537533415333,44.744905203142025],[-117.09562545005448,44.66501265191651],[-117.12433980199802,44.58168386192861],[-117.16023274192742,44.52498592234922],[-117.22484003380033,44.483751057200564],[-117.21407215182151,44.42705311762117],[-117.24278650376503,44.39612696875968],[-117.18894709387092,44.336851850108495],[-117.22125073980739,44.30163040279402],[-117.48685849528495,44.29991228341283],[-117.48685849528495,44.38753637185371],[-117.56941225712256,44.41588534164341],[-117.59094802108021,44.44423431143311],[-117.97141318433184,44.44423431143311],[-118.01089541825417,44.42963029669296],[-118.03243118221181,44.3901135509255],[-118.07191341613415,44.372073297422965],[-118.0934491800918,44.329120312893124],[-118.15087788397884,44.29991228341283],[-118.15446717797178,44.27070425393253],[-118.23343164581645,44.256100239192385],[-118.4810929313293,44.25524117950179],[-118.499039401294,44.27070425393253],[-118.47032504935049,44.33255655165551],[-118.4093070514705,44.372073297422965],[-118.4344321094211,44.40729474473744],[-118.42007493344933,44.45110678895788],[-118.36264622956229,44.4725832812228],[-118.37341411154111,44.52756310142101],[-118.30521752567525,44.5859791603816],[-118.34111046560466,44.63065026429263],[-118.50262869528694,44.66587171160711],[-118.5169858712587,44.70538845737457],[-118.46673575535755,44.70538845737457],[-118.36623552355522,44.74748238221382],[-118.29444964369642,44.74662332252322],[-118.28368176171762,44.76981793416933],[-118.31598540765407,44.836824590035896],[-118.29444964369642,44.864314500134995],[-118.22625305783058,44.86689167920679],[-118.22625305783058,44.93991175290752],[-118.24419952779527,44.95881106610065]]]}},{"type":"Feature","id":"41003","properties":{"name":"Benton","county_fips":"41003","state_abbr":"OR"},"geometry":{"type":"Polygon","coordinates":[[[-123.60301545925458,44.72085153180531],[-123.15076441614416,44.71999247211471],[-123.11846077020769,44.67703948758487],[-123.07179994829949,44.65040863717636],[-123.17230018010179,44.63408650305502],[-123.18306806208062,44.58769727976279],[-123.25485394193942,44.572234205332045],[-123.25844323593236,44.55505301152011],[-123.21178241402413,44.50522754946549],[-123.20460382603825,44.44337525174251],[-123.22972888398883,44.43220747576475],[-123.21896100201002,44.360046461754614],[-123.2440860599606,44.33169749196491],[-123.21537170801707,44.32482501444014],[-123.17947876808768,44.283590149291484],[-123.59224757727577,44.28187202991029],[-123.59224757727577,44.27671767176671],[-123.7753015709157,44.283590149291484],[-123.7753015709157,44.31623441753417],[-123.81478380483804,44.31537535784357],[-123.81837309883099,44.344583387323866],[-123.73581933699336,44.34544244701446],[-123.71428357303571,44.360046461754614],[-123.7214621610216,44.433066535455346],[-123.59942616526165,44.433066535455346],[-123.60301545925458,44.72085153180531]]]}},{"type":"Feature","id":"41005","properties":{"name":"Clackamas","county_fips":"41005","state_abbr":"OR"},"geometry":{"type":"Polygon","coordinates":[[[-122.8672101907019,45.31703895707956],[-122.84567442674427,45.346246986559855],[-122.74517419494194,45.33164297181971],[-122.74517419494194,45.43301201531015],[-122.64826325713256,45.43301201531015],[-122.6410846691467,45.461360985099844],[-121.81913634476345,45.461360985099844],[-121.77606481684816,45.402944926139256],[-121.69710034900348,45.37373689665896],[-121.70427893698937,45.33164297181971],[-121.67915387903878,45.29728058419583],[-121.69710034900348,45.257763838428374],[-121.68274317303172,45.22941486863868],[-121.74735046490464,45.20536119730197],[-121.69351105501053,45.11687804917048],[-121.66479670306703,45.11945522824227],[-121.65761811508114,45.06619352742527],[-121.71863611296112,45.037844557635566],[-121.77965411084111,45.036985497944976],[-121.80477916879168,45.011213707227064],[-121.78683269882697,44.945066111051105],[-121.71504681896818,44.90554936528365],[-121.73299328893287,44.88579099239992],[-122.38983408964089,44.88579099239992],[-122.53699514335142,44.937334573835734],[-122.59442384723846,45.01980430413303],[-122.7056919610196,45.05932104990049],[-122.74876348893488,45.10828745226451],[-122.78824572285723,45.12976394452944],[-122.75594207692076,45.172716929059284],[-122.73799560695606,45.25948195780957],[-122.83490654476543,45.27408597254972],[-122.8492637207372,45.25948195780957],[-122.8672101907019,45.25948195780957],[-122.8672101907019,45.31703895707956]]]}},{"type":"Feature","id":"41007","properties":{"name":"Clatsop","county_fips":"41007","state_abbr":"OR"},"geometry":{"type":"Polygon","coordinates":[[[-123.54917604936048,46.25942743766437],[-123.47380087550874,46.26801803457034],[-123.42714005360054,46.22936034849348],[-123.43072934759347,46.182112065510644],[-123.3625327617276,46.14603155850558],[-123.36612205572055,46.03950815687156],[-123.35894346773466,45.865978099370984],[-123.3625327617276,45.7792130706207],[-123.7214621610216,45.77319965278652],[-123.7214621610216,45.78350836907369],[-123.96912344653447,45.78350836907369],[-123.96912344653447,45.908072024210234],[-123.99424850448503,45.946729710287094],[-123.93681980059799,45.977655859148584],[-123.93323050660506,46.07129336542365],[-124.00142709247092,46.23709188570885],[-123.90451615466154,46.169226170151695],[-123.85426603876039,46.15719933448334],[-123.8650339207392,46.18984360272602],[-123.78248015890158,46.19843419963199],[-123.757355100951,46.21303821437213],[-123.71787286702866,46.188984543035424],[-123.67480133911339,46.215615393443926],[-123.62096192921928,46.215615393443926],[-123.54917604936048,46.25942743766437]]]}},{"type":"Feature","id":"41009","properties":{"name":"Columbia","county_fips":"41009","state_abbr":"OR"},"geometry":{"type":"Polygon","coordinates":[[[-123.3625327617276,46.14603155850558],[-123.27997899988999,46.14517249881498],[-123.21178241402413,46.17266240891408],[-123.16512159211592,46.188984543035424],[-123.11487147621474,46.185548304273034],[-122.90310313063131,46.083320201092],[-122.87797807268072,46.030917559965594],[-122.8133707808078,45.961333725027245],[-122.80978148681487,45.91236732266322],[-122.78465642886428,45.85051502494024],[-122.7954243108431,45.81013921948219],[-122.77029925289253,45.780931190001894],[-122.76312066490664,45.72852854887548],[-122.78465642886428,45.72079701166011],[-122.92822818858187,45.72165607135071],[-123.03231771437714,45.7517231605216],[-123.03231771437714,45.7792130706207],[-123.3625327617276,45.7792130706207],[-123.35894346773466,45.865978099370984],[-123.36612205572055,46.03950815687156],[-123.3625327617276,46.14603155850558]]]}},{"type":"Feature","id":"41011","properties":{"name":"Coos","county_fips":"41011","state_abbr":"OR"},"geometry":{"type":"Polygon","coordinates":[[[-124.22037402604025,43.61094641155411],[-123.87580180271803,43.60836923248232],[-123.87580180271803,43.51559078589785],[-123.81837309883099,43.51644984558845],[-123.81837309883099,43.43140293621936],[-123.76453368893688,43.43140293621936],[-123.76453368893688,43.25787287871878],[-123.70351569105691,43.25787287871878],[-123.70351569105691,43.08692000028999],[-123.76094439494395,43.08348376152761],[-123.76094439494395,42.99671873277732],[-123.82196239282392,42.99671873277732],[-123.82196239282392,42.824047734967344],[-123.8111945108451,42.78882628765287],[-123.92605191861918,42.77422227291272],[-123.92605191861918,42.739859885288844],[-123.99783779847797,42.70034313952139],[-123.99783779847797,42.68573912478124],[-124.09115944229441,42.68573912478124],[-124.1342309702097,42.66683981158811],[-124.13782026420263,42.739859885288844],[-124.15935602816027,42.739859885288844],[-124.16653461614615,42.81803431713316],[-124.14140955819558,42.850678585375846],[-124.21319543805437,42.90394028619286],[-124.22037402604025,42.93400737536375],[-124.25985625996259,42.954624807938075],[-124.47880319353192,42.954624807938075],[-124.43573166561666,43.07145692585925],[-124.43573166561666,43.11612802977029],[-124.40342801968019,43.184852805018046],[-124.38189225572255,43.26989971438714],[-124.40342801968019,43.305980221392204],[-124.34241002180022,43.351510384993844],[-124.31369566985668,43.38844995168951],[-124.25626696596964,43.5018458308483],[-124.22037402604025,43.61094641155411]]]}},{"type":"Feature","id":"41013","properties":{"name":"Crook","county_fips":"41013","state_abbr":"OR"},"geometry":{"type":"Polygon","coordinates":[[[-121.10845613416134,44.390972610616096],[-120.99000943239432,44.3901135509255],[-120.99000943239432,44.47687857967579],[-120.82849120271203,44.47687857967579],[-120.82849120271203,44.56278454873548],[-120.3870080415804,44.56364360842608],[-120.3870080415804,44.436502774217736],[-120.02090005430054,44.43907995328953],[-120.02090005430054,44.3901135509255],[-119.89886405854057,44.38925449123491],[-119.89886405854057,44.3067847609376],[-119.65479206702067,44.3067847609376],[-119.6583813610136,43.95886558624586],[-119.77682806278062,43.95886558624586],[-119.77682806278062,43.697711440304396],[-119.89886405854057,43.69857049999499],[-120.25779345783457,43.69857049999499],[-120.25779345783457,43.78533552874528],[-120.37982945359454,43.78533552874528],[-120.37982945359454,43.87210055749557],[-120.74952673486735,43.871241497804974],[-120.74952673486735,43.95714746686466],[-120.98642013840137,43.96058370562705],[-120.98642013840137,44.13411376312762],[-121.10127754617545,44.13840906158061],[-121.10845613416134,44.21830161280612],[-121.10845613416134,44.390972610616096]]]}},{"type":"Feature","id":"41015","properties":{"name":"Curry","county_fips":"41015","state_abbr":"OR"},"geometry":{"type":"Polygon","coordinates":[[[-124.47880319353192,42.954624807938075],[-124.25985625996259,42.954624807938075],[-124.22037402604025,42.93400737536375],[-124.21319543805437,42.90394028619286],[-124.14140955819558,42.850678585375846],[-124.16653461614615,42.81803431713316],[-124.15935602816027,42.739859885288844],[-124.13782026420263,42.739859885288844],[-124.1342309702097,42.66683981158811],[-124.09115944229441,42.68573912478124],[-123.99783779847797,42.68573912478124],[-123.99783779847797,42.70034313952139],[-123.92605191861918,42.739859885288844],[-123.92605191861918,42.77422227291272],[-123.8111945108451,42.78882628765287],[-123.78248015890158,42.79913500394003],[-123.71787286702866,42.78367192950929],[-123.75376580695806,42.7243968108581],[-123.81837309883099,42.64794049839497],[-123.81837309883099,42.612719051080504],[-123.85067674476744,42.58351102160021],[-123.85426603876039,42.550866753357525],[-123.89015897868978,42.501041291302904],[-123.9906592104921,42.5019003509935],[-124.01219497444973,42.412558143171424],[-124.03732003240032,42.40224942688426],[-124.03014144441443,42.36101456173561],[-123.89015897868978,42.35328302452024],[-123.8470874507745,42.31806157720577],[-123.79683733487335,42.219269712787124],[-123.81478380483804,42.16772613135131],[-123.85785533275332,42.13937716156161],[-123.82555168681685,42.09126981888818],[-123.8470874507745,42.03972623745237],[-123.82196239282392,41.995914193231926],[-124.21319543805437,41.99849137230372],[-124.28857061190611,42.045739655286546],[-124.34241002180022,42.092987938269374],[-124.36753507975078,42.15226305692056],[-124.36035649176492,42.18061202671026],[-124.41060660766607,42.250195861648606],[-124.40342801968019,42.27768577174771],[-124.42855307763077,42.331806532255314],[-124.43573166561666,42.44004805327052],[-124.38907084370842,42.56632982778827],[-124.41419590165901,42.65824921468214],[-124.47521389953899,42.73298740776407],[-124.51469613346133,42.734705527145266],[-124.55417836738366,42.84036986908868],[-124.47880319353192,42.954624807938075]]]}},{"type":"Feature","id":"41017","properties":{"name":"Deschutes","county_fips":"41017","state_abbr":"OR"},"geometry":{"type":"Polygon","coordinates":[[[-121.81913634476345,44.26211365702656],[-121.84067210872108,44.28530826867268],[-121.84426140271401,44.39269072999729],[-121.10845613416134,44.390972610616096],[-121.10845613416134,44.21830161280612],[-121.10127754617545,44.13840906158061],[-120.98642013840137,44.13411376312762],[-120.98642013840137,43.96058370562705],[-120.74952673486735,43.95714746686466],[-120.74952673486735,43.871241497804974],[-120.37982945359454,43.87210055749557],[-120.37982945359454,43.78533552874528],[-120.25779345783457,43.78533552874528],[-120.25779345783457,43.69857049999499],[-119.89886405854057,43.69857049999499],[-119.89527476454764,43.61094641155411],[-120.3762401596016,43.61180547124471],[-121.33458165571655,43.616959829388286],[-122.00219033840338,43.61524171000709],[-121.96629739847398,43.62726854567545],[-121.98783316243161,43.66163093329933],[-121.96270810448104,43.763859036480355],[-121.97706528045279,43.85663748306482],[-121.90169010660105,43.91591260171601],[-121.8693864606646,43.91247636295362],[-121.85861857868578,43.96487900408003],[-121.82272563875638,44.01126822737227],[-121.8334935207352,44.037040018090174],[-121.80118987479874,44.052503092520915],[-121.76888622886227,44.10146949488494],[-121.78683269882697,44.232905627546266],[-121.81913634476345,44.26211365702656]]]}},{"type":"Feature","id":"41019","properties":{"name":"Douglas","county_fips":"41019","state_abbr":"OR"},"geometry":{"type":"Polygon","coordinates":[[[-124.15935602816027,43.863509960589596],[-123.94758768257682,43.862650900899],[-123.92605191861918,43.89873140790407],[-123.90092686066859,43.89615422883228],[-123.82555168681685,43.9451206311963],[-123.70351569105691,43.944261571505706],[-123.66044416314162,43.92192601955019],[-123.61737263522635,43.921066959859594],[-123.62096192921928,43.8918589303793],[-123.577890401304,43.8909998706887],[-123.58147969529693,43.86866431873318],[-123.52764028540284,43.86866431873318],[-123.52764028540284,43.83000663265632],[-123.4702115815158,43.83086569234692],[-123.4702115815158,43.81024825977259],[-123.34817558575585,43.809389200081995],[-123.34817558575585,43.7801811706017],[-123.13999653416533,43.7793221109111],[-123.13640724017239,43.605792053410525],[-123.10769288822888,43.605792053410525],[-123.10769288822888,43.539644457234566],[-122.741584900949,43.544798815378144],[-122.741584900949,43.43741635405353],[-122.49033432144321,43.44171165250652],[-122.13140492214922,43.439993533125325],[-122.06320833628335,43.40649020519204],[-122.02013680836808,43.359241922209215],[-122.00936892638926,43.28879902758027],[-121.97706528045279,43.26045005779057],[-122.04167257232572,43.216638013570126],[-122.03808327833278,43.190007163161624],[-122.0667976302763,43.15220853677536],[-122.09551198221982,43.06802068709686],[-122.26779809388094,43.06802068709686],[-122.2821552698527,42.99671873277732],[-122.40060197161971,42.99671873277732],[-122.46161996949968,42.940020793197924],[-122.55853090730906,42.939161733507326],[-122.55853090730906,42.92455771876718],[-122.67697760907609,42.88074567454674],[-122.73799560695606,42.82318867527675],[-122.77388854688546,42.82920209311092],[-122.7954243108431,42.778517571365704],[-122.94976395253951,42.77508133260332],[-123.0107819504195,42.7518867209572],[-123.15076441614416,42.75618201941019],[-123.22972888398883,42.70292031859318],[-123.27280041190411,42.73212834807347],[-123.37330064370643,42.739859885288844],[-123.46662228752287,42.69948407983079],[-123.5419974613746,42.70979279611795],[-123.58147969529693,42.739859885288844],[-123.71787286702866,42.739859885288844],[-123.71787286702866,42.78367192950929],[-123.78248015890158,42.79913500394003],[-123.8111945108451,42.78882628765287],[-123.82196239282392,42.824047734967344],[-123.82196239282392,42.99671873277732],[-123.76094439494395,42.99671873277732],[-123.76094439494395,43.08348376152761],[-123.70351569105691,43.08692000028999],[-123.70351569105691,43.25787287871878],[-123.76453368893688,43.25787287871878],[-123.76453368893688,43.43140293621936],[-123.81837309883099,43.43140293621936],[-123.81837309883099,43.51644984558845],[-123.87580180271803,43.51559078589785],[-123.87580180271803,43.60836923248232],[-124.22037402604025,43.61094641155411],[-124.15935602816027,43.863509960589596]]]}},{"type":"Feature","id":"41021","properties":{"name":"Gilliam","county_fips":"41021","state_abbr":"OR"},"geometry":{"type":"Polygon","coordinates":[[[-120.65261579705796,45.73711914578145],[-120.59159779917798,45.746568802378015],[-120.48391897938978,45.69416616125161],[-120.4049545115451,45.69932051939519],[-120.28291851578516,45.72165607135071],[-120.21113263592636,45.72595136980369],[-120.17165040200402,45.76203187680876],[-120.07115017020169,45.785226488454875],[-119.9993642903429,45.81271639855398],[-120.00654287832877,45.51719986498864],[-120.00654287832877,45.257763838428374],[-119.88091758857587,45.25690477873778],[-119.88450688256881,45.169280690296894],[-119.75888159281592,45.169280690296894],[-119.76247088680887,45.08165660185601],[-119.79118523875238,45.06791164680646],[-119.94911417444175,45.06619352742527],[-120.4946868613686,45.06791164680646],[-120.50545474334743,45.083374721237206],[-120.45879392143921,45.11687804917048],[-120.48032968539684,45.191616242252415],[-120.530579801298,45.20536119730197],[-120.55570485924858,45.2526094802848],[-120.52699050730507,45.402944926139256],[-120.48391897938978,45.41840800057],[-120.49109756737568,45.46823346262462],[-120.44802603946039,45.48455559674596],[-120.41213309953099,45.469092522315215],[-120.41931168751687,45.500018671176704],[-120.36547227762277,45.49572337272372],[-120.40854380553805,45.55929378982789],[-120.40854380553805,45.59451523714237],[-120.4408474514745,45.62544138600385],[-120.46597250942509,45.619427968169674],[-120.48750827338273,45.652931296102956],[-120.5485262712627,45.67011248991489],[-120.65261579705796,45.73711914578145]]]}},{"type":"Feature","id":"41023","properties":{"name":"Grant","county_fips":"41023","state_abbr":"OR"},"geometry":{"type":"Polygon","coordinates":[[[-119.67273853698536,44.994891573105726],[-119.1630587899879,44.99660969248692],[-118.5169858712587,44.99575063279632],[-118.43802140341403,44.98458285681856],[-118.4344321094211,44.96224730486304],[-118.36264622956229,44.99059627465274],[-118.29803893768937,44.961388245172444],[-118.24419952779527,44.95881106610065],[-118.22625305783058,44.93991175290752],[-118.22625305783058,44.86689167920679],[-118.29444964369642,44.864314500134995],[-118.31598540765407,44.836824590035896],[-118.28368176171762,44.76981793416933],[-118.29444964369642,44.74662332252322],[-118.36623552355522,44.74748238221382],[-118.46673575535755,44.70538845737457],[-118.5169858712587,44.70538845737457],[-118.50262869528694,44.66587171160711],[-118.34111046560466,44.63065026429263],[-118.30521752567525,44.5859791603816],[-118.37341411154111,44.52756310142101],[-118.36264622956229,44.4725832812228],[-118.42007493344933,44.45110678895788],[-118.4344321094211,44.40729474473744],[-118.4093070514705,44.372073297422965],[-118.47032504935049,44.33255655165551],[-118.499039401294,44.27070425393253],[-118.4810929313293,44.25524117950179],[-118.23343164581645,44.256100239192385],[-118.22625305783058,44.03961719716197],[-118.5887717511175,44.040476256852564],[-118.81848656666565,44.048207794067935],[-118.81848656666565,43.96058370562705],[-119.6583813610136,43.95886558624586],[-119.65479206702067,44.3067847609376],[-119.65120277302772,44.82307963498634],[-119.67273853698536,44.82307963498634],[-119.67273853698536,44.994891573105726]]]}},{"type":"Feature","id":"41025","properties":{"name":"Harney","county_fips":"41025","state_abbr":"OR"},"geometry":{"type":"Polygon","coordinates":[[[-119.89527476454764,43.61094641155411],[-119.89886405854057,43.69857049999499],[-119.77682806278062,43.697711440304396],[-119.77682806278062,43.95886558624586],[-119.6583813610136,43.95886558624586],[-118.81848656666565,43.96058370562705],[-118.81848656666565,44.048207794067935],[-118.5887717511175,44.040476256852564],[-118.22625305783058,44.03961719716197],[-118.22625305783058,43.79736236441364],[-118.23343164581645,43.770731514005135],[-118.23343164581645,43.374704996639956],[-118.22984235182352,43.34893320592205],[-118.22984235182352,42.91424900248002],[-118.21548517585175,42.91510806217062],[-118.21548517585175,42.27596765236652],[-118.19394941189411,42.27596765236652],[-118.19753870588704,41.99677325292252],[-118.69645057090571,41.99161889477894],[-119.32457701967019,41.99419607385073],[-119.36046995959958,41.99419607385073],[-119.36405925359253,42.13765904218042],[-119.36405925359253,42.74930954188541],[-119.9455248804488,42.746732362813624],[-119.94193558645586,42.916826181551805],[-119.93116770447705,42.916826181551805],[-119.93116770447705,43.178839387183864],[-119.89527476454764,43.178839387183864],[-119.89527476454764,43.61094641155411]]]}},{"type":"Feature","id":"41027","properties":{"name":"Hood River","county_fips":"41027","state_abbr":"OR"},"geometry":{"type":"Polygon","coordinates":[[[-121.9232258705587,45.649495057340566],[-121.86579716667165,45.69330710156101],[-121.81195775677756,45.70705205661056],[-121.73658258292582,45.69416616125161],[-121.63249305713057,45.704474877538765],[-121.52481423734237,45.72509231011309],[-121.44226047550475,45.69760240001399],[-121.44226047550475,45.51977704406043],[-121.4817427094271,45.51977704406043],[-121.4817427094271,45.257763838428374],[-121.69710034900348,45.257763838428374],[-121.67915387903878,45.29728058419583],[-121.70427893698937,45.33164297181971],[-121.69710034900348,45.37373689665896],[-121.77606481684816,45.402944926139256],[-121.81913634476345,45.461360985099844],[-121.89451151861518,45.51376362622626],[-121.91604728257282,45.546407894468935],[-121.9232258705587,45.649495057340566]]]}},{"type":"Feature","id":"41029","properties":{"name":"Jackson","county_fips":"41029","state_abbr":"OR"},"geometry":{"type":"Polygon","coordinates":[[[-123.22972888398883,42.003645730447296],[-123.22972888398883,42.70292031859318],[-123.15076441614416,42.75618201941019],[-123.0107819504195,42.7518867209572],[-122.94976395253951,42.77508133260332],[-122.7954243108431,42.778517571365704],[-122.77388854688546,42.82920209311092],[-122.73799560695606,42.82318867527675],[-122.67697760907609,42.88074567454674],[-122.55853090730906,42.92455771876718],[-122.55853090730906,42.939161733507326],[-122.46161996949968,42.940020793197924],[-122.40060197161971,42.99671873277732],[-122.2821552698527,42.99671873277732],[-122.28574456384564,42.28885354772547],[-122.28933385783857,42.007941028900284],[-122.50110220342202,42.00880008859088],[-122.6339060811608,42.004504790137894],[-123.0466748903489,42.0027866707567],[-123.14717512215121,42.00965914828148],[-123.22972888398883,42.003645730447296]]]}},{"type":"Feature","id":"41031","properties":{"name":"Jefferson","county_fips":"41031","state_abbr":"OR"},"geometry":{"type":"Polygon","coordinates":[[[-121.80118987479874,44.683052905419046],[-121.80477916879168,44.72944212871128],[-121.76170764087641,44.76208639695396],[-121.81195775677756,44.78184476983769],[-121.80836846278461,44.814489038080374],[-121.75452905289052,44.829952112511116],[-121.72581470094701,44.825656814058135],[-121.09050966419663,44.82307963498634],[-120.37265086560865,44.82136151560515],[-120.4049545115451,44.794730665196646],[-120.3870080415804,44.761227337263364],[-120.3870080415804,44.56364360842608],[-120.82849120271203,44.56278454873548],[-120.82849120271203,44.47687857967579],[-120.99000943239432,44.47687857967579],[-120.99000943239432,44.3901135509255],[-121.10845613416134,44.390972610616096],[-121.84426140271401,44.39269072999729],[-121.84785069670696,44.491482594415935],[-121.80836846278461,44.51639532544325],[-121.79401128681286,44.59371069759697],[-121.81195775677756,44.614328130171295],[-121.80118987479874,44.683052905419046]]]}},{"type":"Feature","id":"41033","properties":{"name":"Josephine","county_fips":"41033","state_abbr":"OR"},"geometry":{"type":"Polygon","coordinates":[[[-123.71787286702866,42.78367192950929],[-123.71787286702866,42.739859885288844],[-123.58147969529693,42.739859885288844],[-123.5419974613746,42.70979279611795],[-123.46662228752287,42.69948407983079],[-123.37330064370643,42.739859885288844],[-123.27280041190411,42.73212834807347],[-123.22972888398883,42.70292031859318],[-123.22972888398883,42.003645730447296],[-123.34817558575585,41.999350431994316],[-123.51687240342403,42.0010685513755],[-123.65685486914867,41.99505513354133],[-123.82196239282392,41.995914193231926],[-123.8470874507745,42.03972623745237],[-123.82555168681685,42.09126981888818],[-123.85785533275332,42.13937716156161],[-123.81478380483804,42.16772613135131],[-123.79683733487335,42.219269712787124],[-123.8470874507745,42.31806157720577],[-123.89015897868978,42.35328302452024],[-124.03014144441443,42.36101456173561],[-124.03732003240032,42.40224942688426],[-124.01219497444973,42.412558143171424],[-123.9906592104921,42.5019003509935],[-123.89015897868978,42.501041291302904],[-123.85426603876039,42.550866753357525],[-123.85067674476744,42.58351102160021],[-123.81837309883099,42.612719051080504],[-123.81837309883099,42.64794049839497],[-123.75376580695806,42.7243968108581],[-123.71787286702866,42.78367192950929]]]}},{"type":"Feature","id":"41035","properties":{"name":"Klamath","county_fips":"41035","state_abbr":"OR"},"geometry":{"type":"Polygon","coordinates":[[[-122.2821552698527,42.99671873277732],[-122.26779809388094,43.06802068709686],[-122.09551198221982,43.06802068709686],[-122.0667976302763,43.15220853677536],[-122.03808327833278,43.190007163161624],[-122.04167257232572,43.216638013570126],[-121.97706528045279,43.26045005779057],[-122.00936892638926,43.28879902758027],[-122.02013680836808,43.359241922209215],[-122.06320833628335,43.40649020519204],[-122.13140492214922,43.439993533125325],[-122.12781562815627,43.49669147270472],[-122.14935139211391,43.520745144041435],[-122.13140492214922,43.5576847107371],[-122.00219033840338,43.61524171000709],[-121.33458165571655,43.616959829388286],[-121.33099236172362,43.35666474313742],[-121.34893883168832,43.35666474313742],[-121.34893883168832,42.746732362813624],[-120.88233061260613,42.74415518374183],[-120.87874131861318,42.48300103780037],[-120.88233061260613,42.3369608903989],[-120.87874131861318,41.99419607385073],[-121.03667025430254,41.99333701416013],[-121.44584976949768,41.99677325292252],[-121.99860104441044,42.003645730447296],[-122.28933385783857,42.007941028900284],[-122.28574456384564,42.28885354772547],[-122.2821552698527,42.99671873277732]]]}},{"type":"Feature","id":"41037","properties":{"name":"Lake","county_fips":"41037","state_abbr":"OR"},"geometry":{"type":"Polygon","coordinates":[[[-121.33458165571655,43.616959829388286],[-120.3762401596016,43.61180547124471],[-119.89527476454764,43.61094641155411],[-119.89527476454764,43.178839387183864],[-119.93116770447705,43.178839387183864],[-119.93116770447705,42.916826181551805],[-119.94193558645586,42.916826181551805],[-119.9455248804488,42.746732362813624],[-119.36405925359253,42.74930954188541],[-119.36405925359253,42.13765904218042],[-119.36046995959958,41.99419607385073],[-119.88809617656176,41.99763231261312],[-119.9993642903429,41.99505513354133],[-119.9993642903429,41.99419607385073],[-119.9993642903429,41.99505513354133],[-120.32957933769336,41.99333701416013],[-120.87874131861318,41.99419607385073],[-120.88233061260613,42.3369608903989],[-120.87874131861318,42.48300103780037],[-120.88233061260613,42.74415518374183],[-121.34893883168832,42.746732362813624],[-121.34893883168832,43.35666474313742],[-121.33099236172362,43.35666474313742],[-121.33458165571655,43.616959829388286]]]}},{"type":"Feature","id":"41039","properties":{"name":"Lane","county_fips":"41039","state_abbr":"OR"},"geometry":{"type":"Polygon","coordinates":[[[-124.116284500245,44.275858612076114],[-123.7753015709157,44.283590149291484],[-123.59224757727577,44.27671767176671],[-123.59224757727577,44.28187202991029],[-123.17947876808768,44.283590149291484],[-123.17947876808768,44.2509458810488],[-123.15076441614416,44.22689220971209],[-123.16512159211592,44.20026135930359],[-122.90669242462424,44.20112041899418],[-122.90310313063131,44.259536477954775],[-122.8672101907019,44.25867741826418],[-122.8672101907019,44.287026388053874],[-122.76312066490664,44.29046262681626],[-122.64826325713256,44.26640895547955],[-122.57647737727376,44.22775126940269],[-122.38624479564794,44.217442553115525],[-122.32881609176091,44.23118750816507],[-122.32881609176091,44.252664000429995],[-121.81913634476345,44.26211365702656],[-121.78683269882697,44.232905627546266],[-121.76888622886227,44.10146949488494],[-121.80118987479874,44.052503092520915],[-121.8334935207352,44.037040018090174],[-121.82272563875638,44.01126822737227],[-121.85861857868578,43.96487900408003],[-121.8693864606646,43.91247636295362],[-121.90169010660105,43.91591260171601],[-121.97706528045279,43.85663748306482],[-121.96270810448104,43.763859036480355],[-121.98783316243161,43.66163093329933],[-121.96629739847398,43.62726854567545],[-122.00219033840338,43.61524171000709],[-122.13140492214922,43.5576847107371],[-122.14935139211391,43.520745144041435],[-122.12781562815627,43.49669147270472],[-122.13140492214922,43.439993533125325],[-122.49033432144321,43.44171165250652],[-122.741584900949,43.43741635405353],[-122.741584900949,43.544798815378144],[-123.10769288822888,43.539644457234566],[-123.10769288822888,43.605792053410525],[-123.13640724017239,43.605792053410525],[-123.13999653416533,43.7793221109111],[-123.34817558575585,43.7801811706017],[-123.34817558575585,43.809389200081995],[-123.4702115815158,43.81024825977259],[-123.4702115815158,43.83086569234692],[-123.52764028540284,43.83000663265632],[-123.52764028540284,43.86866431873318],[-123.58147969529693,43.86866431873318],[-123.577890401304,43.8909998706887],[-123.62096192921928,43.8918589303793],[-123.61737263522635,43.921066959859594],[-123.66044416314162,43.92192601955019],[-123.70351569105691,43.944261571505706],[-123.82555168681685,43.9451206311963],[-123.90092686066859,43.89615422883228],[-123.92605191861918,43.89873140790407],[-123.94758768257682,43.862650900899],[-124.15935602816027,43.863509960589596],[-124.14140955819558,43.95800652655526],[-124.116284500245,44.171912389513885],[-124.116284500245,44.275858612076114]]]}},{"type":"Feature","id":"41041","properties":{"name":"Lincoln","county_fips":"41041","state_abbr":"OR"},"geometry":{"type":"Polygon","coordinates":[[[-124.00501638646386,45.044717035160346],[-123.72505145501455,45.044717035160346],[-123.72505145501455,44.73889178530784],[-123.70351569105691,44.72085153180531],[-123.60301545925458,44.72085153180531],[-123.59942616526165,44.433066535455346],[-123.7214621610216,44.433066535455346],[-123.71428357303571,44.360046461754614],[-123.73581933699336,44.34544244701446],[-123.81837309883099,44.344583387323866],[-123.81478380483804,44.31537535784357],[-123.7753015709157,44.31623441753417],[-123.7753015709157,44.283590149291484],[-124.116284500245,44.275858612076114],[-124.0803915603156,44.441657132361314],[-124.08398085430854,44.5009322510125],[-124.05885579635796,44.65899923408233],[-124.05885579635796,44.73803272561725],[-124.07680226632266,44.77153605355053],[-124.04808791437914,44.849710485394844],[-124.00501638646386,45.044717035160346]]]}},{"type":"Feature","id":"41043","properties":{"name":"Linn","county_fips":"41043","state_abbr":"OR"},"geometry":{"type":"Polygon","coordinates":[[[-123.15076441614416,44.71999247211471],[-123.14358582815828,44.749200501595006],[-123.04308559635595,44.73803272561725],[-123.00001406844068,44.68648914418144],[-122.9569425405254,44.72085153180531],[-122.93540677656776,44.71483811397113],[-122.80260289882898,44.791294426434256],[-122.72004913699136,44.791294426434256],[-122.68415619706195,44.775831352003514],[-122.6159596111961,44.78871724736246],[-122.50110220342202,44.7500595612856],[-122.31804820978209,44.75865015819157],[-122.2821552698527,44.7509186209762],[-122.2283158599586,44.6967978604686],[-122.13499421614216,44.7234287108771],[-122.03449398433983,44.68648914418144],[-121.80118987479874,44.683052905419046],[-121.81195775677756,44.614328130171295],[-121.79401128681286,44.59371069759697],[-121.80836846278461,44.51639532544325],[-121.84785069670696,44.491482594415935],[-121.84426140271401,44.39269072999729],[-121.84067210872108,44.28530826867268],[-121.81913634476345,44.26211365702656],[-122.32881609176091,44.252664000429995],[-122.32881609176091,44.23118750816507],[-122.38624479564794,44.217442553115525],[-122.57647737727376,44.22775126940269],[-122.64826325713256,44.26640895547955],[-122.76312066490664,44.29046262681626],[-122.8672101907019,44.287026388053874],[-122.8672101907019,44.25867741826418],[-122.90310313063131,44.259536477954775],[-122.90669242462424,44.20112041899418],[-123.16512159211592,44.20026135930359],[-123.15076441614416,44.22689220971209],[-123.17947876808768,44.2509458810488],[-123.17947876808768,44.283590149291484],[-123.21537170801707,44.32482501444014],[-123.2440860599606,44.33169749196491],[-123.21896100201002,44.360046461754614],[-123.22972888398883,44.43220747576475],[-123.20460382603825,44.44337525174251],[-123.21178241402413,44.50522754946549],[-123.25844323593236,44.55505301152011],[-123.25485394193942,44.572234205332045],[-123.18306806208062,44.58769727976279],[-123.17230018010179,44.63408650305502],[-123.07179994829949,44.65040863717636],[-123.11846077020769,44.67703948758487],[-123.15076441614416,44.71999247211471]]]}},{"type":"Feature","id":"41045","properties":{"name":"Malheur","county_fips":"41045","state_abbr":"OR"},"geometry":{"type":"Polygon","coordinates":[[[-118.23343164581645,44.256100239192385],[-118.15446717797178,44.27070425393253],[-118.15087788397884,44.29991228341283],[-118.0934491800918,44.329120312893124],[-118.07191341613415,44.372073297422965],[-118.03243118221181,44.3901135509255],[-118.01089541825417,44.42963029669296],[-117.97141318433184,44.44423431143311],[-117.59094802108021,44.44423431143311],[-117.56941225712256,44.41588534164341],[-117.48685849528495,44.38753637185371],[-117.48685849528495,44.29991228341283],[-117.22125073980739,44.30163040279402],[-117.17100062390622,44.25867741826418],[-117.10280403804038,44.2801539105291],[-117.04537533415333,44.22946938878388],[-116.97358945429454,44.239778105071046],[-116.96641086630865,44.194247941469406],[-116.90180357443575,44.17964392672926],[-116.8982142804428,44.153013076320754],[-116.9341072203722,44.09975137550375],[-116.97717874828749,44.0851473607636],[-116.97358945429454,44.04906685375853],[-116.9341072203722,44.02157694365943],[-116.93769651436514,43.98463737696376],[-116.98076804228042,43.91505354202541],[-116.98076804228042,43.87983209471094],[-117.02025027620274,43.859214662136615],[-117.02742886418864,43.8085301403914],[-117.02742886418864,43.68053024649246],[-117.02742886418864,42.00020949168491],[-117.62325166701666,41.99849137230372],[-118.19753870588704,41.99677325292252],[-118.19394941189411,42.27596765236652],[-118.21548517585175,42.27596765236652],[-118.21548517585175,42.91510806217062],[-118.22984235182352,42.91424900248002],[-118.22984235182352,43.34893320592205],[-118.23343164581645,43.374704996639956],[-118.23343164581645,43.770731514005135],[-118.22625305783058,43.79736236441364],[-118.22625305783058,44.03961719716197],[-118.23343164581645,44.256100239192385]]]}},{"type":"Feature","id":"41047","properties":{"name":"Marion","county_fips":"41047","state_abbr":"OR"},"geometry":{"type":"Polygon","coordinates":[[[-123.06821065430654,45.07478412433124],[-122.99642477444775,45.11687804917048],[-123.0287284203842,45.1409317205072],[-123.00001406844068,45.16584445153451],[-123.039496302363,45.22082427173271],[-123.00001406844068,45.2242605104951],[-123.00001406844068,45.261200077190765],[-122.96771042250421,45.28525374852748],[-122.89951383663836,45.25690477873778],[-122.8492637207372,45.25948195780957],[-122.83490654476543,45.27408597254972],[-122.73799560695606,45.25948195780957],[-122.75594207692076,45.172716929059284],[-122.78824572285723,45.12976394452944],[-122.74876348893488,45.10828745226451],[-122.7056919610196,45.05932104990049],[-122.59442384723846,45.01980430413303],[-122.53699514335142,44.937334573835734],[-122.38983408964089,44.88579099239992],[-121.73299328893287,44.88579099239992],[-121.75452905289052,44.829952112511116],[-121.80836846278461,44.814489038080374],[-121.81195775677756,44.78184476983769],[-121.76170764087641,44.76208639695396],[-121.80477916879168,44.72944212871128],[-121.80118987479874,44.683052905419046],[-122.03449398433983,44.68648914418144],[-122.13499421614216,44.7234287108771],[-122.2283158599586,44.6967978604686],[-122.2821552698527,44.7509186209762],[-122.31804820978209,44.75865015819157],[-122.50110220342202,44.7500595612856],[-122.6159596111961,44.78871724736246],[-122.68415619706195,44.775831352003514],[-122.72004913699136,44.791294426434256],[-122.80260289882898,44.791294426434256],[-122.93540677656776,44.71483811397113],[-122.9569425405254,44.72085153180531],[-123.00001406844068,44.68648914418144],[-123.04308559635595,44.73803272561725],[-123.14358582815828,44.749200501595006],[-123.14717512215121,44.76981793416933],[-123.08974641826418,44.81191185900858],[-123.17588947409473,44.83167023189231],[-123.11128218222181,44.930462096310954],[-123.04308559635595,44.94420705136051],[-123.039496302363,44.988019095580945],[-123.07538924229242,45.014649945989454],[-123.06821065430654,45.07478412433124]]]}},{"type":"Feature","id":"41049","properties":{"name":"Morrow","county_fips":"41049","state_abbr":"OR"},"geometry":{"type":"Polygon","coordinates":[[[-119.9993642903429,45.81271639855398],[-119.86656041260412,45.83591101020009],[-119.66914924299243,45.85652844277442],[-119.6224884210842,45.90549484513844],[-119.57223830518305,45.92525321802217],[-119.48609524935249,45.90635390482904],[-119.43225583945838,45.9183807404974],[-119.43584513345132,45.603105834048336],[-119.24920184581845,45.60224677435774],[-119.24920184581845,45.51634080529804],[-119.1451123200232,45.515481745607445],[-119.1451123200232,45.08251566154661],[-119.1630587899879,45.08251566154661],[-119.1630587899879,44.99660969248692],[-119.67273853698536,44.994891573105726],[-119.79118523875238,44.994891573105726],[-119.79118523875238,45.06791164680646],[-119.76247088680887,45.08165660185601],[-119.75888159281592,45.169280690296894],[-119.88450688256881,45.169280690296894],[-119.88091758857587,45.25690477873778],[-120.00654287832877,45.257763838428374],[-120.00654287832877,45.51719986498864],[-119.9993642903429,45.81271639855398]]]}},{"type":"Feature","id":"41051","properties":{"name":"Multnomah","county_fips":"41051","state_abbr":"OR"},"geometry":{"type":"Polygon","coordinates":[[[-122.92822818858187,45.72165607135071],[-122.78465642886428,45.72079701166011],[-122.76312066490664,45.72852854887548],[-122.76312066490664,45.65636753486534],[-122.64467396313962,45.60997831157311],[-122.47956643946438,45.57991122240222],[-122.44008420554205,45.56358908828088],[-122.37906620766208,45.57561592394923],[-122.33240538575384,45.54812601385013],[-122.24985162391623,45.54812601385013],[-122.18524433204331,45.577334043330424],[-122.1026905702057,45.58334746116461],[-121.9232258705587,45.649495057340566],[-121.91604728257282,45.546407894468935],[-121.89451151861518,45.51376362622626],[-121.81913634476345,45.461360985099844],[-122.6410846691467,45.461360985099844],[-122.64826325713256,45.43301201531015],[-122.74517419494194,45.43301201531015],[-122.74517419494194,45.51634080529804],[-122.80619219282192,45.56273002859028],[-122.84567442674427,45.577334043330424],[-122.92822818858187,45.64262257981579],[-122.92822818858187,45.72165607135071]]]}},{"type":"Feature","id":"41053","properties":{"name":"Polk","county_fips":"41053","state_abbr":"OR"},"geometry":{"type":"Polygon","coordinates":[[[-123.72505145501455,45.044717035160346],[-123.72505145501455,45.07650224371243],[-123.49533663946639,45.07478412433124],[-123.06821065430654,45.07478412433124],[-123.07538924229242,45.014649945989454],[-123.039496302363,44.988019095580945],[-123.04308559635595,44.94420705136051],[-123.11128218222181,44.930462096310954],[-123.17588947409473,44.83167023189231],[-123.08974641826418,44.81191185900858],[-123.14717512215121,44.76981793416933],[-123.14358582815828,44.749200501595006],[-123.15076441614416,44.71999247211471],[-123.60301545925458,44.72085153180531],[-123.70351569105691,44.72085153180531],[-123.72505145501455,44.73889178530784],[-123.72505145501455,45.044717035160346]]]}},{"type":"Feature","id":"41055","properties":{"name":"Sherman","county_fips":"41055","state_abbr":"OR"},"geometry":{"type":"Polygon","coordinates":[[[-120.91463425854258,45.6409044604346],[-120.85720555465554,45.67183060929609],[-120.68850873698736,45.715642653516525],[-120.65261579705796,45.73711914578145],[-120.5485262712627,45.67011248991489],[-120.48750827338273,45.652931296102956],[-120.46597250942509,45.619427968169674],[-120.4408474514745,45.62544138600385],[-120.40854380553805,45.59451523714237],[-120.40854380553805,45.55929378982789],[-120.36547227762277,45.49572337272372],[-120.41931168751687,45.500018671176704],[-120.41213309953099,45.469092522315215],[-120.44802603946039,45.48455559674596],[-120.49109756737568,45.46823346262462],[-120.48391897938978,45.41840800057],[-120.52699050730507,45.402944926139256],[-120.55570485924858,45.2526094802848],[-120.530579801298,45.20536119730197],[-120.48032968539684,45.191616242252415],[-120.45879392143921,45.11687804917048],[-120.50545474334743,45.083374721237206],[-120.72440167691676,45.083374721237206],[-120.72440167691676,45.13148206391063],[-120.77106249882499,45.16240821277212],[-120.87156273062729,45.19848871977719],[-120.98642013840137,45.19848871977719],[-121.02231307833077,45.22168333142331],[-121.02231307833077,45.291267166361656],[-120.9792415504155,45.322193315223146],[-120.95770578645786,45.30930741986419],[-120.93617002250022,45.34710604625045],[-120.90027708257082,45.3625691206812],[-120.86797343663436,45.41239458273582],[-120.85720555465554,45.46050192540925],[-120.82490190871908,45.51376362622626],[-120.87874131861318,45.526649521585206],[-120.9074556705567,45.55843473013729],[-120.89668778857788,45.585065580545795],[-120.91463425854258,45.6409044604346]]]}},{"type":"Feature","id":"41057","properties":{"name":"Tillamook","county_fips":"41057","state_abbr":"OR"},"geometry":{"type":"Polygon","coordinates":[[[-123.96912344653447,45.78350836907369],[-123.7214621610216,45.78350836907369],[-123.7214621610216,45.77319965278652],[-123.3625327617276,45.7792130706207],[-123.3625327617276,45.70877017599175],[-123.48456875748757,45.70877017599175],[-123.4235507596076,45.63575010229101],[-123.3804792316923,45.63575010229101],[-123.34099699776996,45.607401132501316],[-123.29792546985469,45.607401132501316],[-123.31946123381233,45.57905216271162],[-123.3625327617276,45.57905216271162],[-123.3625327617276,45.549844133231325],[-123.44149722957229,45.52149516344163],[-123.46662228752287,45.43301201531015],[-123.46303299352994,45.21652897327972],[-123.78606945289452,45.21652897327972],[-123.78248015890158,45.07650224371243],[-123.72505145501455,45.07650224371243],[-123.72505145501455,45.044717035160346],[-124.00501638646386,45.044717035160346],[-123.97630203452033,45.145227018960185],[-123.96194485854858,45.280099390383896],[-123.9727127405274,45.33679732996329],[-123.96194485854858,45.430434836238355],[-123.97630203452033,45.48970995488954],[-123.95835556455563,45.51032738746387],[-123.94040909459093,45.661521893008924],[-123.94399838858388,45.726810429494286],[-123.98348062250622,45.76203187680876],[-123.96912344653447,45.78350836907369]]]}},{"type":"Feature","id":"41059","properties":{"name":"Umatilla","county_fips":"41059","state_abbr":"OR"},"geometry":{"type":"Polygon","coordinates":[[[-119.43225583945838,45.9183807404974],[-119.25638043380434,45.93985723276232],[-119.19536243592435,45.92783039709396],[-119.1271658500585,45.93298475523755],[-119.02666561825617,45.969065262242616],[-118.98718338433383,45.999991411104105],[-117.99653824228241,46.0008504707947],[-117.97859177231771,46.0008504707947],[-117.97859177231771,45.86082374122741],[-117.97141318433184,45.86082374122741],[-117.97141318433184,45.81701169700696],[-118.04678835818358,45.81701169700696],[-118.06473482814827,45.77319965278652],[-118.06473482814827,45.688152743417426],[-118.11857423804237,45.68901180310802],[-118.11498494404944,45.47081064169641],[-118.19753870588704,45.47081064169641],[-118.19753870588704,45.426998597475965],[-118.4272535214352,45.42871671685716],[-118.4272535214352,45.35483758346583],[-118.61389680906808,45.35483758346583],[-118.61389680906808,45.34023356872568],[-118.69645057090571,45.345387926869265],[-118.69645057090571,45.257763838428374],[-118.65696833698337,45.257763838428374],[-118.65696833698337,45.19677060039599],[-118.54570022320223,45.19677060039599],[-118.54928951719516,45.08079754216541],[-118.5169858712587,45.08079754216541],[-118.5169858712587,44.99575063279632],[-119.1630587899879,44.99660969248692],[-119.1630587899879,45.08251566154661],[-119.1451123200232,45.08251566154661],[-119.1451123200232,45.515481745607445],[-119.24920184581845,45.51634080529804],[-119.24920184581845,45.60224677435774],[-119.43584513345132,45.603105834048336],[-119.43225583945838,45.9183807404974]]]}},{"type":"Feature","id":"41061","properties":{"name":"Union","county_fips":"41061","state_abbr":"OR"},"geometry":{"type":"Polygon","coordinates":[[[-117.97141318433184,45.86082374122741],[-117.74887695676955,45.86082374122741],[-117.74887695676955,45.77319965278652],[-117.78835919069189,45.77319965278652],[-117.78835919069189,45.68987086279862],[-117.74528766277662,45.66066283331833],[-117.72734119281192,45.61685078909788],[-117.72734119281192,45.514622685916855],[-117.68426966489665,45.515481745607445],[-117.68426966489665,45.42871671685716],[-117.662733900939,45.42871671685716],[-117.662733900939,45.366005359443584],[-117.6447874309743,45.33679732996329],[-117.58376943309432,45.338515449344484],[-117.58376943309432,45.31016647955479],[-117.52275143521435,45.26807255471554],[-117.51916214122141,45.20965649575495],[-117.47609061330613,45.20965649575495],[-117.47609061330613,45.1667035112251],[-117.26432226772266,45.1667035112251],[-117.26791156171561,45.08079754216541],[-117.56223366913667,45.07907942278422],[-117.56582296312962,44.99317345372453],[-117.77759130871308,44.99231439403393],[-117.79194848468484,45.025817721967215],[-117.842198600586,45.05846199020989],[-117.88885942249422,45.057602930519295],[-117.90680589245892,45.030113020420195],[-117.9678238903389,44.99575063279632],[-118.00012753627536,44.99403251341513],[-118.12934212002119,45.044717035160346],[-118.16164576595764,45.01550900568005],[-118.21548517585175,45.006918408774084],[-118.24419952779527,44.95881106610065],[-118.29803893768937,44.961388245172444],[-118.36264622956229,44.99059627465274],[-118.4344321094211,44.96224730486304],[-118.43802140341403,44.98458285681856],[-118.5169858712587,44.99575063279632],[-118.5169858712587,45.08079754216541],[-118.54928951719516,45.08079754216541],[-118.54570022320223,45.19677060039599],[-118.65696833698337,45.19677060039599],[-118.65696833698337,45.257763838428374],[-118.69645057090571,45.257763838428374],[-118.69645057090571,45.345387926869265],[-118.61389680906808,45.34023356872568],[-118.61389680906808,45.35483758346583],[-118.4272535214352,45.35483758346583],[-118.4272535214352,45.42871671685716],[-118.19753870588704,45.426998597475965],[-118.19753870588704,45.47081064169641],[-118.11498494404944,45.47081064169641],[-118.11857423804237,45.68901180310802],[-118.06473482814827,45.688152743417426],[-118.06473482814827,45.77319965278652],[-118.04678835818358,45.81701169700696],[-117.97141318433184,45.81701169700696],[-117.97141318433184,45.86082374122741]]]}},{"type":"Feature","id":"41063","properties":{"name":"Wallowa","county_fips":"41063","state_abbr":"OR"},"geometry":{"type":"Polygon","coordinates":[[[-117.97859177231771,46.0008504707947],[-117.60171590305902,45.99913235141351],[-117.47967990729907,45.99827329172291],[-116.9161607504075,45.99569611265112],[-116.85873204652046,45.90377672575725],[-116.79412475464754,45.85652844277442],[-116.76182110871108,45.816152637316364],[-116.69721381683817,45.82044793576935],[-116.66132087690876,45.7800721303113],[-116.5931242910429,45.7783540109301],[-116.53569558715586,45.73711914578145],[-116.53569558715586,45.691588982179816],[-116.48903476524765,45.649495057340566],[-116.46390970729706,45.603105834048336],[-116.55005276312762,45.51032738746387],[-116.55364205712056,45.46307910448104],[-116.58953499704997,45.44332073159731],[-116.67567805288053,45.314461778007775],[-116.68644593485934,45.26807255471554],[-116.72951746277462,45.1400726608166],[-116.77617828468284,45.10571027319273],[-116.78335687266872,45.07822036309362],[-117.26791156171561,45.08079754216541],[-117.26432226772266,45.1667035112251],[-117.47609061330613,45.1667035112251],[-117.47609061330613,45.20965649575495],[-117.51916214122141,45.20965649575495],[-117.52275143521435,45.26807255471554],[-117.58376943309432,45.31016647955479],[-117.58376943309432,45.338515449344484],[-117.6447874309743,45.33679732996329],[-117.662733900939,45.366005359443584],[-117.662733900939,45.42871671685716],[-117.68426966489665,45.42871671685716],[-117.68426966489665,45.515481745607445],[-117.72734119281192,45.514622685916855],[-117.72734119281192,45.61685078909788],[-117.74528766277662,45.66066283331833],[-117.78835919069189,45.68987086279862],[-117.78835919069189,45.77319965278652],[-117.74887695676955,45.77319965278652],[-117.74887695676955,45.86082374122741],[-117.97141318433184,45.86082374122741],[-117.97859177231771,45.86082374122741],[-117.97859177231771,46.0008504707947]]]}},{"type":"Feature","id":"41065","properties":{"name":"Wasco","county_fips":"41065","state_abbr":"OR"},"geometry":{"type":"Polygon","coordinates":[[[-121.69710034900348,45.257763838428374],[-121.4817427094271,45.257763838428374],[-121.4817427094271,45.51977704406043],[-121.44226047550475,45.51977704406043],[-121.44226047550475,45.69760240001399],[-121.33817094970948,45.70533393722936],[-121.21613495394953,45.67097154960549],[-121.18383130801308,45.60654207281072],[-121.1335811921119,45.60997831157311],[-121.06538460624606,45.652931296102956],[-120.9433486104861,45.65636753486534],[-120.91463425854258,45.6409044604346],[-120.89668778857788,45.585065580545795],[-120.9074556705567,45.55843473013729],[-120.87874131861318,45.526649521585206],[-120.82490190871908,45.51376362622626],[-120.85720555465554,45.46050192540925],[-120.86797343663436,45.41239458273582],[-120.90027708257082,45.3625691206812],[-120.93617002250022,45.34710604625045],[-120.95770578645786,45.30930741986419],[-120.9792415504155,45.322193315223146],[-121.02231307833077,45.291267166361656],[-121.02231307833077,45.22168333142331],[-120.98642013840137,45.19848871977719],[-120.87156273062729,45.19848871977719],[-120.77106249882499,45.16240821277212],[-120.72440167691676,45.13148206391063],[-120.72440167691676,45.083374721237206],[-120.50545474334743,45.083374721237206],[-120.4946868613686,45.06791164680646],[-120.47674039140391,44.980287558365575],[-120.48750827338273,44.95107952888528],[-120.43725815748157,44.89438158930589],[-120.45520462744626,44.86603261951619],[-120.37265086560865,44.82136151560515],[-121.09050966419663,44.82307963498634],[-121.72581470094701,44.825656814058135],[-121.75452905289052,44.829952112511116],[-121.73299328893287,44.88579099239992],[-121.71504681896818,44.90554936528365],[-121.78683269882697,44.945066111051105],[-121.80477916879168,45.011213707227064],[-121.77965411084111,45.036985497944976],[-121.71863611296112,45.037844557635566],[-121.65761811508114,45.06619352742527],[-121.66479670306703,45.11945522824227],[-121.69351105501053,45.11687804917048],[-121.74735046490464,45.20536119730197],[-121.68274317303172,45.22941486863868],[-121.69710034900348,45.257763838428374]]]}},{"type":"Feature","id":"41067","properties":{"name":"Washington","county_fips":"41067","state_abbr":"OR"},"geometry":{"type":"Polygon","coordinates":[[[-123.3625327617276,45.7792130706207],[-123.03231771437714,45.7792130706207],[-123.03231771437714,45.7517231605216],[-122.92822818858187,45.72165607135071],[-122.92822818858187,45.64262257981579],[-122.84567442674427,45.577334043330424],[-122.80619219282192,45.56273002859028],[-122.74517419494194,45.51634080529804],[-122.74517419494194,45.43301201531015],[-122.74517419494194,45.33164297181971],[-122.84567442674427,45.346246986559855],[-122.8672101907019,45.31703895707956],[-122.91028171861717,45.31789801677016],[-122.92463889458894,45.346246986559855],[-122.97129971649716,45.34710604625045],[-123.03231771437714,45.40466304552045],[-123.11487147621474,45.40466304552045],[-123.13999653416533,45.433871075000745],[-123.46662228752287,45.43301201531015],[-123.44149722957229,45.52149516344163],[-123.3625327617276,45.549844133231325],[-123.3625327617276,45.57905216271162],[-123.31946123381233,45.57905216271162],[-123.29792546985469,45.607401132501316],[-123.34099699776996,45.607401132501316],[-123.3804792316923,45.63575010229101],[-123.4235507596076,45.63575010229101],[-123.48456875748757,45.70877017599175],[-123.3625327617276,45.70877017599175],[-123.3625327617276,45.7792130706207]]]}},{"type":"Feature","id":"41069","properties":{"name":"Wheeler","county_fips":"41069","state_abbr":"OR"},"geometry":{"type":"Polygon","coordinates":[[[-120.4946868613686,45.06791164680646],[-119.94911417444175,45.06619352742527],[-119.79118523875238,45.06791164680646],[-119.79118523875238,44.994891573105726],[-119.67273853698536,44.994891573105726],[-119.67273853698536,44.82307963498634],[-119.65120277302772,44.82307963498634],[-119.65479206702067,44.3067847609376],[-119.89886405854057,44.3067847609376],[-119.89886405854057,44.38925449123491],[-120.02090005430054,44.3901135509255],[-120.02090005430054,44.43907995328953],[-120.3870080415804,44.436502774217736],[-120.3870080415804,44.56364360842608],[-120.3870080415804,44.761227337263364],[-120.4049545115451,44.794730665196646],[-120.37265086560865,44.82136151560515],[-120.45520462744626,44.86603261951619],[-120.43725815748157,44.89438158930589],[-120.48750827338273,44.95107952888528],[-120.47674039140391,44.980287558365575],[-120.4946868613686,45.06791164680646]]]}},{"type":"Feature","id":"41071","properties":{"name":"Yamhill","county_fips":"41071","state_abbr":"OR"},"geometry":{"type":"Polygon","coordinates":[[[-123.46662228752287,45.43301201531015],[-123.13999653416533,45.433871075000745],[-123.11487147621474,45.40466304552045],[-123.03231771437714,45.40466304552045],[-122.97129971649716,45.34710604625045],[-122.92463889458894,45.346246986559855],[-122.91028171861717,45.31789801677016],[-122.8672101907019,45.31703895707956],[-122.8672101907019,45.25948195780957],[-122.8492637207372,45.25948195780957],[-122.89951383663836,45.25690477873778],[-122.96771042250421,45.28525374852748],[-123.00001406844068,45.261200077190765],[-123.00001406844068,45.2242605104951],[-123.039496302363,45.22082427173271],[-123.00001406844068,45.16584445153451],[-123.0287284203842,45.1409317205072],[-122.99642477444775,45.11687804917048],[-123.06821065430654,45.07478412433124],[-123.49533663946639,45.07478412433124],[-123.72505145501455,45.07650224371243],[-123.78248015890158,45.07650224371243],[-123.78606945289452,45.21652897327972],[-123.46303299352994,45.21652897327972],[-123.46662228752287,45.43301201531015]]]}}]}