{"type":"FeatureCollection","features":[{"type":"Feature","id":"42001","properties":{"name":"Adams","county_fips":"42001","state_abbr":"PA"},"geometry":{"type":"Polygon","coordinates":[[[-77.46981976799768,39.944479652086514],[-77.40521247612476,39.994305114141135],[-77.18626554255542,40.029526561455604],[-77.13601542665427,40.06990236691366],[-77.0678188407884,40.028667501765014],[-77.01756872488724,40.01406348702486],[-76.96731860898609,39.93502999548995],[-76.98526507895079,39.893795130341296],[-76.95655072700727,39.85685556364563],[-76.99962225492254,39.83108377292772],[-76.99962225492254,39.720265072840725],[-77.21856918849188,39.720265072840725],[-77.45905188601886,39.720265072840725],[-77.46981976799768,39.944479652086514]]]}},{"type":"Feature","id":"42003","properties":{"name":"Allegheny","county_fips":"42003","state_abbr":"PA"},"geometry":{"type":"Polygon","coordinates":[[[-80.14743308673087,40.674680389093886],[-79.69159274962749,40.6695260309503],[-79.68800345563456,40.6428951805418],[-79.72030710157101,40.60767373322732],[-79.7741465114651,40.58104288281882],[-79.76696792347923,40.55011673395733],[-79.70236063160631,40.525204002930025],[-79.70594992559926,40.43414367572675],[-79.73466427754278,40.39806316872168],[-79.7633786294863,40.3929088105781],[-79.80645015740157,40.233123708127074],[-79.781325099451,40.227969349983496],[-79.87105744927449,40.19704320112201],[-79.960789799098,40.21594251431514],[-79.9715576810768,40.23226464843648],[-79.91412897718978,40.2528820810108],[-80.18332602666027,40.332774632236315],[-80.35920143231432,40.47795571994719],[-80.17973673266732,40.60939185260852],[-80.14384379273793,40.613687151061505],[-80.14743308673087,40.674680389093886]]]}},{"type":"Feature","id":"42005","properties":{"name":"Armstrong","county_fips":"42005","state_abbr":"PA"},"geometry":{"type":"Polygon","coordinates":[[[-79.69159274962749,40.6695260309503],[-79.69159274962749,41.1703578305683],[-79.66646769167691,41.049230414194135],[-79.59827110581105,41.0320492203822],[-79.6198068697687,40.98909623585235],[-79.45111005210052,40.98136469863698],[-79.41880640616407,41.0037002505925],[-79.37573487824878,40.98394187770877],[-79.36496699626996,41.00112307152071],[-79.28600252842529,41.00971366842668],[-79.21421664856648,41.05008947388473],[-79.21421664856648,40.910921804008034],[-79.21421664856648,40.77604943258432],[-79.45111005210052,40.5303583610736],[-79.49777087400874,40.525204002930025],[-79.56237816588165,40.563861689006885],[-79.58750322383223,40.62743210611105],[-79.67005698566986,40.679834747237464],[-79.69159274962749,40.6695260309503]]]}},{"type":"Feature","id":"42007","properties":{"name":"Beaver","county_fips":"42007","state_abbr":"PA"},"geometry":{"type":"Polygon","coordinates":[[[-80.52071966199662,40.63859988208881],[-80.52071966199662,40.85164668535685],[-80.15820096870968,40.85508292411924],[-80.14743308673087,40.674680389093886],[-80.14384379273793,40.613687151061505],[-80.17973673266732,40.60939185260852],[-80.35920143231432,40.47795571994719],[-80.52071966199662,40.4770966602566],[-80.52071966199662,40.63859988208881]]]}},{"type":"Feature","id":"42009","properties":{"name":"Bedford","county_fips":"42009","state_abbr":"PA"},"geometry":{"type":"Polygon","coordinates":[[[-78.6578760796608,40.24257336472364],[-78.6219831397314,40.32676121440214],[-78.50712573195732,40.28724446863468],[-78.44610773407734,40.244291484104835],[-78.43533985209852,40.302707543065424],[-78.28817879838797,40.24171430503304],[-78.25587515245152,40.297553184921846],[-78.23792868248682,40.224533111221106],[-78.13383915669156,40.16525799256992],[-78.15896421464214,40.12230500804007],[-78.20562503655036,40.086224501035005],[-78.18049997859978,40.058734590935906],[-78.20562503655036,40.04241245681456],[-78.21998221252213,39.99344605445054],[-78.2989466803668,39.82592941478414],[-78.38150044220441,39.72284225191251],[-78.80862642736427,39.72284225191251],[-78.75837631146311,39.82335223571235],[-78.76196560545606,40.05701647155471],[-78.74042984149841,40.06990236691366],[-78.6578760796608,40.24257336472364]]]}},{"type":"Feature","id":"42011","properties":{"name":"Berks","county_fips":"42011","state_abbr":"PA"},"geometry":{"type":"Polygon","coordinates":[[[-75.89053041110411,40.67725756816567],[-75.64286912559125,40.51747246571465],[-75.52801171781718,40.44702957108571],[-75.69670853548536,40.24171430503304],[-75.87258394113941,40.13690902278022],[-76.15254887258872,40.31559343842438],[-76.43969239202391,40.49599597344973],[-76.3391921602216,40.51575434633346],[-76.25663839838398,40.51747246571465],[-76.17049534255342,40.53465365952659],[-76.06640581675816,40.579324763437626],[-76.01256640686407,40.57760664405643],[-75.99461993689937,40.63945894177941],[-75.89053041110411,40.67725756816567]]]}},{"type":"Feature","id":"42013","properties":{"name":"Blair","county_fips":"42013","state_abbr":"PA"},"geometry":{"type":"Polygon","coordinates":[[[-78.34919679626796,40.72450585114851],[-78.35996467824678,40.73223738836388],[-78.13024986269862,40.74340516434164],[-78.11589268672687,40.73910986588865],[-78.20562503655036,40.69615688135881],[-78.22357150651506,40.674680389093886],[-78.16614280262803,40.617982449514486],[-78.19844644856448,40.5587073308633],[-78.14819633266332,40.54152613705136],[-78.15178562665626,40.48826443623435],[-78.13383915669156,40.47366042149421],[-78.25587515245152,40.297553184921846],[-78.28817879838797,40.24171430503304],[-78.43533985209852,40.302707543065424],[-78.44610773407734,40.244291484104835],[-78.50712573195732,40.28724446863468],[-78.6219831397314,40.32676121440214],[-78.56455443584436,40.37057325862258],[-78.56096514185141,40.43843897417973],[-78.53942937789378,40.50630468973689],[-78.48558996799967,40.540667077360766],[-78.44610773407734,40.591351599105984],[-78.4425184400844,40.641177061160604],[-78.41021479414793,40.644613299922995],[-78.34919679626796,40.72450585114851]]]}},{"type":"Feature","id":"42015","properties":{"name":"Bradford","county_fips":"42015","state_abbr":"PA"},"geometry":{"type":"Polygon","coordinates":[[[-76.55813909379094,42.00020949168491],[-76.14537028460285,41.99849137230372],[-76.12024522665226,41.738196286052855],[-76.11665593265933,41.65143125730257],[-76.19920969449694,41.64799501854018],[-76.22074545845459,41.541471616906165],[-76.81297896728967,41.59043801927019],[-76.87399696516965,41.59731049679496],[-76.89912202312023,41.8094982403724],[-76.92783637506375,42.0019276110661],[-76.55813909379094,42.00020949168491]]]}},{"type":"Feature","id":"42017","properties":{"name":"Bucks","county_fips":"42017","state_abbr":"PA"},"geometry":{"type":"Polygon","coordinates":[[[-75.48494018990189,40.418680601296],[-75.40956501605015,40.48826443623435],[-75.33418984219843,40.537230838598376],[-75.1977966704667,40.60853279291792],[-75.19061808248082,40.591351599105984],[-75.1619037305373,40.563861689006885],[-75.10088573265732,40.568156987459865],[-75.06499279272792,40.536371778907785],[-75.07217138071381,40.45476110830108],[-75.05781420474204,40.41610342222422],[-74.96808185491855,40.39978128810287],[-74.94295679696796,40.34136522914228],[-74.86758162311622,40.29497600585005],[-74.84245656516565,40.25030490193901],[-74.77067068530685,40.21508345462454],[-74.72400986339863,40.15065397782977],[-74.78143856728568,40.12058688865888],[-74.81733150721507,40.12745936618366],[-74.86040303513035,40.08364732196321],[-74.97526044290443,40.04928493433934],[-74.9644925609256,40.11886876927769],[-75.01474267682677,40.13776808247082],[-75.10806432064321,40.19188884297842],[-75.48494018990189,40.418680601296]]]}},{"type":"Feature","id":"42019","properties":{"name":"Butler","county_fips":"42019","state_abbr":"PA"},"geometry":{"type":"Polygon","coordinates":[[[-80.0971829708297,41.06984784676846],[-80.00027203302032,41.172075949949495],[-79.69518204362043,41.17293500964009],[-79.69159274962749,41.1703578305683],[-79.69159274962749,40.6695260309503],[-80.14743308673087,40.674680389093886],[-80.15820096870968,40.85508292411924],[-80.16537955669557,41.00026401183011],[-80.0971829708297,41.06984784676846]]]}},{"type":"Feature","id":"42021","properties":{"name":"Cambria","county_fips":"42021","state_abbr":"PA"},"geometry":{"type":"Polygon","coordinates":[[[-78.9737339510395,40.39634504934049],[-78.85887654326542,40.60423749446494],[-78.8014478393784,40.72450585114851],[-78.34919679626796,40.72450585114851],[-78.41021479414793,40.644613299922995],[-78.4425184400844,40.641177061160604],[-78.44610773407734,40.591351599105984],[-78.48558996799967,40.540667077360766],[-78.53942937789378,40.50630468973689],[-78.56096514185141,40.43843897417973],[-78.56455443584436,40.37057325862258],[-78.6219831397314,40.32676121440214],[-78.6578760796608,40.24257336472364],[-78.88400160121601,40.244291484104835],[-78.89476948319484,40.271781394203934],[-78.93425171711716,40.28466728956289],[-79.05628771287712,40.28466728956289],[-78.9737339510395,40.39634504934049]]]}},{"type":"Feature","id":"42023","properties":{"name":"Cameron","county_fips":"42023","state_abbr":"PA"},"geometry":{"type":"Polygon","coordinates":[[[-78.41739338213382,41.60246485493854],[-78.42098267612675,41.61706886967869],[-78.20203574255743,41.61792792936929],[-78.05128539485395,41.4753240207302],[-77.99026739697396,41.4744649610396],[-77.99026739697396,41.36708249971499],[-78.09435692276922,41.21674705386053],[-78.23792868248682,41.23049200891008],[-78.23433938849388,41.32327045549455],[-78.25587515245152,41.32327045549455],[-78.25228585845858,41.40488112610125],[-78.42098267612675,41.40488112610125],[-78.41739338213382,41.60246485493854]]]}},{"type":"Feature","id":"42025","properties":{"name":"Carbon","county_fips":"42025","state_abbr":"PA"},"geometry":{"type":"Polygon","coordinates":[[[-75.9982092308923,40.91263992338923],[-75.85104817718177,40.971915042040415],[-75.73260147541475,41.00799554904548],[-75.76849441534415,41.05008947388473],[-75.76849441534415,41.09304245841458],[-75.69311924149241,41.13170014449144],[-75.65004771357714,41.122250487894874],[-75.57826183371833,41.06727066769667],[-75.49570807188071,40.987378116471156],[-75.5746725397254,40.95129760946609],[-75.47417230792308,40.81470711866118],[-75.6105654796548,40.787217208562076],[-75.69311924149241,40.77003601475014],[-75.75772653336533,40.73567362712627],[-75.88694111711116,40.81642523804237],[-75.9982092308923,40.91263992338923]]]}},{"type":"Feature","id":"42027","properties":{"name":"Centre","county_fips":"42027","state_abbr":"PA"},"geometry":{"type":"Polygon","coordinates":[[[-78.03692821888218,41.15403569644696],[-78.00462457294573,41.14458603985039],[-77.97232092700926,41.17293500964009],[-77.97232092700926,41.20386115850158],[-77.94001728107281,41.20901551664516],[-77.89694575315752,41.252827560865605],[-77.8933564591646,41.17808936778367],[-77.80003481534816,41.18152560654606],[-77.74260611146111,41.10764647315472],[-77.62057011570116,41.091324339033385],[-77.56314141181412,41.0578210111001],[-77.58108788177881,41.04665323512234],[-77.50930200192002,40.96332444513445],[-77.34060518425184,40.987378116471156],[-77.14319401464014,41.04407605605056],[-77.20421201252012,40.99253247461474],[-77.27958718637186,40.910062744317436],[-77.36573024220242,40.84735138690386],[-77.43751612206121,40.82415677525775],[-77.68158811358113,40.729660209292085],[-77.76773116941169,40.71935149300492],[-77.82515987329873,40.74340516434164],[-77.94360657506574,40.69186158290582],[-78.11589268672687,40.73910986588865],[-78.13024986269862,40.74340516434164],[-78.35996467824678,40.73223738836388],[-78.37791114821148,40.7545729403194],[-78.31330385633856,40.808693700827],[-78.28817879838797,40.84992856597565],[-78.24869656446565,40.85508292411924],[-78.21998221252213,40.91263992338923],[-78.15537492064921,40.94184795286952],[-78.07641045280452,40.95902914668146],[-78.08717833478335,40.99339153430534],[-78.05846398283983,41.0037002505925],[-78.07999974679747,41.0311901606916],[-78.11230339273392,41.1145189506795],[-78.06923186481865,41.12310954758547],[-78.03692821888218,41.15403569644696]]]}},{"type":"Feature","id":"42029","properties":{"name":"Chester","county_fips":"42029","state_abbr":"PA"},"geometry":{"type":"Polygon","coordinates":[[[-76.13460240262403,39.72198319222191],[-76.06640581675816,39.75978181860818],[-75.99103064290642,39.86888239931399],[-75.99461993689937,39.952211189301885],[-75.93719123301233,40.03725809867098],[-75.93719123301233,40.11113723206231],[-75.87258394113941,40.13690902278022],[-75.69670853548536,40.24171430503304],[-75.61415477364774,40.22281499183991],[-75.59979759767597,40.23827806627066],[-75.5746725397254,40.19532508174081],[-75.5567260697607,40.20735191740917],[-75.52801171781718,40.14979491813917],[-75.45981513195132,40.124882187111865],[-75.45622583795837,40.0879426204162],[-75.42033289802897,40.097392277012766],[-75.39161854608545,40.06131177000769],[-75.359314900149,40.06560706846068],[-75.41674360403604,40.04155339712396],[-75.40597572205722,40.02694938238382],[-75.45263654396544,39.99344605445054],[-75.43469007400074,39.98485545754457],[-75.52442242382423,39.944479652086514],[-75.59620830368303,39.87403675745757],[-75.59620830368303,39.8370971907619],[-75.66440488954889,39.821634116331154],[-75.71824429944299,39.79242608685086],[-75.7900301793018,39.72198319222191],[-76.13460240262403,39.72198319222191]]]}},{"type":"Feature","id":"42031","properties":{"name":"Clarion","county_fips":"42031","state_abbr":"PA"},"geometry":{"type":"Polygon","coordinates":[[[-79.47623511005109,41.38684087259872],[-79.40085993619935,41.38684087259872],[-79.40085993619935,41.43580727496274],[-79.2070380605806,41.43065291681916],[-79.21062735457355,41.33186105240052],[-79.21062735457355,41.07843844367443],[-79.21421664856648,41.05008947388473],[-79.28600252842529,41.00971366842668],[-79.36496699626996,41.00112307152071],[-79.37573487824878,40.98394187770877],[-79.41880640616407,41.0037002505925],[-79.45111005210052,40.98136469863698],[-79.6198068697687,40.98909623585235],[-79.59827110581105,41.0320492203822],[-79.66646769167691,41.049230414194135],[-79.69159274962749,41.1703578305683],[-79.69518204362043,41.17293500964009],[-79.64852122171222,41.21760611355113],[-79.65211051570516,41.2536866205562],[-79.60544969379694,41.276881232202314],[-79.60544969379694,41.321552336113356],[-79.54084240192401,41.32069327642276],[-79.54084240192401,41.3361563508535],[-79.47982440404404,41.3352972911629],[-79.47623511005109,41.38684087259872]]]}},{"type":"Feature","id":"42033","properties":{"name":"Clearfield","county_fips":"42033","state_abbr":"PA"},"geometry":{"type":"Polygon","coordinates":[[[-78.80503713337133,40.90576744586445],[-78.80503713337133,41.13255920418204],[-78.76555489944899,41.203002098810984],[-78.71171548955489,41.20214303912039],[-78.64710819768197,41.21760611355113],[-78.64710819768197,41.2536866205562],[-78.23792868248682,41.23049200891008],[-78.09435692276922,41.21674705386053],[-78.03692821888218,41.15403569644696],[-78.06923186481865,41.12310954758547],[-78.11230339273392,41.1145189506795],[-78.07999974679747,41.0311901606916],[-78.05846398283983,41.0037002505925],[-78.08717833478335,40.99339153430534],[-78.07641045280452,40.95902914668146],[-78.15537492064921,40.94184795286952],[-78.21998221252213,40.91263992338923],[-78.24869656446565,40.85508292411924],[-78.28817879838797,40.84992856597565],[-78.31330385633856,40.808693700827],[-78.37791114821148,40.7545729403194],[-78.35996467824678,40.73223738836388],[-78.34919679626796,40.72450585114851],[-78.8014478393784,40.72450585114851],[-78.80503713337133,40.90576744586445]]]}},{"type":"Feature","id":"42035","properties":{"name":"Clinton","county_fips":"42035","state_abbr":"PA"},"geometry":{"type":"Polygon","coordinates":[[[-78.09435692276922,41.21674705386053],[-77.99026739697396,41.36708249971499],[-77.99026739697396,41.4744649610396],[-77.59903435174351,41.47876025949259],[-77.58467717577176,41.440961633106326],[-77.52724847188472,41.35849190280902],[-77.47699835598355,41.337874470234695],[-77.47340906199062,41.314679858588576],[-77.35137306623066,41.22018329262292],[-77.32265871428714,41.21932423293232],[-77.16472977859779,41.06898878707786],[-77.14319401464014,41.06898878707786],[-77.14319401464014,41.04407605605056],[-77.34060518425184,40.987378116471156],[-77.50930200192002,40.96332444513445],[-77.58108788177881,41.04665323512234],[-77.56314141181412,41.0578210111001],[-77.62057011570116,41.091324339033385],[-77.74260611146111,41.10764647315472],[-77.80003481534816,41.18152560654606],[-77.8933564591646,41.17808936778367],[-77.89694575315752,41.252827560865605],[-77.94001728107281,41.20901551664516],[-77.97232092700926,41.20386115850158],[-77.97232092700926,41.17293500964009],[-78.00462457294573,41.14458603985039],[-78.03692821888218,41.15403569644696],[-78.09435692276922,41.21674705386053]]]}},{"type":"Feature","id":"42037","properties":{"name":"Columbia","county_fips":"42037","state_abbr":"PA"},"geometry":{"type":"Polygon","coordinates":[[[-76.64069285562856,41.15575381582815],[-76.59403203372034,41.157471935209344],[-76.44687098000979,41.276022172511716],[-76.40738874608746,41.3086664407544],[-76.31047780827808,41.310384560135596],[-76.3212456902569,41.21159269571695],[-76.27817416234163,41.13170014449144],[-76.22792404644046,41.13857262201621],[-76.22792404644046,41.05180759326593],[-76.20638828248282,40.94957949008489],[-76.2853527503275,40.883431893908934],[-76.30688851428513,40.80182122330223],[-76.37867439414394,40.775190372893725],[-76.4109780400804,40.833606431854314],[-76.5007103899039,40.825015834948346],[-76.50429968389683,40.88257283421834],[-76.52942474184742,40.88257283421834],[-76.51506756587565,40.95902914668146],[-76.56531768177682,40.999404952139514],[-76.56890697576975,41.05352571264712],[-76.61915709167091,41.063834428934285],[-76.64069285562856,41.15575381582815]]]}},{"type":"Feature","id":"42039","properties":{"name":"Crawford","county_fips":"42039","state_abbr":"PA"},"geometry":{"type":"Polygon","coordinates":[[[-80.52071966199662,41.849874045830454],[-80.2048617906179,41.849014986139856],[-79.68082486764867,41.85159216521164],[-79.61262828178282,41.849874045830454],[-79.61262828178282,41.62394134720346],[-79.61262828178282,41.61706886967869],[-79.82798592135921,41.622223227822275],[-79.82798592135921,41.60246485493854],[-79.89259321323213,41.57411588514884],[-79.95720050510505,41.51312264711646],[-80.00027203302032,41.48992803547035],[-80.12589732277323,41.480478378873784],[-80.52071966199662,41.48906897577975],[-80.52071966199662,41.50023675175751],[-80.52071966199662,41.849874045830454]]]}},{"type":"Feature","id":"42041","properties":{"name":"Cumberland","county_fips":"42041","state_abbr":"PA"},"geometry":{"type":"Polygon","coordinates":[[[-77.61339152771528,40.198761320503195],[-77.60621293972939,40.18501636545365],[-77.39444459414594,40.30356660275602],[-77.35855165421654,40.30700284151841],[-77.41956965209651,40.255459260082596],[-77.32265871428714,40.29239882677826],[-77.3190694202942,40.267486095750954],[-77.24010495244953,40.28380822987229],[-76.97449719697197,40.310439080280794],[-76.913479199092,40.32847933378333],[-76.9242470810708,40.28982164770647],[-76.85963978919789,40.2262512306023],[-76.89553272912728,40.224533111221106],[-76.92783637506375,40.19704320112201],[-76.9063006111061,40.16611705226052],[-76.97808649096491,40.16439893287932],[-77.02833660686606,40.148076798757984],[-77.13601542665427,40.06990236691366],[-77.18626554255542,40.029526561455604],[-77.40521247612476,39.994305114141135],[-77.46981976799768,39.944479652086514],[-77.45546259202592,39.97282862187621],[-77.53083776587766,40.04842587464874],[-77.56314141181412,40.11886876927769],[-77.60980223372233,40.152372097210964],[-77.61339152771528,40.198761320503195]]]}},{"type":"Feature","id":"42043","properties":{"name":"Dauphin","county_fips":"42043","state_abbr":"PA"},"geometry":{"type":"Polygon","coordinates":[[[-76.94937213902139,40.62829116580165],[-76.91706849308493,40.60337843477434],[-76.74837167541675,40.65320389682896],[-76.70171085350853,40.65835825497254],[-76.5366033298333,40.55527109210092],[-76.67658579555795,40.47451948118481],[-76.62633567965679,40.33964710976109],[-76.56531768177682,40.19704320112201],[-76.60479991569916,40.19017072359723],[-76.67658579555795,40.14979491813917],[-76.6981215595156,40.15666739566395],[-76.72324661746617,40.11972782896828],[-76.75555026340263,40.17728482823828],[-76.85963978919789,40.2262512306023],[-76.9242470810708,40.28982164770647],[-76.913479199092,40.32847933378333],[-76.93860425704257,40.35768736326363],[-77.00680084290843,40.35854642295422],[-77.02833660686606,40.391190691196904],[-76.95296143301432,40.46249264551645],[-76.94937213902139,40.48482819747197],[-76.98526507895079,40.51661340602406],[-76.99244366693667,40.56729792776927],[-76.96372931499315,40.587056300652996],[-76.94937213902139,40.62829116580165]]]}},{"type":"Feature","id":"42045","properties":{"name":"Delaware","county_fips":"42045","state_abbr":"PA"},"geometry":{"type":"Polygon","coordinates":[[[-75.359314900149,40.06560706846068],[-75.27676113831139,39.9771239203292],[-75.2336896103961,39.93760717456174],[-75.26240396233962,39.87661393652936],[-75.21215384643847,39.8654461605516],[-75.2695825503255,39.84912402643026],[-75.35572560615606,39.839674369833695],[-75.41674360403604,39.801875743447425],[-75.49929736587366,39.83366095199951],[-75.59620830368303,39.8370971907619],[-75.59620830368303,39.87403675745757],[-75.52442242382423,39.944479652086514],[-75.43469007400074,39.98485545754457],[-75.45263654396544,39.99344605445054],[-75.40597572205722,40.02694938238382],[-75.41674360403604,40.04155339712396],[-75.359314900149,40.06560706846068]]]}},{"type":"Feature","id":"42047","properties":{"name":"Elk","county_fips":"42047","state_abbr":"PA"},"geometry":{"type":"Polygon","coordinates":[[[-78.95578748107481,41.623082287512865],[-78.95578748107481,41.62394134720346],[-78.67223325563255,41.62480040689406],[-78.48200067400674,41.629954765037645],[-78.48200067400674,41.60246485493854],[-78.41739338213382,41.60246485493854],[-78.42098267612675,41.40488112610125],[-78.25228585845858,41.40488112610125],[-78.25587515245152,41.32327045549455],[-78.23433938849388,41.32327045549455],[-78.23792868248682,41.23049200891008],[-78.64710819768197,41.2536866205562],[-78.64710819768197,41.21760611355113],[-78.71171548955489,41.20214303912039],[-78.73684054750547,41.26313627715277],[-78.95937677506775,41.36192814157141],[-78.97014465704657,41.376532156311555],[-79.02039477294772,41.35076036559365],[-79.09576994679946,41.34045164930649],[-79.09218065280652,41.42292137960379],[-79.06346630086301,41.452988468774684],[-78.97732324503245,41.45212940908409],[-78.95937677506775,41.43666633465334],[-78.95578748107481,41.623082287512865]]]}},{"type":"Feature","id":"42049","properties":{"name":"Erie","county_fips":"42049","state_abbr":"PA"},"geometry":{"type":"Polygon","coordinates":[[[-80.52071966199662,41.97787393972939],[-80.3484335503355,42.030276580855805],[-80.1869153206532,42.09384699795997],[-80.15461167471675,42.1144644305343],[-80.11871873478735,42.16600801197011],[-80.07205791287913,42.168585191041906],[-80.06129003090031,42.14453151970519],[-79.93207544715447,42.20638381742817],[-79.7633786294863,42.269954234532335],[-79.7633786294863,42.00020949168491],[-79.61262828178282,41.999350431994316],[-79.61262828178282,41.849874045830454],[-79.68082486764867,41.85159216521164],[-80.2048617906179,41.849014986139856],[-80.52071966199662,41.849874045830454],[-80.52071966199662,41.97787393972939]]]}},{"type":"Feature","id":"42051","properties":{"name":"Fayette","county_fips":"42051","state_abbr":"PA"},"geometry":{"type":"Polygon","coordinates":[[[-79.99668273902739,39.983137338163374],[-79.99309344503445,40.008909128881285],[-79.9536112111121,39.99516417383173],[-79.87823603726036,40.0321037405274],[-79.87823603726036,40.063029889388886],[-79.83875380333804,40.09137885917858],[-79.87823603726036,40.12660030649306],[-79.7454321595216,40.128318425874255],[-79.68441416164161,40.113714411134104],[-79.6377533397334,40.082788262272615],[-79.59468181181812,40.08192920258202],[-79.58032463584635,40.105123814228136],[-79.48341369803698,40.143781500304996],[-79.35419911429113,40.07419766536665],[-79.34343123231233,40.044130576195755],[-79.29318111641116,40.040694337433365],[-79.39727064220642,39.90066760786607],[-79.41880640616407,39.85341932488324],[-79.36496699626996,39.82077505664056],[-79.35778840828408,39.7812583108731],[-79.40085993619935,39.755486520155195],[-79.39368134821348,39.721124132531315],[-79.47623511005109,39.721124132531315],[-79.7633786294863,39.721124132531315],[-79.91771827118271,39.721124132531315],[-79.90336109521095,39.74345968448684],[-79.9356647411474,39.7812583108731],[-79.90695038920389,39.79328514654146],[-79.93925403514035,39.84654684735847],[-79.91412897718978,39.88005017529175],[-79.92489685916858,39.924721279202785],[-79.95720050510505,39.95307024899248],[-80.01103991499915,39.959083666826665],[-79.99668273902739,39.983137338163374]]]}},{"type":"Feature","id":"42053","properties":{"name":"Forest","county_fips":"42053","state_abbr":"PA"},"geometry":{"type":"Polygon","coordinates":[[[-79.5121280499805,41.62480040689406],[-78.95578748107481,41.623082287512865],[-78.95937677506775,41.43666633465334],[-78.97732324503245,41.45212940908409],[-79.06346630086301,41.452988468774684],[-79.09218065280652,41.42292137960379],[-79.09576994679946,41.34045164930649],[-79.10653782877829,41.32584763456634],[-79.21062735457355,41.33186105240052],[-79.2070380605806,41.43065291681916],[-79.40085993619935,41.43580727496274],[-79.40085993619935,41.38684087259872],[-79.47623511005109,41.38684087259872],[-79.47982440404404,41.44010257341573],[-79.52289593195931,41.440961633106326],[-79.5121280499805,41.465015304443035],[-79.5121280499805,41.62480040689406]]]}},{"type":"Feature","id":"42055","properties":{"name":"Franklin","county_fips":"42055","state_abbr":"PA"},"geometry":{"type":"Polygon","coordinates":[[[-78.09794621676217,39.72284225191251],[-78.00103527895278,39.82678847447474],[-77.91848151711517,40.0037547707377],[-77.86464210722107,40.06131177000769],[-77.79644552135521,40.166976111951115],[-77.72465964149642,40.25030490193901],[-77.70312387753877,40.263190797297966],[-77.67082023160232,40.28982164770647],[-77.63851658566585,40.21766063369633],[-77.60262364573646,40.227969349983496],[-77.61339152771528,40.198761320503195],[-77.60980223372233,40.152372097210964],[-77.56314141181412,40.11886876927769],[-77.53083776587766,40.04842587464874],[-77.45546259202592,39.97282862187621],[-77.46981976799768,39.944479652086514],[-77.45905188601886,39.720265072840725],[-77.46981976799768,39.720265072840725],[-78.09794621676217,39.72284225191251]]]}},{"type":"Feature","id":"42057","properties":{"name":"Fulton","county_fips":"42057","state_abbr":"PA"},"geometry":{"type":"Polygon","coordinates":[[[-78.38150044220441,39.72284225191251],[-78.2989466803668,39.82592941478414],[-78.21998221252213,39.99344605445054],[-78.20562503655036,40.04241245681456],[-78.18049997859978,40.058734590935906],[-78.20562503655036,40.086224501035005],[-78.15896421464214,40.12230500804007],[-78.13383915669156,40.16525799256992],[-78.07999974679747,40.13347278401783],[-77.92566010510104,40.101687575465746],[-77.86464210722107,40.06131177000769],[-77.91848151711517,40.0037547707377],[-78.00103527895278,39.82678847447474],[-78.09794621676217,39.72284225191251],[-78.34201820828208,39.72284225191251],[-78.38150044220441,39.72284225191251]]]}},{"type":"Feature","id":"42059","properties":{"name":"Greene","county_fips":"42059","state_abbr":"PA"},"geometry":{"type":"Polygon","coordinates":[[[-80.52071966199662,39.96251990558905],[-80.4740588400884,39.952211189301885],[-80.45252307613076,39.97368768156681],[-80.39509437224372,39.977982980019796],[-80.38073719627197,39.994305114141135],[-80.30895131641316,40.005472890118895],[-80.17614743867438,40.00805006919069],[-80.12948661676616,39.98829169630696],[-80.06129003090031,40.009768188571876],[-80.04693285492854,39.97884203971039],[-79.99668273902739,39.983137338163374],[-80.01103991499915,39.959083666826665],[-79.95720050510505,39.95307024899248],[-79.92489685916858,39.924721279202785],[-79.91412897718978,39.88005017529175],[-79.93925403514035,39.84654684735847],[-79.90695038920389,39.79328514654146],[-79.9356647411474,39.7812583108731],[-79.90336109521095,39.74345968448684],[-79.91771827118271,39.721124132531315],[-80.4202194301943,39.721124132531315],[-80.52071966199662,39.721124132531315],[-80.51713036800368,39.8912179512695],[-80.52071966199662,39.96251990558905]]]}},{"type":"Feature","id":"42061","properties":{"name":"Huntingdon","county_fips":"42061","state_abbr":"PA"},"geometry":{"type":"Polygon","coordinates":[[[-78.11589268672687,40.73910986588865],[-77.94360657506574,40.69186158290582],[-77.82515987329873,40.74340516434164],[-77.76773116941169,40.71935149300492],[-77.68158811358113,40.729660209292085],[-77.70312387753877,40.679834747237464],[-77.68158811358113,40.68241192630926],[-77.78926693336933,40.61196903168031],[-77.84310634326343,40.55011673395733],[-77.82515987329873,40.49255973468734],[-77.91489222312222,40.398922228412275],[-77.8574635192352,40.365418900479],[-77.76055258142581,40.36885513924138],[-77.75337399343994,40.37830479583795],[-77.70312387753877,40.263190797297966],[-77.72465964149642,40.25030490193901],[-77.79644552135521,40.166976111951115],[-77.86464210722107,40.06131177000769],[-77.92566010510104,40.101687575465746],[-78.07999974679747,40.13347278401783],[-78.13383915669156,40.16525799256992],[-78.23792868248682,40.224533111221106],[-78.25587515245152,40.297553184921846],[-78.13383915669156,40.47366042149421],[-78.15178562665626,40.48826443623435],[-78.14819633266332,40.54152613705136],[-78.19844644856448,40.5587073308633],[-78.16614280262803,40.617982449514486],[-78.22357150651506,40.674680389093886],[-78.20562503655036,40.69615688135881],[-78.11589268672687,40.73910986588865]]]}},{"type":"Feature","id":"42063","properties":{"name":"Indiana","county_fips":"42063","state_abbr":"PA"},"geometry":{"type":"Polygon","coordinates":[[[-79.45111005210052,40.5303583610736],[-79.21421664856648,40.77604943258432],[-79.21421664856648,40.910921804008034],[-78.80503713337133,40.90576744586445],[-78.8014478393784,40.72450585114851],[-78.85887654326542,40.60423749446494],[-78.9737339510395,40.39634504934049],[-79.0168054789548,40.4203987206772],[-79.05987700687007,40.38088197490974],[-79.12089500475004,40.37057325862258],[-79.11730571075711,40.394626929959294],[-79.15678794467945,40.41180812377123],[-79.32548476234761,40.45304298891988],[-79.39368134821348,40.45733828737287],[-79.42957428814287,40.48912349592495],[-79.44752075810757,40.48053289901898],[-79.45111005210052,40.5303583610736]]]}},{"type":"Feature","id":"42065","properties":{"name":"Jefferson","county_fips":"42065","state_abbr":"PA"},"geometry":{"type":"Polygon","coordinates":[[[-79.21421664856648,41.05008947388473],[-79.21062735457355,41.07843844367443],[-79.21062735457355,41.33186105240052],[-79.10653782877829,41.32584763456634],[-79.09576994679946,41.34045164930649],[-79.02039477294772,41.35076036559365],[-78.97014465704657,41.376532156311555],[-78.95937677506775,41.36192814157141],[-78.73684054750547,41.26313627715277],[-78.71171548955489,41.20214303912039],[-78.76555489944899,41.203002098810984],[-78.80503713337133,41.13255920418204],[-78.80503713337133,40.90576744586445],[-79.21421664856648,40.910921804008034],[-79.21421664856648,41.05008947388473]]]}},{"type":"Feature","id":"42067","properties":{"name":"Juniata","county_fips":"42067","state_abbr":"PA"},"geometry":{"type":"Polygon","coordinates":[[[-77.28676577435775,40.69357970228702],[-77.15037260262602,40.67725756816567],[-77.11089036870368,40.69186158290582],[-77.09294389873898,40.67639850847508],[-77.03551519485194,40.67725756816567],[-77.00680084290843,40.6428951805418],[-76.93860425704257,40.63859988208881],[-76.94937213902139,40.62829116580165],[-77.02474731287313,40.60423749446494],[-77.18267624856249,40.58190194250942],[-77.16831907259072,40.5595663905539],[-77.29035506835068,40.518331525405245],[-77.54160564785647,40.398922228412275],[-77.53083776587766,40.37572761676616],[-77.56673070580706,40.367137019860195],[-77.67082023160232,40.28982164770647],[-77.70312387753877,40.263190797297966],[-77.75337399343994,40.37830479583795],[-77.61339152771528,40.490841615306145],[-77.61339152771528,40.514036226952264],[-77.4985341199412,40.58190194250942],[-77.4985341199412,40.60939185260852],[-77.36931953619536,40.667807911569106],[-77.28676577435775,40.69357970228702]]]}},{"type":"Feature","id":"42069","properties":{"name":"Lackawanna","county_fips":"42069","state_abbr":"PA"},"geometry":{"type":"Polygon","coordinates":[[[-75.83310170721707,41.42721667805677],[-75.7720837093371,41.503672990519895],[-75.80079806128062,41.523431363403624],[-75.77567300333003,41.57411588514884],[-75.71824429944299,41.641981600706],[-75.46340442594426,41.641981600706],[-75.44186866198662,41.25884097869978],[-75.50647595385954,41.23221012829128],[-75.54236889378893,41.22361953138531],[-75.59979759767597,41.16176723366233],[-75.64286912559125,41.176371248402475],[-75.65363700757007,41.25798191900918],[-75.67876206552066,41.264854396533956],[-75.68594065350653,41.33959258961589],[-75.73978006340063,41.34818318652186],[-75.82951241322414,41.39457240981409],[-75.83310170721707,41.42721667805677]]]}},{"type":"Feature","id":"42071","properties":{"name":"Lancaster","county_fips":"42071","state_abbr":"PA"},"geometry":{"type":"Polygon","coordinates":[[[-76.72324661746617,40.11972782896828],[-76.6981215595156,40.15666739566395],[-76.67658579555795,40.14979491813917],[-76.60479991569916,40.19017072359723],[-76.56531768177682,40.19704320112201],[-76.43610309803098,40.23827806627066],[-76.30688851428513,40.255459260082596],[-76.15254887258872,40.31559343842438],[-75.87258394113941,40.13690902278022],[-75.93719123301233,40.11113723206231],[-75.93719123301233,40.03725809867098],[-75.99461993689937,39.952211189301885],[-75.99103064290642,39.86888239931399],[-76.06640581675816,39.75978181860818],[-76.13460240262403,39.72198319222191],[-76.23151334043341,39.72198319222191],[-76.23869192841929,39.72198319222191],[-76.27458486834868,39.77524489303892],[-76.3391921602216,39.821634116331154],[-76.38226368813687,39.87403675745757],[-76.3930315701157,39.91269444353443],[-76.47917462594626,39.9496340102301],[-76.49712109591096,39.99688229321293],[-76.5366033298333,40.05100305372053],[-76.5724962697627,40.04584869557695],[-76.66222861958619,40.063029889388886],[-76.72324661746617,40.11972782896828]]]}},{"type":"Feature","id":"42073","properties":{"name":"Lawrence","county_fips":"42073","state_abbr":"PA"},"geometry":{"type":"Polygon","coordinates":[[[-80.52071966199662,41.12482766696666],[-80.25870120051201,41.12826390572905],[-80.25870120051201,41.11709612975129],[-80.14743308673087,41.113659890988906],[-80.0971829708297,41.06984784676846],[-80.16537955669557,41.00026401183011],[-80.15820096870968,40.85508292411924],[-80.52071966199662,40.85164668535685],[-80.52071966199662,40.90061308772087],[-80.52071966199662,41.12482766696666]]]}},{"type":"Feature","id":"42075","properties":{"name":"Lebanon","county_fips":"42075","state_abbr":"PA"},"geometry":{"type":"Polygon","coordinates":[[[-76.5366033298333,40.55527109210092],[-76.43969239202391,40.49599597344973],[-76.15254887258872,40.31559343842438],[-76.30688851428513,40.255459260082596],[-76.43610309803098,40.23827806627066],[-76.56531768177682,40.19704320112201],[-76.62633567965679,40.33964710976109],[-76.67658579555795,40.47451948118481],[-76.5366033298333,40.55527109210092]]]}},{"type":"Feature","id":"42077","properties":{"name":"Lehigh","county_fips":"42077","state_abbr":"PA"},"geometry":{"type":"Polygon","coordinates":[[[-75.75772653336533,40.73567362712627],[-75.69311924149241,40.77003601475014],[-75.6105654796548,40.787217208562076],[-75.5926190096901,40.73481456743567],[-75.5567260697607,40.72106961238612],[-75.53160101181011,40.73653268681686],[-75.48135089590896,40.655781075900755],[-75.4311007800078,40.67382132940329],[-75.3772613701137,40.6154052704427],[-75.40238642806428,40.58104288281882],[-75.33418984219843,40.537230838598376],[-75.40956501605015,40.48826443623435],[-75.48494018990189,40.418680601296],[-75.52801171781718,40.44702957108571],[-75.64286912559125,40.51747246571465],[-75.89053041110411,40.67725756816567],[-75.75772653336533,40.73567362712627]]]}},{"type":"Feature","id":"42079","properties":{"name":"Luzerne","county_fips":"42079","state_abbr":"PA"},"geometry":{"type":"Polygon","coordinates":[[[-76.31047780827808,41.310384560135596],[-76.28176345633456,41.376532156311555],[-76.00538781887819,41.384263693526925],[-75.83310170721707,41.42721667805677],[-75.82951241322414,41.39457240981409],[-75.73978006340063,41.34818318652186],[-75.68594065350653,41.33959258961589],[-75.67876206552066,41.264854396533956],[-75.65363700757007,41.25798191900918],[-75.64286912559125,41.176371248402475],[-75.59979759767597,41.16176723366233],[-75.65004771357714,41.122250487894874],[-75.69311924149241,41.13170014449144],[-75.76849441534415,41.09304245841458],[-75.76849441534415,41.05008947388473],[-75.73260147541475,41.00799554904548],[-75.85104817718177,40.971915042040415],[-75.9982092308923,40.91263992338923],[-76.02692358283582,40.902331207102065],[-76.20638828248282,40.94957949008489],[-76.22792404644046,41.05180759326593],[-76.22792404644046,41.13857262201621],[-76.27817416234163,41.13170014449144],[-76.3212456902569,41.21159269571695],[-76.31047780827808,41.310384560135596]]]}},{"type":"Feature","id":"42081","properties":{"name":"Lycoming","county_fips":"42081","state_abbr":"PA"},"geometry":{"type":"Polygon","coordinates":[[[-77.59903435174351,41.54233067659676],[-76.96014002100021,41.55178033319333],[-76.87399696516965,41.59731049679496],[-76.81297896728967,41.59043801927019],[-76.74837167541675,41.40574018579185],[-76.59403203372034,41.30437114230141],[-76.44687098000979,41.276022172511716],[-76.59403203372034,41.157471935209344],[-76.64069285562856,41.15575381582815],[-76.734014499445,41.172075949949495],[-76.78785390933909,41.17551218871188],[-76.88117555315553,41.15833099489994],[-76.89553272912728,41.13943168170681],[-76.96014002100021,41.148881338303376],[-76.97808649096491,41.087888100270995],[-77.05705095880958,41.0853109211992],[-77.14319401464014,41.06898878707786],[-77.16472977859779,41.06898878707786],[-77.32265871428714,41.21932423293232],[-77.35137306623066,41.22018329262292],[-77.47340906199062,41.314679858588576],[-77.47699835598355,41.337874470234695],[-77.52724847188472,41.35849190280902],[-77.58467717577176,41.440961633106326],[-77.59903435174351,41.47876025949259],[-77.59903435174351,41.54233067659676]]]}},{"type":"Feature","id":"42083","properties":{"name":"McKean","county_fips":"42083","state_abbr":"PA"},"geometry":{"type":"Polygon","coordinates":[[[-78.91989454114541,41.99849137230372],[-78.30971456234562,41.999350431994316],[-78.20562503655036,41.999350431994316],[-78.20203574255743,41.61792792936929],[-78.42098267612675,41.61706886967869],[-78.41739338213382,41.60246485493854],[-78.48200067400674,41.60246485493854],[-78.48200067400674,41.629954765037645],[-78.67223325563255,41.62480040689406],[-78.95578748107481,41.62394134720346],[-78.94860889308893,41.830115672946725],[-78.91630524715247,41.841283448924486],[-78.91989454114541,41.99849137230372]]]}},{"type":"Feature","id":"42085","properties":{"name":"Mercer","county_fips":"42085","state_abbr":"PA"},"geometry":{"type":"Polygon","coordinates":[[[-80.52071966199662,41.48906897577975],[-80.12589732277323,41.480478378873784],[-80.00027203302032,41.48992803547035],[-80.00027203302032,41.172075949949495],[-80.0971829708297,41.06984784676846],[-80.14743308673087,41.113659890988906],[-80.25870120051201,41.11709612975129],[-80.25870120051201,41.12826390572905],[-80.52071966199662,41.12482766696666],[-80.52071966199662,41.133418263872635],[-80.51713036800368,41.20901551664516],[-80.52071966199662,41.48906897577975]]]}},{"type":"Feature","id":"42087","properties":{"name":"Mifflin","county_fips":"42087","state_abbr":"PA"},"geometry":{"type":"Polygon","coordinates":[[[-77.68158811358113,40.729660209292085],[-77.43751612206121,40.82415677525775],[-77.36573024220242,40.84735138690386],[-77.3549623602236,40.806975581445805],[-77.3549623602236,40.70131123950239],[-77.28676577435775,40.69357970228702],[-77.36931953619536,40.667807911569106],[-77.4985341199412,40.60939185260852],[-77.4985341199412,40.58190194250942],[-77.61339152771528,40.514036226952264],[-77.61339152771528,40.490841615306145],[-77.75337399343994,40.37830479583795],[-77.76055258142581,40.36885513924138],[-77.8574635192352,40.365418900479],[-77.91489222312222,40.398922228412275],[-77.82515987329873,40.49255973468734],[-77.84310634326343,40.55011673395733],[-77.78926693336933,40.61196903168031],[-77.68158811358113,40.68241192630926],[-77.70312387753877,40.679834747237464],[-77.68158811358113,40.729660209292085]]]}},{"type":"Feature","id":"42089","properties":{"name":"Monroe","county_fips":"42089","state_abbr":"PA"},"geometry":{"type":"Polygon","coordinates":[[[-75.65004771357714,41.122250487894874],[-75.59979759767597,41.16176723366233],[-75.54236889378893,41.22361953138531],[-75.50647595385954,41.23221012829128],[-75.359314900149,41.23908260581605],[-75.12960008460084,41.25196850117501],[-75.15472514255143,41.15059945768457],[-75.07576067470674,41.141149801088005],[-75.02909985279852,41.080156563055624],[-74.99320691286913,41.09218339872398],[-74.96808185491855,41.09476057779577],[-75.02551055880559,41.03978075759757],[-75.13318937859378,40.98909623585235],[-75.11883220262203,40.968478803278025],[-75.21933243442435,40.92810299781997],[-75.28393972629726,40.86625070009699],[-75.3772613701137,40.832747372163716],[-75.47417230792308,40.81470711866118],[-75.5746725397254,40.95129760946609],[-75.49570807188071,40.987378116471156],[-75.57826183371833,41.06727066769667],[-75.65004771357714,41.122250487894874]]]}},{"type":"Feature","id":"42091","properties":{"name":"Montgomery","county_fips":"42091","state_abbr":"PA"},"geometry":{"type":"Polygon","coordinates":[[[-75.69670853548536,40.24171430503304],[-75.52801171781718,40.44702957108571],[-75.48494018990189,40.418680601296],[-75.10806432064321,40.19188884297842],[-75.01474267682677,40.13776808247082],[-75.11165361463614,40.04670775526755],[-75.17626090650906,40.08450638165381],[-75.22292172841728,40.09309697855978],[-75.26599325633256,40.05443929248292],[-75.20497525845258,40.01148630795307],[-75.27676113831139,39.9771239203292],[-75.359314900149,40.06560706846068],[-75.39161854608545,40.06131177000769],[-75.42033289802897,40.097392277012766],[-75.45622583795837,40.0879426204162],[-75.45981513195132,40.124882187111865],[-75.52801171781718,40.14979491813917],[-75.5567260697607,40.20735191740917],[-75.5746725397254,40.19532508174081],[-75.59979759767597,40.23827806627066],[-75.61415477364774,40.22281499183991],[-75.69670853548536,40.24171430503304]]]}},{"type":"Feature","id":"42093","properties":{"name":"Montour","county_fips":"42093","state_abbr":"PA"},"geometry":{"type":"Polygon","coordinates":[[[-76.734014499445,41.172075949949495],[-76.64069285562856,41.15575381582815],[-76.61915709167091,41.063834428934285],[-76.56890697576975,41.05352571264712],[-76.56531768177682,40.999404952139514],[-76.51506756587565,40.95902914668146],[-76.52942474184742,40.88257283421834],[-76.56890697576975,40.91521710246102],[-76.55813909379094,40.93841171410713],[-76.60121062170622,40.94184795286952],[-76.66222861958619,40.96761974358743],[-76.79144320333204,40.9470023110131],[-76.77708602736027,41.00799554904548],[-76.734014499445,41.09218339872398],[-76.734014499445,41.172075949949495]]]}},{"type":"Feature","id":"42095","properties":{"name":"Northampton","county_fips":"42095","state_abbr":"PA"},"geometry":{"type":"Polygon","coordinates":[[[-75.6105654796548,40.787217208562076],[-75.47417230792308,40.81470711866118],[-75.3772613701137,40.832747372163716],[-75.28393972629726,40.86625070009699],[-75.21933243442435,40.92810299781997],[-75.11883220262203,40.968478803278025],[-75.09729643866439,40.92380769936699],[-75.05063561675617,40.87054599854998],[-75.13318937859378,40.77347225351253],[-75.17267161251613,40.77776755196551],[-75.20497525845258,40.69186158290582],[-75.17626090650906,40.67296226971269],[-75.20138596445965,40.64719047899478],[-75.1977966704667,40.60853279291792],[-75.33418984219843,40.537230838598376],[-75.40238642806428,40.58104288281882],[-75.3772613701137,40.6154052704427],[-75.4311007800078,40.67382132940329],[-75.48135089590896,40.655781075900755],[-75.53160101181011,40.73653268681686],[-75.5567260697607,40.72106961238612],[-75.5926190096901,40.73481456743567],[-75.6105654796548,40.787217208562076]]]}},{"type":"Feature","id":"42097","properties":{"name":"Northumberland","county_fips":"42097","state_abbr":"PA"},"geometry":{"type":"Polygon","coordinates":[[[-76.93860425704257,40.63859988208881],[-76.85963978919789,40.71161995578955],[-76.85963978919789,40.7812037907279],[-76.79862179131791,40.87827753576535],[-76.79862179131791,40.88171377452774],[-76.85246120121201,40.91263992338923],[-76.88117555315553,40.968478803278025],[-76.85963978919789,41.07242502584025],[-76.8883541411414,41.10163305532055],[-76.89553272912728,41.13943168170681],[-76.88117555315553,41.15833099489994],[-76.78785390933909,41.17551218871188],[-76.734014499445,41.172075949949495],[-76.734014499445,41.09218339872398],[-76.77708602736027,41.00799554904548],[-76.79144320333204,40.9470023110131],[-76.66222861958619,40.96761974358743],[-76.60121062170622,40.94184795286952],[-76.55813909379094,40.93841171410713],[-76.56890697576975,40.91521710246102],[-76.52942474184742,40.88257283421834],[-76.50429968389683,40.88257283421834],[-76.5007103899039,40.825015834948346],[-76.4109780400804,40.833606431854314],[-76.37867439414394,40.775190372893725],[-76.70171085350853,40.663512613116126],[-76.70171085350853,40.65835825497254],[-76.74837167541675,40.65320389682896],[-76.91706849308493,40.60337843477434],[-76.94937213902139,40.62829116580165],[-76.93860425704257,40.63859988208881]]]}},{"type":"Feature","id":"42099","properties":{"name":"Perry","county_fips":"42099","state_abbr":"PA"},"geometry":{"type":"Polygon","coordinates":[[[-77.67082023160232,40.28982164770647],[-77.56673070580706,40.367137019860195],[-77.53083776587766,40.37572761676616],[-77.54160564785647,40.398922228412275],[-77.29035506835068,40.518331525405245],[-77.16831907259072,40.5595663905539],[-77.18267624856249,40.58190194250942],[-77.02474731287313,40.60423749446494],[-76.94937213902139,40.62829116580165],[-76.96372931499315,40.587056300652996],[-76.99244366693667,40.56729792776927],[-76.98526507895079,40.51661340602406],[-76.94937213902139,40.48482819747197],[-76.95296143301432,40.46249264551645],[-77.02833660686606,40.391190691196904],[-77.00680084290843,40.35854642295422],[-76.93860425704257,40.35768736326363],[-76.913479199092,40.32847933378333],[-76.97449719697197,40.310439080280794],[-77.24010495244953,40.28380822987229],[-77.3190694202942,40.267486095750954],[-77.32265871428714,40.29239882677826],[-77.41956965209651,40.255459260082596],[-77.35855165421654,40.30700284151841],[-77.39444459414594,40.30356660275602],[-77.60621293972939,40.18501636545365],[-77.61339152771528,40.198761320503195],[-77.60262364573646,40.227969349983496],[-77.63851658566585,40.21766063369633],[-77.67082023160232,40.28982164770647]]]}},{"type":"Feature","id":"42101","properties":{"name":"Philadelphia","county_fips":"42101","state_abbr":"PA"},"geometry":{"type":"Polygon","coordinates":[[[-75.27676113831139,39.9771239203292],[-75.20497525845258,40.01148630795307],[-75.26599325633256,40.05443929248292],[-75.22292172841728,40.09309697855978],[-75.17626090650906,40.08450638165381],[-75.11165361463614,40.04670775526755],[-75.01474267682677,40.13776808247082],[-74.9644925609256,40.11886876927769],[-74.97526044290443,40.04928493433934],[-75.06140349873499,39.99172793506934],[-75.12960008460084,39.959083666826665],[-75.14036796657966,39.88864077219772],[-75.21215384643847,39.8654461605516],[-75.26240396233962,39.87661393652936],[-75.2336896103961,39.93760717456174],[-75.27676113831139,39.9771239203292]]]}},{"type":"Feature","id":"42103","properties":{"name":"Pike","county_fips":"42103","state_abbr":"PA"},"geometry":{"type":"Polygon","coordinates":[[[-75.06858208672087,41.60160579524795],[-74.98602832488325,41.50882734866348],[-74.9824390308903,41.479619319183186],[-74.94295679696796,41.48391461763617],[-74.88911738707387,41.45556564784647],[-74.89629597505974,41.44010257341573],[-74.80656362523625,41.44267975248752],[-74.75631350933509,41.42463949898498],[-74.69529551145511,41.357632843118424],[-74.75272421534216,41.34646506714066],[-74.83168868318683,41.28718994848948],[-74.88193879908799,41.18066654685546],[-74.92142103301033,41.13857262201621],[-74.99320691286913,41.09218339872398],[-75.02909985279852,41.080156563055624],[-75.07576067470674,41.141149801088005],[-75.15472514255143,41.15059945768457],[-75.12960008460084,41.25196850117501],[-75.359314900149,41.23908260581605],[-75.3413684301843,41.25454568024679],[-75.31265407824078,41.33186105240052],[-75.35213631216313,41.36794155940559],[-75.26599325633256,41.372236857858574],[-75.2516360803608,41.41261266331663],[-75.18702878848788,41.44267975248752],[-75.16908231852318,41.4753240207302],[-75.06858208672087,41.60160579524795]]]}},{"type":"Feature","id":"42105","properties":{"name":"Potter","county_fips":"42105","state_abbr":"PA"},"geometry":{"type":"Polygon","coordinates":[[[-78.20562503655036,41.999350431994316],[-77.74978469944699,41.99849137230372],[-77.60980223372233,41.999350431994316],[-77.59903435174351,41.54233067659676],[-77.59903435174351,41.47876025949259],[-77.99026739697396,41.4744649610396],[-78.05128539485395,41.4753240207302],[-78.20203574255743,41.61792792936929],[-78.20562503655036,41.999350431994316]]]}},{"type":"Feature","id":"42107","properties":{"name":"Schuylkill","county_fips":"42107","state_abbr":"PA"},"geometry":{"type":"Polygon","coordinates":[[[-76.37867439414394,40.775190372893725],[-76.30688851428513,40.80182122330223],[-76.2853527503275,40.883431893908934],[-76.20638828248282,40.94957949008489],[-76.02692358283582,40.902331207102065],[-75.9982092308923,40.91263992338923],[-75.88694111711116,40.81642523804237],[-75.75772653336533,40.73567362712627],[-75.89053041110411,40.67725756816567],[-75.99461993689937,40.63945894177941],[-76.01256640686407,40.57760664405643],[-76.06640581675816,40.579324763437626],[-76.17049534255342,40.53465365952659],[-76.25663839838398,40.51747246571465],[-76.3391921602216,40.51575434633346],[-76.43969239202391,40.49599597344973],[-76.5366033298333,40.55527109210092],[-76.70171085350853,40.65835825497254],[-76.70171085350853,40.663512613116126],[-76.37867439414394,40.775190372893725]]]}},{"type":"Feature","id":"42109","properties":{"name":"Snyder","county_fips":"42109","state_abbr":"PA"},"geometry":{"type":"Polygon","coordinates":[[[-77.3549623602236,40.806975581445805],[-77.32265871428714,40.81728429773297],[-77.05346166481665,40.86968693885938],[-77.02474731287313,40.85766010319102],[-76.9421935510355,40.887727192361915],[-76.82733614326143,40.887727192361915],[-76.79862179131791,40.87827753576535],[-76.79862179131791,40.88171377452774],[-76.79862179131791,40.87827753576535],[-76.85963978919789,40.7812037907279],[-76.85963978919789,40.71161995578955],[-76.93860425704257,40.63859988208881],[-77.00680084290843,40.6428951805418],[-77.03551519485194,40.67725756816567],[-77.09294389873898,40.67639850847508],[-77.11089036870368,40.69186158290582],[-77.15037260262602,40.67725756816567],[-77.28676577435775,40.69357970228702],[-77.3549623602236,40.70131123950239],[-77.3549623602236,40.806975581445805]]]}},{"type":"Feature","id":"42111","properties":{"name":"Somerset","county_fips":"42111","state_abbr":"PA"},"geometry":{"type":"Polygon","coordinates":[[[-79.29318111641116,40.040694337433365],[-79.25728817648177,40.0888016801068],[-79.21062735457355,40.11886876927769],[-79.18550229662296,40.10941911268112],[-79.16037723867238,40.16096269411693],[-79.14243076870768,40.163539873188725],[-79.05628771287712,40.28466728956289],[-78.93425171711716,40.28466728956289],[-78.89476948319484,40.271781394203934],[-78.88400160121601,40.244291484104835],[-78.6578760796608,40.24257336472364],[-78.74042984149841,40.06990236691366],[-78.76196560545606,40.05701647155471],[-78.75837631146311,39.82335223571235],[-78.80862642736427,39.72284225191251],[-78.92707312913129,39.72284225191251],[-79.39368134821348,39.721124132531315],[-79.40085993619935,39.755486520155195],[-79.35778840828408,39.7812583108731],[-79.36496699626996,39.82077505664056],[-79.41880640616407,39.85341932488324],[-79.39727064220642,39.90066760786607],[-79.29318111641116,40.040694337433365]]]}},{"type":"Feature","id":"42113","properties":{"name":"Sullivan","county_fips":"42113","state_abbr":"PA"},"geometry":{"type":"Polygon","coordinates":[[[-76.22074545845459,41.541471616906165],[-76.28176345633456,41.376532156311555],[-76.31047780827808,41.310384560135596],[-76.40738874608746,41.3086664407544],[-76.44687098000979,41.276022172511716],[-76.59403203372034,41.30437114230141],[-76.74837167541675,41.40574018579185],[-76.81297896728967,41.59043801927019],[-76.22074545845459,41.541471616906165]]]}},{"type":"Feature","id":"42115","properties":{"name":"Susquehanna","county_fips":"42115","state_abbr":"PA"},"geometry":{"type":"Polygon","coordinates":[[[-76.1058880506805,41.99849137230372],[-75.74336935739358,41.99763231261312],[-75.48494018990189,41.999350431994316],[-75.46340442594426,41.641981600706],[-75.71824429944299,41.641981600706],[-76.0879415807158,41.64455877977779],[-76.11665593265933,41.65143125730257],[-76.12024522665226,41.738196286052855],[-76.14537028460285,41.99849137230372],[-76.1058880506805,41.99849137230372]]]}},{"type":"Feature","id":"42117","properties":{"name":"Tioga","county_fips":"42117","state_abbr":"PA"},"geometry":{"type":"Polygon","coordinates":[[[-77.60980223372233,41.999350431994316],[-77.12524754467545,41.999350431994316],[-76.96731860898609,42.0010685513755],[-76.92783637506375,42.0019276110661],[-76.89912202312023,41.8094982403724],[-76.87399696516965,41.59731049679496],[-76.96014002100021,41.55178033319333],[-77.59903435174351,41.54233067659676],[-77.60980223372233,41.999350431994316]]]}},{"type":"Feature","id":"42119","properties":{"name":"Union","county_fips":"42119","state_abbr":"PA"},"geometry":{"type":"Polygon","coordinates":[[[-77.36573024220242,40.84735138690386],[-77.27958718637186,40.910062744317436],[-77.20421201252012,40.99253247461474],[-77.14319401464014,41.04407605605056],[-77.14319401464014,41.06898878707786],[-77.05705095880958,41.0853109211992],[-76.97808649096491,41.087888100270995],[-76.96014002100021,41.148881338303376],[-76.89553272912728,41.13943168170681],[-76.8883541411414,41.10163305532055],[-76.85963978919789,41.07242502584025],[-76.88117555315553,40.968478803278025],[-76.85246120121201,40.91263992338923],[-76.79862179131791,40.88171377452774],[-76.79862179131791,40.87827753576535],[-76.82733614326143,40.887727192361915],[-76.9421935510355,40.887727192361915],[-77.02474731287313,40.85766010319102],[-77.05346166481665,40.86968693885938],[-77.32265871428714,40.81728429773297],[-77.3549623602236,40.806975581445805],[-77.36573024220242,40.84735138690386]]]}},{"type":"Feature","id":"42121","properties":{"name":"Venango","county_fips":"42121","state_abbr":"PA"},"geometry":{"type":"Polygon","coordinates":[[[-80.00027203302032,41.48992803547035],[-79.95720050510505,41.51312264711646],[-79.89259321323213,41.57411588514884],[-79.82798592135921,41.60246485493854],[-79.82798592135921,41.622223227822275],[-79.61262828178282,41.61706886967869],[-79.61262828178282,41.62394134720346],[-79.5121280499805,41.62480040689406],[-79.5121280499805,41.465015304443035],[-79.52289593195931,41.440961633106326],[-79.47982440404404,41.44010257341573],[-79.47623511005109,41.38684087259872],[-79.47982440404404,41.3352972911629],[-79.54084240192401,41.3361563508535],[-79.54084240192401,41.32069327642276],[-79.60544969379694,41.321552336113356],[-79.60544969379694,41.276881232202314],[-79.65211051570516,41.2536866205562],[-79.64852122171222,41.21760611355113],[-79.69518204362043,41.17293500964009],[-80.00027203302032,41.172075949949495],[-80.00027203302032,41.48992803547035]]]}},{"type":"Feature","id":"42123","properties":{"name":"Warren","county_fips":"42123","state_abbr":"PA"},"geometry":{"type":"Polygon","coordinates":[[[-79.61262828178282,41.849874045830454],[-79.61262828178282,41.999350431994316],[-79.05987700687007,41.999350431994316],[-78.91989454114541,41.99849137230372],[-78.91630524715247,41.841283448924486],[-78.94860889308893,41.830115672946725],[-78.95578748107481,41.62394134720346],[-78.95578748107481,41.623082287512865],[-79.5121280499805,41.62480040689406],[-79.61262828178282,41.62394134720346],[-79.61262828178282,41.849874045830454]]]}},{"type":"Feature","id":"42125","properties":{"name":"Washington","county_fips":"42125","state_abbr":"PA"},"geometry":{"type":"Polygon","coordinates":[[[-80.52071966199662,39.96251990558905],[-80.52071966199662,40.016640666096656],[-80.52071966199662,40.15924457473574],[-80.51713036800368,40.39978128810287],[-80.52071966199662,40.4770966602566],[-80.35920143231432,40.47795571994719],[-80.18332602666027,40.332774632236315],[-79.91412897718978,40.2528820810108],[-79.9715576810768,40.23226464843648],[-79.960789799098,40.21594251431514],[-79.87105744927449,40.19704320112201],[-79.84952168531684,40.174707649166486],[-79.90336109521095,40.152372097210964],[-79.87823603726036,40.12660030649306],[-79.83875380333804,40.09137885917858],[-79.87823603726036,40.063029889388886],[-79.87823603726036,40.0321037405274],[-79.9536112111121,39.99516417383173],[-79.99309344503445,40.008909128881285],[-79.99668273902739,39.983137338163374],[-80.04693285492854,39.97884203971039],[-80.06129003090031,40.009768188571876],[-80.12948661676616,39.98829169630696],[-80.17614743867438,40.00805006919069],[-80.30895131641316,40.005472890118895],[-80.38073719627197,39.994305114141135],[-80.39509437224372,39.977982980019796],[-80.45252307613076,39.97368768156681],[-80.4740588400884,39.952211189301885],[-80.52071966199662,39.96251990558905]]]}},{"type":"Feature","id":"42127","properties":{"name":"Wayne","county_fips":"42127","state_abbr":"PA"},"geometry":{"type":"Polygon","coordinates":[[[-75.46340442594426,41.641981600706],[-75.48494018990189,41.999350431994316],[-75.40238642806428,41.999350431994316],[-75.359314900149,41.999350431994316],[-75.30906478424784,41.9486659102491],[-75.29111831428314,41.95210214901148],[-75.26240396233962,41.86619617995179],[-75.20856455244552,41.86963241871418],[-75.14754655456554,41.85073310552105],[-75.07576067470674,41.79833046439464],[-75.10447502665026,41.77084055429554],[-75.0542249107491,41.752800300793],[-75.04345702877029,41.62394134720346],[-75.06858208672087,41.60160579524795],[-75.16908231852318,41.4753240207302],[-75.18702878848788,41.44267975248752],[-75.2516360803608,41.41261266331663],[-75.26599325633256,41.372236857858574],[-75.35213631216313,41.36794155940559],[-75.31265407824078,41.33186105240052],[-75.3413684301843,41.25454568024679],[-75.359314900149,41.23908260581605],[-75.50647595385954,41.23221012829128],[-75.44186866198662,41.25884097869978],[-75.46340442594426,41.641981600706]]]}},{"type":"Feature","id":"42129","properties":{"name":"Westmoreland","county_fips":"42129","state_abbr":"PA"},"geometry":{"type":"Polygon","coordinates":[[[-79.87105744927449,40.19704320112201],[-79.781325099451,40.227969349983496],[-79.80645015740157,40.233123708127074],[-79.7633786294863,40.3929088105781],[-79.73466427754278,40.39806316872168],[-79.70594992559926,40.43414367572675],[-79.70236063160631,40.525204002930025],[-79.76696792347923,40.55011673395733],[-79.7741465114651,40.58104288281882],[-79.72030710157101,40.60767373322732],[-79.68800345563456,40.6428951805418],[-79.69159274962749,40.6695260309503],[-79.67005698566986,40.679834747237464],[-79.58750322383223,40.62743210611105],[-79.56237816588165,40.563861689006885],[-79.49777087400874,40.525204002930025],[-79.45111005210052,40.5303583610736],[-79.44752075810757,40.48053289901898],[-79.42957428814287,40.48912349592495],[-79.39368134821348,40.45733828737287],[-79.32548476234761,40.45304298891988],[-79.15678794467945,40.41180812377123],[-79.11730571075711,40.394626929959294],[-79.12089500475004,40.37057325862258],[-79.05987700687007,40.38088197490974],[-79.0168054789548,40.4203987206772],[-78.9737339510395,40.39634504934049],[-79.05628771287712,40.28466728956289],[-79.14243076870768,40.163539873188725],[-79.16037723867238,40.16096269411693],[-79.18550229662296,40.10941911268112],[-79.21062735457355,40.11886876927769],[-79.25728817648177,40.0888016801068],[-79.29318111641116,40.040694337433365],[-79.34343123231233,40.044130576195755],[-79.35419911429113,40.07419766536665],[-79.48341369803698,40.143781500304996],[-79.58032463584635,40.105123814228136],[-79.59468181181812,40.08192920258202],[-79.6377533397334,40.082788262272615],[-79.68441416164161,40.113714411134104],[-79.7454321595216,40.128318425874255],[-79.87823603726036,40.12660030649306],[-79.90336109521095,40.152372097210964],[-79.84952168531684,40.174707649166486],[-79.87105744927449,40.19704320112201]]]}},{"type":"Feature","id":"42131","properties":{"name":"Wyoming","county_fips":"42131","state_abbr":"PA"},"geometry":{"type":"Polygon","coordinates":[[[-76.28176345633456,41.376532156311555],[-76.22074545845459,41.541471616906165],[-76.19920969449694,41.64799501854018],[-76.11665593265933,41.65143125730257],[-76.0879415807158,41.64455877977779],[-75.71824429944299,41.641981600706],[-75.77567300333003,41.57411588514884],[-75.80079806128062,41.523431363403624],[-75.7720837093371,41.503672990519895],[-75.83310170721707,41.42721667805677],[-76.00538781887819,41.384263693526925],[-76.28176345633456,41.376532156311555]]]}},{"type":"Feature","id":"42133","properties":{"name":"York","county_fips":"42133","state_abbr":"PA"},"geometry":{"type":"Polygon","coordinates":[[[-77.13601542665427,40.06990236691366],[-77.02833660686606,40.148076798757984],[-76.97808649096491,40.16439893287932],[-76.9063006111061,40.16611705226052],[-76.92783637506375,40.19704320112201],[-76.89553272912728,40.224533111221106],[-76.85963978919789,40.2262512306023],[-76.75555026340263,40.17728482823828],[-76.72324661746617,40.11972782896828],[-76.66222861958619,40.063029889388886],[-76.5724962697627,40.04584869557695],[-76.5366033298333,40.05100305372053],[-76.49712109591096,39.99688229321293],[-76.47917462594626,39.9496340102301],[-76.3930315701157,39.91269444353443],[-76.38226368813687,39.87403675745757],[-76.3391921602216,39.821634116331154],[-76.27458486834868,39.77524489303892],[-76.23869192841929,39.72198319222191],[-76.56890697576975,39.721124132531315],[-76.78785390933909,39.721124132531315],[-76.99962225492254,39.720265072840725],[-76.99962225492254,39.83108377292772],[-76.95655072700727,39.85685556364563],[-76.98526507895079,39.893795130341296],[-76.96731860898609,39.93502999548995],[-77.01756872488724,40.01406348702486],[-77.0678188407884,40.028667501765014],[-77.13601542665427,40.06990236691366]]]}}]}