{"type":"FeatureCollection","features":[{"type":"Feature","id":"72001","properties":{"name":"Adjuntas","county_fips":"72001","state_abbr":"PR"},"geometry":{"type":"Polygon","coordinates":[[[-66.81679519695197,18.230027852868524],[-66.78090225702257,18.25064528544285],[-66.75936649306493,18.225732554415544],[-66.69475920119201,18.21714195750957],[-66.6660448492485,18.175048032670325],[-66.66963414324142,18.152712480714804],[-66.69475920119201,18.130376928759283],[-66.74859861108611,18.114054794637944],[-66.77013437504375,18.13467222721227],[-66.79884872698727,18.133813167521673],[-66.8275630789308,18.171611793907935],[-66.83115237292373,18.229168793177926],[-66.81679519695197,18.230027852868524]]]}},{"type":"Feature","id":"72003","properties":{"name":"Aguada","county_fips":"72003","state_abbr":"PR"},"geometry":{"type":"Polygon","coordinates":[[[-67.24033188811887,18.375208940579405],[-67.1613674202742,18.41558474603746],[-67.13265306833068,18.38981295531955],[-67.12906377433774,18.317651941309407],[-67.18290318423185,18.313356642856427],[-67.24033188811887,18.375208940579405]]]}},{"type":"Feature","id":"72005","properties":{"name":"Aguadilla","county_fips":"72005","state_abbr":"PR"},"geometry":{"type":"Polygon","coordinates":[[[-67.10393871638716,18.514376610456104],[-67.05727789447894,18.480014222832224],[-67.05727789447894,18.461114909639093],[-67.10034942239422,18.437061238302377],[-67.13265306833068,18.38981295531955],[-67.1613674202742,18.41558474603746],[-67.16854600826008,18.47829610345103],[-67.1434209503095,18.50578601355013],[-67.10393871638716,18.514376610456104]]]}},{"type":"Feature","id":"72007","properties":{"name":"Aguas Buenas","county_fips":"72007","state_abbr":"PR"},"geometry":{"type":"Polygon","coordinates":[[[-66.19225804218043,18.25923588234882],[-66.14559722027221,18.279853314923145],[-66.10611498634987,18.27813519554195],[-66.08098992839928,18.29703450873508],[-66.06663275242752,18.303047926569263],[-66.0917578103781,18.22745067379673],[-66.11688286832869,18.210269479984795],[-66.14200792627926,18.198242644316437],[-66.14559722027221,18.22830973348733],[-66.17072227822278,18.22401443503435],[-66.19225804218043,18.25923588234882]]]}},{"type":"Feature","id":"72009","properties":{"name":"Aibonito","county_fips":"72009","state_abbr":"PR"},"geometry":{"type":"Polygon","coordinates":[[[-66.31429403794039,18.151853421024207],[-66.24250815808158,18.180202390813903],[-66.217383100131,18.14326282411824],[-66.22456168811688,18.095155481444813],[-66.25686533405334,18.076256168251682],[-66.32147262592626,18.126081630306302],[-66.31429403794039,18.151853421024207]]]}},{"type":"Feature","id":"72011","properties":{"name":"Añasco","county_fips":"72011","state_abbr":"PR"},"geometry":{"type":"Polygon","coordinates":[[[-67.18290318423185,18.313356642856427],[-67.12906377433774,18.317651941309407],[-67.053688600486,18.306484165331646],[-67.03933142451424,18.28930297151971],[-67.03933142451424,18.272121777707774],[-67.08240295242952,18.254940583895838],[-67.13624236232363,18.24634998698987],[-67.1434209503095,18.27040365832658],[-67.18649247822478,18.26696741956419],[-67.22597471214712,18.29703450873508],[-67.18290318423185,18.313356642856427]]]}},{"type":"Feature","id":"72013","properties":{"name":"Arecibo","county_fips":"72013","state_abbr":"PR"},"geometry":{"type":"Polygon","coordinates":[[[-66.76654508105081,18.484309521285212],[-66.70911637716377,18.472282685616854],[-66.6229733213332,18.494618237572375],[-66.58708038140381,18.48516858097581],[-66.58708038140381,18.38981295531955],[-66.59066967539675,18.338269373883733],[-66.60861614536145,18.32796065759657],[-66.71629496514966,18.31593382192822],[-66.73424143511436,18.349437149861494],[-66.77013437504375,18.325383478524785],[-66.76654508105081,18.484309521285212]]]}},{"type":"Feature","id":"72015","properties":{"name":"Arroyo","county_fips":"72015","state_abbr":"PR"},"geometry":{"type":"Polygon","coordinates":[[[-66.08098992839928,18.033303183721834],[-66.0558648704487,18.040175661246607],[-66.0199719305193,17.97832336352363],[-66.04509698846988,17.955128751877517],[-66.07022204642047,17.966296527855278],[-66.08098992839928,18.033303183721834]]]}},{"type":"Feature","id":"72017","properties":{"name":"Barceloneta","county_fips":"72017","state_abbr":"PR"},"geometry":{"type":"Polygon","coordinates":[[[-66.58708038140381,18.48516858097581],[-66.53324097150971,18.48173234221342],[-66.52247308953089,18.4319068801588],[-66.54400885348853,18.405276029750297],[-66.58708038140381,18.38981295531955],[-66.58708038140381,18.48516858097581]]]}},{"type":"Feature","id":"72019","properties":{"name":"Barranquitas","county_fips":"72019","state_abbr":"PR"},"geometry":{"type":"Polygon","coordinates":[[[-66.35018697786978,18.241195628846285],[-66.31429403794039,18.248927166061655],[-66.26763321603217,18.245490927299272],[-66.26404392203922,18.18535674895749],[-66.23891886408865,18.18449768926689],[-66.24250815808158,18.180202390813903],[-66.31429403794039,18.151853421024207],[-66.37531203582036,18.17332991328913],[-66.35018697786978,18.193947345863457],[-66.35018697786978,18.241195628846285]]]}},{"type":"Feature","id":"72021","properties":{"name":"Bayamón","county_fips":"72021","state_abbr":"PR"},"geometry":{"type":"Polygon","coordinates":[[[-66.20302592415923,18.31593382192822],[-66.19584733617336,18.38895389562895],[-66.1994366301663,18.414725686346863],[-66.17072227822278,18.4310478204682],[-66.13124004430044,18.425034402634026],[-66.12047216232162,18.379504239032386],[-66.14200792627926,18.361463985529852],[-66.14559722027221,18.279853314923145],[-66.19225804218043,18.25923588234882],[-66.20661521815218,18.276417076160755],[-66.20302592415923,18.31593382192822]]]}},{"type":"Feature","id":"72023","properties":{"name":"Cabo Rojo","county_fips":"72023","state_abbr":"PR"},"geometry":{"type":"Polygon","coordinates":[[[-67.1793138902389,18.168175555145545],[-67.1613674202742,18.1535715404054],[-67.10034942239422,18.106323257422574],[-67.10752801038011,18.056497795367953],[-67.10393871638716,17.974887124761246],[-67.11111730437304,17.94567909528095],[-67.16854600826008,17.962860289092887],[-67.21161753617537,17.952551572805724],[-67.20802824218242,17.998081736407357],[-67.17213530225303,18.024712586815866],[-67.21161753617537,18.03502130310303],[-67.20084965419655,18.090860182991825],[-67.18290318423185,18.10374607835078],[-67.1793138902389,18.168175555145545]]]}},{"type":"Feature","id":"72025","properties":{"name":"Caguas","county_fips":"72025","state_abbr":"PR"},"geometry":{"type":"Polygon","coordinates":[[[-66.11688286832869,18.210269479984795],[-66.0917578103781,18.22745067379673],[-66.06663275242752,18.303047926569263],[-66.04150769447695,18.31249758316583],[-66.0199719305193,18.30476604595046],[-66.01279334253343,18.225732554415544],[-65.99843616656166,18.206833241222405],[-66.02356122451225,18.166457435764357],[-66.0199719305193,18.144121883808836],[-66.05227557645577,18.113195734947347],[-66.06663275242752,18.148417182261817],[-66.09534710437104,18.169034614836143],[-66.11688286832869,18.210269479984795]]]}},{"type":"Feature","id":"72027","properties":{"name":"Camuy","county_fips":"72027","state_abbr":"PR"},"geometry":{"type":"Polygon","coordinates":[[[-66.90293825278253,18.484309521285212],[-66.8383309609096,18.487745760047595],[-66.82397378493785,18.41214850727507],[-66.8096166089661,18.38637671655716],[-66.82397378493785,18.34342373202732],[-66.89217037080371,18.367477403364028],[-66.89934895878959,18.36575928398284],[-66.90293825278253,18.484309521285212]]]}},{"type":"Feature","id":"72029","properties":{"name":"Canóvanas","county_fips":"72029","state_abbr":"PR"},"geometry":{"type":"Polygon","coordinates":[[[-65.91947169871699,18.402698850678505],[-65.86922158281583,18.40871226851268],[-65.86922158281583,18.37778611965119],[-65.86922158281583,18.293598269972698],[-65.83691793687937,18.275558016470164],[-65.85127511285113,18.254940583895838],[-65.91947169871699,18.27040365832658],[-65.90152522875229,18.3202291203812],[-65.91947169871699,18.402698850678505]]]}},{"type":"Feature","id":"72031","properties":{"name":"Carolina","county_fips":"72031","state_abbr":"PR"},"geometry":{"type":"Polygon","coordinates":[[[-66.037918400484,18.449947133661333],[-65.99125757857578,18.457678670876703],[-65.96613252062521,18.432765939849396],[-65.93023958069581,18.42847064139641],[-65.91947169871699,18.402698850678505],[-65.90152522875229,18.3202291203812],[-65.91947169871699,18.27040365832658],[-65.94100746267462,18.293598269972698],[-65.99843616656166,18.380363298722983],[-65.99125757857578,18.403557910369102],[-66.03073981249813,18.42761158170581],[-66.037918400484,18.449947133661333]]]}},{"type":"Feature","id":"72033","properties":{"name":"Cataño","county_fips":"72033","state_abbr":"PR"},"geometry":{"type":"Polygon","coordinates":[[[-66.15995439624396,18.453383372423723],[-66.1276507503075,18.472282685616854],[-66.1097042803428,18.438779357683572],[-66.13124004430044,18.425034402634026],[-66.17072227822278,18.4310478204682],[-66.15995439624396,18.453383372423723]]]}},{"type":"Feature","id":"72035","properties":{"name":"Cayey","county_fips":"72035","state_abbr":"PR"},"geometry":{"type":"Polygon","coordinates":[[[-66.217383100131,18.14326282411824],[-66.13124004430044,18.132954107831075],[-66.09534710437104,18.169034614836143],[-66.06663275242752,18.148417182261817],[-66.05227557645577,18.113195734947347],[-66.05227557645577,18.109759496184957],[-66.05227557645577,18.107182317113164],[-66.10252569235692,18.10460513804138],[-66.1276507503075,18.088283003920033],[-66.13841863228632,18.036739422484224],[-66.16713298422984,18.05048437753377],[-66.20302592415923,18.04618907908079],[-66.22456168811688,18.095155481444813],[-66.217383100131,18.14326282411824]]]}},{"type":"Feature","id":"72037","properties":{"name":"Ceiba","county_fips":"72037","state_abbr":"PR"},"geometry":{"type":"Polygon","coordinates":[[[-65.75795346903469,18.291021090900905],[-65.75436417504174,18.29703450873508],[-65.71847123511235,18.267826479254786],[-65.69334617716177,18.285866732757327],[-65.62156029730298,18.288443911829113],[-65.57489947539476,18.249786225752253],[-65.60002453334533,18.212846659056588],[-65.63950676726768,18.229168793177926],[-65.62873888528885,18.205115121841217],[-65.6610425312253,18.206833241222405],[-65.65745323723237,18.222296315653153],[-65.76513205702057,18.279853314923145],[-65.75795346903469,18.291021090900905]]]}},{"type":"Feature","id":"72039","properties":{"name":"Ciales","county_fips":"72039","state_abbr":"PR"},"geometry":{"type":"Polygon","coordinates":[[[-66.60861614536145,18.32796065759657],[-66.59066967539675,18.338269373883733],[-66.53324097150971,18.35115526924269],[-66.46145509165092,18.371772701817015],[-66.45427650366504,18.257517762967623],[-66.50093732557326,18.256658703277026],[-66.51888379553796,18.225732554415544],[-66.51170520755207,18.17848427143271],[-66.54400885348853,18.163021197001967],[-66.53324097150971,18.20081982338823],[-66.56554461744618,18.24291374822748],[-66.56554461744618,18.298752628116276],[-66.60861614536145,18.32796065759657]]]}},{"type":"Feature","id":"72041","properties":{"name":"Cidra","county_fips":"72041","state_abbr":"PR"},"geometry":{"type":"Polygon","coordinates":[[[-66.23891886408865,18.18449768926689],[-66.21020451214513,18.17332991328913],[-66.20661521815218,18.19652452493525],[-66.17072227822278,18.22401443503435],[-66.14559722027221,18.22830973348733],[-66.14200792627926,18.198242644316437],[-66.11688286832869,18.210269479984795],[-66.09534710437104,18.169034614836143],[-66.13124004430044,18.132954107831075],[-66.217383100131,18.14326282411824],[-66.24250815808158,18.180202390813903],[-66.23891886408865,18.18449768926689]]]}},{"type":"Feature","id":"72043","properties":{"name":"Coamo","county_fips":"72043","state_abbr":"PR"},"geometry":{"type":"Polygon","coordinates":[[[-66.44350862168622,18.176766152051513],[-66.4147942697427,18.163021197001967],[-66.37531203582036,18.17332991328913],[-66.31429403794039,18.151853421024207],[-66.32147262592626,18.126081630306302],[-66.25686533405334,18.076256168251682],[-66.29634756797567,18.057356855058543],[-66.33224050790508,18.016121989909898],[-66.35736556585566,18.036739422484224],[-66.42556215172152,18.0427528403184],[-66.42915144571445,18.082269586085857],[-66.41838356373563,18.144980943499434],[-66.44350862168622,18.176766152051513]]]}},{"type":"Feature","id":"72045","properties":{"name":"Comerío","county_fips":"72045","state_abbr":"PR"},"geometry":{"type":"Polygon","coordinates":[[[-66.26763321603217,18.245490927299272],[-66.22815098210982,18.25408152420524],[-66.20661521815218,18.276417076160755],[-66.19225804218043,18.25923588234882],[-66.17072227822278,18.22401443503435],[-66.20661521815218,18.19652452493525],[-66.21020451214513,18.17332991328913],[-66.23891886408865,18.18449768926689],[-66.26404392203922,18.18535674895749],[-66.26763321603217,18.245490927299272]]]}},{"type":"Feature","id":"72047","properties":{"name":"Corozal","county_fips":"72047","state_abbr":"PR"},"geometry":{"type":"Polygon","coordinates":[[[-66.3789013298133,18.293598269972698],[-66.36454415384154,18.333115015740155],[-66.35377627186271,18.360604925839255],[-66.31788333193332,18.367477403364028],[-66.27840109801097,18.329678776977765],[-66.29634756797567,18.257517762967623],[-66.31429403794039,18.248927166061655],[-66.35018697786978,18.241195628846285],[-66.38249062380623,18.275558016470164],[-66.3789013298133,18.293598269972698]]]}},{"type":"Feature","id":"72049","properties":{"name":"Culebra","county_fips":"72049","state_abbr":"PR"},"geometry":{"type":"Polygon","coordinates":[[[-65.33800607186072,18.348578090170896],[-65.29852383793838,18.330537836668363],[-65.2554523100231,18.341705612646123],[-65.22314866408664,18.310779463784634],[-65.28416666196662,18.279853314923145],[-65.3272381898819,18.29617544904449],[-65.33800607186072,18.348578090170896]]]}},{"type":"Feature","id":"72051","properties":{"name":"Dorado","county_fips":"72051","state_abbr":"PR"},"geometry":{"type":"Polygon","coordinates":[[[-66.31429403794039,18.474859864688646],[-66.2712225100251,18.480014222832224],[-66.1994366301663,18.46626926778267],[-66.25686533405334,18.455101491804918],[-66.2532760400604,18.394108253772536],[-66.30352615596156,18.383799537485373],[-66.29993686196862,18.42417534294343],[-66.31429403794039,18.474859864688646]]]}},{"type":"Feature","id":"72053","properties":{"name":"Fajardo","county_fips":"72053","state_abbr":"PR"},"geometry":{"type":"MultiPolygon","coordinates":[[[[-65.59284594535946,18.39239013439134],[-65.56772088740887,18.380363298722983],[-65.56772088740887,18.34256467233672],[-65.59284594535946,18.39239013439134]]],[[[-65.75436417504174,18.29703450873508],[-65.73282841108411,18.288443911829113],[-65.6861675891759,18.329678776977765],[-65.6682211192112,18.363182104911047],[-65.62514959129591,18.387235776247756],[-65.63232817928179,18.3477190304803],[-65.62156029730298,18.288443911829113],[-65.69334617716177,18.285866732757327],[-65.71847123511235,18.267826479254786],[-65.75436417504174,18.29703450873508]]]]}},{"type":"Feature","id":"72054","properties":{"name":"Florida","county_fips":"72054","state_abbr":"PR"},"geometry":{"type":"Polygon","coordinates":[[[-66.58708038140381,18.38981295531955],[-66.54400885348853,18.405276029750297],[-66.53324097150971,18.35115526924269],[-66.59066967539675,18.338269373883733],[-66.58708038140381,18.38981295531955]]]}},{"type":"Feature","id":"72055","properties":{"name":"Guánica","county_fips":"72055","state_abbr":"PR"},"geometry":{"type":"Polygon","coordinates":[[[-66.9819027206272,17.952551572805724],[-66.96036695666956,17.991209258882584],[-66.96036695666956,18.032444124031237],[-66.88499178281782,18.024712586815866],[-66.86345601886019,17.998081736407357],[-66.85986672486725,17.95426969218692],[-66.91370613476134,17.947397214662146],[-66.92806331073311,17.92677978208782],[-66.9819027206272,17.952551572805724]]]}},{"type":"Feature","id":"72057","properties":{"name":"Guayama","county_fips":"72057","state_abbr":"PR"},"geometry":{"type":"Polygon","coordinates":[[[-66.16713298422984,18.05048437753377],[-66.13841863228632,18.036739422484224],[-66.1276507503075,18.088283003920033],[-66.10252569235692,18.10460513804138],[-66.05227557645577,18.107182317113164],[-66.08816851638517,18.056497795367953],[-66.08098992839928,18.033303183721834],[-66.07022204642047,17.966296527855278],[-66.15636510225102,17.929356961159606],[-66.19225804218043,17.937088498374983],[-66.217383100131,17.91561200611006],[-66.20661521815218,18.012685751147508],[-66.16713298422984,18.05048437753377]]]}},{"type":"Feature","id":"72059","properties":{"name":"Guayanilla","county_fips":"72059","state_abbr":"PR"},"geometry":{"type":"Polygon","coordinates":[[[-66.85268813688137,17.955128751877517],[-66.8024380209802,18.090860182991825],[-66.79884872698727,18.133813167521673],[-66.77013437504375,18.13467222721227],[-66.76654508105081,18.03931660155601],[-66.73783072910729,18.0427528403184],[-66.73424143511436,18.017840109291086],[-66.75936649306493,17.998081736407357],[-66.8383309609096,17.949974393733932],[-66.85268813688137,17.955128751877517]]]}},{"type":"Feature","id":"72061","properties":{"name":"Guaynabo","county_fips":"72061","state_abbr":"PR"},"geometry":{"type":"Polygon","coordinates":[[[-66.13124004430044,18.425034402634026],[-66.1097042803428,18.438779357683572],[-66.10611498634987,18.382940477794776],[-66.08816851638517,18.357168687076864],[-66.08098992839928,18.29703450873508],[-66.10611498634987,18.27813519554195],[-66.14559722027221,18.279853314923145],[-66.14200792627926,18.361463985529852],[-66.12047216232162,18.379504239032386],[-66.13124004430044,18.425034402634026]]]}},{"type":"Feature","id":"72063","properties":{"name":"Gurabo","county_fips":"72063","state_abbr":"PR"},"geometry":{"type":"Polygon","coordinates":[[[-66.0199719305193,18.30476604595046],[-65.96972181461814,18.309920404094036],[-65.94100746267462,18.293598269972698],[-65.91947169871699,18.27040365832658],[-65.95177534465344,18.229168793177926],[-65.99843616656166,18.206833241222405],[-66.01279334253343,18.225732554415544],[-66.0199719305193,18.30476604595046]]]}},{"type":"Feature","id":"72065","properties":{"name":"Hatillo","county_fips":"72065","state_abbr":"PR"},"geometry":{"type":"Polygon","coordinates":[[[-66.8383309609096,18.487745760047595],[-66.76654508105081,18.484309521285212],[-66.77013437504375,18.325383478524785],[-66.8275630789308,18.32366535914359],[-66.82397378493785,18.34342373202732],[-66.8096166089661,18.38637671655716],[-66.82397378493785,18.41214850727507],[-66.8383309609096,18.487745760047595]]]}},{"type":"Feature","id":"72067","properties":{"name":"Hormigueros","county_fips":"72067","state_abbr":"PR"},"geometry":{"type":"Polygon","coordinates":[[[-67.1613674202742,18.1535715404054],[-67.08599224642246,18.15013530164301],[-67.10034942239422,18.106323257422574],[-67.1613674202742,18.1535715404054]]]}},{"type":"Feature","id":"72069","properties":{"name":"Humacao","county_fips":"72069","state_abbr":"PR"},"geometry":{"type":"Polygon","coordinates":[[[-65.8764001708017,18.118350093090925],[-65.85486440684407,18.17762521174211],[-65.82615005490055,18.20081982338823],[-65.79384640896409,18.206833241222405],[-65.74000699906999,18.17332991328913],[-65.77589993899939,18.129517869068685],[-65.79743570295703,18.0693836907269],[-65.8764001708017,18.118350093090925]]]}},{"type":"Feature","id":"72071","properties":{"name":"Isabela","county_fips":"72071","state_abbr":"PR"},"geometry":{"type":"Polygon","coordinates":[[[-66.95677766267663,18.48946387942879],[-66.96754554465545,18.449947133661333],[-66.92088472274723,18.39324919408194],[-66.93524189871898,18.376927059960593],[-67.02856354253542,18.39324919408194],[-67.05727789447894,18.461114909639093],[-67.05727789447894,18.480014222832224],[-67.10393871638716,18.514376610456104],[-67.02138495454955,18.510940371693714],[-66.95677766267663,18.48946387942879]]]}},{"type":"Feature","id":"72073","properties":{"name":"Jayuya","county_fips":"72073","state_abbr":"PR"},"geometry":{"type":"Polygon","coordinates":[[[-66.56554461744618,18.298752628116276],[-66.56554461744618,18.24291374822748],[-66.53324097150971,18.20081982338823],[-66.54400885348853,18.163021197001967],[-66.54759814748148,18.152712480714804],[-66.55118744147441,18.151853421024207],[-66.59066967539675,18.172470853598533],[-66.6480983792838,18.15872589854898],[-66.62656261532615,18.24634998698987],[-66.6050268513685,18.238618449774492],[-66.59784826338263,18.284148613376132],[-66.56554461744618,18.298752628116276]]]}},{"type":"Feature","id":"72075","properties":{"name":"Juana Díaz","county_fips":"72075","state_abbr":"PR"},"geometry":{"type":"Polygon","coordinates":[[[-66.55118744147441,18.151853421024207],[-66.54759814748148,18.152712480714804],[-66.52247308953089,18.151853421024207],[-66.51888379553796,18.08484676515765],[-66.49375873758737,18.098591720207196],[-66.42915144571445,18.082269586085857],[-66.42556215172152,18.0427528403184],[-66.42197285772858,18.01955822867228],[-66.4506872096721,17.983477721667214],[-66.49016944359444,17.990350199191987],[-66.54041955949559,17.975746184451843],[-66.52965167751677,18.003236094550942],[-66.56554461744618,18.13982658535585],[-66.55118744147441,18.151853421024207]]]}},{"type":"Feature","id":"72077","properties":{"name":"Juncos","county_fips":"72077","state_abbr":"PR"},"geometry":{"type":"Polygon","coordinates":[[[-65.95177534465344,18.229168793177926],[-65.91947169871699,18.27040365832658],[-65.85127511285113,18.254940583895838],[-65.8943466407664,18.202537942769425],[-65.92665028670287,18.14326282411824],[-65.93023958069581,18.19738358462584],[-65.95177534465344,18.229168793177926]]]}},{"type":"Feature","id":"72079","properties":{"name":"Lajas","county_fips":"72079","state_abbr":"PR"},"geometry":{"type":"Polygon","coordinates":[[[-67.10752801038011,18.056497795367953],[-67.06804577645777,18.06594745196452],[-66.9819027206272,18.052202496914965],[-66.96036695666956,18.032444124031237],[-66.96036695666956,17.991209258882584],[-66.9819027206272,17.952551572805724],[-66.98549201462015,17.967155587545875],[-67.06086718847189,17.974028065070648],[-67.11111730437304,17.94567909528095],[-67.10393871638716,17.974887124761246],[-67.10752801038011,18.056497795367953]]]}},{"type":"Feature","id":"72081","properties":{"name":"Lares","county_fips":"72081","state_abbr":"PR"},"geometry":{"type":"Polygon","coordinates":[[[-66.90652754677546,18.253222464514643],[-66.91011684076841,18.303047926569263],[-66.89217037080371,18.367477403364028],[-66.82397378493785,18.34342373202732],[-66.8275630789308,18.32366535914359],[-66.8275630789308,18.243772807918077],[-66.81679519695197,18.230027852868524],[-66.83115237292373,18.229168793177926],[-66.8275630789308,18.171611793907935],[-66.8383309609096,18.170752734217338],[-66.89934895878959,18.187933928029274],[-66.90652754677546,18.253222464514643]]]}},{"type":"Feature","id":"72083","properties":{"name":"Las Marías","county_fips":"72083","state_abbr":"PR"},"geometry":{"type":"Polygon","coordinates":[[[-67.03933142451424,18.28930297151971],[-67.03933142451424,18.280712374613742],[-66.9460097806978,18.268685538945384],[-66.90652754677546,18.253222464514643],[-66.89934895878959,18.187933928029274],[-66.97831342663426,18.207692300913003],[-67.02138495454955,18.19566546524465],[-67.05727789447894,18.245490927299272],[-67.08240295242952,18.254940583895838],[-67.03933142451424,18.272121777707774],[-67.03933142451424,18.28930297151971]]]}},{"type":"Feature","id":"72085","properties":{"name":"Las Piedras","county_fips":"72085","state_abbr":"PR"},"geometry":{"type":"Polygon","coordinates":[[[-65.92665028670287,18.14326282411824],[-65.8943466407664,18.202537942769425],[-65.85127511285113,18.254940583895838],[-65.83691793687937,18.275558016470164],[-65.8225607609076,18.27298083739837],[-65.82615005490055,18.20081982338823],[-65.85486440684407,18.17762521174211],[-65.8764001708017,18.118350093090925],[-65.92665028670287,18.12006821247212],[-65.92665028670287,18.14326282411824]]]}},{"type":"Feature","id":"72087","properties":{"name":"Loíza","county_fips":"72087","state_abbr":"PR"},"geometry":{"type":"Polygon","coordinates":[[[-65.82973934889348,18.42331628325283],[-65.86922158281583,18.37778611965119],[-65.86922158281583,18.40871226851268],[-65.91947169871699,18.402698850678505],[-65.93023958069581,18.42847064139641],[-65.96613252062521,18.432765939849396],[-65.99125757857578,18.457678670876703],[-65.90511452274522,18.45080619335193],[-65.82973934889348,18.42331628325283]]]}},{"type":"Feature","id":"72089","properties":{"name":"Luquillo","county_fips":"72089","state_abbr":"PR"},"geometry":{"type":"Polygon","coordinates":[[[-65.75077488104881,18.38465859717597],[-65.6682211192112,18.363182104911047],[-65.6861675891759,18.329678776977765],[-65.73282841108411,18.288443911829113],[-65.75436417504174,18.29703450873508],[-65.75795346903469,18.291021090900905],[-65.75436417504174,18.341705612646123],[-65.76872135101351,18.36661834367343],[-65.75077488104881,18.38465859717597]]]}},{"type":"Feature","id":"72091","properties":{"name":"Manatí","county_fips":"72091","state_abbr":"PR"},"geometry":{"type":"Polygon","coordinates":[[[-66.53324097150971,18.48173234221342],[-66.4686336796368,18.468846446854464],[-66.43991932769327,18.4860276406664],[-66.44350862168622,18.370913642126418],[-66.46145509165092,18.371772701817015],[-66.53324097150971,18.35115526924269],[-66.54400885348853,18.405276029750297],[-66.52247308953089,18.4319068801588],[-66.53324097150971,18.48173234221342]]]}},{"type":"Feature","id":"72093","properties":{"name":"Maricao","county_fips":"72093","state_abbr":"PR"},"geometry":{"type":"Polygon","coordinates":[[[-67.02138495454955,18.19566546524465],[-66.97831342663426,18.207692300913003],[-66.89934895878959,18.187933928029274],[-66.8383309609096,18.170752734217338],[-66.85627743087431,18.13896752566525],[-66.92806331073311,18.15099436133361],[-66.97831342663426,18.144121883808836],[-67.05009930649307,18.174188972979728],[-67.02138495454955,18.19566546524465]]]}},{"type":"Feature","id":"72095","properties":{"name":"Maunabo","county_fips":"72095","state_abbr":"PR"},"geometry":{"type":"Polygon","coordinates":[[[-65.98766828458284,18.05907497443974],[-65.85127511285113,18.01182669145691],[-65.91229311073111,17.98090054259542],[-65.94459675666756,17.99292737826378],[-65.95177534465344,18.02299446743467],[-65.98766828458284,18.05907497443974]]]}},{"type":"Feature","id":"72097","properties":{"name":"Mayagüez","county_fips":"72097","state_abbr":"PR"},"geometry":{"type":"MultiPolygon","coordinates":[[[[-67.18649247822478,18.26696741956419],[-67.1434209503095,18.27040365832658],[-67.13624236232363,18.24634998698987],[-67.08240295242952,18.254940583895838],[-67.05727789447894,18.245490927299272],[-67.02138495454955,18.19566546524465],[-67.05009930649307,18.174188972979728],[-67.08599224642246,18.15013530164301],[-67.1613674202742,18.1535715404054],[-67.1793138902389,18.168175555145545],[-67.15418883228833,18.194806405554054],[-67.18649247822478,18.26696741956419]]],[[[-67.93306562875628,18.11147761556615],[-67.86127974889749,18.121786331853315],[-67.84333327893279,18.08484676515765],[-67.89717268882688,18.052202496914965],[-67.94024421674217,18.079692407014065],[-67.93306562875628,18.11147761556615]]]]}},{"type":"Feature","id":"72099","properties":{"name":"Moca","county_fips":"72099","state_abbr":"PR"},"geometry":{"type":"Polygon","coordinates":[[[-67.13265306833068,18.38981295531955],[-67.10034942239422,18.437061238302377],[-67.05727789447894,18.461114909639093],[-67.02856354253542,18.39324919408194],[-67.053688600486,18.306484165331646],[-67.12906377433774,18.317651941309407],[-67.13265306833068,18.38981295531955]]]}},{"type":"Feature","id":"72101","properties":{"name":"Morovis","county_fips":"72101","state_abbr":"PR"},"geometry":{"type":"Polygon","coordinates":[[[-66.46145509165092,18.371772701817015],[-66.44350862168622,18.370913642126418],[-66.396847799778,18.371772701817015],[-66.37531203582036,18.344282791717916],[-66.36454415384154,18.333115015740155],[-66.3789013298133,18.293598269972698],[-66.38966921179211,18.27298083739837],[-66.45427650366504,18.257517762967623],[-66.46145509165092,18.371772701817015]]]}},{"type":"Feature","id":"72103","properties":{"name":"Naguabo","county_fips":"72103","state_abbr":"PR"},"geometry":{"type":"Polygon","coordinates":[[[-65.8225607609076,18.27298083739837],[-65.81179287892878,18.290162031210308],[-65.76513205702057,18.279853314923145],[-65.65745323723237,18.222296315653153],[-65.6610425312253,18.206833241222405],[-65.68975688316883,18.179343331123306],[-65.71847123511235,18.190511107101067],[-65.74000699906999,18.17332991328913],[-65.79384640896409,18.206833241222405],[-65.82615005490055,18.20081982338823],[-65.8225607609076,18.27298083739837]]]}},{"type":"Feature","id":"72105","properties":{"name":"Naranjito","county_fips":"72105","state_abbr":"PR"},"geometry":{"type":"Polygon","coordinates":[[[-66.31429403794039,18.248927166061655],[-66.29634756797567,18.257517762967623],[-66.27840109801097,18.329678776977765],[-66.20302592415923,18.31593382192822],[-66.20661521815218,18.276417076160755],[-66.22815098210982,18.25408152420524],[-66.26763321603217,18.245490927299272],[-66.31429403794039,18.248927166061655]]]}},{"type":"Feature","id":"72107","properties":{"name":"Orocovis","county_fips":"72107","state_abbr":"PR"},"geometry":{"type":"Polygon","coordinates":[[[-66.54759814748148,18.152712480714804],[-66.54400885348853,18.163021197001967],[-66.51170520755207,18.17848427143271],[-66.51888379553796,18.225732554415544],[-66.50093732557326,18.256658703277026],[-66.45427650366504,18.257517762967623],[-66.38966921179211,18.27298083739837],[-66.3789013298133,18.293598269972698],[-66.38249062380623,18.275558016470164],[-66.35018697786978,18.241195628846285],[-66.35018697786978,18.193947345863457],[-66.37531203582036,18.17332991328913],[-66.4147942697427,18.163021197001967],[-66.44350862168622,18.176766152051513],[-66.47222297362974,18.17762521174211],[-66.52247308953089,18.151853421024207],[-66.54759814748148,18.152712480714804]]]}},{"type":"Feature","id":"72109","properties":{"name":"Patillas","county_fips":"72109","state_abbr":"PR"},"geometry":{"type":"Polygon","coordinates":[[[-66.05227557645577,18.107182317113164],[-66.05227557645577,18.109759496184957],[-66.01279334253343,18.09601454113541],[-66.00920404854048,18.075397108561084],[-65.98766828458284,18.05907497443974],[-65.95177534465344,18.02299446743467],[-65.94459675666756,17.99292737826378],[-65.91229311073111,17.98090054259542],[-65.97690040260403,17.968014647236465],[-66.0199719305193,17.97832336352363],[-66.0558648704487,18.040175661246607],[-66.08098992839928,18.033303183721834],[-66.08816851638517,18.056497795367953],[-66.05227557645577,18.107182317113164]]]}},{"type":"Feature","id":"72111","properties":{"name":"Peñuelas","county_fips":"72111","state_abbr":"PR"},"geometry":{"type":"Polygon","coordinates":[[[-66.77013437504375,18.13467222721227],[-66.74859861108611,18.114054794637944],[-66.69475920119201,18.130376928759283],[-66.67681273122732,18.10030983958839],[-66.69834849518494,17.977464303833038],[-66.75936649306493,17.998081736407357],[-66.73424143511436,18.017840109291086],[-66.73783072910729,18.0427528403184],[-66.76654508105081,18.03931660155601],[-66.77013437504375,18.13467222721227]]]}},{"type":"Feature","id":"72113","properties":{"name":"Ponce","county_fips":"72113","state_abbr":"PR"},"geometry":{"type":"MultiPolygon","coordinates":[[[[-66.69475920119201,18.130376928759283],[-66.66963414324142,18.152712480714804],[-66.6480983792838,18.15872589854898],[-66.59066967539675,18.172470853598533],[-66.55118744147441,18.151853421024207],[-66.56554461744618,18.13982658535585],[-66.52965167751677,18.003236094550942],[-66.54041955949559,17.975746184451843],[-66.57990179341793,17.96200122940229],[-66.6301519093191,17.982618661976616],[-66.67322343723437,17.966296527855278],[-66.69834849518494,17.977464303833038],[-66.67681273122732,18.10030983958839],[-66.69475920119201,18.130376928759283]]]]}},{"type":"Feature","id":"72115","properties":{"name":"Quebradillas","county_fips":"72115","state_abbr":"PR"},"geometry":{"type":"Polygon","coordinates":[[[-66.95677766267663,18.48946387942879],[-66.90293825278253,18.484309521285212],[-66.89934895878959,18.36575928398284],[-66.92088472274723,18.39324919408194],[-66.96754554465545,18.449947133661333],[-66.95677766267663,18.48946387942879]]]}},{"type":"Feature","id":"72117","properties":{"name":"Rincón","county_fips":"72117","state_abbr":"PR"},"geometry":{"type":"Polygon","coordinates":[[[-67.24033188811887,18.375208940579405],[-67.18290318423185,18.313356642856427],[-67.22597471214712,18.29703450873508],[-67.27263553405534,18.36232304522045],[-67.24033188811887,18.375208940579405]]]}},{"type":"Feature","id":"72119","properties":{"name":"Río Grande","county_fips":"72119","state_abbr":"PR"},"geometry":{"type":"Polygon","coordinates":[[[-65.86922158281583,18.37778611965119],[-65.82973934889348,18.42331628325283],[-65.79384640896409,18.422457223562233],[-65.75077488104881,18.38465859717597],[-65.76872135101351,18.36661834367343],[-65.75436417504174,18.341705612646123],[-65.75795346903469,18.291021090900905],[-65.76513205702057,18.279853314923145],[-65.81179287892878,18.290162031210308],[-65.8225607609076,18.27298083739837],[-65.83691793687937,18.275558016470164],[-65.86922158281583,18.293598269972698],[-65.86922158281583,18.37778611965119]]]}},{"type":"Feature","id":"72121","properties":{"name":"Sabana Grande","county_fips":"72121","state_abbr":"PR"},"geometry":{"type":"Polygon","coordinates":[[[-66.97831342663426,18.144121883808836],[-66.92806331073311,18.15099436133361],[-66.89934895878959,18.040175661246607],[-66.88499178281782,18.024712586815866],[-66.96036695666956,18.032444124031237],[-66.9819027206272,18.052202496914965],[-66.97831342663426,18.144121883808836]]]}},{"type":"Feature","id":"72123","properties":{"name":"Salinas","county_fips":"72123","state_abbr":"PR"},"geometry":{"type":"Polygon","coordinates":[[[-66.33224050790508,18.016121989909898],[-66.29634756797567,18.057356855058543],[-66.25686533405334,18.076256168251682],[-66.22456168811688,18.095155481444813],[-66.20302592415923,18.04618907908079],[-66.16713298422984,18.05048437753377],[-66.20661521815218,18.012685751147508],[-66.217383100131,17.91561200611006],[-66.24250815808158,17.913893886728864],[-66.26404392203922,17.944820035590354],[-66.33941909589096,17.97660524414244],[-66.33224050790508,18.016121989909898]]]}},{"type":"Feature","id":"72125","properties":{"name":"San Germán","county_fips":"72125","state_abbr":"PR"},"geometry":{"type":"Polygon","coordinates":[[[-67.10034942239422,18.106323257422574],[-67.08599224642246,18.15013530164301],[-67.05009930649307,18.174188972979728],[-66.97831342663426,18.144121883808836],[-66.9819027206272,18.052202496914965],[-67.06804577645777,18.06594745196452],[-67.10752801038011,18.056497795367953],[-67.10034942239422,18.106323257422574]]]}},{"type":"Feature","id":"72127","properties":{"name":"San Juan","county_fips":"72127","state_abbr":"PR"},"geometry":{"type":"Polygon","coordinates":[[[-66.037918400484,18.449947133661333],[-66.03073981249813,18.42761158170581],[-65.99125757857578,18.403557910369102],[-65.99843616656166,18.380363298722983],[-66.03432910649106,18.37005458243582],[-66.04150769447695,18.31249758316583],[-66.06663275242752,18.303047926569263],[-66.08098992839928,18.29703450873508],[-66.08816851638517,18.357168687076864],[-66.10611498634987,18.382940477794776],[-66.1097042803428,18.438779357683572],[-66.1276507503075,18.472282685616854],[-66.037918400484,18.449947133661333]]]}},{"type":"Feature","id":"72129","properties":{"name":"San Lorenzo","county_fips":"72129","state_abbr":"PR"},"geometry":{"type":"Polygon","coordinates":[[[-66.05227557645577,18.113195734947347],[-66.0199719305193,18.144121883808836],[-66.02356122451225,18.166457435764357],[-65.99843616656166,18.206833241222405],[-65.95177534465344,18.229168793177926],[-65.93023958069581,18.19738358462584],[-65.92665028670287,18.14326282411824],[-65.92665028670287,18.12006821247212],[-65.93382887468874,18.093437362063618],[-65.97690040260403,18.094296421754215],[-66.00920404854048,18.075397108561084],[-66.01279334253343,18.09601454113541],[-66.05227557645577,18.109759496184957],[-66.05227557645577,18.113195734947347]]]}},{"type":"Feature","id":"72131","properties":{"name":"San Sebastián","county_fips":"72131","state_abbr":"PR"},"geometry":{"type":"Polygon","coordinates":[[[-67.053688600486,18.306484165331646],[-67.02856354253542,18.39324919408194],[-66.93524189871898,18.376927059960593],[-66.92088472274723,18.39324919408194],[-66.89934895878959,18.36575928398284],[-66.89217037080371,18.367477403364028],[-66.91011684076841,18.303047926569263],[-66.90652754677546,18.253222464514643],[-66.9460097806978,18.268685538945384],[-67.03933142451424,18.280712374613742],[-67.03933142451424,18.28930297151971],[-67.053688600486,18.306484165331646]]]}},{"type":"Feature","id":"72133","properties":{"name":"Santa Isabel","county_fips":"72133","state_abbr":"PR"},"geometry":{"type":"Polygon","coordinates":[[[-66.4506872096721,17.983477721667214],[-66.42197285772858,18.01955822867228],[-66.42556215172152,18.0427528403184],[-66.35736556585566,18.036739422484224],[-66.33224050790508,18.016121989909898],[-66.33941909589096,17.97660524414244],[-66.38607991779918,17.93880661775617],[-66.4506872096721,17.983477721667214]]]}},{"type":"Feature","id":"72135","properties":{"name":"Toa Alta","county_fips":"72135","state_abbr":"PR"},"geometry":{"type":"Polygon","coordinates":[[[-66.30352615596156,18.383799537485373],[-66.2532760400604,18.394108253772536],[-66.19584733617336,18.38895389562895],[-66.20302592415923,18.31593382192822],[-66.27840109801097,18.329678776977765],[-66.31788333193332,18.367477403364028],[-66.30352615596156,18.383799537485373]]]}},{"type":"Feature","id":"72137","properties":{"name":"Toa Baja","county_fips":"72137","state_abbr":"PR"},"geometry":{"type":"Polygon","coordinates":[[[-66.1994366301663,18.46626926778267],[-66.15995439624396,18.453383372423723],[-66.17072227822278,18.4310478204682],[-66.1994366301663,18.414725686346863],[-66.19584733617336,18.38895389562895],[-66.2532760400604,18.394108253772536],[-66.25686533405334,18.455101491804918],[-66.1994366301663,18.46626926778267]]]}},{"type":"Feature","id":"72139","properties":{"name":"Trujillo Alto","county_fips":"72139","state_abbr":"PR"},"geometry":{"type":"Polygon","coordinates":[[[-65.99843616656166,18.380363298722983],[-65.94100746267462,18.293598269972698],[-65.96972181461814,18.309920404094036],[-66.0199719305193,18.30476604595046],[-66.04150769447695,18.31249758316583],[-66.03432910649106,18.37005458243582],[-65.99843616656166,18.380363298722983]]]}},{"type":"Feature","id":"72141","properties":{"name":"Utuado","county_fips":"72141","state_abbr":"PR"},"geometry":{"type":"Polygon","coordinates":[[[-66.8275630789308,18.32366535914359],[-66.77013437504375,18.325383478524785],[-66.73424143511436,18.349437149861494],[-66.71629496514966,18.31593382192822],[-66.60861614536145,18.32796065759657],[-66.56554461744618,18.298752628116276],[-66.59784826338263,18.284148613376132],[-66.6050268513685,18.238618449774492],[-66.62656261532615,18.24634998698987],[-66.6480983792838,18.15872589854898],[-66.66963414324142,18.152712480714804],[-66.6660448492485,18.175048032670325],[-66.69475920119201,18.21714195750957],[-66.75936649306493,18.225732554415544],[-66.78090225702257,18.25064528544285],[-66.81679519695197,18.230027852868524],[-66.8275630789308,18.243772807918077],[-66.8275630789308,18.32366535914359]]]}},{"type":"Feature","id":"72143","properties":{"name":"Vega Alta","county_fips":"72143","state_abbr":"PR"},"geometry":{"type":"Polygon","coordinates":[[[-66.35018697786978,18.4860276406664],[-66.31429403794039,18.474859864688646],[-66.29993686196862,18.42417534294343],[-66.30352615596156,18.383799537485373],[-66.31788333193332,18.367477403364028],[-66.35377627186271,18.360604925839255],[-66.36454415384154,18.333115015740155],[-66.37531203582036,18.344282791717916],[-66.35018697786978,18.4860276406664]]]}},{"type":"Feature","id":"72145","properties":{"name":"Vega Baja","county_fips":"72145","state_abbr":"PR"},"geometry":{"type":"Polygon","coordinates":[[[-66.43991932769327,18.4860276406664],[-66.35018697786978,18.4860276406664],[-66.37531203582036,18.344282791717916],[-66.396847799778,18.371772701817015],[-66.44350862168622,18.370913642126418],[-66.43991932769327,18.4860276406664]]]}},{"type":"Feature","id":"72147","properties":{"name":"Vieques","county_fips":"72147","state_abbr":"PR"},"geometry":{"type":"Polygon","coordinates":[[[-65.57489947539476,18.11577291401914],[-65.39902406974069,18.16216213731137],[-65.2733987799878,18.13467222721227],[-65.33800607186072,18.11233667525675],[-65.41338124571246,18.106323257422574],[-65.4528634796348,18.085705824848247],[-65.48157783157832,18.09601454113541],[-65.54259582945829,18.08141052639526],[-65.57489947539476,18.11577291401914]]]}},{"type":"Feature","id":"72149","properties":{"name":"Villalba","county_fips":"72149","state_abbr":"PR"},"geometry":{"type":"Polygon","coordinates":[[[-66.52247308953089,18.151853421024207],[-66.47222297362974,18.17762521174211],[-66.44350862168622,18.176766152051513],[-66.41838356373563,18.144980943499434],[-66.42915144571445,18.082269586085857],[-66.49375873758737,18.098591720207196],[-66.51888379553796,18.08484676515765],[-66.52247308953089,18.151853421024207]]]}},{"type":"Feature","id":"72151","properties":{"name":"Yabucoa","county_fips":"72151","state_abbr":"PR"},"geometry":{"type":"Polygon","coordinates":[[[-66.00920404854048,18.075397108561084],[-65.97690040260403,18.094296421754215],[-65.93382887468874,18.093437362063618],[-65.92665028670287,18.12006821247212],[-65.8764001708017,18.118350093090925],[-65.79743570295703,18.0693836907269],[-65.82973934889348,18.053061556605563],[-65.85127511285113,18.01182669145691],[-65.98766828458284,18.05907497443974],[-66.00920404854048,18.075397108561084]]]}},{"type":"Feature","id":"72153","properties":{"name":"Yauco","county_fips":"72153","state_abbr":"PR"},"geometry":{"type":"Polygon","coordinates":[[[-66.92806331073311,18.15099436133361],[-66.85627743087431,18.13896752566525],[-66.8383309609096,18.170752734217338],[-66.8275630789308,18.171611793907935],[-66.79884872698727,18.133813167521673],[-66.8024380209802,18.090860182991825],[-66.85268813688137,17.955128751877517],[-66.85986672486725,17.95426969218692],[-66.86345601886019,17.998081736407357],[-66.88499178281782,18.024712586815866],[-66.89934895878959,18.040175661246607],[-66.92806331073311,18.15099436133361]]]}}]}