{"type":"FeatureCollection","features":[{"type":"Feature","id":"44001","properties":{"name":"Bristol","county_fips":"44001","state_abbr":"RI"},"geometry":{"type":"Polygon","coordinates":[[[-71.36084139201392,41.75623653955539],[-71.31776986409864,41.77599491243912],[-71.2603411602116,41.7519412411024],[-71.2244482202822,41.710706375953755],[-71.23521610226102,41.672048689876895],[-71.28546621816218,41.63682724256242],[-71.30700198211981,41.672907749567486],[-71.29264480614806,41.70297483873838],[-71.36084139201392,41.75623653955539]]]}},{"type":"Feature","id":"44003","properties":{"name":"Kent","county_fips":"44003","state_abbr":"RI"},"geometry":{"type":"Polygon","coordinates":[[[-71.78796737717377,41.7253103906939],[-71.46134162381624,41.73218286821867],[-71.4398058598586,41.75795465893658],[-71.3859664499645,41.757095599245986],[-71.36443068600686,41.71757885347853],[-71.37160927399273,41.672907749567486],[-71.45057374183742,41.68751176430764],[-71.40750221392214,41.654008436374355],[-71.46852021180212,41.634250063490626],[-71.48287738777388,41.60246485493854],[-71.78796737717377,41.59645143710436],[-71.78796737717377,41.64026348132481],[-71.78796737717377,41.7253103906939]]]}},{"type":"Feature","id":"44005","properties":{"name":"Newport","county_fips":"44005","state_abbr":"RI"},"geometry":{"type":"MultiPolygon","coordinates":[[[[-71.19573386833868,41.67548492863928],[-71.13112657646576,41.66002185420854],[-71.12035869448694,41.49765957268572],[-71.19214457434575,41.45814282691826],[-71.21368033830338,41.545766915359145],[-71.2065017503175,41.60074673555735],[-71.2423946902469,41.61964604875048],[-71.23521610226102,41.48305555794557],[-71.296234100141,41.484773677326764],[-71.30341268812688,41.45470658815587],[-71.33930562805628,41.4486931703217],[-71.34289492204923,41.495941453304525],[-71.28546621816218,41.57755212391123],[-71.25675186621866,41.63596818287182],[-71.19573386833868,41.67548492863928]]],[[[-71.36443068600686,41.660880913899135],[-71.34648421604216,41.66689433173331],[-71.30700198211981,41.622223227822275],[-71.32494845208451,41.61620980998809],[-71.36443068600686,41.660880913899135]]],[[[-71.40032362593625,41.460720005990055],[-71.37878786197862,41.50453205021049],[-71.39314503795038,41.52429042309422],[-71.37519856798568,41.573256825458245],[-71.36084139201392,41.55607563164631],[-71.36084139201392,41.48305555794557],[-71.40032362593625,41.460720005990055]]]]}},{"type":"Feature","id":"44007","properties":{"name":"Providence","county_fips":"44007","state_abbr":"RI"},"geometry":{"type":"Polygon","coordinates":[[[-71.7987352591526,42.007941028900284],[-71.49723456374564,42.01739068549685],[-71.38237715597155,42.019108804878044],[-71.38237715597155,41.984746417254165],[-71.38237715597155,41.892827030360294],[-71.33930562805628,41.89798138850388],[-71.34648421604216,41.82839755356553],[-71.31776986409864,41.77599491243912],[-71.36084139201392,41.75623653955539],[-71.3859664499645,41.757095599245986],[-71.4398058598586,41.75795465893658],[-71.46134162381624,41.73218286821867],[-71.78796737717377,41.7253103906939],[-71.7987352591526,41.91602164200641],[-71.7987352591526,42.007941028900284]]]}},{"type":"Feature","id":"44009","properties":{"name":"Washington","county_fips":"44009","state_abbr":"RI"},"geometry":{"type":"MultiPolygon","coordinates":[[[[-71.61209197151972,41.160049114281136],[-71.57260973759738,41.22877388952889],[-71.55466326763268,41.21674705386053],[-71.55107397363973,41.15145851737517],[-71.61209197151972,41.160049114281136]]],[[[-71.85975325703257,41.31983421673216],[-71.83103890508904,41.34474694775947],[-71.84180678706787,41.41003548424484],[-71.7987352591526,41.41690796176961],[-71.78796737717377,41.59645143710436],[-71.48287738777388,41.60246485493854],[-71.46852021180212,41.634250063490626],[-71.40750221392214,41.654008436374355],[-71.4039129199292,41.58957895957959],[-71.44698444784447,41.580129302983025],[-71.41827009590095,41.534599139381385],[-71.41827009590095,41.47274684165841],[-71.45416303583036,41.434089155581546],[-71.48287738777388,41.37137779816798],[-71.52594891568916,41.376532156311555],[-71.62285985349854,41.361069081880814],[-71.71977079130791,41.33186105240052],[-71.85616396303963,41.30608926168261],[-71.85975325703257,41.31983421673216]]]]}}]}