{"type":"FeatureCollection","features":[{"type":"Feature","id":"45001","properties":{"name":"Abbeville","county_fips":"45001","state_abbr":"SC"},"geometry":{"type":"Polygon","coordinates":[[[-82.74249264362643,34.20853809797097],[-82.39074183231833,34.43275267721677],[-82.31536665846659,34.48429625865258],[-82.31536665846659,34.47055130360303],[-82.24717007260072,34.40955806557065],[-82.33331312843129,34.34255140970409],[-82.31177736447364,34.32021585774857],[-82.3081880704807,34.277262873218724],[-82.24717007260072,34.21970587394873],[-82.23999148461485,34.16300793436934],[-82.26870583655837,34.108028114171134],[-82.3261345404454,34.064216069950696],[-82.4517598301983,34.05992077149771],[-82.48406347613476,34.08139726376263],[-82.53072429804298,34.07194760716607],[-82.5953315899159,34.01353154820548],[-82.5953315899159,34.030712742017414],[-82.64558170581705,34.07194760716607],[-82.67429605776057,34.12950460643606],[-82.71736758567586,34.150122039010384],[-82.74249264362643,34.20853809797097]]]}},{"type":"Feature","id":"45003","properties":{"name":"Aiken","county_fips":"45003","state_abbr":"SC"},"geometry":{"type":"Polygon","coordinates":[[[-82.01386596305963,33.53245812147121],[-81.6513472697727,33.814229699986996],[-81.57238280192801,33.876941057400565],[-81.51136480404804,33.8133706402964],[-81.46111468814688,33.79704850617506],[-81.41445386623866,33.73175996968969],[-81.35702516235162,33.72316937278372],[-81.27806069450695,33.69653852237522],[-81.18832834468344,33.652726478154776],[-81.37138233832339,33.49036419663196],[-81.75543679556796,33.198283901829015],[-81.78056185351853,33.22147851347513],[-81.80568691146911,33.211169797187964],[-81.85234773337733,33.24725030419304],[-81.83799055740558,33.27302209491094],[-81.93849078920789,33.34346498953989],[-81.92413361323612,33.37095489963899],[-81.93849078920789,33.40445822757227],[-81.91336573125731,33.441397794267935],[-81.92772290722907,33.46201522684226],[-81.98156231712316,33.48435077879778],[-82.01386596305963,33.53245812147121]]]}},{"type":"Feature","id":"45005","properties":{"name":"Allendale","county_fips":"45005","state_abbr":"SC"},"geometry":{"type":"Polygon","coordinates":[[[-81.6154543298433,33.094337679266786],[-81.5436684499845,33.15790809637096],[-81.3642037503375,33.10808263431634],[-81.19191763867639,33.1183913506035],[-81.12372105281052,33.053102814118134],[-81.08064952489525,33.02647196370963],[-81.2385784605846,32.940565994649944],[-81.2385784605846,32.90706266671666],[-81.27806069450695,32.89245865197651],[-81.26011422454225,32.83919695115951],[-81.3283108104081,32.78851242941429],[-81.33907869238692,32.76875405653056],[-81.41086457224571,32.744700385193845],[-81.42522174821748,32.76789499683996],[-81.42522174821748,32.8409150705407],[-81.45752539415393,32.85380096589965],[-81.46470398213982,32.8958948907389],[-81.5077755100551,32.95087471093711],[-81.4898290400904,33.0084317102071],[-81.5436684499845,33.04537127690276],[-81.6154543298433,33.094337679266786]]]}},{"type":"Feature","id":"45007","properties":{"name":"Anderson","county_fips":"45007","state_abbr":"SC"},"geometry":{"type":"Polygon","coordinates":[[[-82.99374322313223,34.479141900509],[-82.85376075740757,34.60885991378913],[-82.8465821694217,34.619168630076295],[-82.83940358143582,34.62346392852928],[-82.78915346553465,34.672430330893306],[-82.4876527701277,34.819329537985375],[-82.4517598301983,34.77637655345553],[-82.46611700617005,34.70507459913598],[-82.45534912419124,34.62518204791047],[-82.42663477224772,34.596833078120774],[-82.4158668902689,34.553021033900336],[-82.31536665846659,34.48429625865258],[-82.39074183231833,34.43275267721677],[-82.74249264362643,34.20853809797097],[-82.74249264362643,34.25235014219142],[-82.77479628956289,34.288430649196485],[-82.7927427595276,34.3399742306323],[-82.83581428744287,34.365746021350205],[-82.8465821694217,34.42072584154841],[-82.87529652136521,34.47570566174661],[-82.90401087330874,34.48601437803377],[-82.99374322313223,34.479141900509]]]}},{"type":"Feature","id":"45009","properties":{"name":"Bamberg","county_fips":"45009","state_abbr":"SC"},"geometry":{"type":"Polygon","coordinates":[[[-81.22422128461284,33.43967967488674],[-81.18832834468344,33.41133070509704],[-81.08064952489525,33.375250198091976],[-80.9406670591706,33.30394824377243],[-80.84734541535416,33.23865970728707],[-80.83657753337533,33.20343825997259],[-80.79709529945299,33.17680740956409],[-80.89400623726237,33.125263828128276],[-80.88323835528355,33.086606142051416],[-80.9047741192412,33.059975291642914],[-80.93707776517765,33.102928276172754],[-81.08064952489525,33.02647196370963],[-81.12372105281052,33.053102814118134],[-81.19191763867639,33.1183913506035],[-81.22781057860578,33.160485275442745],[-81.2206319906199,33.206015439044386],[-81.21345340263403,33.3975857500475],[-81.22422128461284,33.43967967488674]]]}},{"type":"Feature","id":"45011","properties":{"name":"Barnwell","county_fips":"45011","state_abbr":"SC"},"geometry":{"type":"Polygon","coordinates":[[[-81.75543679556796,33.198283901829015],[-81.37138233832339,33.49036419663196],[-81.30318575245752,33.48091454003539],[-81.22422128461284,33.43967967488674],[-81.21345340263403,33.3975857500475],[-81.2206319906199,33.206015439044386],[-81.22781057860578,33.160485275442745],[-81.19191763867639,33.1183913506035],[-81.3642037503375,33.10808263431634],[-81.5436684499845,33.15790809637096],[-81.6154543298433,33.094337679266786],[-81.64775797577975,33.094337679266786],[-81.74466891358914,33.141585962249614],[-81.77338326553266,33.180243648326474],[-81.75543679556796,33.198283901829015]]]}},{"type":"Feature","id":"45013","properties":{"name":"Beaufort","county_fips":"45013","state_abbr":"SC"},"geometry":{"type":"Polygon","coordinates":[[[-80.86888117931178,32.66051253551535],[-80.82580965139651,32.70432457973579],[-80.76479165351654,32.675116550255495],[-80.73966659556595,32.681989027780276],[-80.66788071570716,32.667385013040125],[-80.66070212772128,32.612405192841926],[-80.62121989379894,32.58147904398044],[-80.55302330793307,32.56601596954969],[-80.50636248602486,32.49729119430194],[-80.47764813408133,32.48526435863358],[-80.48123742807428,32.447465732247316],[-80.43098731217312,32.389908732977325],[-80.4561123701237,32.32633831587315],[-80.57096977789777,32.27307661505615],[-80.63916636376364,32.255895421244205],[-80.64634495174951,32.29111686855868],[-80.71454153761537,32.325479256182554],[-80.75402377153772,32.30657994298942],[-80.7612023595236,32.27994909258092],[-80.71813083160832,32.267063197221965],[-80.66788071570716,32.21637867547675],[-80.72172012560125,32.16053979558795],[-80.81145247542476,32.10985527384273],[-80.84375612136121,32.10985527384273],[-80.8796490612906,32.07978818467184],[-80.90836341323413,32.078070065290646],[-80.90118482524825,32.11157339322393],[-80.9406670591706,32.13734518394183],[-80.94784564715647,32.167412273112724],[-80.99450646906469,32.19662030259302],[-81.01245293902939,32.236137048360476],[-80.99091717507174,32.26792225691256],[-81.00527435104351,32.30657994298942],[-80.9334884711847,32.30056652515525],[-80.9227205892059,32.35211010659106],[-80.87605976729768,32.34609668875688],[-80.84016682736826,32.38475437483374],[-80.84734541535416,32.428566419054185],[-80.81863106341063,32.490418716777164],[-80.84016682736826,32.52134486563865],[-80.83298823938239,32.59608305872058],[-80.86888117931178,32.66051253551535]]]}},{"type":"Feature","id":"45015","properties":{"name":"Berkeley","county_fips":"45015","state_abbr":"SC"},"geometry":{"type":"Polygon","coordinates":[[[-80.2228082605826,33.44397497333973],[-80.1510223807238,33.448270271792715],[-80.1510223807238,33.47833736096361],[-80.10077226482265,33.49723667415674],[-80.08282579485794,33.50582727106271],[-79.9715576810768,33.50067291291912],[-79.89259321323213,33.45342462993629],[-79.85311097930979,33.402740108191075],[-79.781325099451,33.3683777205672],[-79.7562000415004,33.329720034490336],[-79.67723557365574,33.30480730346303],[-79.44752075810757,33.213746976259756],[-79.49418158001579,33.191411424304235],[-79.52289593195931,33.1467403203932],[-79.55878887188872,33.156189976989765],[-79.64493192771927,33.1201094699847],[-79.72748568955689,33.014445128041274],[-79.7633786294863,32.98867333732337],[-79.7633786294863,32.95774718846188],[-79.82439662736627,32.91994856207562],[-79.86387886128861,32.870123100021],[-79.89618250722506,32.85895532404324],[-79.89618250722506,32.83060635425354],[-79.92848615316153,32.82373387672876],[-79.93207544715447,32.85208284651846],[-79.96437909309093,32.87785463723637],[-79.95002191711917,32.91049890547905],[-80.01103991499915,32.90019018919189],[-80.05411144291443,32.99984111330113],[-80.0971829708297,32.98781427763277],[-80.1510223807238,33.02131760556605],[-80.28023696446964,33.1192504102941],[-80.3304870803708,33.148458439774394],[-80.29818343443434,33.18196176770767],[-80.3304870803708,33.198283901829015],[-80.36279072630727,33.2575590204802],[-80.34484425634255,33.27817645305453],[-80.3125406104061,33.264431498004974],[-80.25511190651906,33.299652945319444],[-80.2228082605826,33.44397497333973]]]}},{"type":"Feature","id":"45017","properties":{"name":"Calhoun","county_fips":"45017","state_abbr":"SC"},"geometry":{"type":"Polygon","coordinates":[[[-81.01245293902939,33.880377296162955],[-80.98732788107881,33.84859208761087],[-80.91554200122,33.8133706402964],[-80.8796490612906,33.81594781936819],[-80.82939894538946,33.77814919298192],[-80.7612023595236,33.77385389452894],[-80.68582718567185,33.75581364102641],[-80.66070212772128,33.77299483483834],[-80.62121989379894,33.74292774566745],[-80.61404130581306,33.71200159680596],[-80.53507683796838,33.64413588124881],[-80.54225542595425,33.62867280681806],[-80.50277319203192,33.591733240122394],[-80.49559460404603,33.55822991218912],[-80.5099517800178,33.538471539305384],[-80.55302330793307,33.56510238971389],[-80.61045201182012,33.55049837497374],[-80.58891624786247,33.538471539305384],[-80.62480918779187,33.498954793537926],[-80.61045201182012,33.47060582374823],[-80.66070212772128,33.47060582374823],[-80.69300577365773,33.522149405184045],[-80.80786318143181,33.60376007579075],[-80.88682764927648,33.618364090530896],[-80.9406670591706,33.60891443393433],[-80.94425635316352,33.64327682155821],[-80.96579211712117,33.625236568055676],[-81.04116729097291,33.706847238662384],[-80.92630988319883,33.756672700717004],[-80.96579211712117,33.777290133291324],[-81.01245293902939,33.78158543174431],[-81.03757799697996,33.745504924739244],[-81.0591137609376,33.74722304412044],[-81.03757799697996,33.87092763956639],[-81.01245293902939,33.880377296162955]]]}},{"type":"Feature","id":"45019","properties":{"name":"Charleston","county_fips":"45019","state_abbr":"SC"},"geometry":{"type":"Polygon","coordinates":[[[-80.4022729602296,32.85809626435264],[-80.30177272842728,32.85208284651846],[-80.15820096870968,32.81857951858518],[-80.16179026270262,32.87441839847398],[-80.0971829708297,32.886445234142336],[-80.07923650086501,32.92768009929099],[-80.14025449874498,32.979223680726804],[-80.11154014680146,32.98523709856098],[-80.1689688506885,33.002418292372916],[-80.1510223807238,33.02131760556605],[-80.0971829708297,32.98781427763277],[-80.05411144291443,32.99984111330113],[-80.01103991499915,32.90019018919189],[-79.95002191711917,32.91049890547905],[-79.96437909309093,32.87785463723637],[-79.93207544715447,32.85208284651846],[-79.92848615316153,32.82373387672876],[-79.89618250722506,32.83060635425354],[-79.89618250722506,32.85895532404324],[-79.86387886128861,32.870123100021],[-79.82439662736627,32.91994856207562],[-79.7633786294863,32.95774718846188],[-79.7633786294863,32.98867333732337],[-79.72748568955689,33.014445128041274],[-79.64493192771927,33.1201094699847],[-79.55878887188872,33.156189976989765],[-79.52289593195931,33.1467403203932],[-79.49418158001579,33.191411424304235],[-79.44752075810757,33.213746976259756],[-79.3506098202982,33.15361279791797],[-79.26805605846059,33.13471348472484],[-79.28959182241822,33.109800753697535],[-79.32907405634056,33.090042380813806],[-79.36137770227703,33.0067135908259],[-79.422395700157,33.01530418773187],[-79.48341369803698,33.00155923268232],[-79.52289593195931,33.0350625606156],[-79.58032463584635,33.0067135908259],[-79.61621757577575,32.952592830318295],[-79.60544969379694,32.92596197990979],[-79.57673534185342,32.93455257681576],[-79.57673534185342,32.906203607026065],[-79.63057475174752,32.88902241321413],[-79.69518204362043,32.85036472713727],[-79.72748568955689,32.805693623226226],[-79.84952168531684,32.75500910148101],[-79.88541462524626,32.78765336972369],[-79.92489685916858,32.78163995188952],[-79.92848615316153,32.75415004179041],[-79.86746815528156,32.73525072859728],[-79.88541462524626,32.68456620685206],[-79.97514697506975,32.639895102941026],[-80.00027203302032,32.605532715317146],[-80.03616497294972,32.609828013770134],[-80.12230802878028,32.590928700577],[-80.18332602666027,32.540244178831784],[-80.2048617906179,32.555707253262526],[-80.2766476704767,32.517049567185666],[-80.28382625846258,32.53079452223522],[-80.35202284432845,32.49986837337373],[-80.41663013620136,32.54625759666596],[-80.38791578425784,32.57460656645566],[-80.38791578425784,32.652780998299974],[-80.4202194301943,32.66996219211192],[-80.42380872418724,32.71463329602295],[-80.45252307613076,32.73954602705027],[-80.43457660616606,32.78765336972369],[-80.40586225422254,32.81084798136981],[-80.4022729602296,32.85809626435264]]]}},{"type":"Feature","id":"45021","properties":{"name":"Cherokee","county_fips":"45021","state_abbr":"SC"},"geometry":{"type":"Polygon","coordinates":[[[-81.87388349733497,35.18442990648906],[-81.76979397153971,35.18013460803608],[-81.36779304433044,35.16467153360533],[-81.4000966902669,35.13632256381563],[-81.41086457224571,35.04869847537475],[-81.453936100161,35.04869847537475],[-81.4898290400904,35.027221983109825],[-81.47547186411863,34.98255087919878],[-81.49341833408334,34.946470372193716],[-81.45752539415393,34.839087910869104],[-81.48265045210452,34.8665778209682],[-81.5436684499845,34.87001405973059],[-81.58673997789978,34.88719525354253],[-81.64057938779388,34.881181835708354],[-81.64775797577975,34.900081148901485],[-81.71236526765267,34.912967044260434],[-81.75543679556796,34.93272541714416],[-81.79491902949029,35.035812580015794],[-81.87388349733497,35.18442990648906]]]}},{"type":"Feature","id":"45023","properties":{"name":"Chester","county_fips":"45023","state_abbr":"SC"},"geometry":{"type":"Polygon","coordinates":[[[-81.47906115811158,34.82190671705717],[-80.8975955312553,34.82104765736657],[-80.86170259132591,34.69562494253942],[-80.8975955312553,34.63205452543525],[-80.87605976729768,34.54357137730377],[-81.00168505705057,34.54786667575675],[-81.24575704857048,34.56418880987809],[-81.42163245422454,34.57192034709347],[-81.41445386623866,34.63377264481644],[-81.453936100161,34.67500750996509],[-81.45752539415393,34.723973912329114],[-81.48265045210452,34.74459134490344],[-81.453936100161,34.76091347902479],[-81.47906115811158,34.82190671705717]]]}},{"type":"Feature","id":"45025","properties":{"name":"Chesterfield","county_fips":"45025","state_abbr":"SC"},"geometry":{"type":"Polygon","coordinates":[[[-80.56020189591895,34.81761141860418],[-80.31971919839198,34.81417517984179],[-79.92848615316153,34.80644364262642],[-79.92489685916858,34.76520877747777],[-79.89259321323213,34.742014165831655],[-79.87464674326743,34.69562494253942],[-79.83157521535215,34.65696725646256],[-79.79568227542275,34.64837665955659],[-79.77773580545805,34.61315521224212],[-79.80286086340863,34.60885991378913],[-79.83157521535215,34.53154454163541],[-79.88541462524626,34.49116873617736],[-79.96437909309093,34.48773249741497],[-79.98232556305562,34.50147745246452],[-80.04693285492854,34.492027795867955],[-80.28741555245553,34.3666050810408],[-80.28382625846258,34.39409499113991],[-80.31971919839198,34.426739259382586],[-80.32689778637786,34.49804121370213],[-80.37355860828607,34.54700761606615],[-80.38073719627197,34.58394718276182],[-80.40945154821549,34.61487333162331],[-80.43098731217312,34.65954443553435],[-80.48841601606016,34.704215539445386],[-80.51713036800368,34.76263159840598],[-80.56020189591895,34.81761141860418]]]}},{"type":"Feature","id":"45027","properties":{"name":"Clarendon","county_fips":"45027","state_abbr":"SC"},"geometry":{"type":"Polygon","coordinates":[[[-80.53507683796838,33.64413588124881],[-80.49918389803898,33.6742029704197],[-80.47764813408133,33.714578775877754],[-80.43098731217312,33.738632447214464],[-80.43457660616606,33.71200159680596],[-80.39150507825077,33.71543783556835],[-80.39868366623666,33.76784047669476],[-80.27305837648376,33.7858807301973],[-80.25511190651906,33.80392098369983],[-80.13666520475205,33.8683504604946],[-80.12230802878028,33.869209520185194],[-79.97514697506975,33.946524892338914],[-79.94643262312623,33.88639071399714],[-79.87464674326743,33.88553165430654],[-79.91412897718978,33.818524998439976],[-79.99668273902739,33.76784047669476],[-79.97514697506975,33.72145125340253],[-79.99309344503445,33.70427005959059],[-80.10077226482265,33.49723667415674],[-80.1510223807238,33.47833736096361],[-80.1510223807238,33.448270271792715],[-80.2228082605826,33.44397497333973],[-80.2766476704767,33.44655215241152],[-80.35561213832138,33.430230018290175],[-80.43457660616606,33.47747830127301],[-80.44893378213781,33.52472658425584],[-80.49559460404603,33.55822991218912],[-80.50277319203192,33.591733240122394],[-80.54225542595425,33.62867280681806],[-80.53507683796838,33.64413588124881]]]}},{"type":"Feature","id":"45029","properties":{"name":"Colleton","county_fips":"45029","state_abbr":"SC"},"geometry":{"type":"Polygon","coordinates":[[[-81.08064952489525,33.02647196370963],[-80.93707776517765,33.102928276172754],[-80.9047741192412,33.059975291642914],[-80.88323835528355,33.086606142051416],[-80.89400623726237,33.125263828128276],[-80.79709529945299,33.17680740956409],[-80.78991671146711,33.18110270801707],[-80.71095224362243,33.156189976989765],[-80.67147000970009,33.10378733586335],[-80.59250554185542,33.05739811257112],[-80.53148754397543,33.06942494823948],[-80.4740588400884,33.064270590095894],[-80.38791578425784,33.03248538154381],[-80.41663013620136,32.975787441964414],[-80.40586225422254,32.91479420393203],[-80.3843264902649,32.886445234142336],[-80.4022729602296,32.85809626435264],[-80.40586225422254,32.81084798136981],[-80.43457660616606,32.78765336972369],[-80.45252307613076,32.73954602705027],[-80.42380872418724,32.71463329602295],[-80.4202194301943,32.66996219211192],[-80.38791578425784,32.652780998299974],[-80.38791578425784,32.57460656645566],[-80.41663013620136,32.54625759666596],[-80.35202284432845,32.49986837337373],[-80.28382625846258,32.53079452223522],[-80.2766476704767,32.517049567185666],[-80.33407637436375,32.478391881108806],[-80.36279072630727,32.49643213461134],[-80.41663013620136,32.47237846327463],[-80.42380872418724,32.498150253992534],[-80.47764813408133,32.48526435863358],[-80.50636248602486,32.49729119430194],[-80.55302330793307,32.56601596954969],[-80.62121989379894,32.58147904398044],[-80.66070212772128,32.612405192841926],[-80.66788071570716,32.667385013040125],[-80.73966659556595,32.681989027780276],[-80.76479165351654,32.675116550255495],[-80.82580965139651,32.70432457973579],[-80.90118482524825,32.833183533325325],[-80.98732788107881,32.90104924888249],[-80.99809576305763,32.93111633805337],[-81.08064952489525,33.02647196370963]]]}},{"type":"Feature","id":"45031","properties":{"name":"Darlington","county_fips":"45031","state_abbr":"SC"},"geometry":{"type":"Polygon","coordinates":[[[-80.28741555245553,34.3666050810408],[-80.04693285492854,34.492027795867955],[-79.98232556305562,34.50147745246452],[-79.96437909309093,34.48773249741497],[-79.88541462524626,34.49116873617736],[-79.83157521535215,34.53154454163541],[-79.81003945139452,34.48601437803377],[-79.7562000415004,34.5057727509175],[-79.72030710157101,34.48773249741497],[-79.74902145351453,34.46797412453124],[-79.74902145351453,34.43704797566975],[-79.71671780757808,34.39409499113991],[-79.68441416164161,34.39924934928349],[-79.69159274962749,34.35715542444424],[-79.65928910369104,34.30561184300842],[-79.68441416164161,34.2849944104341],[-79.73107498354983,34.29530312672126],[-79.75261074750748,34.25063202281022],[-79.80286086340863,34.25492732126321],[-80.07205791287913,34.08569256221562],[-80.1330759107591,34.12864554674546],[-80.15820096870968,34.161289814988145],[-80.11154014680146,34.19737032199321],[-80.13666520475205,34.284135350743504],[-80.17614743867438,34.32622927558275],[-80.17614743867438,34.3666050810408],[-80.24434402454024,34.32365209651096],[-80.28741555245553,34.36402790196902],[-80.28741555245553,34.3666050810408]]]}},{"type":"Feature","id":"45033","properties":{"name":"Dillon","county_fips":"45033","state_abbr":"SC"},"geometry":{"type":"Polygon","coordinates":[[[-79.63416404574045,34.29788030579305],[-79.45111005210052,34.62088674945749],[-79.35778840828408,34.54528949668496],[-79.24652029450294,34.44563857257572],[-79.07064488884889,34.299598425174246],[-79.12807359273593,34.25406826157261],[-79.17473441464415,34.28757158950589],[-79.21421664856648,34.2557863809538],[-79.30394899838998,34.269531336003354],[-79.37573487824878,34.29873936548365],[-79.47982440404404,34.288430649196485],[-79.5480209899099,34.230873649926494],[-79.601860399804,34.29014876857768],[-79.63416404574045,34.29788030579305]]]}},{"type":"Feature","id":"45035","properties":{"name":"Dorchester","county_fips":"45035","state_abbr":"SC"},"geometry":{"type":"Polygon","coordinates":[[[-80.78991671146711,33.18110270801707],[-80.50277319203192,33.33487439263392],[-80.48482672206721,33.279894572435715],[-80.42739801818018,33.2575590204802],[-80.36279072630727,33.2575590204802],[-80.3304870803708,33.198283901829015],[-80.29818343443434,33.18196176770767],[-80.3304870803708,33.148458439774394],[-80.28023696446964,33.1192504102941],[-80.1510223807238,33.02131760556605],[-80.1689688506885,33.002418292372916],[-80.11154014680146,32.98523709856098],[-80.14025449874498,32.979223680726804],[-80.07923650086501,32.92768009929099],[-80.0971829708297,32.886445234142336],[-80.16179026270262,32.87441839847398],[-80.15820096870968,32.81857951858518],[-80.30177272842728,32.85208284651846],[-80.4022729602296,32.85809626435264],[-80.3843264902649,32.886445234142336],[-80.40586225422254,32.91479420393203],[-80.41663013620136,32.975787441964414],[-80.38791578425784,33.03248538154381],[-80.4740588400884,33.064270590095894],[-80.53148754397543,33.06942494823948],[-80.59250554185542,33.05739811257112],[-80.67147000970009,33.10378733586335],[-80.71095224362243,33.156189976989765],[-80.78991671146711,33.18110270801707]]]}},{"type":"Feature","id":"45037","properties":{"name":"Edgefield","county_fips":"45037","state_abbr":"SC"},"geometry":{"type":"Polygon","coordinates":[[[-82.04616960899608,33.953397369863694],[-82.00668737507375,33.96198796676966],[-81.89541926129262,33.975732921819215],[-81.87029420334203,33.89240413183131],[-81.83440126341263,33.86577328142281],[-81.6513472697727,33.814229699986996],[-82.01386596305963,33.53245812147121],[-82.02822313903138,33.545344016830164],[-82.11436619486194,33.59688759826598],[-82.09641972489725,33.633827164961644],[-82.16461631076311,33.69052510454104],[-82.1825627807278,33.72402843247432],[-82.17179489874898,33.76612235731357],[-82.11436619486194,33.82969277441774],[-82.15743772277723,33.88724977368773],[-82.15743772277723,33.92934369852698],[-82.04616960899608,33.953397369863694]]]}},{"type":"Feature","id":"45039","properties":{"name":"Fairfield","county_fips":"45039","state_abbr":"SC"},"geometry":{"type":"Polygon","coordinates":[[[-81.42163245422454,34.57192034709347],[-81.24575704857048,34.56418880987809],[-81.00168505705057,34.54786667575675],[-80.87605976729768,34.54357137730377],[-80.8975955312553,34.48687343772437],[-80.8796490612906,34.457665408244075],[-80.84016682736826,34.419007722167215],[-80.79350600546005,34.41299430433304],[-80.76838094750947,34.376913797327965],[-80.82580965139651,34.268672276312756],[-80.96220282312822,34.25235014219142],[-81.095006700867,34.21369245611456],[-81.18114975669756,34.22056493363933],[-81.17756046270462,34.1741757103471],[-81.27806069450695,34.230014590235896],[-81.31754292842928,34.23946424683246],[-81.36779304433044,34.32622927558275],[-81.42163245422454,34.45422916948169],[-81.42163245422454,34.49460497493974],[-81.42163245422454,34.57192034709347]]]}},{"type":"Feature","id":"45041","properties":{"name":"Florence","county_fips":"45041","state_abbr":"SC"},"geometry":{"type":"Polygon","coordinates":[[[-80.07205791287913,34.08569256221562],[-79.80286086340863,34.25492732126321],[-79.75261074750748,34.25063202281022],[-79.73107498354983,34.29530312672126],[-79.68441416164161,34.2849944104341],[-79.65928910369104,34.30561184300842],[-79.63416404574045,34.29788030579305],[-79.601860399804,34.29014876857768],[-79.5480209899099,34.230873649926494],[-79.57314604786048,34.18534348632486],[-79.51571734397344,34.09686033819337],[-79.51571734397344,33.99377317532175],[-79.49418158001579,33.949961131101304],[-79.3685562902629,33.84257866977669],[-79.3147168803688,33.826256535655354],[-79.32548476234761,33.79876662555625],[-79.3506098202982,33.81508875967759],[-79.4403421701217,33.784162610816104],[-79.49777087400874,33.775572013910136],[-79.67723557365574,33.81508875967759],[-79.72389639556395,33.814229699986996],[-79.74184286552865,33.83484713256132],[-79.7992715694157,33.83570619225192],[-79.83516450934509,33.88295447523475],[-79.87464674326743,33.88553165430654],[-79.94643262312623,33.88639071399714],[-79.97514697506975,33.946524892338914],[-79.89259321323213,33.98775975748757],[-79.90336109521095,34.00236377222772],[-80.00027203302032,34.04789393582935],[-80.02539709097091,34.07366572654726],[-80.07205791287913,34.08569256221562]]]}},{"type":"Feature","id":"45043","properties":{"name":"Georgetown","county_fips":"45043","state_abbr":"SC"},"geometry":{"type":"Polygon","coordinates":[[[-79.31830617436174,33.779867312363116],[-79.28241323443234,33.71629689525895],[-79.24652029450294,33.69567946268462],[-79.1890915906159,33.705988178971786],[-79.13884147471474,33.663894254132536],[-79.09935924079241,33.571974867238666],[-79.00244830298303,33.571974867238666],[-79.0275733609336,33.533317181161806],[-79.08500206482064,33.483491719107185],[-79.1352521807218,33.40359916788167],[-79.18191300263003,33.25412278171781],[-79.1711451206512,33.20687449873498],[-79.19627017860178,33.16563963358633],[-79.24652029450294,33.125263828128276],[-79.28959182241822,33.109800753697535],[-79.26805605846059,33.13471348472484],[-79.3506098202982,33.15361279791797],[-79.44752075810757,33.213746976259756],[-79.67723557365574,33.30480730346303],[-79.67723557365574,33.336592512015116],[-79.63416404574045,33.371813959329586],[-79.59109251782517,33.44311591364913],[-79.53725310793108,33.49723667415674],[-79.49777087400874,33.51613598734987],[-79.43316358213582,33.57712922538225],[-79.44393146411464,33.59602853857538],[-79.39368134821348,33.71200159680596],[-79.31830617436174,33.779867312363116]]]}},{"type":"Feature","id":"45045","properties":{"name":"Greenville","county_fips":"45045","state_abbr":"SC"},"geometry":{"type":"Polygon","coordinates":[[[-82.57379582595826,35.144054101031],[-82.45893841818418,35.17841648865488],[-82.4338133602336,35.17068495143951],[-82.39074183231833,35.21535605535055],[-82.35484889238892,35.19216144370443],[-82.21486642666426,35.196456742157416],[-82.22563430864308,34.850255686846864],[-82.14666984079841,34.78582621005209],[-82.2364021906219,34.58738342152421],[-82.2364021906219,34.53583984008839],[-82.31536665846659,34.48429625865258],[-82.4158668902689,34.553021033900336],[-82.42663477224772,34.596833078120774],[-82.45534912419124,34.62518204791047],[-82.46611700617005,34.70507459913598],[-82.4517598301983,34.77637655345553],[-82.4876527701277,34.819329537985375],[-82.49483135811357,34.8949267907579],[-82.51636712207122,34.92585293961939],[-82.53790288602886,35.016054207132065],[-82.5953315899159,35.008322669916694],[-82.59892088390883,35.04096693815938],[-82.57020653196531,35.07447026609265],[-82.64199241182412,35.05986625135251],[-82.67788535175352,35.06502060949609],[-82.74967123161231,35.04783941568415],[-82.76402840758408,35.06845684825848],[-82.65634958779587,35.119141370003696],[-82.57379582595826,35.144054101031]]]}},{"type":"Feature","id":"45047","properties":{"name":"Greenwood","county_fips":"45047","state_abbr":"SC"},"geometry":{"type":"Polygon","coordinates":[[[-82.24717007260072,34.40955806557065],[-82.17897348673486,34.358014484134834],[-82.16820560475604,34.330524574035735],[-82.12154478284782,34.30389372362723],[-82.08206254892549,34.299598425174246],[-82.00668737507375,34.24118236621366],[-81.97797302313023,34.23774612745127],[-81.94566937719377,34.203383739827395],[-81.87029420334203,34.13551802427024],[-81.92772290722907,34.07796102500024],[-81.94566937719377,34.03930333892338],[-81.98874090510905,33.99806847377473],[-82.00668737507375,33.96198796676966],[-82.04616960899608,33.953397369863694],[-82.04616960899608,33.983464459034586],[-82.15025913479134,33.98690069779697],[-82.2005092506925,33.978310100891],[-82.2364021906219,34.01353154820548],[-82.30459877648777,33.97143762336623],[-82.3261345404454,34.064216069950696],[-82.26870583655837,34.108028114171134],[-82.23999148461485,34.16300793436934],[-82.24717007260072,34.21970587394873],[-82.3081880704807,34.277262873218724],[-82.31177736447364,34.32021585774857],[-82.33331312843129,34.34255140970409],[-82.24717007260072,34.40955806557065]]]}},{"type":"Feature","id":"45049","properties":{"name":"Hampton","county_fips":"45049","state_abbr":"SC"},"geometry":{"type":"Polygon","coordinates":[[[-81.41086457224571,32.744700385193845],[-81.33907869238692,32.76875405653056],[-81.3283108104081,32.78851242941429],[-81.26011422454225,32.83919695115951],[-81.27806069450695,32.89245865197651],[-81.2385784605846,32.90706266671666],[-81.2385784605846,32.940565994649944],[-81.08064952489525,33.02647196370963],[-80.99809576305763,32.93111633805337],[-80.98732788107881,32.90104924888249],[-80.90118482524825,32.833183533325325],[-80.82580965139651,32.70432457973579],[-80.86888117931178,32.66051253551535],[-80.90118482524825,32.62185484943849],[-80.95861352913529,32.64247228201281],[-80.94425635316352,32.687143385923854],[-81.01604223302233,32.75329098209981],[-81.28164998849988,32.55656631295312],[-81.32113222242222,32.559143492024916],[-81.38932880828808,32.59522399902998],[-81.4180431602316,32.62958638665386],[-81.39291810228102,32.65364005799057],[-81.40727527825278,32.694874923139224],[-81.42881104221041,32.701747400664004],[-81.41086457224571,32.744700385193845]]]}},{"type":"Feature","id":"45051","properties":{"name":"Horry","county_fips":"45051","state_abbr":"SC"},"geometry":{"type":"Polygon","coordinates":[[[-79.12807359273593,34.25406826157261],[-79.07064488884889,34.299598425174246],[-78.65069749167492,33.94394771326713],[-78.53942937789378,33.85116926668266],[-78.586090199802,33.84429678915789],[-78.71530478354784,33.80048474493744],[-78.8122157213572,33.74378680535805],[-78.93784101111011,33.63984058279582],[-79.00244830298303,33.571974867238666],[-79.09935924079241,33.571974867238666],[-79.13884147471474,33.663894254132536],[-79.1890915906159,33.705988178971786],[-79.2608774704747,33.81508875967759],[-79.26446676446764,33.89240413183131],[-79.29677041040411,33.90099472873728],[-79.33984193831938,33.97057856367563],[-79.30035970439704,34.02899462263622],[-79.24293100051,34.06765230871308],[-79.25010958849589,34.0899878606686],[-79.2070380605806,34.13294084519845],[-79.19268088460885,34.176752889418886],[-79.13166288672886,34.22142399332993],[-79.12807359273593,34.25406826157261]]]}},{"type":"Feature","id":"45053","properties":{"name":"Jasper","county_fips":"45053","state_abbr":"SC"},"geometry":{"type":"Polygon","coordinates":[[[-81.28164998849988,32.55656631295312],[-81.01604223302233,32.75329098209981],[-80.94425635316352,32.687143385923854],[-80.95861352913529,32.64247228201281],[-80.90118482524825,32.62185484943849],[-80.86888117931178,32.66051253551535],[-80.83298823938239,32.59608305872058],[-80.84016682736826,32.52134486563865],[-80.81863106341063,32.490418716777164],[-80.84734541535416,32.428566419054185],[-80.84016682736826,32.38475437483374],[-80.87605976729768,32.34609668875688],[-80.9227205892059,32.35211010659106],[-80.9334884711847,32.30056652515525],[-81.00527435104351,32.30657994298942],[-80.99091717507174,32.26792225691256],[-81.01245293902939,32.236137048360476],[-80.99450646906469,32.19662030259302],[-80.94784564715647,32.167412273112724],[-80.9406670591706,32.13734518394183],[-80.90118482524825,32.11157339322393],[-80.90836341323413,32.078070065290646],[-80.8796490612906,32.07978818467184],[-80.9047741192412,32.05229827457274],[-80.88682764927648,32.03425802107021],[-80.91913129521295,32.03769425983259],[-80.99809576305763,32.09868749786497],[-81.03757799697996,32.08408348312483],[-81.1129531708317,32.11329151260512],[-81.1308996407964,32.16655321342213],[-81.11654246482465,32.18888876537765],[-81.14525681676817,32.22668739176391],[-81.15602469874699,32.24129140650406],[-81.12013175881758,32.2842443910339],[-81.14166752277522,32.34953292751927],[-81.15602469874699,32.34609668875688],[-81.20986410864109,32.436297956269556],[-81.19550693266932,32.46550598574985],[-81.27806069450695,32.5350898206882],[-81.28164998849988,32.55656631295312]]]}},{"type":"Feature","id":"45055","properties":{"name":"Kershaw","county_fips":"45055","state_abbr":"SC"},"geometry":{"type":"Polygon","coordinates":[[[-80.8796490612906,34.457665408244075],[-80.7432558895589,34.54013513854138],[-80.73966659556595,34.4800009601996],[-80.6894164796648,34.51522240751407],[-80.65711283372833,34.4782828408184],[-80.61404130581306,34.499759333083325],[-80.54943401394014,34.49288685555855],[-80.5278982499825,34.504054631536306],[-80.54943401394014,34.55989351142511],[-80.40945154821549,34.61487333162331],[-80.38073719627197,34.58394718276182],[-80.37355860828607,34.54700761606615],[-80.32689778637786,34.49804121370213],[-80.31971919839198,34.426739259382586],[-80.28382625846258,34.39409499113991],[-80.28741555245553,34.3666050810408],[-80.28741555245553,34.36402790196902],[-80.32689778637786,34.3391151709417],[-80.36279072630727,34.3399742306323],[-80.35202284432845,34.303034663936636],[-80.43816590015899,34.284135350743504],[-80.43098731217312,34.226578351473506],[-80.48123742807428,34.169021352203515],[-80.5817376598766,34.10029657695576],[-80.61763059980599,34.099437517265166],[-80.71813083160832,34.069370428094274],[-80.85093470934709,34.1741757103471],[-80.86888117931178,34.18190724756247],[-80.82580965139651,34.268672276312756],[-80.76838094750947,34.376913797327965],[-80.79350600546005,34.41299430433304],[-80.84016682736826,34.419007722167215],[-80.8796490612906,34.457665408244075]]]}},{"type":"Feature","id":"45057","properties":{"name":"Lancaster","county_fips":"45057","state_abbr":"SC"},"geometry":{"type":"Polygon","coordinates":[[[-80.9047741192412,35.07618838547385],[-80.84016682736826,35.00145019239192],[-80.78273812348124,34.93616165590655],[-80.79709529945299,34.82018859767597],[-80.56020189591895,34.81761141860418],[-80.51713036800368,34.76263159840598],[-80.48841601606016,34.704215539445386],[-80.43098731217312,34.65954443553435],[-80.40945154821549,34.61487333162331],[-80.54943401394014,34.55989351142511],[-80.5278982499825,34.504054631536306],[-80.54943401394014,34.49288685555855],[-80.61404130581306,34.499759333083325],[-80.65711283372833,34.4782828408184],[-80.6894164796648,34.51522240751407],[-80.73966659556595,34.4800009601996],[-80.7432558895589,34.54013513854138],[-80.8796490612906,34.457665408244075],[-80.8975955312553,34.48687343772437],[-80.87605976729768,34.54357137730377],[-80.8975955312553,34.63205452543525],[-80.86170259132591,34.69562494253942],[-80.8975955312553,34.82104765736657],[-80.86529188531885,34.84767850777507],[-80.8796490612906,34.86228252251522],[-80.86888117931178,34.92928917838178],[-80.88323835528355,34.966228745077444],[-80.88323835528355,34.96708780476804],[-80.88323835528355,34.966228745077444],[-80.88323835528355,34.966228745077444],[-80.88323835528355,34.96708780476804],[-80.88682764927648,34.98426899857998],[-80.88682764927648,34.98426899857998],[-80.90836341323413,35.01691326682266],[-80.9047741192412,35.07618838547385]]]}},{"type":"Feature","id":"45059","properties":{"name":"Laurens","county_fips":"45059","state_abbr":"SC"},"geometry":{"type":"Polygon","coordinates":[[[-82.31536665846659,34.48429625865258],[-82.2364021906219,34.53583984008839],[-82.2364021906219,34.58738342152421],[-82.14666984079841,34.78582621005209],[-82.11436619486194,34.749745703047026],[-82.08565184291842,34.74459134490344],[-82.07129466694667,34.704215539445386],[-82.00309808108081,34.661262554915545],[-81.97079443514434,34.65696725646256],[-81.90977643726437,34.60370555564555],[-81.86311561535615,34.580510943999435],[-81.85234773337733,34.59425589904898],[-81.71595456164562,34.55388009359093],[-81.67647232772327,34.558175392043914],[-81.64416868178681,34.53326266101661],[-81.70159738567385,34.4525110501005],[-81.7231331496315,34.449933871028705],[-81.78415114751147,34.36488696165961],[-81.83799055740558,34.34255140970409],[-81.89182996729967,34.303034663936636],[-81.9025978492785,34.26265885847858],[-81.94566937719377,34.203383739827395],[-81.97797302313023,34.23774612745127],[-82.00668737507375,34.24118236621366],[-82.08206254892549,34.299598425174246],[-82.12154478284782,34.30389372362723],[-82.16820560475604,34.330524574035735],[-82.17897348673486,34.358014484134834],[-82.24717007260072,34.40955806557065],[-82.31536665846659,34.47055130360303],[-82.31536665846659,34.48429625865258]]]}},{"type":"Feature","id":"45061","properties":{"name":"Lee","county_fips":"45061","state_abbr":"SC"},"geometry":{"type":"Polygon","coordinates":[[[-80.48123742807428,34.169021352203515],[-80.43098731217312,34.226578351473506],[-80.43816590015899,34.284135350743504],[-80.35202284432845,34.303034663936636],[-80.36279072630727,34.3399742306323],[-80.32689778637786,34.3391151709417],[-80.28741555245553,34.36402790196902],[-80.24434402454024,34.32365209651096],[-80.17614743867438,34.3666050810408],[-80.17614743867438,34.32622927558275],[-80.13666520475205,34.284135350743504],[-80.11154014680146,34.19737032199321],[-80.15820096870968,34.161289814988145],[-80.1330759107591,34.12864554674546],[-80.07205791287913,34.08569256221562],[-80.02539709097091,34.07366572654726],[-80.00027203302032,34.04789393582935],[-80.02539709097091,34.00837719006189],[-80.07205791287913,34.007518130371295],[-80.17973673266732,33.9516792504825],[-80.1869153206532,34.00494095129951],[-80.25152261252612,33.992055055940554],[-80.26946908249083,34.0350080404704],[-80.2945941404414,34.03930333892338],[-80.32330849238492,34.080538204072035],[-80.40586225422254,34.08139726376263],[-80.48123742807428,34.11232341262412],[-80.48123742807428,34.169021352203515]]]}},{"type":"Feature","id":"45063","properties":{"name":"Lexington","county_fips":"45063","state_abbr":"SC"},"geometry":{"type":"Polygon","coordinates":[[[-81.4718825701257,34.07624290561905],[-81.46829327613275,34.08741068159681],[-81.38932880828808,34.080538204072035],[-81.4359896301963,34.130363666126655],[-81.40368598425984,34.17761194910948],[-81.33907869238692,34.19737032199321],[-81.29959645846458,34.165585113441125],[-81.3103643404434,34.141531442104416],[-81.274471400514,34.09771939788397],[-81.17397116871169,34.0899878606686],[-81.13807822878229,34.068511368403676],[-81.10218528885288,34.02298120480204],[-81.05552446694466,34.00150471253712],[-81.01604223302233,33.93192087759877],[-81.01245293902939,33.880377296162955],[-81.03757799697996,33.87092763956639],[-81.0591137609376,33.74722304412044],[-81.03757799697996,33.745504924739244],[-81.01245293902939,33.78158543174431],[-80.96579211712117,33.777290133291324],[-80.92630988319883,33.756672700717004],[-81.04116729097291,33.706847238662384],[-81.08782811288113,33.69567946268462],[-81.18832834468344,33.652726478154776],[-81.27806069450695,33.69653852237522],[-81.35702516235162,33.72316937278372],[-81.41445386623866,33.73175996968969],[-81.46111468814688,33.79704850617506],[-81.51136480404804,33.8133706402964],[-81.57238280192801,33.876941057400565],[-81.4718825701257,34.07624290561905]]]}},{"type":"Feature","id":"45067","properties":{"name":"Marion","county_fips":"45067","state_abbr":"SC"},"geometry":{"type":"Polygon","coordinates":[[[-79.5480209899099,34.230873649926494],[-79.47982440404404,34.288430649196485],[-79.37573487824878,34.29873936548365],[-79.30394899838998,34.269531336003354],[-79.21421664856648,34.2557863809538],[-79.17473441464415,34.28757158950589],[-79.12807359273593,34.25406826157261],[-79.13166288672886,34.22142399332993],[-79.19268088460885,34.176752889418886],[-79.2070380605806,34.13294084519845],[-79.25010958849589,34.0899878606686],[-79.24293100051,34.06765230871308],[-79.30035970439704,34.02899462263622],[-79.33984193831938,33.97057856367563],[-79.29677041040411,33.90099472873728],[-79.26446676446764,33.89240413183131],[-79.2608774704747,33.81508875967759],[-79.1890915906159,33.705988178971786],[-79.24652029450294,33.69567946268462],[-79.28241323443234,33.71629689525895],[-79.31830617436174,33.779867312363116],[-79.32548476234761,33.79876662555625],[-79.3147168803688,33.826256535655354],[-79.3685562902629,33.84257866977669],[-79.49418158001579,33.949961131101304],[-79.51571734397344,33.99377317532175],[-79.51571734397344,34.09686033819337],[-79.57314604786048,34.18534348632486],[-79.5480209899099,34.230873649926494]]]}},{"type":"Feature","id":"45069","properties":{"name":"Marlboro","county_fips":"45069","state_abbr":"SC"},"geometry":{"type":"Polygon","coordinates":[[[-79.92848615316153,34.80644364262642],[-79.69159274962749,34.804725523245224],[-79.67364627966279,34.804725523245224],[-79.46187793407934,34.630336406054056],[-79.45111005210052,34.62088674945749],[-79.63416404574045,34.29788030579305],[-79.65928910369104,34.30561184300842],[-79.69159274962749,34.35715542444424],[-79.68441416164161,34.39924934928349],[-79.71671780757808,34.39409499113991],[-79.74902145351453,34.43704797566975],[-79.74902145351453,34.46797412453124],[-79.72030710157101,34.48773249741497],[-79.7562000415004,34.5057727509175],[-79.81003945139452,34.48601437803377],[-79.83157521535215,34.53154454163541],[-79.80286086340863,34.60885991378913],[-79.77773580545805,34.61315521224212],[-79.79568227542275,34.64837665955659],[-79.83157521535215,34.65696725646256],[-79.87464674326743,34.69562494253942],[-79.89259321323213,34.742014165831655],[-79.92489685916858,34.76520877747777],[-79.92848615316153,34.80644364262642]]]}},{"type":"Feature","id":"45065","properties":{"name":"McCormick","county_fips":"45065","state_abbr":"SC"},"geometry":{"type":"Polygon","coordinates":[[[-82.5953315899159,34.01353154820548],[-82.53072429804298,34.07194760716607],[-82.48406347613476,34.08139726376263],[-82.4517598301983,34.05992077149771],[-82.3261345404454,34.064216069950696],[-82.30459877648777,33.97143762336623],[-82.2364021906219,34.01353154820548],[-82.2005092506925,33.978310100891],[-82.15025913479134,33.98690069779697],[-82.04616960899608,33.983464459034586],[-82.04616960899608,33.953397369863694],[-82.15743772277723,33.92934369852698],[-82.15743772277723,33.88724977368773],[-82.11436619486194,33.82969277441774],[-82.17179489874898,33.76612235731357],[-82.1825627807278,33.72402843247432],[-82.16461631076311,33.69052510454104],[-82.09641972489725,33.633827164961644],[-82.11436619486194,33.59688759826598],[-82.15025913479134,33.59774665795658],[-82.19691995669956,33.630390926199254],[-82.2184557206572,33.68622980608806],[-82.24717007260072,33.75237740226402],[-82.35125959839598,33.83656525194252],[-82.45534912419124,33.88123635585355],[-82.52354571005709,33.94308865357653],[-82.56302794397944,33.95597454893549],[-82.5953315899159,34.01353154820548]]]}},{"type":"Feature","id":"45071","properties":{"name":"Newberry","county_fips":"45071","state_abbr":"SC"},"geometry":{"type":"Polygon","coordinates":[[[-81.94566937719377,34.203383739827395],[-81.9025978492785,34.26265885847858],[-81.89182996729967,34.303034663936636],[-81.83799055740558,34.34255140970409],[-81.78415114751147,34.36488696165961],[-81.7231331496315,34.449933871028705],[-81.70159738567385,34.4525110501005],[-81.64416868178681,34.53326266101661],[-81.55443633196332,34.47656472143721],[-81.54007915599156,34.44477951288512],[-81.48623974609745,34.49030967648676],[-81.42163245422454,34.49460497493974],[-81.42163245422454,34.45422916948169],[-81.36779304433044,34.32622927558275],[-81.31754292842928,34.23946424683246],[-81.33907869238692,34.19737032199321],[-81.40368598425984,34.17761194910948],[-81.4359896301963,34.130363666126655],[-81.38932880828808,34.080538204072035],[-81.46829327613275,34.08741068159681],[-81.4718825701257,34.07624290561905],[-81.54007915599156,34.08139726376263],[-81.63699009380093,34.145826740557396],[-81.73031173761737,34.187920665396646],[-81.78415114751147,34.16644417313172],[-81.8595263213632,34.17933006849068],[-81.87029420334203,34.13551802427024],[-81.94566937719377,34.203383739827395]]]}},{"type":"Feature","id":"45073","properties":{"name":"Oconee","county_fips":"45073","state_abbr":"SC"},"geometry":{"type":"Polygon","coordinates":[[[-83.10860063090631,35.000591132701324],[-83.008100399104,35.027221983109825],[-82.89683228532284,35.05643001259012],[-82.94349310723106,34.988564297032966],[-82.91477875528754,34.97224216291162],[-82.89683228532284,34.80300740386403],[-82.88247510935109,34.791839627886276],[-82.90042157931579,34.742014165831655],[-82.85376075740757,34.72483297201971],[-82.83940358143582,34.62346392852928],[-82.8465821694217,34.619168630076295],[-82.85376075740757,34.60885991378913],[-82.99374322313223,34.479141900509],[-83.05117192701927,34.49546403463034],[-83.10501133691336,34.53669889977899],[-83.16961862878628,34.60542367502674],[-83.23063662666627,34.611437092860925],[-83.33831544645446,34.68703434563345],[-83.35267262242623,34.716242375113744],[-83.32036897648976,34.75919535964359],[-83.3239582704827,34.79012150850508],[-83.23063662666627,34.880322776017756],[-83.11936851288513,34.938738834978345],[-83.10860063090631,35.000591132701324]]]}},{"type":"Feature","id":"45075","properties":{"name":"Orangeburg","county_fips":"45075","state_abbr":"SC"},"geometry":{"type":"Polygon","coordinates":[[[-81.37138233832339,33.49036419663196],[-81.18832834468344,33.652726478154776],[-81.08782811288113,33.69567946268462],[-81.04116729097291,33.706847238662384],[-80.96579211712117,33.625236568055676],[-80.94425635316352,33.64327682155821],[-80.9406670591706,33.60891443393433],[-80.88682764927648,33.618364090530896],[-80.80786318143181,33.60376007579075],[-80.69300577365773,33.522149405184045],[-80.66070212772128,33.47060582374823],[-80.61045201182012,33.47060582374823],[-80.62480918779187,33.498954793537926],[-80.58891624786247,33.538471539305384],[-80.61045201182012,33.55049837497374],[-80.55302330793307,33.56510238971389],[-80.5099517800178,33.538471539305384],[-80.49559460404603,33.55822991218912],[-80.44893378213781,33.52472658425584],[-80.43457660616606,33.47747830127301],[-80.35561213832138,33.430230018290175],[-80.2766476704767,33.44655215241152],[-80.2228082605826,33.44397497333973],[-80.25511190651906,33.299652945319444],[-80.3125406104061,33.264431498004974],[-80.34484425634255,33.27817645305453],[-80.36279072630727,33.2575590204802],[-80.42739801818018,33.2575590204802],[-80.48482672206721,33.279894572435715],[-80.50277319203192,33.33487439263392],[-80.78991671146711,33.18110270801707],[-80.79709529945299,33.17680740956409],[-80.83657753337533,33.20343825997259],[-80.84734541535416,33.23865970728707],[-80.9406670591706,33.30394824377243],[-81.08064952489525,33.375250198091976],[-81.18832834468344,33.41133070509704],[-81.22422128461284,33.43967967488674],[-81.30318575245752,33.48091454003539],[-81.37138233832339,33.49036419663196]]]}},{"type":"Feature","id":"45077","properties":{"name":"Pickens","county_fips":"45077","state_abbr":"SC"},"geometry":{"type":"MultiPolygon","coordinates":[[[[-82.8465821694217,34.619168630076295],[-82.85376075740757,34.60885991378913],[-82.8465821694217,34.619168630076295],[-82.8465821694217,34.619168630076295]]],[[[-82.89683228532284,35.05643001259012],[-82.78197487754878,35.085638042070414],[-82.76402840758408,35.06845684825848],[-82.74967123161231,35.04783941568415],[-82.67788535175352,35.06502060949609],[-82.64199241182412,35.05986625135251],[-82.57020653196531,35.07447026609265],[-82.59892088390883,35.04096693815938],[-82.5953315899159,35.008322669916694],[-82.53790288602886,35.016054207132065],[-82.51636712207122,34.92585293961939],[-82.49483135811357,34.8949267907579],[-82.4876527701277,34.819329537985375],[-82.78915346553465,34.672430330893306],[-82.83940358143582,34.62346392852928],[-82.85376075740757,34.72483297201971],[-82.90042157931579,34.742014165831655],[-82.88247510935109,34.791839627886276],[-82.89683228532284,34.80300740386403],[-82.91477875528754,34.97224216291162],[-82.94349310723106,34.988564297032966],[-82.89683228532284,35.05643001259012]]]]}},{"type":"Feature","id":"45079","properties":{"name":"Richland","county_fips":"45079","state_abbr":"SC"},"geometry":{"type":"Polygon","coordinates":[[[-81.31754292842928,34.23946424683246],[-81.27806069450695,34.230014590235896],[-81.17756046270462,34.1741757103471],[-81.18114975669756,34.22056493363933],[-81.095006700867,34.21369245611456],[-80.96220282312822,34.25235014219142],[-80.82580965139651,34.268672276312756],[-80.86888117931178,34.18190724756247],[-80.85093470934709,34.1741757103471],[-80.71813083160832,34.069370428094274],[-80.61763059980599,34.099437517265166],[-80.63557706977069,34.08311538314383],[-80.5996841298413,34.03930333892338],[-80.64634495174951,33.999786593155925],[-80.62121989379894,33.933638996979965],[-80.63198777577776,33.852887386063856],[-80.59609483584836,33.786739789887896],[-80.62121989379894,33.74292774566745],[-80.66070212772128,33.77299483483834],[-80.68582718567185,33.75581364102641],[-80.7612023595236,33.77385389452894],[-80.82939894538946,33.77814919298192],[-80.8796490612906,33.81594781936819],[-80.91554200122,33.8133706402964],[-80.98732788107881,33.84859208761087],[-81.01245293902939,33.880377296162955],[-81.01604223302233,33.93192087759877],[-81.05552446694466,34.00150471253712],[-81.10218528885288,34.02298120480204],[-81.13807822878229,34.068511368403676],[-81.17397116871169,34.0899878606686],[-81.274471400514,34.09771939788397],[-81.3103643404434,34.141531442104416],[-81.29959645846458,34.165585113441125],[-81.33907869238692,34.19737032199321],[-81.31754292842928,34.23946424683246]]]}},{"type":"Feature","id":"45081","properties":{"name":"Saluda","county_fips":"45081","state_abbr":"SC"},"geometry":{"type":"Polygon","coordinates":[[[-81.87029420334203,34.13551802427024],[-81.8595263213632,34.17933006849068],[-81.78415114751147,34.16644417313172],[-81.73031173761737,34.187920665396646],[-81.63699009380093,34.145826740557396],[-81.54007915599156,34.08139726376263],[-81.4718825701257,34.07624290561905],[-81.57238280192801,33.876941057400565],[-81.6513472697727,33.814229699986996],[-81.83440126341263,33.86577328142281],[-81.87029420334203,33.89240413183131],[-81.89541926129262,33.975732921819215],[-82.00668737507375,33.96198796676966],[-81.98874090510905,33.99806847377473],[-81.94566937719377,34.03930333892338],[-81.92772290722907,34.07796102500024],[-81.87029420334203,34.13551802427024]]]}},{"type":"Feature","id":"45083","properties":{"name":"Spartanburg","county_fips":"45083","state_abbr":"SC"},"geometry":{"type":"Polygon","coordinates":[[[-82.21486642666426,35.196456742157416],[-81.97079443514434,35.18700708556085],[-81.87388349733497,35.18442990648906],[-81.79491902949029,35.035812580015794],[-81.75543679556796,34.93272541714416],[-81.71236526765267,34.912967044260434],[-81.78415114751147,34.83736979148791],[-81.82363338143381,34.68016186810868],[-81.85234773337733,34.59425589904898],[-81.86311561535615,34.580510943999435],[-81.90977643726437,34.60370555564555],[-81.97079443514434,34.65696725646256],[-82.00309808108081,34.661262554915545],[-82.07129466694667,34.704215539445386],[-82.08565184291842,34.74459134490344],[-82.11436619486194,34.749745703047026],[-82.14666984079841,34.78582621005209],[-82.22563430864308,34.850255686846864],[-82.21486642666426,35.196456742157416]]]}},{"type":"Feature","id":"45085","properties":{"name":"Sumter","county_fips":"45085","state_abbr":"SC"},"geometry":{"type":"Polygon","coordinates":[[[-80.61763059980599,34.099437517265166],[-80.5817376598766,34.10029657695576],[-80.48123742807428,34.169021352203515],[-80.48123742807428,34.11232341262412],[-80.40586225422254,34.08139726376263],[-80.32330849238492,34.080538204072035],[-80.2945941404414,34.03930333892338],[-80.26946908249083,34.0350080404704],[-80.25152261252612,33.992055055940554],[-80.1869153206532,34.00494095129951],[-80.17973673266732,33.9516792504825],[-80.07205791287913,34.007518130371295],[-80.02539709097091,34.00837719006189],[-80.00027203302032,34.04789393582935],[-79.90336109521095,34.00236377222772],[-79.89259321323213,33.98775975748757],[-79.97514697506975,33.946524892338914],[-80.12230802878028,33.869209520185194],[-80.13666520475205,33.8683504604946],[-80.25511190651906,33.80392098369983],[-80.27305837648376,33.7858807301973],[-80.39868366623666,33.76784047669476],[-80.39150507825077,33.71543783556835],[-80.43457660616606,33.71200159680596],[-80.43098731217312,33.738632447214464],[-80.47764813408133,33.714578775877754],[-80.49918389803898,33.6742029704197],[-80.53507683796838,33.64413588124881],[-80.61404130581306,33.71200159680596],[-80.62121989379894,33.74292774566745],[-80.59609483584836,33.786739789887896],[-80.63198777577776,33.852887386063856],[-80.62121989379894,33.933638996979965],[-80.64634495174951,33.999786593155925],[-80.5996841298413,34.03930333892338],[-80.63557706977069,34.08311538314383],[-80.61763059980599,34.099437517265166]]]}},{"type":"Feature","id":"45087","properties":{"name":"Union","county_fips":"45087","state_abbr":"SC"},"geometry":{"type":"Polygon","coordinates":[[[-81.85234773337733,34.59425589904898],[-81.82363338143381,34.68016186810868],[-81.78415114751147,34.83736979148791],[-81.71236526765267,34.912967044260434],[-81.64775797577975,34.900081148901485],[-81.64057938779388,34.881181835708354],[-81.58673997789978,34.88719525354253],[-81.5436684499845,34.87001405973059],[-81.48265045210452,34.8665778209682],[-81.45752539415393,34.839087910869104],[-81.47906115811158,34.82190671705717],[-81.453936100161,34.76091347902479],[-81.48265045210452,34.74459134490344],[-81.45752539415393,34.723973912329114],[-81.453936100161,34.67500750996509],[-81.41445386623866,34.63377264481644],[-81.42163245422454,34.57192034709347],[-81.42163245422454,34.49460497493974],[-81.48623974609745,34.49030967648676],[-81.54007915599156,34.44477951288512],[-81.55443633196332,34.47656472143721],[-81.64416868178681,34.53326266101661],[-81.67647232772327,34.558175392043914],[-81.71595456164562,34.55388009359093],[-81.85234773337733,34.59425589904898]]]}},{"type":"Feature","id":"45089","properties":{"name":"Williamsburg","county_fips":"45089","state_abbr":"SC"},"geometry":{"type":"Polygon","coordinates":[[[-80.10077226482265,33.49723667415674],[-79.99309344503445,33.70427005959059],[-79.97514697506975,33.72145125340253],[-79.99668273902739,33.76784047669476],[-79.91412897718978,33.818524998439976],[-79.87464674326743,33.88553165430654],[-79.83516450934509,33.88295447523475],[-79.7992715694157,33.83570619225192],[-79.74184286552865,33.83484713256132],[-79.72389639556395,33.814229699986996],[-79.67723557365574,33.81508875967759],[-79.49777087400874,33.775572013910136],[-79.4403421701217,33.784162610816104],[-79.3506098202982,33.81508875967759],[-79.32548476234761,33.79876662555625],[-79.31830617436174,33.779867312363116],[-79.39368134821348,33.71200159680596],[-79.44393146411464,33.59602853857538],[-79.43316358213582,33.57712922538225],[-79.49777087400874,33.51613598734987],[-79.53725310793108,33.49723667415674],[-79.59109251782517,33.44311591364913],[-79.63416404574045,33.371813959329586],[-79.67723557365574,33.336592512015116],[-79.67723557365574,33.30480730346303],[-79.7562000415004,33.329720034490336],[-79.781325099451,33.3683777205672],[-79.85311097930979,33.402740108191075],[-79.89259321323213,33.45342462993629],[-79.9715576810768,33.50067291291912],[-80.08282579485794,33.50582727106271],[-80.10077226482265,33.49723667415674]]]}},{"type":"Feature","id":"45091","properties":{"name":"York","county_fips":"45091","state_abbr":"SC"},"geometry":{"type":"Polygon","coordinates":[[[-81.36779304433044,35.16467153360533],[-81.3283108104081,35.16381247391473],[-81.04116729097291,35.14920845917459],[-81.03398870298703,35.10367829557295],[-81.0591137609376,35.062443430424295],[-81.04116729097291,35.04440317692176],[-80.9334884711847,35.10711453433534],[-80.9047741192412,35.07618838547385],[-80.90836341323413,35.01691326682266],[-80.88682764927648,34.98426899857998],[-80.88682764927648,34.98426899857998],[-80.88323835528355,34.96708780476804],[-80.88323835528355,34.966228745077444],[-80.88323835528355,34.966228745077444],[-80.88323835528355,34.96708780476804],[-80.88323835528355,34.966228745077444],[-80.86888117931178,34.92928917838178],[-80.8796490612906,34.86228252251522],[-80.86529188531885,34.84767850777507],[-80.8975955312553,34.82104765736657],[-81.47906115811158,34.82190671705717],[-81.45752539415393,34.839087910869104],[-81.49341833408334,34.946470372193716],[-81.47547186411863,34.98255087919878],[-81.4898290400904,35.027221983109825],[-81.453936100161,35.04869847537475],[-81.41086457224571,35.04869847537475],[-81.4000966902669,35.13632256381563],[-81.36779304433044,35.16467153360533]]]}}]}