{"type":"FeatureCollection","features":[{"type":"Feature","id":"46003","properties":{"name":"Aurora","county_fips":"46003","state_abbr":"SD"},"geometry":{"type":"Polygon","coordinates":[[[-98.80817255602555,43.93481191490914],[-98.33079645496454,43.93738909398093],[-98.32361786697867,43.851483124921245],[-98.32361786697867,43.57916120300202],[-98.32002857298572,43.49840959208591],[-98.7040830302303,43.49926865177651],[-98.7938153800538,43.49926865177651],[-98.79740467404673,43.84890594584945],[-98.80817255602555,43.84890594584945],[-98.80817255602555,43.93481191490914]]]}},{"type":"Feature","id":"46005","properties":{"name":"Beadle","county_fips":"46005","state_abbr":"SD"},"geometry":{"type":"Polygon","coordinates":[[[-98.7040830302303,44.63408650305502],[-97.97904564365643,44.63150932398323],[-97.85700964789648,44.63150932398323],[-97.85342035390353,44.544744295232945],[-97.85342035390353,44.195107001160004],[-98.33079645496454,44.1968251205412],[-98.70049373623736,44.1968251205412],[-98.7040830302303,44.63408650305502]]]}},{"type":"Feature","id":"46007","properties":{"name":"Bennett","county_fips":"46007","state_abbr":"SD"},"geometry":{"type":"Polygon","coordinates":[[[-102.11032302953029,43.390168071070704],[-101.22735670726706,43.38930901138011],[-101.22735670726706,42.997577792467915],[-101.6257683404834,42.99585967308673],[-102.08160867758677,42.99929591184911],[-102.08160867758677,43.12901392512924],[-102.11032302953029,43.12901392512924],[-102.11032302953029,43.390168071070704]]]}},{"type":"Feature","id":"46009","properties":{"name":"Bon Homme","county_fips":"46009","state_abbr":"SD"},"geometry":{"type":"Polygon","coordinates":[[[-98.0759565814658,43.1685306708967],[-97.63806271432713,43.1685306708967],[-97.6344734203342,42.85153764506644],[-97.68472353623535,42.84208798846988],[-97.77445588605886,42.84981952568525],[-97.84624176591765,42.86785977918778],[-97.87495611786117,42.858410122591216],[-97.90725976379764,42.79483970548705],[-97.95033129171291,42.769926974459736],[-98.01852787757878,42.762195437244365],[-98.15133175531754,42.83865174970749],[-98.11543881538815,42.86957789856898],[-98.12261740337402,42.90995370402703],[-98.09390305143052,42.973524121131206],[-98.11184952139521,43.001014031230305],[-98.10826022740227,43.08777905998059],[-98.0759565814658,43.1685306708967]]]}},{"type":"Feature","id":"46011","properties":{"name":"Brookings","county_fips":"46011","state_abbr":"SD"},"geometry":{"type":"Polygon","coordinates":[[[-97.12838296732967,44.54302617585175],[-96.88431097580975,44.54388523554235],[-96.45359569665696,44.54388523554235],[-96.45359569665696,44.1968251205412],[-96.8879002698027,44.1959660608506],[-97.12838296732967,44.1959660608506],[-97.12838296732967,44.54302617585175]]]}},{"type":"Feature","id":"46013","properties":{"name":"Brown","county_fips":"46013","state_abbr":"SD"},"geometry":{"type":"Polygon","coordinates":[[[-98.72561879418794,45.938998173071724],[-98.41335021680216,45.93642099399993],[-98.00775999559995,45.93642099399993],[-97.97904564365643,45.935561934309334],[-97.97904564365643,45.588501819308185],[-97.98263493764937,45.24058264461644],[-98.71844020620206,45.24401888337883],[-98.72202950019499,45.24401888337883],[-98.72202950019499,45.585065580545795],[-98.72561879418794,45.59107899837998],[-98.72561879418794,45.938998173071724]]]}},{"type":"Feature","id":"46015","properties":{"name":"Brule","county_fips":"46015","state_abbr":"SD"},"geometry":{"type":"Polygon","coordinates":[[[-99.35733453694536,43.93395285521854],[-98.92661925779257,43.93481191490914],[-98.80817255602555,43.93481191490914],[-98.80817255602555,43.84890594584945],[-98.79740467404673,43.84890594584945],[-98.7938153800538,43.49926865177651],[-99.29631653906539,43.50012771146711],[-99.28195936309362,43.5310538603286],[-99.33938806698066,43.58087932238322],[-99.3429773609736,43.61610076969769],[-99.37528100691006,43.65647657515574],[-99.45783476874769,43.655617515465146],[-99.45783476874769,43.686543664326635],[-99.40758465284652,43.705442977519766],[-99.41117394683947,43.775026812458115],[-99.36451312493125,43.79220800627006],[-99.30708442104421,43.86007372182721],[-99.35374524295243,43.89271799006989],[-99.35733453694536,43.93395285521854]]]}},{"type":"Feature","id":"46017","properties":{"name":"Buffalo","county_fips":"46017","state_abbr":"SD"},"geometry":{"type":"Polygon","coordinates":[[[-99.5762814705147,44.19252982208821],[-99.29990583305833,44.195107001160004],[-98.92661925779257,44.1968251205412],[-98.92661925779257,43.93481191490914],[-99.35733453694536,43.93395285521854],[-99.35374524295243,43.994946093250924],[-99.43988829878299,44.04648967468674],[-99.51167417864178,44.05508027159271],[-99.55833500055,44.09201983828837],[-99.5403885305853,44.15043589724897],[-99.5762814705147,44.19252982208821]]]}},{"type":"Feature","id":"46019","properties":{"name":"Butte","county_fips":"46019","state_abbr":"SD"},"geometry":{"type":"Polygon","coordinates":[[[-104.05930966769667,44.99746875217751],[-104.04136319773197,45.0009049909399],[-104.04136319773197,45.21309273451734],[-103.56398709667096,45.21309273451734],[-102.95739641186411,45.21309273451734],[-102.95739641186411,45.03956267701676],[-102.96457499984999,44.60401941388413],[-103.5675763906639,44.60401941388413],[-103.82241626416264,44.60487847357473],[-103.84395202812027,44.58769727976279],[-103.88702355603556,44.598005996049956],[-103.93368437794378,44.579106682856825],[-104.05572037370374,44.57137514564145],[-104.05572037370374,44.87462321642216],[-104.05930966769667,44.99746875217751]]]}},{"type":"Feature","id":"46021","properties":{"name":"Campbell","county_fips":"46021","state_abbr":"SD"},"geometry":{"type":"Polygon","coordinates":[[[-100.49873002670026,45.943293471524704],[-99.88137145991459,45.941575352143516],[-99.7198532302323,45.94071629245292],[-99.71626393623936,45.59365617745177],[-100.43053344083441,45.59451523714237],[-100.40540838288382,45.65035411703116],[-100.33721179701797,45.66324001239012],[-100.30849744507445,45.707911116301155],[-100.3766940309403,45.816152637316364],[-100.38746191291912,45.869414338133375],[-100.49873002670026,45.943293471524704]]]}},{"type":"Feature","id":"46023","properties":{"name":"Charles Mix","county_fips":"46023","state_abbr":"SD"},"geometry":{"type":"Polygon","coordinates":[[[-99.29631653906539,43.49926865177651],[-99.29631653906539,43.50012771146711],[-98.7938153800538,43.49926865177651],[-98.7040830302303,43.49926865177651],[-98.70767232422324,43.370409698186975],[-98.67895797227972,43.37298687725877],[-98.10826022740227,43.1968796406864],[-98.0759565814658,43.1685306708967],[-98.10826022740227,43.08777905998059],[-98.11184952139521,43.001014031230305],[-98.09390305143052,42.973524121131206],[-98.12261740337402,42.90995370402703],[-98.11543881538815,42.86957789856898],[-98.15133175531754,42.83865174970749],[-98.17286751927519,42.83693363032629],[-98.25901057510575,42.87473225671256],[-98.30926069100691,42.88246379392793],[-98.34515363093631,42.90308122650226],[-98.46718962669627,42.947752330413294],[-98.49949327263272,42.99843685215851],[-98.5246183305833,43.039671717307165],[-98.61793997439973,43.074034104931044],[-98.68972585425854,43.07661128400283],[-98.77227961609616,43.14619511894118],[-98.85483337793377,43.154785715847154],[-98.87636914189142,43.17969844687446],[-98.87636914189142,43.22694672985729],[-98.89790490584906,43.24670510274102],[-98.98045866768668,43.258731938409376],[-99.07019101751017,43.320584236132355],[-99.16710195531955,43.43483917498174],[-99.25683430514304,43.43741635405353],[-99.31067371503714,43.46834250291502],[-99.29631653906539,43.49926865177651]]]}},{"type":"Feature","id":"46025","properties":{"name":"Clark","county_fips":"46025","state_abbr":"SD"},"geometry":{"type":"Polygon","coordinates":[[[-97.98263493764937,45.152958556175555],[-97.49449095460955,45.15124043679436],[-97.4909016606166,44.80418032179321],[-97.4909016606166,44.54388523554235],[-97.85342035390353,44.544744295232945],[-97.85700964789648,44.63150932398323],[-97.97904564365643,44.63150932398323],[-97.97545634966349,44.89266346992469],[-97.98263493764937,44.89266346992469],[-97.98263493764937,45.152958556175555]]]}},{"type":"Feature","id":"46027","properties":{"name":"Clay","county_fips":"46027","state_abbr":"SD"},"geometry":{"type":"Polygon","coordinates":[[[-97.16068661326612,43.08348376152761],[-96.9237932097321,43.08348376152761],[-96.80534650796507,43.08348376152761],[-96.80534650796507,42.70377937828378],[-96.9058467397674,42.73384646745467],[-96.94891826768267,42.71924245271452],[-96.97763261962619,42.76047731786317],[-97.01711485354853,42.76133637755377],[-97.1319722613226,42.77164509384093],[-97.16068661326612,42.79999406363063],[-97.16068661326612,43.08348376152761]]]}},{"type":"Feature","id":"46029","properties":{"name":"Codington","county_fips":"46029","state_abbr":"SD"},"geometry":{"type":"Polygon","coordinates":[[[-97.49449095460955,45.15124043679436],[-97.22529390513904,45.15209949648496],[-96.88431097580975,45.15038137710376],[-96.88072168181681,44.97685131960319],[-96.88431097580975,44.80418032179321],[-97.4909016606166,44.80418032179321],[-97.49449095460955,45.15124043679436]]]}},{"type":"Feature","id":"46031","properties":{"name":"Corson","county_fips":"46031","state_abbr":"SD"},"geometry":{"type":"Polygon","coordinates":[[[-101.99905491574916,45.9441525312153],[-101.27042823518235,45.9441525312153],[-100.51308720267203,45.943293471524704],[-100.49873002670026,45.943293471524704],[-100.38746191291912,45.869414338133375],[-100.3766940309403,45.816152637316364],[-100.30849744507445,45.707911116301155],[-100.33721179701797,45.66324001239012],[-100.40540838288382,45.65035411703116],[-100.43053344083441,45.59451523714237],[-100.48796214472144,45.53609917818177],[-100.44489061680616,45.50946832777327],[-100.39105120691207,45.51204550684506],[-100.3408010910109,45.472528761077605],[-100.6099981404814,45.472528761077605],[-101.47142869878698,45.472528761077605],[-101.99905491574916,45.472528761077605],[-101.99905491574916,45.9441525312153]]]}},{"type":"Feature","id":"46033","properties":{"name":"Custer","county_fips":"46033","state_abbr":"SD"},"geometry":{"type":"Polygon","coordinates":[[[-104.05572037370374,43.85320124430243],[-102.68819936239362,43.855778423374225],[-102.6953779503795,43.798221424104234],[-102.73844947829478,43.76987245431454],[-102.81023535815358,43.68740272401723],[-102.83177112211122,43.65733563484634],[-102.90355700197001,43.67451682865828],[-102.93227135391353,43.61867794876948],[-103.0004679397794,43.605792053410525],[-103.0004679397794,43.47693309982099],[-104.05572037370374,43.47779215951159],[-104.05572037370374,43.5035639502295],[-104.05572037370374,43.85320124430243]]]}},{"type":"Feature","id":"46035","properties":{"name":"Davison","county_fips":"46035","state_abbr":"SD"},"geometry":{"type":"Polygon","coordinates":[[[-98.32361786697867,43.851483124921245],[-97.96827776167761,43.85062406523065],[-97.96468846768467,43.49926865177651],[-98.11543881538815,43.49840959208591],[-98.32002857298572,43.49840959208591],[-98.32361786697867,43.57916120300202],[-98.32361786697867,43.851483124921245]]]}},{"type":"Feature","id":"46037","properties":{"name":"Day","county_fips":"46037","state_abbr":"SD"},"geometry":{"type":"Polygon","coordinates":[[[-97.98263493764937,45.24058264461644],[-97.97904564365643,45.588501819308185],[-97.37245495884959,45.58764275961759],[-97.36527637086371,45.55843473013729],[-97.22888319913199,45.55843473013729],[-97.22529390513904,45.29728058419583],[-97.22529390513904,45.15209949648496],[-97.49449095460955,45.15124043679436],[-97.98263493764937,45.152958556175555],[-97.98263493764937,45.24058264461644]]]}},{"type":"Feature","id":"46039","properties":{"name":"Deuel","county_fips":"46039","state_abbr":"SD"},"geometry":{"type":"Polygon","coordinates":[[[-96.88431097580975,44.80418032179321],[-96.88072168181681,44.97685131960319],[-96.45359569665696,44.97771037929378],[-96.45000640266402,44.805898441174406],[-96.45000640266402,44.63150932398323],[-96.45359569665696,44.54388523554235],[-96.88431097580975,44.54388523554235],[-96.88431097580975,44.80418032179321]]]}},{"type":"Feature","id":"46041","properties":{"name":"Dewey","county_fips":"46041","state_abbr":"SD"},"geometry":{"type":"Polygon","coordinates":[[[-101.47142869878698,45.472528761077605],[-100.6099981404814,45.472528761077605],[-100.3408010910109,45.472528761077605],[-100.33003320903208,45.44417979128791],[-100.27260450514504,45.38146843387433],[-100.31567603306033,45.31789801677016],[-100.26183662316623,45.246596062450614],[-100.27978309313093,45.15897197400973],[-100.32644391503915,45.099696855358545],[-100.31567603306033,45.05932104990049],[-100.27978309313093,45.01980430413303],[-100.39105120691207,45.0275358413484],[-100.42335485284852,44.98973721496214],[-100.40540838288382,44.89781782806827],[-100.40181908889089,44.856582962919624],[-100.47360496874968,44.81620715746157],[-100.54180155461555,44.761227337263364],[-100.6099981404814,44.76981793416933],[-100.67460543235431,44.82307963498634],[-100.71408766627665,44.82136151560515],[-100.7176769602696,44.77067699385993],[-100.80023072210722,44.763804516335156],[-100.82894507405074,44.783562889218885],[-100.91867742387423,44.76981793416933],[-101.02276694966949,44.7242877705677],[-101.05507059560595,44.73975084499844],[-101.13762435744357,44.74748238221382],[-101.13762435744357,44.99403251341513],[-101.5001430507305,44.99403251341513],[-101.48578587475875,45.03870361732616],[-101.48578587475875,45.38576373232731],[-101.47142869878698,45.38576373232731],[-101.47142869878698,45.472528761077605]]]}},{"type":"Feature","id":"46043","properties":{"name":"Douglas","county_fips":"46043","state_abbr":"SD"},"geometry":{"type":"Polygon","coordinates":[[[-98.7040830302303,43.49926865177651],[-98.32002857298572,43.49840959208591],[-98.11543881538815,43.49840959208591],[-98.11184952139521,43.48466463703636],[-98.10826022740227,43.1968796406864],[-98.67895797227972,43.37298687725877],[-98.70767232422324,43.370409698186975],[-98.7040830302303,43.49926865177651]]]}},{"type":"Feature","id":"46045","properties":{"name":"Edmunds","county_fips":"46045","state_abbr":"SD"},"geometry":{"type":"Polygon","coordinates":[[[-99.70908534825348,45.59365617745177],[-98.72561879418794,45.59107899837998],[-98.72202950019499,45.585065580545795],[-98.72202950019499,45.24401888337883],[-99.57269217652176,45.24573700276002],[-99.70908534825348,45.24573700276002],[-99.70908534825348,45.59365617745177]]]}},{"type":"Feature","id":"46047","properties":{"name":"Fall River","county_fips":"46047","state_abbr":"SD"},"geometry":{"type":"Polygon","coordinates":[[[-104.05572037370374,43.47779215951159],[-103.0004679397794,43.47693309982099],[-103.0004679397794,43.00015497153971],[-103.50655839278392,43.001014031230305],[-104.05213107971079,43.001014031230305],[-104.05213107971079,43.297389624486236],[-104.05572037370374,43.47779215951159]]]}},{"type":"Feature","id":"46049","properties":{"name":"Faulk","county_fips":"46049","state_abbr":"SD"},"geometry":{"type":"Polygon","coordinates":[[[-99.57269217652176,45.24573700276002],[-98.72202950019499,45.24401888337883],[-98.71844020620206,45.24401888337883],[-98.71485091220912,44.89695876837768],[-99.31067371503714,44.89695876837768],[-99.57269217652176,44.89695876837768],[-99.57269217652176,45.24573700276002]]]}},{"type":"Feature","id":"46051","properties":{"name":"Grant","county_fips":"46051","state_abbr":"SD"},"geometry":{"type":"Polygon","coordinates":[[[-97.22529390513904,45.29728058419583],[-97.00634697156971,45.29728058419583],[-96.99198979559795,45.326488613676126],[-96.47154216662166,45.326488613676126],[-96.45359569665696,45.268931614406135],[-96.45359569665696,44.97771037929378],[-96.88072168181681,44.97685131960319],[-96.88431097580975,45.15038137710376],[-97.22529390513904,45.15209949648496],[-97.22529390513904,45.29728058419583]]]}},{"type":"Feature","id":"46053","properties":{"name":"Gregory","county_fips":"46053","state_abbr":"SD"},"geometry":{"type":"Polygon","coordinates":[[[-99.53320994259943,43.50012771146711],[-99.29631653906539,43.49926865177651],[-99.31067371503714,43.46834250291502],[-99.25683430514304,43.43741635405353],[-99.16710195531955,43.43483917498174],[-99.07019101751017,43.320584236132355],[-98.98045866768668,43.258731938409376],[-98.89790490584906,43.24670510274102],[-98.87636914189142,43.22694672985729],[-98.87636914189142,43.17969844687446],[-98.85483337793377,43.154785715847154],[-98.77227961609616,43.14619511894118],[-98.68972585425854,43.07661128400283],[-98.61793997439973,43.074034104931044],[-98.5246183305833,43.039671717307165],[-98.49949327263272,42.99843685215851],[-99.25324501115011,42.99843685215851],[-99.53320994259943,42.99843685215851],[-99.53320994259943,43.50012771146711]]]}},{"type":"Feature","id":"46055","properties":{"name":"Haakon","county_fips":"46055","state_abbr":"SD"},"geometry":{"type":"Polygon","coordinates":[[[-102.00264420974209,44.51124096729966],[-101.99905491574916,44.51124096729966],[-101.94162621186211,44.533576519255185],[-101.80523304013039,44.52842216111161],[-101.74421504225042,44.567938906879064],[-101.6616612804128,44.5859791603816],[-101.6257683404834,44.57309326502264],[-101.5001430507305,44.58168386192861],[-101.4463036408364,44.63838180150801],[-101.36733917299172,44.66501265191651],[-101.35298199701997,44.68820726356263],[-101.22376741327413,44.69422068139681],[-101.13762435744357,44.74748238221382],[-101.13762435744357,44.68992538294382],[-101.15557082740827,44.68992538294382],[-101.15557082740827,44.34286526794267],[-101.16633870938709,44.34286526794267],[-101.16633870938709,44.1684761507515],[-101.04789200762008,44.1684761507515],[-101.04789200762008,43.994946093250924],[-101.06583847758478,43.994946093250924],[-101.96675126981269,43.99408703356033],[-102.00623350373503,43.994946093250924],[-102.00623350373503,44.34372432763327],[-102.00264420974209,44.51124096729966]]]}},{"type":"Feature","id":"46057","properties":{"name":"Hamlin","county_fips":"46057","state_abbr":"SD"},"geometry":{"type":"Polygon","coordinates":[[[-97.4909016606166,44.80418032179321],[-96.88431097580975,44.80418032179321],[-96.88431097580975,44.54388523554235],[-97.12838296732967,44.54302617585175],[-97.4909016606166,44.54388523554235],[-97.4909016606166,44.80418032179321]]]}},{"type":"Feature","id":"46059","properties":{"name":"Hand","county_fips":"46059","state_abbr":"SD"},"geometry":{"type":"Polygon","coordinates":[[[-99.31067371503714,44.89695876837768],[-98.71485091220912,44.89695876837768],[-98.7040830302303,44.89695876837768],[-98.7040830302303,44.63408650305502],[-98.70049373623736,44.1968251205412],[-98.92661925779257,44.1968251205412],[-99.29990583305833,44.195107001160004],[-99.29990583305833,44.54732147430474],[-99.31426300903009,44.54732147430474],[-99.31067371503714,44.89695876837768]]]}},{"type":"Feature","id":"46061","properties":{"name":"Hanson","county_fips":"46061","state_abbr":"SD"},"geometry":{"type":"Polygon","coordinates":[[[-97.96827776167761,43.85062406523065],[-97.8498310599106,43.84976500554005],[-97.60934836238361,43.84890594584945],[-97.60575906839068,43.50012771146711],[-97.96468846768467,43.49926865177651],[-97.96827776167761,43.85062406523065]]]}},{"type":"Feature","id":"46063","properties":{"name":"Harding","county_fips":"46063","state_abbr":"SD"},"geometry":{"type":"Polygon","coordinates":[[[-104.04495249172491,45.9450115909059],[-103.43477251292512,45.9450115909059],[-102.99687864578645,45.9450115909059],[-102.94303923589236,45.9450115909059],[-102.94303923589236,45.73282384732847],[-102.95021782387823,45.38662279201791],[-102.95739641186411,45.21309273451734],[-103.56398709667096,45.21309273451734],[-104.04136319773197,45.21309273451734],[-104.04136319773197,45.750005041140405],[-104.04495249172491,45.88230023349233],[-104.04495249172491,45.9450115909059]]]}},{"type":"Feature","id":"46065","properties":{"name":"Hughes","county_fips":"46065","state_abbr":"SD"},"geometry":{"type":"Polygon","coordinates":[[[-100.52744437864378,44.54732147430474],[-99.67678170231702,44.548180533995335],[-99.66242452634526,44.548180533995335],[-99.66242452634526,44.217442553115525],[-99.70908534825348,44.19338888177881],[-99.69472817228171,44.17277144920448],[-99.63371017440174,44.16246273291732],[-99.59781723447234,44.12380504684046],[-99.65524593835939,44.10146949488494],[-99.77010334613345,44.13583188250882],[-99.88496075390754,44.12981846467464],[-99.93880016380163,44.195107001160004],[-99.89213934189341,44.241496224452234],[-99.92444298782988,44.26640895547955],[-99.98546098570985,44.26812707486074],[-100.08596121751216,44.3085028803188],[-100.16492568535685,44.32482501444014],[-100.23312227122271,44.325684074130734],[-100.36592614896148,44.355751163301626],[-100.38746191291912,44.43993901298012],[-100.40899767687677,44.45797926648266],[-100.47360496874968,44.460556445554445],[-100.53462296662966,44.44423431143311],[-100.58128378853787,44.46141550524504],[-100.574105200552,44.491482594415935],[-100.53103367263672,44.51553626575265],[-100.52744437864378,44.54732147430474]]]}},{"type":"Feature","id":"46067","properties":{"name":"Hutchinson","county_fips":"46067","state_abbr":"SD"},"geometry":{"type":"Polygon","coordinates":[[[-98.11543881538815,43.49840959208591],[-97.96468846768467,43.49926865177651],[-97.60575906839068,43.50012771146711],[-97.40116931079311,43.50012771146711],[-97.39758001680016,43.1693897305873],[-97.63806271432713,43.1685306708967],[-98.0759565814658,43.1685306708967],[-98.10826022740227,43.1968796406864],[-98.11184952139521,43.48466463703636],[-98.11543881538815,43.49840959208591]]]}},{"type":"Feature","id":"46069","properties":{"name":"Hyde","county_fips":"46069","state_abbr":"SD"},"geometry":{"type":"Polygon","coordinates":[[[-99.67319240832408,44.89781782806827],[-99.57269217652176,44.89695876837768],[-99.31067371503714,44.89695876837768],[-99.31426300903009,44.54732147430474],[-99.29990583305833,44.54732147430474],[-99.29990583305833,44.195107001160004],[-99.5762814705147,44.19252982208821],[-99.66242452634526,44.217442553115525],[-99.66242452634526,44.548180533995335],[-99.67678170231702,44.548180533995335],[-99.67319240832408,44.89781782806827]]]}},{"type":"Feature","id":"46071","properties":{"name":"Jackson","county_fips":"46071","state_abbr":"SD"},"geometry":{"type":"Polygon","coordinates":[[[-102.13903738147381,43.701147679066786],[-102.03494785567855,43.68912084339843],[-102.02059067970679,43.708879216282156],[-102.02059067970679,43.99408703356033],[-102.00623350373503,43.994946093250924],[-101.96675126981269,43.99408703356033],[-101.06583847758478,43.994946093250924],[-101.06583847758478,43.84117440863408],[-101.0873742415424,43.84976500554005],[-101.16274941539415,43.83000663265632],[-101.22735670726706,43.78877176750767],[-101.22735670726706,43.38930901138011],[-102.11032302953029,43.390168071070704],[-102.11032302953029,43.47693309982099],[-102.13903738147381,43.47693309982099],[-102.13903738147381,43.701147679066786]]]}},{"type":"Feature","id":"46073","properties":{"name":"Jerauld","county_fips":"46073","state_abbr":"SD"},"geometry":{"type":"Polygon","coordinates":[[[-98.92661925779257,44.1968251205412],[-98.70049373623736,44.1968251205412],[-98.33079645496454,44.1968251205412],[-98.33079645496454,43.93738909398093],[-98.80817255602555,43.93481191490914],[-98.92661925779257,43.93481191490914],[-98.92661925779257,44.1968251205412]]]}},{"type":"Feature","id":"46075","properties":{"name":"Jones","county_fips":"46075","state_abbr":"SD"},"geometry":{"type":"Polygon","coordinates":[[[-101.06583847758478,43.994946093250924],[-101.04789200762008,43.994946093250924],[-101.04789200762008,44.1684761507515],[-100.36592614896148,44.1684761507515],[-100.36592614896148,43.84718782646826],[-100.3408010910109,43.84718782646826],[-100.33721179701797,43.71661075349753],[-100.37310473694737,43.736369126381256],[-100.47001567475674,43.72176511164111],[-100.58487308253082,43.76901339462394],[-100.6817840203402,43.712315455044546],[-100.74998060620605,43.720906051950514],[-100.74639131221312,43.736369126381256],[-100.74639131221312,43.736369126381256],[-100.77869495814957,43.7243422907129],[-100.81458789807897,43.76643621555215],[-100.83612366203661,43.76214091709917],[-100.87201660196601,43.798221424104234],[-100.93662389383893,43.831724752037516],[-100.95457036380363,43.81024825977259],[-100.99764189171891,43.84976500554005],[-101.06583847758478,43.84117440863408],[-101.06583847758478,43.994946093250924]]]}},{"type":"Feature","id":"46077","properties":{"name":"Kingsbury","county_fips":"46077","state_abbr":"SD"},"geometry":{"type":"Polygon","coordinates":[[[-97.85342035390353,44.544744295232945],[-97.4909016606166,44.54388523554235],[-97.12838296732967,44.54302617585175],[-97.12838296732967,44.1959660608506],[-97.36886566485664,44.195107001160004],[-97.8498310599106,44.195107001160004],[-97.85342035390353,44.195107001160004],[-97.85342035390353,44.544744295232945]]]}},{"type":"Feature","id":"46079","properties":{"name":"Lake","county_fips":"46079","state_abbr":"SD"},"geometry":{"type":"Polygon","coordinates":[[[-97.36886566485664,44.195107001160004],[-97.12838296732967,44.1959660608506],[-96.8879002698027,44.1959660608506],[-96.8879002698027,43.848046886158855],[-97.12838296732967,43.848046886158855],[-97.36886566485664,43.84890594584945],[-97.36886566485664,44.195107001160004]]]}},{"type":"Feature","id":"46081","properties":{"name":"Lawrence","county_fips":"46081","state_abbr":"SD"},"geometry":{"type":"Polygon","coordinates":[[[-104.05572037370374,44.57137514564145],[-103.93368437794378,44.579106682856825],[-103.88702355603556,44.598005996049956],[-103.84395202812027,44.58769727976279],[-103.82241626416264,44.60487847357473],[-103.5675763906639,44.60401941388413],[-103.57475497864978,44.256100239192385],[-103.45271898288982,44.25695929888298],[-103.45271898288982,44.1409862406524],[-104.05572037370374,44.1409862406524],[-104.05572037370374,44.18050298641986],[-104.05572037370374,44.57137514564145]]]}},{"type":"Feature","id":"46083","properties":{"name":"Lincoln","county_fips":"46083","state_abbr":"SD"},"geometry":{"type":"Polygon","coordinates":[[[-96.9237932097321,43.50012771146711],[-96.59716745637456,43.50012771146711],[-96.57922098640987,43.48122839827398],[-96.60434604436044,43.44944318972189],[-96.52538157651576,43.394463369523685],[-96.5289708705087,43.29996680355803],[-96.57922098640987,43.29567150510504],[-96.55409592845928,43.25959099809997],[-96.56127451644517,43.224369550785504],[-96.4751314606146,43.22179237171371],[-96.46795287262873,43.15049041739417],[-96.43564922669226,43.120423328223275],[-96.45359569665696,43.08348376152761],[-96.80534650796507,43.08348376152761],[-96.9237932097321,43.08348376152761],[-96.9237932097321,43.50012771146711]]]}},{"type":"Feature","id":"46085","properties":{"name":"Lyman","county_fips":"46085","state_abbr":"SD"},"geometry":{"type":"Polygon","coordinates":[[[-99.93880016380163,44.195107001160004],[-99.88496075390754,44.12981846467464],[-99.77010334613345,44.13583188250882],[-99.65524593835939,44.10146949488494],[-99.59781723447234,44.12380504684046],[-99.63371017440174,44.16246273291732],[-99.69472817228171,44.17277144920448],[-99.70908534825348,44.19338888177881],[-99.66242452634526,44.217442553115525],[-99.5762814705147,44.19252982208821],[-99.5403885305853,44.15043589724897],[-99.55833500055,44.09201983828837],[-99.51167417864178,44.05508027159271],[-99.43988829878299,44.04648967468674],[-99.35374524295243,43.994946093250924],[-99.35733453694536,43.93395285521854],[-99.35374524295243,43.89271799006989],[-99.30708442104421,43.86007372182721],[-99.36451312493125,43.79220800627006],[-99.41117394683947,43.775026812458115],[-99.40758465284652,43.705442977519766],[-99.45783476874769,43.686543664326635],[-99.45783476874769,43.655617515465146],[-99.37528100691006,43.65647657515574],[-99.3429773609736,43.61610076969769],[-99.33938806698066,43.58087932238322],[-99.28195936309362,43.5310538603286],[-99.29631653906539,43.50012771146711],[-99.29631653906539,43.49926865177651],[-99.53320994259943,43.50012771146711],[-99.61576370443704,43.50012771146711],[-99.62294229242292,43.51473172620725],[-99.62294229242292,43.74152348452484],[-99.6660138203382,43.76471809617095],[-99.68396029030289,43.72777852947529],[-99.69472817228171,43.76042279771797],[-99.75215687616875,43.709738275972754],[-99.79881769807697,43.709738275972754],[-99.86701428394284,43.675375888348874],[-99.90290722387223,43.69857049999499],[-100.00340745567455,43.69255708216082],[-100.01058604366042,43.70802015659156],[-100.11467556945568,43.68568460463604],[-100.19005074330742,43.706302037210364],[-100.21158650726507,43.686543664326635],[-100.22953297722977,43.714033574425734],[-100.27978309313093,43.6968523806138],[-100.33721179701797,43.71661075349753],[-100.3408010910109,43.84718782646826],[-100.36592614896148,43.84718782646826],[-100.36592614896148,44.1684761507515],[-100.36592614896148,44.194247941469406],[-99.93880016380163,44.195107001160004]]]}},{"type":"Feature","id":"46091","properties":{"name":"Marshall","county_fips":"46091","state_abbr":"SD"},"geometry":{"type":"Polygon","coordinates":[[[-97.97904564365643,45.935561934309334],[-97.22888319913199,45.935561934309334],[-97.22888319913199,45.55843473013729],[-97.36527637086371,45.55843473013729],[-97.37245495884959,45.58764275961759],[-97.97904564365643,45.588501819308185],[-97.97904564365643,45.935561934309334]]]}},{"type":"Feature","id":"46087","properties":{"name":"McCook","county_fips":"46087","state_abbr":"SD"},"geometry":{"type":"Polygon","coordinates":[[[-97.60934836238361,43.84890594584945],[-97.36886566485664,43.84890594584945],[-97.12838296732967,43.848046886158855],[-97.12838296732967,43.49926865177651],[-97.40116931079311,43.50012771146711],[-97.60575906839068,43.50012771146711],[-97.60934836238361,43.84890594584945]]]}},{"type":"Feature","id":"46089","properties":{"name":"McPherson","county_fips":"46089","state_abbr":"SD"},"geometry":{"type":"Polygon","coordinates":[[[-99.7198532302323,45.94071629245292],[-99.00558372563725,45.93985723276232],[-98.72561879418794,45.938998173071724],[-98.72561879418794,45.59107899837998],[-99.70908534825348,45.59365617745177],[-99.71626393623936,45.59365617745177],[-99.7198532302323,45.94071629245292]]]}},{"type":"Feature","id":"46093","properties":{"name":"Meade","county_fips":"46093","state_abbr":"SD"},"geometry":{"type":"Polygon","coordinates":[[[-103.5675763906639,44.60401941388413],[-102.96457499984999,44.60401941388413],[-102.95739641186411,45.03956267701676],[-101.99905491574916,45.037844557635566],[-101.99905491574916,44.51124096729966],[-102.00264420974209,44.51124096729966],[-102.0385371496715,44.50350943008429],[-102.11391232352322,44.43564371452714],[-102.16416243942439,44.42705311762117],[-102.22159114331143,44.45196584864848],[-102.30773419914199,44.43392559514594],[-102.3005556111561,44.37465047649476],[-102.34003784507844,44.34887868577685],[-102.36875219702196,44.26297271671716],[-102.35798431504314,44.23032844847448],[-102.39387725497255,44.202838538375374],[-102.40464513695136,44.15816743446434],[-102.38669866698666,44.140127180961805],[-103.45271898288982,44.1409862406524],[-103.45271898288982,44.25695929888298],[-103.57475497864978,44.256100239192385],[-103.5675763906639,44.60401941388413]]]}},{"type":"Feature","id":"46095","properties":{"name":"Mellette","county_fips":"46095","state_abbr":"SD"},"geometry":{"type":"Polygon","coordinates":[[[-101.06583847758478,43.84117440863408],[-100.99764189171891,43.84976500554005],[-100.95457036380363,43.81024825977259],[-100.93662389383893,43.831724752037516],[-100.87201660196601,43.798221424104234],[-100.83612366203661,43.76214091709917],[-100.81458789807897,43.76643621555215],[-100.77869495814957,43.7243422907129],[-100.74639131221312,43.736369126381256],[-100.74639131221312,43.736369126381256],[-100.74998060620605,43.720906051950514],[-100.6817840203402,43.712315455044546],[-100.58487308253082,43.76901339462394],[-100.47001567475674,43.72176511164111],[-100.37310473694737,43.736369126381256],[-100.33721179701797,43.71661075349753],[-100.27978309313093,43.6968523806138],[-100.22953297722977,43.714033574425734],[-100.22953297722977,43.47779215951159],[-100.21517580125801,43.47693309982099],[-100.21517580125801,43.390168071070704],[-101.22735670726706,43.38930901138011],[-101.22735670726706,43.78877176750767],[-101.16274941539415,43.83000663265632],[-101.0873742415424,43.84976500554005],[-101.06583847758478,43.84117440863408]]]}},{"type":"Feature","id":"46097","properties":{"name":"Miner","county_fips":"46097","state_abbr":"SD"},"geometry":{"type":"Polygon","coordinates":[[[-97.8498310599106,44.195107001160004],[-97.36886566485664,44.195107001160004],[-97.36886566485664,43.84890594584945],[-97.60934836238361,43.84890594584945],[-97.8498310599106,43.84976500554005],[-97.8498310599106,44.195107001160004]]]}},{"type":"Feature","id":"46099","properties":{"name":"Minnehaha","county_fips":"46099","state_abbr":"SD"},"geometry":{"type":"Polygon","coordinates":[[[-97.12838296732967,43.848046886158855],[-96.8879002698027,43.848046886158855],[-96.45359569665696,43.84976500554005],[-96.45359569665696,43.50012771146711],[-96.59716745637456,43.50012771146711],[-96.9237932097321,43.50012771146711],[-97.12838296732967,43.49926865177651],[-97.12838296732967,43.848046886158855]]]}},{"type":"Feature","id":"46101","properties":{"name":"Moody","county_fips":"46101","state_abbr":"SD"},"geometry":{"type":"Polygon","coordinates":[[[-96.8879002698027,44.1959660608506],[-96.45359569665696,44.1968251205412],[-96.45359569665696,43.84976500554005],[-96.8879002698027,43.848046886158855],[-96.8879002698027,44.1959660608506]]]}},{"type":"Feature","id":"46102","properties":{"name":"Oglala Lakota","county_fips":"46102","state_abbr":"SD"},"geometry":{"type":"Polygon","coordinates":[[[-102.81023535815358,43.68740272401723],[-102.17493032140321,43.68740272401723],[-102.13903738147381,43.701147679066786],[-102.13903738147381,43.47693309982099],[-102.11032302953029,43.47693309982099],[-102.11032302953029,43.390168071070704],[-102.11032302953029,43.12901392512924],[-102.08160867758677,43.12901392512924],[-102.08160867758677,42.99929591184911],[-102.79228888818888,43.00015497153971],[-103.0004679397794,43.00015497153971],[-103.0004679397794,43.47693309982099],[-103.0004679397794,43.605792053410525],[-102.93227135391353,43.61867794876948],[-102.90355700197001,43.67451682865828],[-102.83177112211122,43.65733563484634],[-102.81023535815358,43.68740272401723]]]}},{"type":"Feature","id":"46103","properties":{"name":"Pennington","county_fips":"46103","state_abbr":"SD"},"geometry":{"type":"Polygon","coordinates":[[[-104.05572037370374,43.85320124430243],[-104.05572037370374,44.1409862406524],[-103.45271898288982,44.1409862406524],[-102.38669866698666,44.140127180961805],[-102.40464513695136,44.15816743446434],[-102.39387725497255,44.202838538375374],[-102.35798431504314,44.23032844847448],[-102.36875219702196,44.26297271671716],[-102.34003784507844,44.34887868577685],[-102.3005556111561,44.37465047649476],[-102.30773419914199,44.43392559514594],[-102.22159114331143,44.45196584864848],[-102.16416243942439,44.42705311762117],[-102.11391232352322,44.43564371452714],[-102.0385371496715,44.50350943008429],[-102.00264420974209,44.51124096729966],[-102.00623350373503,44.34372432763327],[-102.00623350373503,43.994946093250924],[-102.02059067970679,43.99408703356033],[-102.02059067970679,43.708879216282156],[-102.03494785567855,43.68912084339843],[-102.13903738147381,43.701147679066786],[-102.17493032140321,43.68740272401723],[-102.81023535815358,43.68740272401723],[-102.73844947829478,43.76987245431454],[-102.6953779503795,43.798221424104234],[-102.68819936239362,43.855778423374225],[-104.05572037370374,43.85320124430243]]]}},{"type":"Feature","id":"46105","properties":{"name":"Perkins","county_fips":"46105","state_abbr":"SD"},"geometry":{"type":"Polygon","coordinates":[[[-102.95739641186411,45.21309273451734],[-102.95021782387823,45.38662279201791],[-102.94303923589236,45.73282384732847],[-102.94303923589236,45.9450115909059],[-101.99905491574916,45.9441525312153],[-101.99905491574916,45.472528761077605],[-101.99905491574916,45.037844557635566],[-102.95739641186411,45.03956267701676],[-102.95739641186411,45.21309273451734]]]}},{"type":"Feature","id":"46107","properties":{"name":"Potter","county_fips":"46107","state_abbr":"SD"},"geometry":{"type":"Polygon","coordinates":[[[-100.26183662316623,45.246596062450614],[-99.70908534825348,45.24573700276002],[-99.57269217652176,45.24573700276002],[-99.57269217652176,44.89695876837768],[-99.67319240832408,44.89781782806827],[-100.40540838288382,44.89781782806827],[-100.42335485284852,44.98973721496214],[-100.39105120691207,45.0275358413484],[-100.27978309313093,45.01980430413303],[-100.31567603306033,45.05932104990049],[-100.32644391503915,45.099696855358545],[-100.27978309313093,45.15897197400973],[-100.26183662316623,45.246596062450614]]]}},{"type":"Feature","id":"46109","properties":{"name":"Roberts","county_fips":"46109","state_abbr":"SD"},"geometry":{"type":"Polygon","coordinates":[[[-97.22888319913199,45.935561934309334],[-96.5648638104381,45.935561934309334],[-96.57922098640987,45.82560229391293],[-96.62947110231102,45.78608554814547],[-96.6725426302263,45.73196478763787],[-96.75150709807097,45.69846145970459],[-96.84123944789448,45.64519975888758],[-96.85918591785918,45.60568301312012],[-96.83406085990859,45.58592464023639],[-96.76586427404274,45.52149516344163],[-96.73356062810628,45.45878380602805],[-96.68331051220511,45.411535523045224],[-96.6187032203322,45.408099284282834],[-96.52179228252282,45.375455016040156],[-96.47154216662166,45.326488613676126],[-96.99198979559795,45.326488613676126],[-97.00634697156971,45.29728058419583],[-97.22529390513904,45.29728058419583],[-97.22888319913199,45.55843473013729],[-97.22888319913199,45.935561934309334]]]}},{"type":"Feature","id":"46111","properties":{"name":"Sanborn","county_fips":"46111","state_abbr":"SD"},"geometry":{"type":"Polygon","coordinates":[[[-98.33079645496454,44.1968251205412],[-97.85342035390353,44.195107001160004],[-97.8498310599106,44.195107001160004],[-97.8498310599106,43.84976500554005],[-97.96827776167761,43.85062406523065],[-98.32361786697867,43.851483124921245],[-98.33079645496454,43.93738909398093],[-98.33079645496454,44.1968251205412]]]}},{"type":"Feature","id":"46115","properties":{"name":"Spink","county_fips":"46115","state_abbr":"SD"},"geometry":{"type":"Polygon","coordinates":[[[-98.71844020620206,45.24401888337883],[-97.98263493764937,45.24058264461644],[-97.98263493764937,45.152958556175555],[-97.98263493764937,44.89266346992469],[-97.97545634966349,44.89266346992469],[-97.97904564365643,44.63150932398323],[-98.7040830302303,44.63408650305502],[-98.7040830302303,44.89695876837768],[-98.71485091220912,44.89695876837768],[-98.71844020620206,45.24401888337883]]]}},{"type":"Feature","id":"46117","properties":{"name":"Stanley","county_fips":"46117","state_abbr":"SD"},"geometry":{"type":"Polygon","coordinates":[[[-101.13762435744357,44.74748238221382],[-101.05507059560595,44.73975084499844],[-101.02276694966949,44.7242877705677],[-100.91867742387423,44.76981793416933],[-100.82894507405074,44.783562889218885],[-100.80023072210722,44.763804516335156],[-100.7176769602696,44.77067699385993],[-100.63153390443904,44.737173665926655],[-100.61358743447434,44.70710657675576],[-100.6458910804108,44.598005996049956],[-100.62076602246022,44.56707984718847],[-100.52744437864378,44.54732147430474],[-100.53103367263672,44.51553626575265],[-100.574105200552,44.491482594415935],[-100.58128378853787,44.46141550524504],[-100.53462296662966,44.44423431143311],[-100.47360496874968,44.460556445554445],[-100.40899767687677,44.45797926648266],[-100.38746191291912,44.43993901298012],[-100.36592614896148,44.355751163301626],[-100.23312227122271,44.325684074130734],[-100.16492568535685,44.32482501444014],[-100.08596121751216,44.3085028803188],[-99.98546098570985,44.26812707486074],[-99.92444298782988,44.26640895547955],[-99.89213934189341,44.241496224452234],[-99.93880016380163,44.195107001160004],[-100.36592614896148,44.194247941469406],[-100.36592614896148,44.1684761507515],[-101.04789200762008,44.1684761507515],[-101.16633870938709,44.1684761507515],[-101.16633870938709,44.34286526794267],[-101.15557082740827,44.34286526794267],[-101.15557082740827,44.68992538294382],[-101.13762435744357,44.68992538294382],[-101.13762435744357,44.74748238221382]]]}},{"type":"Feature","id":"46119","properties":{"name":"Sully","county_fips":"46119","state_abbr":"SD"},"geometry":{"type":"Polygon","coordinates":[[[-100.40540838288382,44.89781782806827],[-99.67319240832408,44.89781782806827],[-99.67678170231702,44.548180533995335],[-100.52744437864378,44.54732147430474],[-100.62076602246022,44.56707984718847],[-100.6458910804108,44.598005996049956],[-100.61358743447434,44.70710657675576],[-100.63153390443904,44.737173665926655],[-100.7176769602696,44.77067699385993],[-100.71408766627665,44.82136151560515],[-100.67460543235431,44.82307963498634],[-100.6099981404814,44.76981793416933],[-100.54180155461555,44.761227337263364],[-100.47360496874968,44.81620715746157],[-100.40181908889089,44.856582962919624],[-100.40540838288382,44.89781782806827]]]}},{"type":"Feature","id":"46121","properties":{"name":"Todd","county_fips":"46121","state_abbr":"SD"},"geometry":{"type":"Polygon","coordinates":[[[-101.22735670726706,43.38930901138011],[-100.21517580125801,43.390168071070704],[-100.21517580125801,43.128154865438646],[-100.19722933129331,43.128154865438646],[-100.19722933129331,42.99843685215851],[-100.88637377793778,42.997577792467915],[-101.22735670726706,42.997577792467915],[-101.22735670726706,43.38930901138011]]]}},{"type":"Feature","id":"46123","properties":{"name":"Tripp","county_fips":"46123","state_abbr":"SD"},"geometry":{"type":"Polygon","coordinates":[[[-100.22953297722977,43.714033574425734],[-100.21158650726507,43.686543664326635],[-100.19005074330742,43.706302037210364],[-100.11467556945568,43.68568460463604],[-100.01058604366042,43.70802015659156],[-100.00340745567455,43.69255708216082],[-99.90290722387223,43.69857049999499],[-99.86701428394284,43.675375888348874],[-99.79881769807697,43.709738275972754],[-99.75215687616875,43.709738275972754],[-99.69472817228171,43.76042279771797],[-99.68396029030289,43.72777852947529],[-99.6660138203382,43.76471809617095],[-99.62294229242292,43.74152348452484],[-99.62294229242292,43.51473172620725],[-99.61576370443704,43.50012771146711],[-99.53320994259943,43.50012771146711],[-99.53320994259943,42.99843685215851],[-100.19722933129331,42.99843685215851],[-100.19722933129331,43.128154865438646],[-100.21517580125801,43.128154865438646],[-100.21517580125801,43.390168071070704],[-100.21517580125801,43.47693309982099],[-100.22953297722977,43.47779215951159],[-100.22953297722977,43.714033574425734]]]}},{"type":"Feature","id":"46125","properties":{"name":"Turner","county_fips":"46125","state_abbr":"SD"},"geometry":{"type":"Polygon","coordinates":[[[-97.40116931079311,43.50012771146711],[-97.12838296732967,43.49926865177651],[-96.9237932097321,43.50012771146711],[-96.9237932097321,43.08348376152761],[-97.16068661326612,43.08348376152761],[-97.16068661326612,43.170248790277896],[-97.39758001680016,43.1693897305873],[-97.40116931079311,43.50012771146711]]]}},{"type":"Feature","id":"46127","properties":{"name":"Union","county_fips":"46127","state_abbr":"SD"},"geometry":{"type":"Polygon","coordinates":[[[-96.80534650796507,43.08348376152761],[-96.45359569665696,43.08348376152761],[-96.511024400544,43.04998043359433],[-96.4930779305793,43.0018730909209],[-96.52179228252282,42.977819419584186],[-96.50025651856518,42.95977916608165],[-96.53614945849458,42.909094644336434],[-96.54332804648045,42.85153764506644],[-96.5828102804028,42.83779269001689],[-96.59357816238162,42.793121586105855],[-96.63306039630396,42.77078603415033],[-96.62947110231102,42.70549749766497],[-96.57563169241692,42.68230288601885],[-96.51461369453695,42.63075930458304],[-96.50025651856518,42.56117546964469],[-96.47872075460754,42.55602111150111],[-96.4930779305793,42.51736342542425],[-96.44641710867108,42.49073257501574],[-96.50743510655106,42.484719157181566],[-96.52538157651576,42.51049094789947],[-96.61152463234632,42.50619564944649],[-96.63306039630396,42.52423590294902],[-96.63664969029689,42.55172581304812],[-96.71202486414863,42.608423752627516],[-96.68689980619806,42.65309485653856],[-96.7263820401204,42.66683981158811],[-96.80175721397214,42.6694169906599],[-96.80534650796507,42.70377937828378],[-96.80534650796507,43.08348376152761]]]}},{"type":"Feature","id":"46129","properties":{"name":"Walworth","county_fips":"46129","state_abbr":"SD"},"geometry":{"type":"Polygon","coordinates":[[[-100.43053344083441,45.59451523714237],[-99.71626393623936,45.59365617745177],[-99.70908534825348,45.59365617745177],[-99.70908534825348,45.24573700276002],[-100.26183662316623,45.246596062450614],[-100.31567603306033,45.31789801677016],[-100.27260450514504,45.38146843387433],[-100.33003320903208,45.44417979128791],[-100.3408010910109,45.472528761077605],[-100.39105120691207,45.51204550684506],[-100.44489061680616,45.50946832777327],[-100.48796214472144,45.53609917818177],[-100.43053344083441,45.59451523714237]]]}},{"type":"Feature","id":"46135","properties":{"name":"Yankton","county_fips":"46135","state_abbr":"SD"},"geometry":{"type":"Polygon","coordinates":[[[-97.63806271432713,43.1685306708967],[-97.39758001680016,43.1693897305873],[-97.16068661326612,43.170248790277896],[-97.16068661326612,43.08348376152761],[-97.16068661326612,42.79999406363063],[-97.21452602316023,42.81287995898958],[-97.21811531715316,42.84552422723227],[-97.30784766697667,42.867000719497184],[-97.36168707687077,42.85497388382883],[-97.41552648676486,42.866141659806594],[-97.44065154471544,42.846383286922865],[-97.48372307263072,42.850678585375846],[-97.6344734203342,42.85153764506644],[-97.63806271432713,43.1685306708967]]]}},{"type":"Feature","id":"46137","properties":{"name":"Ziebach","county_fips":"46137","state_abbr":"SD"},"geometry":{"type":"Polygon","coordinates":[[[-101.99905491574916,45.037844557635566],[-101.99905491574916,45.472528761077605],[-101.47142869878698,45.472528761077605],[-101.47142869878698,45.38576373232731],[-101.48578587475875,45.38576373232731],[-101.48578587475875,45.03870361732616],[-101.5001430507305,44.99403251341513],[-101.13762435744357,44.99403251341513],[-101.13762435744357,44.74748238221382],[-101.22376741327413,44.69422068139681],[-101.35298199701997,44.68820726356263],[-101.36733917299172,44.66501265191651],[-101.4463036408364,44.63838180150801],[-101.5001430507305,44.58168386192861],[-101.6257683404834,44.57309326502264],[-101.6616612804128,44.5859791603816],[-101.74421504225042,44.567938906879064],[-101.80523304013039,44.52842216111161],[-101.94162621186211,44.533576519255185],[-101.99905491574916,44.51124096729966],[-101.99905491574916,45.037844557635566]]]}}]}