{"type":"FeatureCollection","features":[{"type":"Feature","id":"47001","properties":{"name":"Anderson","county_fips":"47001","state_abbr":"TN"},"geometry":{"type":"Polygon","coordinates":[[[-84.44022870228702,36.16375795376953],[-84.40433576235762,36.174925729747294],[-84.37203211642117,36.21701965458654],[-84.30024623656236,36.221314953039524],[-84.23563894468944,36.17836196850968],[-84.22846035670356,36.24450956468564],[-84.10283506695066,36.224751191801914],[-84.07053142101421,36.23076460963609],[-84.03104918709187,36.302066563955634],[-84.00592412914129,36.27028135540355],[-83.9700311892119,36.210147177061764],[-83.94131683726837,36.186093505725054],[-84.09206718497185,36.07355668625686],[-84.05976353903539,36.03661711956119],[-84.14949588885888,35.98679165750657],[-84.1961567107671,35.99280507534075],[-84.23563894468944,35.931811837308366],[-84.27153188461884,35.940402434214334],[-84.27153188461884,35.91033534504344],[-84.32178200052,35.99194601565015],[-84.34331776447765,36.048643955229544],[-84.37921070440704,36.09503317852178],[-84.41869293832939,36.10877813357133],[-84.45099658426584,36.14142240181401],[-84.44022870228702,36.16375795376953]]]}},{"type":"Feature","id":"47003","properties":{"name":"Bedford","county_fips":"47003","state_abbr":"TN"},"geometry":{"type":"Polygon","coordinates":[[[-86.6404659199592,35.686120765797654],[-86.63687662596625,35.701583840228395],[-86.5148406302063,35.688697944869446],[-86.49330486624866,35.65777179600796],[-86.4251082803828,35.65261743786437],[-86.41434039840398,35.62340940838408],[-86.34255451854519,35.66464427353273],[-86.2456435807358,35.632000005290045],[-86.24205428674287,35.50400011139111],[-86.25641146271462,35.41208072449724],[-86.3712688704887,35.34765124770247],[-86.41075110441103,35.346792188011875],[-86.42151898638986,35.31844321822218],[-86.47535839628397,35.33820159110591],[-86.48971557225572,35.36139620275202],[-86.52560851218512,35.354523725227246],[-86.60098368603686,35.36483244151441],[-86.61893015600155,35.366550560895604],[-86.6584123899239,35.435275336143356],[-86.66559097790977,35.49197327572275],[-86.6404659199592,35.686120765797654]]]}},{"type":"Feature","id":"47005","properties":{"name":"Benton","county_fips":"47005","state_abbr":"TN"},"geometry":{"type":"Polygon","coordinates":[[[-88.21257668886689,36.11994590954909],[-88.17668374893749,36.14743581964819],[-88.13720151501515,36.21873777396773],[-88.08336210512105,36.259972639116384],[-88.10130857508575,36.3106571608616],[-88.09412998709986,36.359623563225625],[-87.99004046130462,36.36048262291622],[-87.9792725793258,36.35361014539145],[-87.9541475213752,36.3123752802428],[-87.95055822738227,36.24279144530445],[-87.91466528745288,36.16032171500714],[-87.91825458144581,36.13025462583625],[-88.00080834328342,36.02802652265522],[-88.02234410724107,35.966174224932246],[-88.01157622526225,35.94641585204852],[-87.92543316943168,35.935248076070756],[-87.93979034540345,35.86566424113241],[-87.9613261093611,35.84075151010509],[-87.9720939913399,35.81583877907779],[-88.02952269522694,35.8106844209342],[-88.02952269522694,35.839892450414496],[-88.17668374893749,35.84590586824868],[-88.21616598285982,35.846764927939276],[-88.21257668886689,36.11994590954909]]]}},{"type":"Feature","id":"47007","properties":{"name":"Bledsoe","county_fips":"47007","state_abbr":"TN"},"geometry":{"type":"Polygon","coordinates":[[[-85.42369525635256,35.56757052849528],[-85.2657663206632,35.72134221311212],[-85.25499843868438,35.766013317023166],[-85.03964079910799,35.77202673485734],[-85.02887291712916,35.74625494413944],[-84.92837268532685,35.76859049609495],[-84.91760480334803,35.76171801857018],[-85.04681938709386,35.6182550502405],[-85.10783738497385,35.571006767257664],[-85.10065879698797,35.534067200562],[-85.14731961889619,35.49111421603215],[-85.11501597295972,35.47565114160141],[-85.13655173691737,35.458469947789474],[-85.16885538285382,35.45589276871768],[-85.22628408674086,35.354523725227246],[-85.31601643656437,35.41723508264082],[-85.40215949239492,35.49197327572275],[-85.43446313833138,35.54093967808677],[-85.42369525635256,35.56757052849528]]]}},{"type":"Feature","id":"47009","properties":{"name":"Blount","county_fips":"47009","state_abbr":"TN"},"geometry":{"type":"Polygon","coordinates":[[[-84.18897812278122,35.61052351302512],[-84.13154941889418,35.66034897507974],[-84.17103165281652,35.712751616206155],[-84.15308518285183,35.7574227201172],[-84.1782102408024,35.76859049609495],[-84.16744235882358,35.80553006279062],[-84.14590659486595,35.79608040619406],[-84.13513871288713,35.83473809227092],[-84.08129930299303,35.851060226392256],[-84.00951342313422,35.843328689176886],[-84.02745989309892,35.87597295741957],[-83.9449061312613,35.87597295741957],[-83.90901319133191,35.846764927939276],[-83.85158448744487,35.84161056979569],[-83.79415578355783,35.88714073339733],[-83.70442343373433,35.71189255651556],[-83.66135190581906,35.690416064250634],[-83.66135190581906,35.569288647876476],[-83.7726200196002,35.562416170351696],[-83.82645942949429,35.523758484274836],[-83.88388813338133,35.51688600675006],[-83.91260248532485,35.47565114160141],[-83.9520847192472,35.46104712686126],[-83.95926330723307,35.46362430593305],[-83.93772754327543,35.48767797726977],[-84.00951342313422,35.516026947059466],[-83.99515624716247,35.55296651375513],[-84.08129930299303,35.54093967808677],[-84.09565647896478,35.57530206571065],[-84.13154941889418,35.57616112540125],[-84.18897812278122,35.61052351302512]]]}},{"type":"Feature","id":"47011","properties":{"name":"Bradley","county_fips":"47011","state_abbr":"TN"},"geometry":{"type":"Polygon","coordinates":[[[-84.94631915529155,35.28751706936069],[-84.92837268532685,35.289235188741884],[-84.86017609946099,35.350228426774265],[-84.78121163161632,35.31328886007859],[-84.73096151571515,35.254872801118005],[-84.70224716377163,35.24112784606845],[-84.6986578697787,35.1724030708207],[-84.74890798567985,35.085638042070414],[-84.7345508097081,35.081342743617434],[-84.77762233762337,34.98770523734237],[-84.80992598355984,34.98770523734237],[-84.97862280122801,34.98770523734237],[-84.96067633126331,35.01519514744147],[-84.99297997719977,35.034953520325196],[-85.02528362313623,35.13632256381563],[-85.00733715317153,35.18357084679846],[-84.94631915529155,35.28751706936069]]]}},{"type":"Feature","id":"47013","properties":{"name":"Campbell","county_fips":"47013","state_abbr":"TN"},"geometry":{"type":"Polygon","coordinates":[[[-84.26076400264002,36.59156967968679],[-84.22846035670356,36.59242873937739],[-83.9879776591766,36.5898515603056],[-83.98438836518365,36.5606435308253],[-83.92337036730368,36.42748927878278],[-83.90542389733898,36.41975774156741],[-83.91978107331073,36.38797253301532],[-83.9520847192472,36.40085842837428],[-83.9700311892119,36.35446920508205],[-83.97362048320483,36.298630325193244],[-84.00592412914129,36.27028135540355],[-84.03104918709187,36.302066563955634],[-84.07053142101421,36.23076460963609],[-84.10283506695066,36.224751191801914],[-84.22846035670356,36.24450956468564],[-84.23563894468944,36.17836196850968],[-84.30024623656236,36.221314953039524],[-84.37203211642117,36.21701965458654],[-84.3756214104141,36.259972639116384],[-84.32896058850588,36.2848853701437],[-84.33613917649176,36.38797253301532],[-84.35049635246352,36.46614696485964],[-84.32896058850588,36.50909994938949],[-84.2858890605906,36.50394559124591],[-84.24999612066121,36.5340126804168],[-84.26076400264002,36.59156967968679]]]}},{"type":"Feature","id":"47015","properties":{"name":"Cannon","county_fips":"47015","state_abbr":"TN"},"geometry":{"type":"Polygon","coordinates":[[[-86.15232193691936,35.95414738926389],[-86.0841253510535,35.96531516524165],[-86.01592876518765,35.96101986678866],[-85.99798229522295,35.95328832957329],[-85.89030347543475,35.85793270391704],[-85.88671418144182,35.839892450414496],[-85.91542853338532,35.82271125660256],[-85.99798229522295,35.71189255651556],[-85.98362511925119,35.66034897507974],[-86.03746452914528,35.643167781267806],[-86.14514334893349,35.66206709446094],[-86.20616134681346,35.70416101930019],[-86.18821487684876,35.76343613795137],[-86.17026840688406,35.88456355432554],[-86.14155405494054,35.91463064349643],[-86.15232193691936,35.95414738926389]]]}},{"type":"Feature","id":"47017","properties":{"name":"Carroll","county_fips":"47017","state_abbr":"TN"},"geometry":{"type":"Polygon","coordinates":[[[-88.69354208392083,36.0623889102791],[-88.65405984999849,36.06410702966029],[-88.65405984999849,36.117368730477295],[-88.53202385423855,36.11565061109611],[-88.53202385423855,36.151731118101175],[-88.21257668886689,36.145717700267],[-88.21257668886689,36.11994590954909],[-88.21616598285982,35.846764927939276],[-88.17668374893749,35.84590586824868],[-88.18027304293042,35.816697838768384],[-88.56791679416794,35.824429375983755],[-88.60739902809027,35.78920792866928],[-88.7078992598926,35.79092604805047],[-88.70430996589965,35.79608040619406],[-88.69354208392083,36.0623889102791]]]}},{"type":"Feature","id":"47019","properties":{"name":"Carter","county_fips":"47019","state_abbr":"TN"},"geometry":{"type":"Polygon","coordinates":[[[-82.30100948249482,36.39656312992129],[-82.25075936659367,36.41975774156741],[-82.18974136871368,36.39999936868368],[-82.0389910210102,36.48590533774337],[-81.98515161111611,36.50824088969889],[-81.94925867118671,36.47216038269382],[-81.96720514115141,36.46271072609726],[-82.06052678496785,36.367355100440996],[-82.03181243302433,36.33385177250772],[-82.00309808108081,36.33299271281712],[-81.98156231712316,36.28832160890608],[-81.93131220122201,36.26512699725997],[-82.02822313903138,36.13025462583625],[-82.08206254892549,36.105341894808944],[-82.13231266482664,36.10620095449954],[-82.14666984079841,36.14915393902938],[-82.22204501465015,36.15688547624475],[-82.22922360263603,36.190388804178035],[-82.26870583655837,36.210147177061764],[-82.25793795457955,36.23334178870788],[-82.31895595245952,36.259972639116384],[-82.34049171641716,36.25310016159161],[-82.30100948249482,36.370791339203386],[-82.30100948249482,36.39656312992129]]]}},{"type":"Feature","id":"47021","properties":{"name":"Cheatham","county_fips":"47021","state_abbr":"TN"},"geometry":{"type":"Polygon","coordinates":[[[-87.12143131501314,36.455838248572476],[-87.00657390723907,36.39226783146831],[-86.98862743727437,36.36907321982219],[-86.91325226342263,36.382818174871744],[-86.90607367543674,36.3664960407504],[-86.98503814328143,36.22561025149251],[-86.9993953192532,36.128536506455056],[-87.03887755317552,36.094174118831184],[-87.05323472914729,36.04520771646716],[-87.18244931289313,36.04950301492014],[-87.16450284292843,36.15430829717297],[-87.15014566695666,36.17664384912848],[-87.189627900879,36.21186529644296],[-87.16450284292843,36.235918967779675],[-87.19321719487195,36.24880486313862],[-87.15732425494255,36.27199947478474],[-87.1537349609496,36.305502802718024],[-87.2434673107731,36.32354305622056],[-87.28653883868839,36.32182493683936],[-87.27936025070251,36.35446920508205],[-87.17886001890018,36.4240530400204],[-87.15014566695666,36.417180562495616],[-87.12143131501314,36.455838248572476]]]}},{"type":"Feature","id":"47023","properties":{"name":"Chester","county_fips":"47023","state_abbr":"TN"},"geometry":{"type":"Polygon","coordinates":[[[-88.84070313763138,35.427543798927985],[-88.81557807968079,35.427543798927985],[-88.67559561395613,35.489396096650964],[-88.61457761607616,35.569288647876476],[-88.61457761607616,35.58818796106961],[-88.564327500175,35.58732890137901],[-88.5463810302103,35.54867121530215],[-88.50689879628796,35.51173164860648],[-88.41357715247152,35.482523619126184],[-88.36332703657037,35.49283233541335],[-88.35973774257742,35.41895320202202],[-88.36332703657037,35.38115457563575],[-88.56791679416794,35.382013635326345],[-88.63970267402674,35.36139620275202],[-88.66482773197731,35.319302277912776],[-88.6899527899279,35.30985262131621],[-88.71866714187142,35.247141263902634],[-88.78327443374434,35.24800032359323],[-88.79404231572315,35.32961099419994],[-88.84070313763138,35.38459081439814],[-88.84070313763138,35.427543798927985]]]}},{"type":"Feature","id":"47025","properties":{"name":"Claiborne","county_fips":"47025","state_abbr":"TN"},"geometry":{"type":"Polygon","coordinates":[[[-83.9879776591766,36.5898515603056],[-83.93054895528955,36.587274381233804],[-83.69006625776258,36.582979082780824],[-83.67570908179081,36.60101933628336],[-83.47111932419324,36.59758309752097],[-83.39933344433445,36.5348717401074],[-83.37061909239092,36.459274487334866],[-83.38856556235562,36.412885264042636],[-83.43881567825677,36.412885264042636],[-83.4495835602356,36.374227577965776],[-83.49624438214381,36.37852287641876],[-83.51778014610146,36.35704638415383],[-83.5931553199532,36.367355100440996],[-83.61469108391084,36.34587860817607],[-83.66853049380494,36.344160488794884],[-83.69724484574846,36.36563698105981],[-83.73313778567785,36.34501954848548],[-83.7654414316143,36.39914030899308],[-83.80492366553665,36.43607987568875],[-83.83363801748017,36.41975774156741],[-83.86235236942369,36.43436175630756],[-83.90542389733898,36.41975774156741],[-83.92337036730368,36.42748927878278],[-83.98438836518365,36.5606435308253],[-83.9879776591766,36.5898515603056]]]}},{"type":"Feature","id":"47027","properties":{"name":"Clay","county_fips":"47027","state_abbr":"TN"},"geometry":{"type":"Polygon","coordinates":[[[-85.78980324363243,36.621636768857684],[-85.48830254822548,36.614764291332904],[-85.43805243232433,36.618200530095294],[-85.29448067260672,36.625932067310664],[-85.27653420264203,36.62679112700126],[-85.2657663206632,36.57352942618426],[-85.2837127906279,36.53143550134501],[-85.337552200522,36.52799926258262],[-85.39139161041611,36.50480465093651],[-85.4452310203102,36.497932173411726],[-85.4811239602396,36.45412012919129],[-85.49548113621135,36.40343560744607],[-85.57444560405604,36.471301323003225],[-85.696481599816,36.49621405403053],[-85.70366018780187,36.52198584474844],[-85.76826747967479,36.51683148660486],[-85.81492830158301,36.49965029279292],[-85.78980324363243,36.621636768857684]]]}},{"type":"Feature","id":"47029","properties":{"name":"Cocke","county_fips":"47029","state_abbr":"TN"},"geometry":{"type":"Polygon","coordinates":[[[-83.30960109451094,35.8957313303033],[-83.29883321253212,35.901744748137475],[-83.27729744857449,36.00740909008089],[-83.26294027260272,35.997100373793735],[-83.2342259206592,36.08472446223462],[-83.24499380263802,36.124241208002076],[-83.2162794506945,36.15001299871998],[-83.17679721677216,36.12767744676446],[-83.18397580475805,36.17664384912848],[-83.16602933479335,36.18093914758147],[-83.17320792277923,36.15688547624475],[-83.10142204292043,36.120804969239686],[-82.89683228532284,35.94469773266732],[-82.91118946129461,35.92665747916479],[-82.90042157931579,35.87253671865718],[-82.94708240122401,35.824429375983755],[-82.96143957719578,35.79178510774107],[-82.99374322313223,35.77374485423854],[-83.07988627896279,35.78920792866928],[-83.15526145281453,35.76429519764197],[-83.18397580475805,35.72993281001809],[-83.25576168461684,35.71532879527795],[-83.27729744857449,35.71361067589675],[-83.27370815458154,35.76944955578555],[-83.28806533055331,35.79522134650346],[-83.26294027260272,35.82013407753077],[-83.30960109451094,35.87167765896658],[-83.30960109451094,35.8957313303033]]]}},{"type":"Feature","id":"47031","properties":{"name":"Coffee","county_fips":"47031","state_abbr":"TN"},"geometry":{"type":"Polygon","coordinates":[[[-86.25641146271462,35.41208072449724],[-86.24205428674287,35.50400011139111],[-86.2456435807358,35.632000005290045],[-86.2456435807358,35.688697944869446],[-86.20616134681346,35.70416101930019],[-86.14514334893349,35.66206709446094],[-86.03746452914528,35.643167781267806],[-85.98362511925119,35.66034897507974],[-85.95491076730767,35.61997316962169],[-85.94773217932179,35.57358394632946],[-85.875946299463,35.523758484274836],[-85.89030347543475,35.443865933049324],[-85.87953559345593,35.34851030739307],[-85.90466065140652,35.33047005389053],[-85.91183923939239,35.289235188741884],[-85.97644653126531,35.31758415853158],[-86.00157158921589,35.31500697945979],[-86.03746452914528,35.343355949249485],[-86.15950052490524,35.362255262442616],[-86.26000075670757,35.33390629265292],[-86.2456435807358,35.34765124770247],[-86.2815365206652,35.38716799346993],[-86.25641146271462,35.41208072449724]]]}},{"type":"Feature","id":"47033","properties":{"name":"Crockett","county_fips":"47033","state_abbr":"TN"},"geometry":{"type":"Polygon","coordinates":[[[-89.34320429664297,35.88112731556315],[-89.27859700477005,35.88628167370673],[-89.20681112491124,35.962737986169856],[-89.18886465494654,35.99967755286552],[-89.13502524505245,35.967892344313434],[-89.1314359510595,35.90002662875628],[-89.10990018710187,35.86222800237002],[-88.96632842738427,35.82700655505555],[-88.9160783114831,35.796939465884655],[-88.89454254752548,35.7840535705257],[-89.02016783727836,35.670657691366905],[-89.07041795317953,35.69299324332243],[-89.11707877508775,35.6990066611566],[-89.17091818498184,35.735946227852274],[-89.27141841678416,35.754845541045405],[-89.3109006507065,35.77288579454794],[-89.35756147261472,35.81755689845898],[-89.34320429664297,35.88112731556315]]]}},{"type":"Feature","id":"47035","properties":{"name":"Cumberland","county_fips":"47035","state_abbr":"TN"},"geometry":{"type":"Polygon","coordinates":[[[-85.26935561465615,35.793503227122265],[-85.24064126271263,35.809825361243604],[-85.21192691076911,35.91033534504344],[-85.24423055670556,35.912912524115235],[-85.2657663206632,35.979060120291194],[-85.24423055670556,36.054657373063726],[-85.2478198506985,36.10104659635596],[-85.15449820688207,36.09932847697476],[-85.10065879698797,36.13884522274222],[-85.02887291712916,36.170630431294306],[-85.00374785917859,36.15344923748237],[-84.9319619793198,36.1465767599576],[-84.9068369213692,36.15602641655416],[-84.87094398143981,36.137127103361024],[-84.83146174751747,36.08386540254402],[-84.80633668956689,36.090737880068794],[-84.79197951359514,36.059811731207304],[-84.72019363373633,35.99452319472194],[-84.680711399814,35.90861722566225],[-84.72737222172222,35.85879176360763],[-84.78121163161632,35.82528843567435],[-84.79915810158101,35.82528843567435],[-84.91760480334803,35.76171801857018],[-84.92837268532685,35.76859049609495],[-85.02887291712916,35.74625494413944],[-85.03964079910799,35.77202673485734],[-85.25499843868438,35.766013317023166],[-85.25499843868438,35.76687237671376],[-85.27294490864908,35.78748980928809],[-85.26935561465615,35.793503227122265]]]}},{"type":"Feature","id":"47037","properties":{"name":"Davidson","county_fips":"47037","state_abbr":"TN"},"geometry":{"type":"Polygon","coordinates":[[[-86.91325226342263,36.382818174871744],[-86.89530579345794,36.38883159270592],[-86.82351991359913,36.35017390662906],[-86.75532332773328,36.405153726827265],[-86.71943038780387,36.34244236941369],[-86.6404659199592,36.28832160890608],[-86.6404659199592,36.254818280972806],[-86.59380509805098,36.24536862437624],[-86.57226933409333,36.174066670056696],[-86.52919780617806,36.140563342123414],[-86.5148406302063,36.10018753666536],[-86.52560851218512,36.05723455213551],[-86.54355498214981,36.08644258161581],[-86.5686800401004,36.03489900018],[-86.61175156801568,36.00740909008089],[-86.61893015600155,35.967892344313434],[-86.79121626766268,36.03661711956119],[-86.92760943939439,36.05293925368253],[-87.03887755317552,35.98936883657836],[-87.05323472914729,36.04520771646716],[-87.03887755317552,36.094174118831184],[-86.9993953192532,36.128536506455056],[-86.98503814328143,36.22561025149251],[-86.90607367543674,36.3664960407504],[-86.91325226342263,36.382818174871744]]]}},{"type":"Feature","id":"47039","properties":{"name":"Decatur","county_fips":"47039","state_abbr":"TN"},"geometry":{"type":"Polygon","coordinates":[[[-88.18027304293042,35.816697838768384],[-88.17668374893749,35.84590586824868],[-88.02952269522694,35.839892450414496],[-88.02952269522694,35.8106844209342],[-87.9720939913399,35.81583877907779],[-87.99004046130462,35.76171801857018],[-88.03311198921989,35.71704691465914],[-88.01875481324812,35.66034897507974],[-88.03670128321284,35.62169128900288],[-87.97568328533285,35.51430882767827],[-87.99004046130462,35.482523619126184],[-88.04387987119871,35.44472499273992],[-88.00798693126931,35.423248500475],[-87.9792725793258,35.3948995306853],[-88.02593340123401,35.39232235161351],[-88.06541563515634,35.41723508264082],[-88.12643363303633,35.38373175470754],[-88.19821951289512,35.37943645625456],[-88.24129104081041,35.423248500475],[-88.24129104081041,35.52891284241842],[-88.19104092490925,35.608805393643934],[-88.18027304293042,35.816697838768384]]]}},{"type":"Feature","id":"47041","properties":{"name":"DeKalb","county_fips":"47041","state_abbr":"TN"},"geometry":{"type":"Polygon","coordinates":[[[-86.05900029310293,36.08644258161581],[-85.98721441324413,36.087301641306404],[-85.95850006130061,36.11049625295252],[-85.91183923939239,36.09761035759357],[-85.91183923939239,36.116509670786705],[-85.86517841748417,36.094174118831184],[-85.8400533595336,36.128536506455056],[-85.80774971359713,36.131972745217446],[-85.77544606766067,36.078711044400436],[-85.72160665776657,36.082147283162826],[-85.68571371783717,36.06496608935089],[-85.64623148391483,36.01514062729627],[-85.66417795387953,35.971328583075824],[-85.63905289592896,35.881986375253746],[-85.67135654186542,35.85621458453584],[-85.63546360193601,35.85363740546405],[-85.68212442384423,35.83130185350853],[-85.75032100971009,35.85020116670166],[-85.88671418144182,35.839892450414496],[-85.89030347543475,35.85793270391704],[-85.99798229522295,35.95328832957329],[-86.01592876518765,35.96101986678866],[-86.05900029310293,36.08644258161581]]]}},{"type":"Feature","id":"47043","properties":{"name":"Dickson","county_fips":"47043","state_abbr":"TN"},"geometry":{"type":"Polygon","coordinates":[[[-87.5665037701377,36.17750290881908],[-87.52343224222241,36.24880486313862],[-87.5126643602436,36.33471083219832],[-87.30448530865308,36.3123752802428],[-87.28653883868839,36.32182493683936],[-87.2434673107731,36.32354305622056],[-87.1537349609496,36.305502802718024],[-87.15732425494255,36.27199947478474],[-87.19321719487195,36.24880486313862],[-87.16450284292843,36.235918967779675],[-87.189627900879,36.21186529644296],[-87.15014566695666,36.17664384912848],[-87.16450284292843,36.15430829717297],[-87.18244931289313,36.04950301492014],[-87.20398507685077,35.959301747407466],[-87.53420012420123,35.99280507534075],[-87.55214659416593,36.13798616305162],[-87.5665037701377,36.17750290881908]]]}},{"type":"Feature","id":"47045","properties":{"name":"Dyer","county_fips":"47045","state_abbr":"TN"},"geometry":{"type":"Polygon","coordinates":[[[-89.73443734187342,36.00053661255612],[-89.69136581395813,36.02029498543985],[-89.68059793197932,36.08472446223462],[-89.60163346413464,36.11908684985849],[-89.59086558215581,36.15001299871998],[-89.63034781607816,36.18523444603446],[-89.48677605636055,36.18781162510624],[-89.48318676236762,36.212724356133556],[-89.15297171501715,36.204992818918186],[-89.16373959699597,36.02630840327403],[-89.18886465494654,35.99967755286552],[-89.20681112491124,35.962737986169856],[-89.27859700477005,35.88628167370673],[-89.34320429664297,35.88112731556315],[-89.40781158851588,35.94641585204852],[-89.4903653503535,35.948133971429705],[-89.51549040830407,35.928375598545976],[-89.63034781607816,35.924080300092996],[-89.64470499204991,35.90432192720927],[-89.65547287402873,35.92579841947419],[-89.72008016590165,35.967892344313434],[-89.73443734187342,36.00053661255612]]]}},{"type":"Feature","id":"47047","properties":{"name":"Fayette","county_fips":"47047","state_abbr":"TN"},"geometry":{"type":"Polygon","coordinates":[[[-89.6339371100711,35.37600021749217],[-89.59804417014169,35.3948995306853],[-89.4724188803888,35.40263106790067],[-89.18527536095361,35.39747670975709],[-89.19604324293242,35.011758908679084],[-89.19963253692536,34.99457771486714],[-89.35397217862179,34.993718655176544],[-89.64470499204991,34.99543677455774],[-89.6339371100711,35.37600021749217]]]}},{"type":"Feature","id":"47049","properties":{"name":"Fentress","county_fips":"47049","state_abbr":"TN"},"geometry":{"type":"Polygon","coordinates":[[[-85.1221945609456,36.40687184620845],[-85.1042480909809,36.41030808497084],[-85.08989091500915,36.49965029279292],[-85.03964079910799,36.55377105330053],[-84.94272986129862,36.58126096339963],[-84.86376539345393,36.57009318742187],[-84.78480092560925,36.524563023820235],[-84.73096151571515,36.524563023820235],[-84.69147928179281,36.43522081599816],[-84.65917563585636,36.3948450105401],[-84.70224716377163,36.370791339203386],[-84.72378292772927,36.375945697346964],[-84.73814010370103,36.3381470709607],[-84.78480092560925,36.32612023529234],[-84.79915810158101,36.29691220581205],[-84.87453327543275,36.2848853701437],[-84.88530115741158,36.23935520654206],[-84.9140155093551,36.20842905768057],[-84.9068369213692,36.15602641655416],[-84.9319619793198,36.1465767599576],[-85.00374785917859,36.15344923748237],[-85.02887291712916,36.170630431294306],[-85.10065879698797,36.13884522274222],[-85.11860526695267,36.1448586405764],[-85.08271232702327,36.19640222201222],[-85.1221945609456,36.30464374302743],[-85.1221945609456,36.40687184620845]]]}},{"type":"Feature","id":"47051","properties":{"name":"Franklin","county_fips":"47051","state_abbr":"TN"},"geometry":{"type":"Polygon","coordinates":[[[-86.26000075670757,35.33390629265292],[-86.15950052490524,35.362255262442616],[-86.03746452914528,35.343355949249485],[-86.00157158921589,35.31500697945979],[-85.97644653126531,35.31758415853158],[-85.91183923939239,35.289235188741884],[-85.87235700547005,35.22308759256592],[-85.86158912349123,35.22051041349413],[-85.86517841748417,34.988564297032966],[-86.31025087260872,34.99114147610476],[-86.3174294605946,34.99114147610476],[-86.3174294605946,35.12687290721907],[-86.30307228462284,35.235114428234276],[-86.25641146271462,35.29610766626666],[-86.26000075670757,35.33390629265292]]]}},{"type":"Feature","id":"47053","properties":{"name":"Gibson","county_fips":"47053","state_abbr":"TN"},"geometry":{"type":"Polygon","coordinates":[[[-89.15297171501715,36.204992818918186],[-88.96273913339132,36.201556580155795],[-88.95914983939839,36.22303307242072],[-88.89454254752548,36.17664384912848],[-88.84070313763138,36.12338214831148],[-88.76532796377964,36.11221437233372],[-88.69354208392083,36.0623889102791],[-88.70430996589965,35.79608040619406],[-88.7078992598926,35.79092604805047],[-88.9160783114831,35.796939465884655],[-88.96632842738427,35.82700655505555],[-89.10990018710187,35.86222800237002],[-89.1314359510595,35.90002662875628],[-89.13502524505245,35.967892344313434],[-89.18886465494654,35.99967755286552],[-89.16373959699597,36.02630840327403],[-89.15297171501715,36.204992818918186]]]}},{"type":"Feature","id":"47055","properties":{"name":"Giles","county_fips":"47055","state_abbr":"TN"},"geometry":{"type":"Polygon","coordinates":[[[-87.2075743708437,35.43355721676216],[-87.16091354893548,35.435275336143356],[-87.12860990299903,35.45589276871768],[-87.03169896518965,35.431839097380966],[-86.9922167312673,35.407785426044256],[-86.95991308533085,35.41723508264082],[-86.92402014540146,35.40263106790067],[-86.90607367543674,35.31414791976919],[-86.85941285352853,35.29868484533845],[-86.84505567755677,35.321020397293964],[-86.82710920759207,35.26346339802397],[-86.8378770895709,34.99200053579535],[-87.21116366483665,34.99887301332013],[-87.2255208408084,34.999732073010726],[-87.21475295882958,35.12343666845668],[-87.19680648886488,35.162953414224134],[-87.22193154681547,35.1732621305113],[-87.21475295882958,35.227382891018905],[-87.21475295882958,35.38115457563575],[-87.2075743708437,35.43355721676216]]]}},{"type":"Feature","id":"47057","properties":{"name":"Grainger","county_fips":"47057","state_abbr":"TN"},"geometry":{"type":"Polygon","coordinates":[[[-83.73313778567785,36.16461701346013],[-83.70083413974139,36.20756999798997],[-83.70442343373433,36.27285853447534],[-83.66853049380494,36.344160488794884],[-83.61469108391084,36.34587860817607],[-83.5931553199532,36.367355100440996],[-83.51778014610146,36.35704638415383],[-83.49624438214381,36.37852287641876],[-83.4495835602356,36.374227577965776],[-83.43881567825677,36.412885264042636],[-83.38856556235562,36.412885264042636],[-83.35267262242623,36.41975774156741],[-83.28088674256742,36.3948450105401],[-83.25576168461684,36.28918066859668],[-83.27729744857449,36.26426793756937],[-83.32754756447564,36.29691220581205],[-83.4495835602356,36.217878714277134],[-83.4675300302003,36.174925729747294],[-83.5393159100591,36.18179820727207],[-83.59674461394614,36.16375795376953],[-83.60392320193202,36.13798616305162],[-83.63622684786847,36.143999580885804],[-83.6290482598826,36.10448283511835],[-83.67570908179081,36.12510026769267],[-83.66853049380494,36.08042916378163],[-83.70083413974139,36.109637193261925],[-83.73313778567785,36.16461701346013]]]}},{"type":"Feature","id":"47059","properties":{"name":"Greene","county_fips":"47059","state_abbr":"TN"},"geometry":{"type":"Polygon","coordinates":[[[-83.16602933479335,36.18093914758147],[-83.14090427684276,36.18781162510624],[-83.08347557295572,36.24193238561385],[-83.03322545705457,36.27629477323772],[-82.99015392913928,36.28832160890608],[-82.93631451924519,36.33471083219832],[-82.91477875528754,36.328697414364136],[-82.83940358143582,36.370791339203386],[-82.81427852348523,36.36391886167861],[-82.70301040970409,36.41030808497084],[-82.6312245298453,36.41889868187681],[-82.64917099981,36.1465767599576],[-82.5953315899159,36.09589223821238],[-82.5773851199512,36.078711044400436],[-82.60251017790178,36.040053358323576],[-82.6312245298453,36.06582514904149],[-82.74967123161231,36.0056909706997],[-82.8214571114711,35.9215031210212],[-82.85017146341463,35.948133971429705],[-82.89683228532284,35.94469773266732],[-83.10142204292043,36.120804969239686],[-83.17320792277923,36.15688547624475],[-83.16602933479335,36.18093914758147]]]}},{"type":"Feature","id":"47061","properties":{"name":"Grundy","county_fips":"47061","state_abbr":"TN"},"geometry":{"type":"Polygon","coordinates":[[[-85.91183923939239,35.289235188741884],[-85.90466065140652,35.33047005389053],[-85.87953559345593,35.34851030739307],[-85.89030347543475,35.443865933049324],[-85.875946299463,35.523758484274836],[-85.82210688956889,35.504859171081705],[-85.70366018780187,35.52891284241842],[-85.60674924999249,35.53149002149021],[-85.5349633701337,35.48681891757917],[-85.5349633701337,35.431839097380966],[-85.48471325423255,35.40606730666306],[-85.50624901819018,35.357959963989636],[-85.56008842808427,35.319302277912776],[-85.65699936589365,35.30555732286322],[-85.71083877578775,35.289235188741884],[-85.69289230582305,35.23940972668726],[-85.73955312773127,35.21535605535055],[-85.82210688956889,35.24198690575905],[-85.87235700547005,35.22308759256592],[-85.91183923939239,35.289235188741884]]]}},{"type":"Feature","id":"47063","properties":{"name":"Hamblen","county_fips":"47063","state_abbr":"TN"},"geometry":{"type":"Polygon","coordinates":[[[-83.25576168461684,36.28918066859668],[-83.2162794506945,36.293475967049666],[-83.1624400408004,36.34501954848548],[-83.13372568885688,36.29605314612146],[-83.08347557295572,36.24193238561385],[-83.14090427684276,36.18781162510624],[-83.16602933479335,36.18093914758147],[-83.18397580475805,36.17664384912848],[-83.17679721677216,36.12767744676446],[-83.2162794506945,36.15001299871998],[-83.24499380263802,36.124241208002076],[-83.2342259206592,36.08472446223462],[-83.27370815458154,36.13111368552685],[-83.37420838638386,36.15344923748237],[-83.46035144221442,36.155167356863565],[-83.4675300302003,36.174925729747294],[-83.4495835602356,36.217878714277134],[-83.32754756447564,36.29691220581205],[-83.27729744857449,36.26426793756937],[-83.25576168461684,36.28918066859668]]]}},{"type":"Feature","id":"47065","properties":{"name":"Hamilton","county_fips":"47065","state_abbr":"TN"},"geometry":{"type":"Polygon","coordinates":[[[-85.47394537225372,34.98340993888938],[-85.38780231642316,35.04010787846878],[-85.36267725847259,35.08735616145161],[-85.39139161041611,35.12085948938489],[-85.38780231642316,35.14749033979339],[-85.24423055670556,35.319302277912776],[-85.22628408674086,35.354523725227246],[-85.16885538285382,35.45589276871768],[-85.13655173691737,35.458469947789474],[-85.10065879698797,35.42840285861858],[-85.0683551510515,35.43699345552455],[-85.01810503515034,35.40950354542545],[-85.03246221112211,35.37943645625456],[-84.97862280122801,35.363114322133214],[-84.94631915529155,35.28751706936069],[-85.00733715317153,35.18357084679846],[-85.02528362313623,35.13632256381563],[-84.99297997719977,35.034953520325196],[-84.96067633126331,35.01519514744147],[-84.97862280122801,34.98770523734237],[-85.2657663206632,34.985128058270575],[-85.36267725847259,34.98340993888938],[-85.47394537225372,34.98340993888938]]]}},{"type":"Feature","id":"47067","properties":{"name":"Hancock","county_fips":"47067","state_abbr":"TN"},"geometry":{"type":"Polygon","coordinates":[[[-83.47111932419324,36.59758309752097],[-83.27729744857449,36.598442157211565],[-83.25935097860979,36.594146858758585],[-82.98656463514635,36.594146858758585],[-82.83222499344993,36.594146858758585],[-82.95067169521695,36.54260327732277],[-83.01168969309693,36.56407976958769],[-83.11936851288513,36.51425430753307],[-83.20551156871568,36.44123423383233],[-83.19474368673687,36.4240530400204],[-83.28088674256742,36.3948450105401],[-83.35267262242623,36.41975774156741],[-83.38856556235562,36.412885264042636],[-83.37061909239092,36.459274487334866],[-83.39933344433445,36.5348717401074],[-83.47111932419324,36.59758309752097]]]}},{"type":"Feature","id":"47069","properties":{"name":"Hardeman","county_fips":"47069","state_abbr":"TN"},"geometry":{"type":"Polygon","coordinates":[[[-89.18527536095361,35.39747670975709],[-89.18168606696067,35.43269815707156],[-89.0775965411654,35.431839097380966],[-88.84070313763138,35.427543798927985],[-88.84070313763138,35.38459081439814],[-88.79404231572315,35.32961099419994],[-88.78327443374434,35.24800032359323],[-88.78686372773727,34.99543677455774],[-88.82275666766667,34.99543677455774],[-89.01657854328543,34.99457771486714],[-89.19963253692536,34.99457771486714],[-89.19604324293242,35.011758908679084],[-89.18527536095361,35.39747670975709]]]}},{"type":"Feature","id":"47071","properties":{"name":"Hardin","county_fips":"47071","state_abbr":"TN"},"geometry":{"type":"Polygon","coordinates":[[[-88.36332703657037,35.38115457563575],[-88.35973774257742,35.41895320202202],[-88.24129104081041,35.423248500475],[-88.19821951289512,35.37943645625456],[-88.12643363303633,35.38373175470754],[-88.06541563515634,35.41723508264082],[-88.02593340123401,35.39232235161351],[-88.00439763727637,35.351087486464856],[-88.01875481324812,35.29954390502905],[-87.98286187331873,35.29524860657606],[-87.98645116731167,35.0057454908449],[-88.20180880688807,35.008322669916694],[-88.20180880688807,34.99543677455774],[-88.36332703657037,34.99543677455774],[-88.38127350653507,34.99543677455774],[-88.36332703657037,35.38115457563575]]]}},{"type":"Feature","id":"47073","properties":{"name":"Hawkins","county_fips":"47073","state_abbr":"TN"},"geometry":{"type":"Polygon","coordinates":[[[-83.28088674256742,36.3948450105401],[-83.19474368673687,36.4240530400204],[-83.20551156871568,36.44123423383233],[-83.11936851288513,36.51425430753307],[-83.01168969309693,36.56407976958769],[-82.95067169521695,36.54260327732277],[-82.83222499344993,36.594146858758585],[-82.60968876588765,36.594146858758585],[-82.60968876588765,36.51940866567665],[-82.62763523585235,36.495354994339934],[-82.70301040970409,36.455838248572476],[-82.68147464574645,36.43178457723577],[-82.70301040970409,36.41030808497084],[-82.81427852348523,36.36391886167861],[-82.83940358143582,36.370791339203386],[-82.91477875528754,36.328697414364136],[-82.93631451924519,36.33471083219832],[-82.99015392913928,36.28832160890608],[-83.03322545705457,36.27629477323772],[-83.08347557295572,36.24193238561385],[-83.13372568885688,36.29605314612146],[-83.1624400408004,36.34501954848548],[-83.2162794506945,36.293475967049666],[-83.25576168461684,36.28918066859668],[-83.28088674256742,36.3948450105401]]]}},{"type":"Feature","id":"47075","properties":{"name":"Haywood","county_fips":"47075","state_abbr":"TN"},"geometry":{"type":"Polygon","coordinates":[[[-89.35756147261472,35.81755689845898],[-89.3109006507065,35.77288579454794],[-89.27141841678416,35.754845541045405],[-89.17091818498184,35.735946227852274],[-89.11707877508775,35.6990066611566],[-89.07041795317953,35.69299324332243],[-89.0775965411654,35.431839097380966],[-89.18168606696067,35.43269815707156],[-89.18527536095361,35.39747670975709],[-89.4724188803888,35.40263106790067],[-89.46882958639586,35.546953095920955],[-89.50113323233232,35.58045642385423],[-89.46882958639586,35.59506043859438],[-89.46524029240292,35.68268452703526],[-89.42575805848058,35.747114003830035],[-89.44011523445234,35.766013317023166],[-89.40063300053001,35.82271125660256],[-89.35756147261472,35.81755689845898]]]}},{"type":"Feature","id":"47077","properties":{"name":"Henderson","county_fips":"47077","state_abbr":"TN"},"geometry":{"type":"Polygon","coordinates":[[[-88.60739902809027,35.78920792866928],[-88.56791679416794,35.824429375983755],[-88.18027304293042,35.816697838768384],[-88.19104092490925,35.608805393643934],[-88.24129104081041,35.52891284241842],[-88.24129104081041,35.423248500475],[-88.35973774257742,35.41895320202202],[-88.36332703657037,35.49283233541335],[-88.41357715247152,35.482523619126184],[-88.50689879628796,35.51173164860648],[-88.5463810302103,35.54867121530215],[-88.564327500175,35.58732890137901],[-88.61457761607616,35.58818796106961],[-88.60739902809027,35.78920792866928]]]}},{"type":"Feature","id":"47079","properties":{"name":"Henry","county_fips":"47079","state_abbr":"TN"},"geometry":{"type":"Polygon","coordinates":[[[-88.51766667826678,36.501368412174116],[-88.48895232632326,36.501368412174116],[-88.05464775317753,36.49707311372113],[-88.06182634116341,36.443811412904125],[-87.99004046130462,36.36048262291622],[-88.09412998709986,36.359623563225625],[-88.10130857508575,36.3106571608616],[-88.08336210512105,36.259972639116384],[-88.13720151501515,36.21873777396773],[-88.17668374893749,36.14743581964819],[-88.21257668886689,36.11994590954909],[-88.21257668886689,36.145717700267],[-88.53202385423855,36.151731118101175],[-88.51766667826678,36.501368412174116]]]}},{"type":"Feature","id":"47081","properties":{"name":"Hickman","county_fips":"47081","state_abbr":"TN"},"geometry":{"type":"Polygon","coordinates":[[[-87.71725411784118,35.8390333907239],[-87.70648623586236,35.90604004659046],[-87.65982541395414,35.91548970318703],[-87.60957529805297,35.94641585204852],[-87.53420012420123,35.96961046369463],[-87.53420012420123,35.99280507534075],[-87.20398507685077,35.959301747407466],[-87.21475295882958,35.851060226392256],[-87.23269942879429,35.72477845187451],[-87.34037824858248,35.659489915389145],[-87.4588249503495,35.61481881147811],[-87.548557300173,35.63028188590885],[-87.58803953409534,35.65347649755497],[-87.65982541395414,35.609664453334524],[-87.74237917579175,35.66378521384213],[-87.71725411784118,35.8390333907239]]]}},{"type":"Feature","id":"47083","properties":{"name":"Houston","county_fips":"47083","state_abbr":"TN"},"geometry":{"type":"Polygon","coordinates":[[[-87.9792725793258,36.35361014539145],[-87.89312952349523,36.33471083219832],[-87.82134364363644,36.328697414364136],[-87.75673635176351,36.34330142910429],[-87.71725411784118,36.36821416013159],[-87.59162882808828,36.367355100440996],[-87.58803953409534,36.34158330972309],[-87.5126643602436,36.33471083219832],[-87.52343224222241,36.24880486313862],[-87.5665037701377,36.17750290881908],[-87.5844502401024,36.198120341393405],[-87.66341470794707,36.201556580155795],[-87.75673635176351,36.24193238561385],[-87.83570081960819,36.232482729017285],[-87.95055822738227,36.24279144530445],[-87.9541475213752,36.3123752802428],[-87.9792725793258,36.35361014539145]]]}},{"type":"Feature","id":"47085","properties":{"name":"Humphreys","county_fips":"47085","state_abbr":"TN"},"geometry":{"type":"Polygon","coordinates":[[[-87.95055822738227,36.24279144530445],[-87.83570081960819,36.232482729017285],[-87.75673635176351,36.24193238561385],[-87.66341470794707,36.201556580155795],[-87.5844502401024,36.198120341393405],[-87.5665037701377,36.17750290881908],[-87.55214659416593,36.13798616305162],[-87.53420012420123,35.99280507534075],[-87.53420012420123,35.96961046369463],[-87.60957529805297,35.94641585204852],[-87.65982541395414,35.91548970318703],[-87.70648623586236,35.90604004659046],[-87.71725411784118,35.8390333907239],[-87.8177543496435,35.83645621165211],[-87.85364728957289,35.80381194340943],[-87.91107599345993,35.8381743310333],[-87.9613261093611,35.84075151010509],[-87.93979034540345,35.86566424113241],[-87.92543316943168,35.935248076070756],[-88.01157622526225,35.94641585204852],[-88.02234410724107,35.966174224932246],[-88.00080834328342,36.02802652265522],[-87.91825458144581,36.13025462583625],[-87.91466528745288,36.16032171500714],[-87.95055822738227,36.24279144530445]]]}},{"type":"Feature","id":"47087","properties":{"name":"Jackson","county_fips":"47087","state_abbr":"TN"},"geometry":{"type":"Polygon","coordinates":[[[-85.82928547755478,36.41202620435204],[-85.81492830158301,36.49965029279292],[-85.76826747967479,36.51683148660486],[-85.70366018780187,36.52198584474844],[-85.696481599816,36.49621405403053],[-85.57444560405604,36.471301323003225],[-85.49548113621135,36.40343560744607],[-85.49548113621135,36.302066563955634],[-85.49548113621135,36.27973101200011],[-85.5349633701337,36.24279144530445],[-85.63546360193601,36.213583415824154],[-85.77903536165361,36.23763708716086],[-85.82928547755478,36.255677340663404],[-85.84723194751948,36.28832160890608],[-85.82928547755478,36.41202620435204]]]}},{"type":"Feature","id":"47089","properties":{"name":"Jefferson","county_fips":"47089","state_abbr":"TN"},"geometry":{"type":"Polygon","coordinates":[[[-83.66853049380494,36.08042916378163],[-83.67570908179081,36.12510026769267],[-83.6290482598826,36.10448283511835],[-83.63622684786847,36.143999580885804],[-83.60392320193202,36.13798616305162],[-83.59674461394614,36.16375795376953],[-83.5393159100591,36.18179820727207],[-83.4675300302003,36.174925729747294],[-83.46035144221442,36.155167356863565],[-83.37420838638386,36.15344923748237],[-83.27370815458154,36.13111368552685],[-83.2342259206592,36.08472446223462],[-83.26294027260272,35.997100373793735],[-83.27729744857449,36.00740909008089],[-83.29883321253212,35.901744748137475],[-83.30960109451094,35.8957313303033],[-83.41727991429914,35.93352995668956],[-83.47470861818618,35.9232212404024],[-83.52495873408733,35.96445610555105],[-83.65417331783317,36.04263053739537],[-83.67211978779787,36.03833523894238],[-83.70801272772728,36.093315059140586],[-83.66853049380494,36.08042916378163]]]}},{"type":"Feature","id":"47091","properties":{"name":"Johnson","county_fips":"47091","state_abbr":"TN"},"geometry":{"type":"Polygon","coordinates":[[[-81.98515161111611,36.50824088969889],[-81.92772290722907,36.567516008350076],[-81.82722267542675,36.61390523164231],[-81.64775797577975,36.61218711226112],[-81.67647232772327,36.5881334409244],[-81.70877597365974,36.536589859488586],[-81.69441879768797,36.467865084240835],[-81.71595456164562,36.45755636795367],[-81.73031173761737,36.390549712087115],[-81.7051866796668,36.3381470709607],[-81.76620467754677,36.3381470709607],[-81.79491902949029,36.35790544384443],[-81.83440126341263,36.34759672755727],[-81.91695502525025,36.28746254921548],[-81.93131220122201,36.26512699725997],[-81.98156231712316,36.28832160890608],[-82.00309808108081,36.33299271281712],[-82.03181243302433,36.33385177250772],[-82.06052678496785,36.367355100440996],[-81.96720514115141,36.46271072609726],[-81.94925867118671,36.47216038269382],[-81.98515161111611,36.50824088969889]]]}},{"type":"Feature","id":"47093","properties":{"name":"Knox","county_fips":"47093","state_abbr":"TN"},"geometry":{"type":"Polygon","coordinates":[[[-83.94131683726837,36.186093505725054],[-83.92337036730368,36.16977137160371],[-83.73313778567785,36.16461701346013],[-83.70083413974139,36.109637193261925],[-83.66853049380494,36.08042916378163],[-83.70801272772728,36.093315059140586],[-83.67211978779787,36.03833523894238],[-83.66853049380494,35.96187892647926],[-83.79415578355783,35.88714073339733],[-83.85158448744487,35.84161056979569],[-83.90901319133191,35.846764927939276],[-83.9449061312613,35.87597295741957],[-84.02745989309892,35.87597295741957],[-84.00951342313422,35.843328689176886],[-84.08129930299303,35.851060226392256],[-84.13513871288713,35.83473809227092],[-84.14590659486595,35.79608040619406],[-84.16744235882358,35.80553006279062],[-84.26435329663296,35.8965903899939],[-84.27153188461884,35.91033534504344],[-84.27153188461884,35.940402434214334],[-84.23563894468944,35.931811837308366],[-84.1961567107671,35.99280507534075],[-84.14949588885888,35.98679165750657],[-84.05976353903539,36.03661711956119],[-84.09206718497185,36.07355668625686],[-83.94131683726837,36.186093505725054]]]}},{"type":"Feature","id":"47095","properties":{"name":"Lake","county_fips":"47095","state_abbr":"TN"},"geometry":{"type":"Polygon","coordinates":[[[-89.5442047602476,36.33642895157951],[-89.5083118203182,36.37336851827518],[-89.5442047602476,36.4240530400204],[-89.51907970229702,36.479032860218595],[-89.54061546625466,36.497932173411726],[-89.48677605636055,36.49707311372113],[-89.49395464434645,36.47044226331263],[-89.44729382243823,36.46442884547845],[-89.4185794704947,36.498791233102324],[-89.3467935906359,36.50308653155531],[-89.36115076660766,36.409449025280246],[-89.40422229452294,36.351892026010255],[-89.40422229452294,36.31409339962399],[-89.42934735247353,36.25911357942579],[-89.48318676236762,36.212724356133556],[-89.48677605636055,36.18781162510624],[-89.63034781607816,36.18523444603446],[-89.7057229899299,36.23505990808908],[-89.69495510795107,36.25310016159161],[-89.58727628816288,36.23935520654206],[-89.53343687826877,36.252241101901014],[-89.53702617226172,36.27543571354713],[-89.61240134611346,36.30893904148041],[-89.61240134611346,36.340724250032494],[-89.5442047602476,36.33642895157951]]]}},{"type":"Feature","id":"47097","properties":{"name":"Lauderdale","county_fips":"47097","state_abbr":"TN"},"geometry":{"type":"Polygon","coordinates":[[[-89.64470499204991,35.90432192720927],[-89.63034781607816,35.924080300092996],[-89.51549040830407,35.928375598545976],[-89.4903653503535,35.948133971429705],[-89.40781158851588,35.94641585204852],[-89.34320429664297,35.88112731556315],[-89.35756147261472,35.81755689845898],[-89.40063300053001,35.82271125660256],[-89.44011523445234,35.766013317023166],[-89.42575805848058,35.747114003830035],[-89.46524029240292,35.68268452703526],[-89.46882958639586,35.59506043859438],[-89.50113323233232,35.58045642385423],[-89.53343687826877,35.60279197580975],[-89.6518835800358,35.64832213941139],[-89.72725875388754,35.63629530374303],[-89.75956239982399,35.65004025879258],[-89.87083051360513,35.58131548354483],[-89.91031274752747,35.53836249901499],[-89.95697356943569,35.58131548354483],[-89.94620568745687,35.601932916119154],[-89.85288404364043,35.63801342312423],[-89.86365192561925,35.670657691366905],[-89.90672345353452,35.65089931848318],[-89.93902709947099,35.66550333322333],[-89.96056286342863,35.723919392183916],[-89.90672345353452,35.759140839498386],[-89.87441980759807,35.74110058599585],[-89.81340180971809,35.75999989918898],[-89.78109816378164,35.804671003100026],[-89.7416159298593,35.80553006279062],[-89.70213369593695,35.83387903258032],[-89.77391957579576,35.86480518144181],[-89.7416159298593,35.90689910628106],[-89.65547287402873,35.88714073339733],[-89.64470499204991,35.90432192720927]]]}},{"type":"Feature","id":"47099","properties":{"name":"Lawrence","county_fips":"47099","state_abbr":"TN"},"geometry":{"type":"Polygon","coordinates":[[[-87.57368235812358,35.39833576944769],[-87.51625365423654,35.39833576944769],[-87.50907506625066,35.41465790356903],[-87.44805706837069,35.420671321403205],[-87.44805706837069,35.45761088809888],[-87.32602107261073,35.45675182840828],[-87.29371742667426,35.44472499273992],[-87.2075743708437,35.43355721676216],[-87.21475295882958,35.38115457563575],[-87.21475295882958,35.227382891018905],[-87.22193154681547,35.1732621305113],[-87.19680648886488,35.162953414224134],[-87.21475295882958,35.12343666845668],[-87.2255208408084,34.999732073010726],[-87.60598600406004,35.00402737146371],[-87.58803953409534,35.058148131971315],[-87.59162882808828,35.14233598164981],[-87.57368235812358,35.19044332432324],[-87.57368235812358,35.39833576944769]]]}},{"type":"Feature","id":"47101","properties":{"name":"Lewis","county_fips":"47101","state_abbr":"TN"},"geometry":{"type":"Polygon","coordinates":[[[-87.65982541395414,35.609664453334524],[-87.58803953409534,35.65347649755497],[-87.548557300173,35.63028188590885],[-87.4588249503495,35.61481881147811],[-87.34037824858248,35.659489915389145],[-87.3511461305613,35.58475172230722],[-87.31884248462484,35.54953027499274],[-87.28653883868839,35.54179873777737],[-87.27577095670956,35.48338267881678],[-87.29371742667426,35.44472499273992],[-87.32602107261073,35.45675182840828],[-87.44805706837069,35.45761088809888],[-87.44805706837069,35.420671321403205],[-87.50907506625066,35.41465790356903],[-87.51625365423654,35.39833576944769],[-87.57368235812358,35.39833576944769],[-87.60598600406004,35.43613439583395],[-87.64546823798237,35.44214781366813],[-87.64546823798237,35.47307396252962],[-87.71725411784118,35.48338267881678],[-87.69212905989059,35.5057182307723],[-87.68495047190471,35.54781215561155],[-87.65264682596826,35.56842958818588],[-87.65982541395414,35.609664453334524]]]}},{"type":"Feature","id":"47103","properties":{"name":"Lincoln","county_fips":"47103","state_abbr":"TN"},"geometry":{"type":"Polygon","coordinates":[[[-86.82710920759207,35.26346339802397],[-86.74814473974739,35.25315468173681],[-86.69789462384624,35.29524860657606],[-86.60098368603686,35.327033815128146],[-86.60098368603686,35.36483244151441],[-86.52560851218512,35.354523725227246],[-86.52560851218512,35.3115707406974],[-86.4610012203122,35.29267142750427],[-86.39280463444634,35.235114428234276],[-86.36767957649576,35.1715440111301],[-86.36767957649576,35.12859102660026],[-86.3174294605946,35.12687290721907],[-86.3174294605946,34.99114147610476],[-86.7840376796768,34.99200053579535],[-86.8378770895709,34.99200053579535],[-86.82710920759207,35.26346339802397]]]}},{"type":"Feature","id":"47105","properties":{"name":"Loudon","county_fips":"47105","state_abbr":"TN"},"geometry":{"type":"Polygon","coordinates":[[[-84.58380046200462,35.644026840958404],[-84.52996105211052,35.670657691366905],[-84.51201458214582,35.716187854968545],[-84.49406811218113,35.716187854968545],[-84.41510364433644,35.77632203331033],[-84.38997858638587,35.76859049609495],[-84.37921070440704,35.81755689845898],[-84.34690705847058,35.832160913199125],[-84.32896058850588,35.893154151231506],[-84.28229976659766,35.87511389772897],[-84.26435329663296,35.8965903899939],[-84.16744235882358,35.80553006279062],[-84.1782102408024,35.76859049609495],[-84.15308518285183,35.7574227201172],[-84.17103165281652,35.712751616206155],[-84.13154941889418,35.66034897507974],[-84.18897812278122,35.61052351302512],[-84.25358541465414,35.620832229312285],[-84.28947835458354,35.655194616936164],[-84.3576749404494,35.66550333322333],[-84.39715717437174,35.64059060219601],[-84.42228223232232,35.6715167510575],[-84.52278246412463,35.651758378173774],[-84.52637175811758,35.624268468074675],[-84.58380046200462,35.644026840958404]]]}},{"type":"Feature","id":"47111","properties":{"name":"Macon","county_fips":"47111","state_abbr":"TN"},"geometry":{"type":"Polygon","coordinates":[[[-86.20616134681346,36.63967702236022],[-85.97644653126531,36.62850924638246],[-85.78980324363243,36.621636768857684],[-85.81492830158301,36.49965029279292],[-85.82928547755478,36.41202620435204],[-85.98003582525826,36.425771159401584],[-86.16667911289113,36.44467047259472],[-86.1918041708417,36.482469098980985],[-86.2276971107711,36.48762345712456],[-86.20616134681346,36.63967702236022]]]}},{"type":"Feature","id":"47113","properties":{"name":"Madison","county_fips":"47113","state_abbr":"TN"},"geometry":{"type":"Polygon","coordinates":[[[-89.07041795317953,35.69299324332243],[-89.02016783727836,35.670657691366905],[-88.89454254752548,35.7840535705257],[-88.9160783114831,35.796939465884655],[-88.7078992598926,35.79092604805047],[-88.60739902809027,35.78920792866928],[-88.61457761607616,35.58818796106961],[-88.61457761607616,35.569288647876476],[-88.67559561395613,35.489396096650964],[-88.81557807968079,35.427543798927985],[-88.84070313763138,35.427543798927985],[-89.0775965411654,35.431839097380966],[-89.07041795317953,35.69299324332243]]]}},{"type":"Feature","id":"47115","properties":{"name":"Marion","county_fips":"47115","state_abbr":"TN"},"geometry":{"type":"Polygon","coordinates":[[[-85.87235700547005,35.22308759256592],[-85.82210688956889,35.24198690575905],[-85.73955312773127,35.21535605535055],[-85.69289230582305,35.23940972668726],[-85.71083877578775,35.289235188741884],[-85.65699936589365,35.30555732286322],[-85.56008842808427,35.319302277912776],[-85.55649913409134,35.308134501935015],[-85.4452310203102,35.262604338333375],[-85.40215949239492,35.22308759256592],[-85.38780231642316,35.14749033979339],[-85.39139161041611,35.12085948938489],[-85.36267725847259,35.08735616145161],[-85.38780231642316,35.04010787846878],[-85.47394537225372,34.98340993888938],[-85.60674924999249,34.98426899857998],[-85.86517841748417,34.988564297032966],[-85.86158912349123,35.22051041349413],[-85.87235700547005,35.22308759256592]]]}},{"type":"Feature","id":"47117","properties":{"name":"Marshall","county_fips":"47117","state_abbr":"TN"},"geometry":{"type":"Polygon","coordinates":[[[-86.78044838568385,35.70673819837198],[-86.68712674186742,35.71017443713436],[-86.6404659199592,35.686120765797654],[-86.66559097790977,35.49197327572275],[-86.6584123899239,35.435275336143356],[-86.61893015600155,35.366550560895604],[-86.60098368603686,35.36483244151441],[-86.60098368603686,35.327033815128146],[-86.69789462384624,35.29524860657606],[-86.74814473974739,35.25315468173681],[-86.82710920759207,35.26346339802397],[-86.84505567755677,35.321020397293964],[-86.85941285352853,35.29868484533845],[-86.90607367543674,35.31414791976919],[-86.92402014540146,35.40263106790067],[-86.95991308533085,35.41723508264082],[-86.95632379133791,35.451597470264694],[-86.92402014540146,35.46362430593305],[-86.84864497154972,35.52547660365603],[-86.82710920759207,35.582174543235425],[-86.8127520316203,35.69642948208482],[-86.78044838568385,35.70673819837198]]]}},{"type":"Feature","id":"47119","properties":{"name":"Maury","county_fips":"47119","state_abbr":"TN"},"geometry":{"type":"Polygon","coordinates":[[[-87.34037824858248,35.659489915389145],[-87.23269942879429,35.72477845187451],[-87.21475295882958,35.851060226392256],[-87.0352882591826,35.79608040619406],[-86.84505567755677,35.72477845187451],[-86.78044838568385,35.70673819837198],[-86.8127520316203,35.69642948208482],[-86.82710920759207,35.582174543235425],[-86.84864497154972,35.52547660365603],[-86.92402014540146,35.46362430593305],[-86.95632379133791,35.451597470264694],[-86.95991308533085,35.41723508264082],[-86.9922167312673,35.407785426044256],[-87.03169896518965,35.431839097380966],[-87.12860990299903,35.45589276871768],[-87.16091354893548,35.435275336143356],[-87.2075743708437,35.43355721676216],[-87.29371742667426,35.44472499273992],[-87.27577095670956,35.48338267881678],[-87.28653883868839,35.54179873777737],[-87.31884248462484,35.54953027499274],[-87.3511461305613,35.58475172230722],[-87.34037824858248,35.659489915389145]]]}},{"type":"Feature","id":"47107","properties":{"name":"McMinn","county_fips":"47107","state_abbr":"TN"},"geometry":{"type":"Polygon","coordinates":[[[-84.86017609946099,35.350228426774265],[-84.80274739557396,35.455033709027084],[-84.77762233762337,35.46534242531425],[-84.74890798567985,35.51087258891588],[-84.72378292772927,35.521181305203044],[-84.61969340193401,35.644885900649],[-84.58380046200462,35.644026840958404],[-84.52637175811758,35.624268468074675],[-84.44381799627996,35.462765246242455],[-84.43663940829408,35.4223894407844],[-84.40792505635056,35.39833576944769],[-84.40074646836469,35.33047005389053],[-84.45458587825878,35.319302277912776],[-84.49406811218113,35.285798949979494],[-84.51560387613875,35.26689963678636],[-84.66635422384223,35.26775869647696],[-84.70224716377163,35.24112784606845],[-84.73096151571515,35.254872801118005],[-84.78121163161632,35.31328886007859],[-84.86017609946099,35.350228426774265]]]}},{"type":"Feature","id":"47109","properties":{"name":"McNairy","county_fips":"47109","state_abbr":"TN"},"geometry":{"type":"Polygon","coordinates":[[[-88.78327443374434,35.24800032359323],[-88.71866714187142,35.247141263902634],[-88.6899527899279,35.30985262131621],[-88.66482773197731,35.319302277912776],[-88.63970267402674,35.36139620275202],[-88.56791679416794,35.382013635326345],[-88.36332703657037,35.38115457563575],[-88.38127350653507,34.99543677455774],[-88.78686372773727,34.99543677455774],[-88.78327443374434,35.24800032359323]]]}},{"type":"Feature","id":"47121","properties":{"name":"Meigs","county_fips":"47121","state_abbr":"TN"},"geometry":{"type":"Polygon","coordinates":[[[-85.01810503515034,35.40950354542545],[-84.96785491924919,35.46706054469544],[-84.94631915529155,35.43957063459634],[-84.91042621536215,35.443006873358726],[-84.8960690393904,35.48338267881678],[-84.86017609946099,35.497127633866334],[-84.87453327543275,35.55038933468334],[-84.79556880758807,35.55296651375513],[-84.80992598355984,35.582174543235425],[-84.78121163161632,35.59506043859438],[-84.78121163161632,35.674093930129295],[-84.72378292772927,35.68955700456004],[-84.72378292772927,35.75312742166421],[-84.67353281182811,35.70330195960959],[-84.63763987189871,35.723919392183916],[-84.61969340193401,35.70759725806258],[-84.61969340193401,35.644885900649],[-84.72378292772927,35.521181305203044],[-84.74890798567985,35.51087258891588],[-84.77762233762337,35.46534242531425],[-84.80274739557396,35.455033709027084],[-84.86017609946099,35.350228426774265],[-84.92837268532685,35.289235188741884],[-84.94631915529155,35.28751706936069],[-84.97862280122801,35.363114322133214],[-85.03246221112211,35.37943645625456],[-85.01810503515034,35.40950354542545]]]}},{"type":"Feature","id":"47123","properties":{"name":"Monroe","county_fips":"47123","state_abbr":"TN"},"geometry":{"type":"Polygon","coordinates":[[[-84.52637175811758,35.624268468074675],[-84.52278246412463,35.651758378173774],[-84.42228223232232,35.6715167510575],[-84.39715717437174,35.64059060219601],[-84.3576749404494,35.66550333322333],[-84.28947835458354,35.655194616936164],[-84.25358541465414,35.620832229312285],[-84.18897812278122,35.61052351302512],[-84.13154941889418,35.57616112540125],[-84.09565647896478,35.57530206571065],[-84.08129930299303,35.54093967808677],[-83.99515624716247,35.55296651375513],[-84.00951342313422,35.516026947059466],[-83.93772754327543,35.48767797726977],[-83.95926330723307,35.46362430593305],[-84.02028130511304,35.40950354542545],[-84.00592412914129,35.37170491903918],[-84.03822777507774,35.350228426774265],[-84.02745989309892,35.29181236781367],[-84.09924577295773,35.247141263902634],[-84.19974600476004,35.243705025140244],[-84.21051388673887,35.266040577095765],[-84.28947835458354,35.22480571194711],[-84.29306764857648,35.20676545844458],[-84.34331776447765,35.20418827937279],[-84.3576749404494,35.23339630885308],[-84.49406811218113,35.285798949979494],[-84.45458587825878,35.319302277912776],[-84.40074646836469,35.33047005389053],[-84.40792505635056,35.39833576944769],[-84.43663940829408,35.4223894407844],[-84.44381799627996,35.462765246242455],[-84.52637175811758,35.624268468074675]]]}},{"type":"Feature","id":"47125","properties":{"name":"Montgomery","county_fips":"47125","state_abbr":"TN"},"geometry":{"type":"Polygon","coordinates":[[[-87.64187894398944,36.63795890297902],[-87.33678895458954,36.64139514174141],[-87.11425272702726,36.64225420143201],[-87.13219919699196,36.563220709897095],[-87.11784202102021,36.55033481453814],[-87.12143131501314,36.455838248572476],[-87.15014566695666,36.417180562495616],[-87.17886001890018,36.4240530400204],[-87.27936025070251,36.35446920508205],[-87.28653883868839,36.32182493683936],[-87.30448530865308,36.3123752802428],[-87.5126643602436,36.33471083219832],[-87.58803953409534,36.34158330972309],[-87.59162882808828,36.367355100440996],[-87.64187894398944,36.63795890297902]]]}},{"type":"Feature","id":"47127","properties":{"name":"Moore","county_fips":"47127","state_abbr":"TN"},"geometry":{"type":"Polygon","coordinates":[[[-86.52560851218512,35.354523725227246],[-86.48971557225572,35.36139620275202],[-86.47535839628397,35.33820159110591],[-86.42151898638986,35.31844321822218],[-86.41075110441103,35.346792188011875],[-86.3712688704887,35.34765124770247],[-86.25641146271462,35.41208072449724],[-86.2815365206652,35.38716799346993],[-86.2456435807358,35.34765124770247],[-86.26000075670757,35.33390629265292],[-86.25641146271462,35.29610766626666],[-86.30307228462284,35.235114428234276],[-86.3174294605946,35.12687290721907],[-86.36767957649576,35.12859102660026],[-86.36767957649576,35.1715440111301],[-86.39280463444634,35.235114428234276],[-86.4610012203122,35.29267142750427],[-86.52560851218512,35.3115707406974],[-86.52560851218512,35.354523725227246]]]}},{"type":"Feature","id":"47129","properties":{"name":"Morgan","county_fips":"47129","state_abbr":"TN"},"geometry":{"type":"Polygon","coordinates":[[[-84.70224716377163,36.370791339203386],[-84.61251481394814,36.27028135540355],[-84.5730325800258,36.26684511664116],[-84.56944328603285,36.236778027470265],[-84.47253234822348,36.20413375922759],[-84.44022870228702,36.16375795376953],[-84.45099658426584,36.14142240181401],[-84.41869293832939,36.10877813357133],[-84.37921070440704,36.09503317852178],[-84.34331776447765,36.048643955229544],[-84.4474072902729,35.985932597815975],[-84.54431822808228,35.96875140400403],[-84.5550861100611,35.9507111505015],[-84.60533622596226,35.94469773266732],[-84.680711399814,35.90861722566225],[-84.72019363373633,35.99452319472194],[-84.79197951359514,36.059811731207304],[-84.80633668956689,36.090737880068794],[-84.83146174751747,36.08386540254402],[-84.87094398143981,36.137127103361024],[-84.9068369213692,36.15602641655416],[-84.9140155093551,36.20842905768057],[-84.88530115741158,36.23935520654206],[-84.87453327543275,36.2848853701437],[-84.79915810158101,36.29691220581205],[-84.78480092560925,36.32612023529234],[-84.73814010370103,36.3381470709607],[-84.72378292772927,36.375945697346964],[-84.70224716377163,36.370791339203386]]]}},{"type":"Feature","id":"47131","properties":{"name":"Obion","county_fips":"47131","state_abbr":"TN"},"geometry":{"type":"Polygon","coordinates":[[[-89.3467935906359,36.50308653155531],[-89.30013276872768,36.50738183000829],[-88.99863207332074,36.502227471864714],[-88.83352454964549,36.50308653155531],[-88.82634596165961,36.50308653155531],[-88.81557807968079,36.41030808497084],[-88.8873639595396,36.39312689115891],[-88.94838195741957,36.41202620435204],[-88.95914983939839,36.22303307242072],[-88.96273913339132,36.201556580155795],[-89.15297171501715,36.204992818918186],[-89.48318676236762,36.212724356133556],[-89.42934735247353,36.25911357942579],[-89.40422229452294,36.31409339962399],[-89.40422229452294,36.351892026010255],[-89.36115076660766,36.409449025280246],[-89.3467935906359,36.50308653155531]]]}},{"type":"Feature","id":"47133","properties":{"name":"Overton","county_fips":"47133","state_abbr":"TN"},"geometry":{"type":"Polygon","coordinates":[[[-85.49548113621135,36.40343560744607],[-85.4811239602396,36.45412012919129],[-85.4452310203102,36.497932173411726],[-85.39139161041611,36.50480465093651],[-85.337552200522,36.52799926258262],[-85.2837127906279,36.53143550134501],[-85.22269479274793,36.51511336722366],[-85.14731961889619,36.455838248572476],[-85.1221945609456,36.40687184620845],[-85.1221945609456,36.30464374302743],[-85.08271232702327,36.19640222201222],[-85.11860526695267,36.1448586405764],[-85.20474832278323,36.15259017779177],[-85.32319502455024,36.1998384607746],[-85.32678431854318,36.217878714277134],[-85.42010596235961,36.235918967779675],[-85.45240960829608,36.26169075849758],[-85.45958819628196,36.30378468333683],[-85.49548113621135,36.302066563955634],[-85.49548113621135,36.40343560744607]]]}},{"type":"Feature","id":"47135","properties":{"name":"Perry","county_fips":"47135","state_abbr":"TN"},"geometry":{"type":"Polygon","coordinates":[[[-87.9720939913399,35.81583877907779],[-87.9613261093611,35.84075151010509],[-87.91107599345993,35.8381743310333],[-87.85364728957289,35.80381194340943],[-87.8177543496435,35.83645621165211],[-87.71725411784118,35.8390333907239],[-87.74237917579175,35.66378521384213],[-87.65982541395414,35.609664453334524],[-87.65264682596826,35.56842958818588],[-87.68495047190471,35.54781215561155],[-87.69212905989059,35.5057182307723],[-87.71725411784118,35.48338267881678],[-87.80339717367173,35.485100798197976],[-87.99004046130462,35.45331558964589],[-88.00798693126931,35.423248500475],[-88.04387987119871,35.44472499273992],[-87.99004046130462,35.482523619126184],[-87.97568328533285,35.51430882767827],[-88.03670128321284,35.62169128900288],[-88.01875481324812,35.66034897507974],[-88.03311198921989,35.71704691465914],[-87.99004046130462,35.76171801857018],[-87.9720939913399,35.81583877907779]]]}},{"type":"Feature","id":"47137","properties":{"name":"Pickett","county_fips":"47137","state_abbr":"TN"},"geometry":{"type":"Polygon","coordinates":[[[-85.2837127906279,36.53143550134501],[-85.2657663206632,36.57352942618426],[-85.27653420264203,36.62679112700126],[-84.97503350723507,36.6156233510235],[-84.78480092560925,36.60359651535515],[-84.73096151571515,36.524563023820235],[-84.78480092560925,36.524563023820235],[-84.86376539345393,36.57009318742187],[-84.94272986129862,36.58126096339963],[-85.03964079910799,36.55377105330053],[-85.08989091500915,36.49965029279292],[-85.1042480909809,36.41030808497084],[-85.1221945609456,36.40687184620845],[-85.14731961889619,36.455838248572476],[-85.22269479274793,36.51511336722366],[-85.2837127906279,36.53143550134501]]]}},{"type":"Feature","id":"47139","properties":{"name":"Polk","county_fips":"47139","state_abbr":"TN"},"geometry":{"type":"Polygon","coordinates":[[[-84.70224716377163,35.24112784606845],[-84.66635422384223,35.26775869647696],[-84.51560387613875,35.26689963678636],[-84.49406811218113,35.285798949979494],[-84.3576749404494,35.23339630885308],[-84.34331776447765,35.20418827937279],[-84.29306764857648,35.20676545844458],[-84.32178200052,34.988564297032966],[-84.61969340193401,34.988564297032966],[-84.77762233762337,34.98770523734237],[-84.7345508097081,35.081342743617434],[-84.74890798567985,35.085638042070414],[-84.6986578697787,35.1724030708207],[-84.70224716377163,35.24112784606845]]]}},{"type":"Feature","id":"47141","properties":{"name":"Putnam","county_fips":"47141","state_abbr":"TN"},"geometry":{"type":"Polygon","coordinates":[[[-85.77903536165361,36.23763708716086],[-85.63546360193601,36.213583415824154],[-85.5349633701337,36.24279144530445],[-85.49548113621135,36.27973101200011],[-85.49548113621135,36.302066563955634],[-85.45958819628196,36.30378468333683],[-85.45240960829608,36.26169075849758],[-85.42010596235961,36.235918967779675],[-85.32678431854318,36.217878714277134],[-85.32319502455024,36.1998384607746],[-85.20474832278323,36.15259017779177],[-85.11860526695267,36.1448586405764],[-85.10065879698797,36.13884522274222],[-85.15449820688207,36.09932847697476],[-85.2478198506985,36.10104659635596],[-85.24423055670556,36.054657373063726],[-85.2657663206632,35.979060120291194],[-85.31242714257142,35.99280507534075],[-85.30883784857848,36.03146276141761],[-85.50624901819018,36.082147283162826],[-85.56008842808427,36.07355668625686],[-85.58880278002779,36.04091241801417],[-85.61033854398543,36.04606677615776],[-85.64623148391483,36.01514062729627],[-85.68571371783717,36.06496608935089],[-85.72160665776657,36.082147283162826],[-85.77544606766067,36.078711044400436],[-85.80774971359713,36.131972745217446],[-85.77903536165361,36.23763708716086]]]}},{"type":"Feature","id":"47143","properties":{"name":"Rhea","county_fips":"47143","state_abbr":"TN"},"geometry":{"type":"Polygon","coordinates":[[[-84.91760480334803,35.76171801857018],[-84.79915810158101,35.82528843567435],[-84.78121163161632,35.82528843567435],[-84.78839021960219,35.81412065969659],[-84.73814010370103,35.778899212382115],[-84.75608657366574,35.75398648135481],[-84.72378292772927,35.75312742166421],[-84.72378292772927,35.68955700456004],[-84.78121163161632,35.674093930129295],[-84.78121163161632,35.59506043859438],[-84.80992598355984,35.582174543235425],[-84.79556880758807,35.55296651375513],[-84.87453327543275,35.55038933468334],[-84.86017609946099,35.497127633866334],[-84.8960690393904,35.48338267881678],[-84.91042621536215,35.443006873358726],[-84.94631915529155,35.43957063459634],[-84.96785491924919,35.46706054469544],[-85.01810503515034,35.40950354542545],[-85.0683551510515,35.43699345552455],[-85.10065879698797,35.42840285861858],[-85.13655173691737,35.458469947789474],[-85.11501597295972,35.47565114160141],[-85.14731961889619,35.49111421603215],[-85.10065879698797,35.534067200562],[-85.10783738497385,35.571006767257664],[-85.04681938709386,35.6182550502405],[-84.91760480334803,35.76171801857018]]]}},{"type":"Feature","id":"47145","properties":{"name":"Roane","county_fips":"47145","state_abbr":"TN"},"geometry":{"type":"Polygon","coordinates":[[[-84.78121163161632,35.82528843567435],[-84.72737222172222,35.85879176360763],[-84.680711399814,35.90861722566225],[-84.60533622596226,35.94469773266732],[-84.5550861100611,35.9507111505015],[-84.54431822808228,35.96875140400403],[-84.4474072902729,35.985932597815975],[-84.34331776447765,36.048643955229544],[-84.32178200052,35.99194601565015],[-84.27153188461884,35.91033534504344],[-84.26435329663296,35.8965903899939],[-84.28229976659766,35.87511389772897],[-84.32896058850588,35.893154151231506],[-84.34690705847058,35.832160913199125],[-84.37921070440704,35.81755689845898],[-84.38997858638587,35.76859049609495],[-84.41510364433644,35.77632203331033],[-84.49406811218113,35.716187854968545],[-84.51201458214582,35.716187854968545],[-84.52996105211052,35.670657691366905],[-84.58380046200462,35.644026840958404],[-84.61969340193401,35.644885900649],[-84.61969340193401,35.70759725806258],[-84.63763987189871,35.723919392183916],[-84.67353281182811,35.70330195960959],[-84.72378292772927,35.75312742166421],[-84.75608657366574,35.75398648135481],[-84.73814010370103,35.778899212382115],[-84.78839021960219,35.81412065969659],[-84.78121163161632,35.82528843567435]]]}},{"type":"Feature","id":"47147","properties":{"name":"Robertson","county_fips":"47147","state_abbr":"TN"},"geometry":{"type":"Polygon","coordinates":[[[-87.11425272702726,36.64225420143201],[-87.06041331713317,36.64311326112261],[-86.76250191571916,36.64912667895678],[-86.59021580405803,36.65256291771917],[-86.56509074610746,36.63366360452604],[-86.63328733197332,36.5340126804168],[-86.65123380193802,36.47044226331263],[-86.6943053298533,36.40687184620845],[-86.74814473974739,36.41889868187681],[-86.75532332773328,36.405153726827265],[-86.82351991359913,36.35017390662906],[-86.89530579345794,36.38883159270592],[-86.91325226342263,36.382818174871744],[-86.98862743727437,36.36907321982219],[-87.00657390723907,36.39226783146831],[-87.12143131501314,36.455838248572476],[-87.11784202102021,36.55033481453814],[-87.13219919699196,36.563220709897095],[-87.11425272702726,36.64225420143201]]]}},{"type":"Feature","id":"47149","properties":{"name":"Rutherford","county_fips":"47149","state_abbr":"TN"},"geometry":{"type":"Polygon","coordinates":[[[-86.61893015600155,35.967892344313434],[-86.61175156801568,36.00740909008089],[-86.5686800401004,36.03489900018],[-86.54355498214981,36.08644258161581],[-86.52560851218512,36.05723455213551],[-86.5148406302063,36.10018753666536],[-86.32460804858049,35.98507353812538],[-86.25282216872168,35.96101986678866],[-86.15950052490524,35.96359704586045],[-86.15232193691936,35.95414738926389],[-86.14155405494054,35.91463064349643],[-86.17026840688406,35.88456355432554],[-86.18821487684876,35.76343613795137],[-86.20616134681346,35.70416101930019],[-86.2456435807358,35.688697944869446],[-86.2456435807358,35.632000005290045],[-86.34255451854519,35.66464427353273],[-86.41434039840398,35.62340940838408],[-86.4251082803828,35.65261743786437],[-86.49330486624866,35.65777179600796],[-86.5148406302063,35.688697944869446],[-86.63687662596625,35.701583840228395],[-86.6404659199592,35.686120765797654],[-86.68712674186742,35.71017443713436],[-86.70148391783917,35.72220127280272],[-86.66200168391684,35.79092604805047],[-86.61175156801568,35.790066988359875],[-86.6045729800298,35.855355524845244],[-86.62610874398743,35.91548970318703],[-86.61893015600155,35.967892344313434]]]}},{"type":"Feature","id":"47151","properties":{"name":"Scott","county_fips":"47151","state_abbr":"TN"},"geometry":{"type":"Polygon","coordinates":[[[-84.78480092560925,36.60359651535515],[-84.77762233762337,36.60359651535515],[-84.54431822808228,36.59586497813977],[-84.26076400264002,36.59156967968679],[-84.24999612066121,36.5340126804168],[-84.2858890605906,36.50394559124591],[-84.32896058850588,36.50909994938949],[-84.35049635246352,36.46614696485964],[-84.33613917649176,36.38797253301532],[-84.32896058850588,36.2848853701437],[-84.3756214104141,36.259972639116384],[-84.37203211642117,36.21701965458654],[-84.40433576235762,36.174925729747294],[-84.44022870228702,36.16375795376953],[-84.47253234822348,36.20413375922759],[-84.56944328603285,36.236778027470265],[-84.5730325800258,36.26684511664116],[-84.61251481394814,36.27028135540355],[-84.70224716377163,36.370791339203386],[-84.65917563585636,36.3948450105401],[-84.69147928179281,36.43522081599816],[-84.73096151571515,36.524563023820235],[-84.78480092560925,36.60359651535515]]]}},{"type":"Feature","id":"47153","properties":{"name":"Sequatchie","county_fips":"47153","state_abbr":"TN"},"geometry":{"type":"Polygon","coordinates":[[[-85.60674924999249,35.53149002149021],[-85.55649913409134,35.5332081408714],[-85.45958819628196,35.546953095920955],[-85.42369525635256,35.56757052849528],[-85.43446313833138,35.54093967808677],[-85.40215949239492,35.49197327572275],[-85.31601643656437,35.41723508264082],[-85.22628408674086,35.354523725227246],[-85.24423055670556,35.319302277912776],[-85.38780231642316,35.14749033979339],[-85.40215949239492,35.22308759256592],[-85.4452310203102,35.262604338333375],[-85.55649913409134,35.308134501935015],[-85.56008842808427,35.319302277912776],[-85.50624901819018,35.357959963989636],[-85.48471325423255,35.40606730666306],[-85.5349633701337,35.431839097380966],[-85.5349633701337,35.48681891757917],[-85.60674924999249,35.53149002149021]]]}},{"type":"Feature","id":"47155","properties":{"name":"Sevier","county_fips":"47155","state_abbr":"TN"},"geometry":{"type":"Polygon","coordinates":[[[-83.67211978779787,36.03833523894238],[-83.65417331783317,36.04263053739537],[-83.52495873408733,35.96445610555105],[-83.47470861818618,35.9232212404024],[-83.41727991429914,35.93352995668956],[-83.30960109451094,35.8957313303033],[-83.30960109451094,35.87167765896658],[-83.26294027260272,35.82013407753077],[-83.28806533055331,35.79522134650346],[-83.27370815458154,35.76944955578555],[-83.27729744857449,35.71361067589675],[-83.25576168461684,35.71532879527795],[-83.25576168461684,35.69642948208482],[-83.31319038850388,35.655194616936164],[-83.34908332843328,35.66120803477034],[-83.36702979839798,35.638872482814826],[-83.44599426624266,35.61138257271572],[-83.48547650016499,35.56842958818588],[-83.58238743797438,35.562416170351696],[-83.60392320193202,35.57959736416363],[-83.66135190581906,35.569288647876476],[-83.66135190581906,35.690416064250634],[-83.70442343373433,35.71189255651556],[-83.79415578355783,35.88714073339733],[-83.66853049380494,35.96187892647926],[-83.67211978779787,36.03833523894238]]]}},{"type":"Feature","id":"47157","properties":{"name":"Shelby","county_fips":"47157","state_abbr":"TN"},"geometry":{"type":"Polygon","coordinates":[[[-90.0754202712027,35.38373175470754],[-90.057473801238,35.40349012759127],[-90.05029521325213,35.407785426044256],[-90.04311662526625,35.396617650066496],[-89.77750886978869,35.38802705316053],[-89.77750886978869,35.405208246972464],[-89.70213369593695,35.408644485734854],[-89.70213369593695,35.388886112851125],[-89.6339371100711,35.37600021749217],[-89.64470499204991,34.99543677455774],[-89.7236694598946,34.99543677455774],[-90.3087243807438,34.99543677455774],[-90.29795649876499,35.03753069939699],[-90.20822414894148,35.02636292341923],[-90.17592050300503,35.112268892478916],[-90.14361685706857,35.13460444443444],[-90.10054532915329,35.1165641909319],[-90.0646523892239,35.13804068319683],[-90.11849179911799,35.18786614525145],[-90.0754202712027,35.22480571194711],[-90.09695603516035,35.24971844297443],[-90.15079544505444,35.2557318608086],[-90.16515262102621,35.29610766626666],[-90.10772391713917,35.304698263172625],[-90.10772391713917,35.343355949249485],[-90.0754202712027,35.38373175470754]]]}},{"type":"Feature","id":"47159","properties":{"name":"Smith","county_fips":"47159","state_abbr":"TN"},"geometry":{"type":"Polygon","coordinates":[[[-85.98003582525826,36.425771159401584],[-85.82928547755478,36.41202620435204],[-85.84723194751948,36.28832160890608],[-85.82928547755478,36.255677340663404],[-85.77903536165361,36.23763708716086],[-85.80774971359713,36.131972745217446],[-85.8400533595336,36.128536506455056],[-85.86517841748417,36.094174118831184],[-85.91183923939239,36.116509670786705],[-85.91183923939239,36.09761035759357],[-85.95850006130061,36.11049625295252],[-85.98721441324413,36.087301641306404],[-86.05900029310293,36.08644258161581],[-86.13796476094761,36.29605314612146],[-86.08053605706057,36.355328264772645],[-86.03746452914528,36.38195911518115],[-85.98362511925119,36.39570407023069],[-85.98003582525826,36.425771159401584]]]}},{"type":"Feature","id":"47161","properties":{"name":"Stewart","county_fips":"47161","state_abbr":"TN"},"geometry":{"type":"Polygon","coordinates":[[[-88.06900492914929,36.67833470843708],[-87.85005799557995,36.663730693696934],[-87.85364728957289,36.63366360452604],[-87.69571835388354,36.637099843288425],[-87.64187894398944,36.63795890297902],[-87.59162882808828,36.367355100440996],[-87.71725411784118,36.36821416013159],[-87.75673635176351,36.34330142910429],[-87.82134364363644,36.328697414364136],[-87.89312952349523,36.33471083219832],[-87.9792725793258,36.35361014539145],[-87.99004046130462,36.36048262291622],[-88.06182634116341,36.443811412904125],[-88.05464775317753,36.49707311372113],[-88.03311198921989,36.552052933919335],[-88.06900492914929,36.67833470843708]]]}},{"type":"Feature","id":"47163","properties":{"name":"Sullivan","county_fips":"47163","state_abbr":"TN"},"geometry":{"type":"Polygon","coordinates":[[[-82.60968876588765,36.594146858758585],[-82.29383089450894,36.59586497813977],[-82.24358077860778,36.59586497813977],[-82.14666984079841,36.595005918449175],[-81.93490149521494,36.594146858758585],[-81.92413361323612,36.6164824107141],[-81.82722267542675,36.61390523164231],[-81.92772290722907,36.567516008350076],[-81.98515161111611,36.50824088969889],[-82.0389910210102,36.48590533774337],[-82.18974136871368,36.39999936868368],[-82.25075936659367,36.41975774156741],[-82.30100948249482,36.39656312992129],[-82.36920606836068,36.40343560744607],[-82.40509900829008,36.436938935379345],[-82.4517598301983,36.443811412904125],[-82.60251017790178,36.4231939803298],[-82.66352817578175,36.44209329352293],[-82.68147464574645,36.43178457723577],[-82.70301040970409,36.455838248572476],[-82.62763523585235,36.495354994339934],[-82.60968876588765,36.51940866567665],[-82.60968876588765,36.594146858758585]]]}},{"type":"Feature","id":"47165","properties":{"name":"Sumner","county_fips":"47165","state_abbr":"TN"},"geometry":{"type":"Polygon","coordinates":[[[-86.56509074610746,36.63366360452604],[-86.50766204222042,36.65256291771917],[-86.41075110441103,36.65084479833798],[-86.20616134681346,36.63967702236022],[-86.2276971107711,36.48762345712456],[-86.23846499274993,36.451542950119496],[-86.26717934469345,36.45326106950069],[-86.27076863868638,36.35876450353503],[-86.2815365206652,36.34759672755727],[-86.2994829906299,36.3123752802428],[-86.36050098850988,36.3115162205522],[-86.34614381253812,36.32955647405473],[-86.37844745847458,36.35103296631966],[-86.3892153404534,36.309798101171005],[-86.45023333833338,36.335569891888916],[-86.5148406302063,36.298630325193244],[-86.54355498214981,36.320965877148765],[-86.59380509805098,36.24536862437624],[-86.6404659199592,36.254818280972806],[-86.6404659199592,36.28832160890608],[-86.71943038780387,36.34244236941369],[-86.75532332773328,36.405153726827265],[-86.74814473974739,36.41889868187681],[-86.6943053298533,36.40687184620845],[-86.65123380193802,36.47044226331263],[-86.63328733197332,36.5340126804168],[-86.56509074610746,36.63366360452604]]]}},{"type":"Feature","id":"47167","properties":{"name":"Tipton","county_fips":"47167","state_abbr":"TN"},"geometry":{"type":"MultiPolygon","coordinates":[[[[-89.91031274752747,35.53836249901499],[-89.87083051360513,35.58131548354483],[-89.75956239982399,35.65004025879258],[-89.72725875388754,35.63629530374303],[-89.6518835800358,35.64832213941139],[-89.53343687826877,35.60279197580975],[-89.50113323233232,35.58045642385423],[-89.46882958639586,35.546953095920955],[-89.4724188803888,35.40263106790067],[-89.59804417014169,35.3948995306853],[-89.6339371100711,35.37600021749217],[-89.70213369593695,35.388886112851125],[-89.70213369593695,35.408644485734854],[-89.77750886978869,35.405208246972464],[-89.77750886978869,35.38802705316053],[-90.04311662526625,35.396617650066496],[-90.05029521325213,35.407785426044256],[-90.01799156731568,35.46791960438604],[-90.05029521325213,35.50400011139111],[-90.03234874328743,35.55382557344573],[-90.00004509735096,35.5615571106611],[-89.92108062950629,35.51344976798767],[-89.91031274752747,35.53836249901499]]],[[[-90.14002756307562,35.43613439583395],[-90.08618815318152,35.4790873803638],[-90.057473801238,35.40349012759127],[-90.0754202712027,35.38373175470754],[-90.12925968109681,35.41379884387843],[-90.13643826908269,35.37685927718277],[-90.17950979699796,35.382013635326345],[-90.16874191501914,35.4215303810938],[-90.14002756307562,35.43613439583395]]]]}},{"type":"Feature","id":"47169","properties":{"name":"Trousdale","county_fips":"47169","state_abbr":"TN"},"geometry":{"type":"Polygon","coordinates":[[[-86.2815365206652,36.34759672755727],[-86.27076863868638,36.35876450353503],[-86.26717934469345,36.45326106950069],[-86.23846499274993,36.451542950119496],[-86.2276971107711,36.48762345712456],[-86.1918041708417,36.482469098980985],[-86.16667911289113,36.44467047259472],[-85.98003582525826,36.425771159401584],[-85.98362511925119,36.39570407023069],[-86.03746452914528,36.38195911518115],[-86.08053605706057,36.355328264772645],[-86.13796476094761,36.29605314612146],[-86.20616134681346,36.34244236941369],[-86.2456435807358,36.33642895157951],[-86.24923287472875,36.305502802718024],[-86.2815365206652,36.34759672755727]]]}},{"type":"Feature","id":"47171","properties":{"name":"Unicoi","county_fips":"47171","state_abbr":"TN"},"geometry":{"type":"Polygon","coordinates":[[[-82.60251017790178,36.040053358323576],[-82.5773851199512,36.078711044400436],[-82.5953315899159,36.09589223821238],[-82.52713500405004,36.14915393902938],[-82.43740265422655,36.15430829717297],[-82.36920606836068,36.21186529644296],[-82.34049171641716,36.25310016159161],[-82.31895595245952,36.259972639116384],[-82.25793795457955,36.23334178870788],[-82.26870583655837,36.210147177061764],[-82.22922360263603,36.190388804178035],[-82.22204501465015,36.15688547624475],[-82.24717007260072,36.13111368552685],[-82.290241600516,36.135408983979836],[-82.35125959839598,36.117368730477295],[-82.4158668902689,36.07269762656626],[-82.45893841818418,36.00740909008089],[-82.5055992400924,35.97734200091001],[-82.5594386499865,35.95414738926389],[-82.6132780598806,35.971328583075824],[-82.60251017790178,36.040053358323576]]]}},{"type":"Feature","id":"47173","properties":{"name":"Union","county_fips":"47173","state_abbr":"TN"},"geometry":{"type":"Polygon","coordinates":[[[-84.00592412914129,36.27028135540355],[-83.97362048320483,36.298630325193244],[-83.9700311892119,36.35446920508205],[-83.9520847192472,36.40085842837428],[-83.91978107331073,36.38797253301532],[-83.90542389733898,36.41975774156741],[-83.86235236942369,36.43436175630756],[-83.83363801748017,36.41975774156741],[-83.80492366553665,36.43607987568875],[-83.7654414316143,36.39914030899308],[-83.73313778567785,36.34501954848548],[-83.69724484574846,36.36563698105981],[-83.66853049380494,36.344160488794884],[-83.70442343373433,36.27285853447534],[-83.70083413974139,36.20756999798997],[-83.73313778567785,36.16461701346013],[-83.92337036730368,36.16977137160371],[-83.94131683726837,36.186093505725054],[-83.9700311892119,36.210147177061764],[-84.00592412914129,36.27028135540355]]]}},{"type":"Feature","id":"47175","properties":{"name":"Van Buren","county_fips":"47175","state_abbr":"TN"},"geometry":{"type":"Polygon","coordinates":[[[-85.60315995599956,35.79522134650346],[-85.57085631006309,35.80638912248122],[-85.52060619416194,35.79178510774107],[-85.44882031430313,35.82185219691196],[-85.36267725847259,35.796939465884655],[-85.2657663206632,35.82185219691196],[-85.26935561465615,35.793503227122265],[-85.27294490864908,35.78748980928809],[-85.25499843868438,35.76687237671376],[-85.25499843868438,35.766013317023166],[-85.2657663206632,35.72134221311212],[-85.42369525635256,35.56757052849528],[-85.45958819628196,35.546953095920955],[-85.55649913409134,35.5332081408714],[-85.59598136801368,35.6182550502405],[-85.60674924999249,35.708456317753175],[-85.59239207402074,35.75398648135481],[-85.61392783797838,35.76085895887958],[-85.60315995599956,35.79522134650346]]]}},{"type":"Feature","id":"47177","properties":{"name":"Warren","county_fips":"47177","state_abbr":"TN"},"geometry":{"type":"Polygon","coordinates":[[[-85.88671418144182,35.839892450414496],[-85.75032100971009,35.85020116670166],[-85.68212442384423,35.83130185350853],[-85.60315995599956,35.79522134650346],[-85.61392783797838,35.76085895887958],[-85.59239207402074,35.75398648135481],[-85.60674924999249,35.708456317753175],[-85.59598136801368,35.6182550502405],[-85.55649913409134,35.5332081408714],[-85.60674924999249,35.53149002149021],[-85.70366018780187,35.52891284241842],[-85.82210688956889,35.504859171081705],[-85.875946299463,35.523758484274836],[-85.94773217932179,35.57358394632946],[-85.95491076730767,35.61997316962169],[-85.98362511925119,35.66034897507974],[-85.99798229522295,35.71189255651556],[-85.91542853338532,35.82271125660256],[-85.88671418144182,35.839892450414496]]]}},{"type":"Feature","id":"47179","properties":{"name":"Washington","county_fips":"47179","state_abbr":"TN"},"geometry":{"type":"Polygon","coordinates":[[[-82.68147464574645,36.43178457723577],[-82.66352817578175,36.44209329352293],[-82.60251017790178,36.4231939803298],[-82.4517598301983,36.443811412904125],[-82.40509900829008,36.436938935379345],[-82.36920606836068,36.40343560744607],[-82.30100948249482,36.39656312992129],[-82.30100948249482,36.370791339203386],[-82.34049171641716,36.25310016159161],[-82.36920606836068,36.21186529644296],[-82.43740265422655,36.15430829717297],[-82.52713500405004,36.14915393902938],[-82.5953315899159,36.09589223821238],[-82.64917099981,36.1465767599576],[-82.6312245298453,36.41889868187681],[-82.70301040970409,36.41030808497084],[-82.68147464574645,36.43178457723577]]]}},{"type":"Feature","id":"47181","properties":{"name":"Wayne","county_fips":"47181","state_abbr":"TN"},"geometry":{"type":"Polygon","coordinates":[[[-88.02593340123401,35.39232235161351],[-87.9792725793258,35.3948995306853],[-88.00798693126931,35.423248500475],[-87.99004046130462,35.45331558964589],[-87.80339717367173,35.485100798197976],[-87.71725411784118,35.48338267881678],[-87.64546823798237,35.47307396252962],[-87.64546823798237,35.44214781366813],[-87.60598600406004,35.43613439583395],[-87.57368235812358,35.39833576944769],[-87.57368235812358,35.19044332432324],[-87.59162882808828,35.14233598164981],[-87.58803953409534,35.058148131971315],[-87.60598600406004,35.00402737146371],[-87.98645116731167,35.0057454908449],[-87.98286187331873,35.29524860657606],[-88.01875481324812,35.29954390502905],[-88.00439763727637,35.351087486464856],[-88.02593340123401,35.39232235161351]]]}},{"type":"Feature","id":"47183","properties":{"name":"Weakley","county_fips":"47183","state_abbr":"TN"},"geometry":{"type":"Polygon","coordinates":[[[-88.82634596165961,36.50308653155531],[-88.81557807968079,36.50308653155531],[-88.51766667826678,36.501368412174116],[-88.53202385423855,36.151731118101175],[-88.53202385423855,36.11565061109611],[-88.65405984999849,36.117368730477295],[-88.65405984999849,36.06410702966029],[-88.69354208392083,36.0623889102791],[-88.76532796377964,36.11221437233372],[-88.84070313763138,36.12338214831148],[-88.89454254752548,36.17664384912848],[-88.95914983939839,36.22303307242072],[-88.94838195741957,36.41202620435204],[-88.8873639595396,36.39312689115891],[-88.81557807968079,36.41030808497084],[-88.82634596165961,36.50308653155531]]]}},{"type":"Feature","id":"47185","properties":{"name":"White","county_fips":"47185","state_abbr":"TN"},"geometry":{"type":"MultiPolygon","coordinates":[[[[-85.27294490864908,35.78748980928809],[-85.25499843868438,35.76687237671376],[-85.27294490864908,35.78748980928809],[-85.27294490864908,35.78748980928809]]],[[[-85.68212442384423,35.83130185350853],[-85.63546360193601,35.85363740546405],[-85.67135654186542,35.85621458453584],[-85.63905289592896,35.881986375253746],[-85.66417795387953,35.971328583075824],[-85.64623148391483,36.01514062729627],[-85.61033854398543,36.04606677615776],[-85.58880278002779,36.04091241801417],[-85.56008842808427,36.07355668625686],[-85.50624901819018,36.082147283162826],[-85.30883784857848,36.03146276141761],[-85.31242714257142,35.99280507534075],[-85.2657663206632,35.979060120291194],[-85.24423055670556,35.912912524115235],[-85.21192691076911,35.91033534504344],[-85.24064126271263,35.809825361243604],[-85.26935561465615,35.793503227122265],[-85.2657663206632,35.82185219691196],[-85.36267725847259,35.796939465884655],[-85.44882031430313,35.82185219691196],[-85.52060619416194,35.79178510774107],[-85.57085631006309,35.80638912248122],[-85.60315995599956,35.79522134650346],[-85.68212442384423,35.83130185350853]]]]}},{"type":"Feature","id":"47187","properties":{"name":"Williamson","county_fips":"47187","state_abbr":"TN"},"geometry":{"type":"Polygon","coordinates":[[[-87.20398507685077,35.959301747407466],[-87.18244931289313,36.04950301492014],[-87.05323472914729,36.04520771646716],[-87.03887755317552,35.98936883657836],[-86.92760943939439,36.05293925368253],[-86.79121626766268,36.03661711956119],[-86.61893015600155,35.967892344313434],[-86.62610874398743,35.91548970318703],[-86.6045729800298,35.855355524845244],[-86.61175156801568,35.790066988359875],[-86.66200168391684,35.79092604805047],[-86.70148391783917,35.72220127280272],[-86.68712674186742,35.71017443713436],[-86.78044838568385,35.70673819837198],[-86.84505567755677,35.72477845187451],[-87.0352882591826,35.79608040619406],[-87.21475295882958,35.851060226392256],[-87.20398507685077,35.959301747407466]]]}},{"type":"Feature","id":"47189","properties":{"name":"Wilson","county_fips":"47189","state_abbr":"TN"},"geometry":{"type":"Polygon","coordinates":[[[-86.59380509805098,36.24536862437624],[-86.54355498214981,36.320965877148765],[-86.5148406302063,36.298630325193244],[-86.45023333833338,36.335569891888916],[-86.3892153404534,36.309798101171005],[-86.37844745847458,36.35103296631966],[-86.34614381253812,36.32955647405473],[-86.36050098850988,36.3115162205522],[-86.2994829906299,36.3123752802428],[-86.2815365206652,36.34759672755727],[-86.24923287472875,36.305502802718024],[-86.2456435807358,36.33642895157951],[-86.20616134681346,36.34244236941369],[-86.13796476094761,36.29605314612146],[-86.05900029310293,36.08644258161581],[-86.01592876518765,35.96101986678866],[-86.0841253510535,35.96531516524165],[-86.15232193691936,35.95414738926389],[-86.15950052490524,35.96359704586045],[-86.25282216872168,35.96101986678866],[-86.32460804858049,35.98507353812538],[-86.5148406302063,36.10018753666536],[-86.52919780617806,36.140563342123414],[-86.57226933409333,36.174066670056696],[-86.59380509805098,36.24536862437624]]]}}]}