{"type":"FeatureCollection","features":[{"type":"Feature","id":"49001","properties":{"name":"Beaver","county_fips":"49001","state_abbr":"UT"},"geometry":{"type":"Polygon","coordinates":[[[-114.05190414404143,38.57256132620326],[-113.04690182601826,38.57256132620326],[-112.51568631506315,38.57256132620326],[-112.51927560905608,38.51070902848028],[-112.51927560905608,38.47978287961879],[-112.45466831718316,38.42909835787357],[-112.44390043520434,38.40590374622746],[-112.40441820128201,38.415353402824024],[-112.33622161541615,38.33288367252672],[-112.3505787913879,38.2821991507815],[-112.37929314333142,38.24440052439524],[-112.3577573793738,38.22464215151151],[-112.42595396523964,38.180830107291065],[-112.44390043520434,38.149903958429576],[-112.47979337513374,38.14732677935779],[-113.25508087760878,38.14904489873898],[-114.0483148500485,38.14904489873898],[-114.05190414404143,38.57256132620326]]]}},{"type":"Feature","id":"49003","properties":{"name":"Box Elder","county_fips":"49003","state_abbr":"UT"},"geometry":{"type":"Polygon","coordinates":[[[-114.04113626206261,41.99333701416013],[-113.82218932849328,41.988182656016555],[-113.00024100411004,41.99849137230372],[-112.19264985569855,42.0010685513755],[-112.16393550375503,41.99677325292252],[-112.12086397583975,41.92804847767477],[-112.05266738997389,41.865337120261195],[-112.00959586205862,41.79489422563225],[-112.05266738997389,41.70039765966659],[-112.0167744500445,41.66259903328032],[-112.00600656806567,41.59215613865138],[-111.9808815101151,41.53374007969079],[-111.9449885701857,41.552639392883925],[-111.91268492424923,41.5320219603096],[-111.87679198431984,41.4744649610396],[-111.91627421824218,41.460720005990055],[-111.88397057230571,41.426357618366175],[-111.91627421824218,41.41261266331663],[-111.97370292212922,41.420344200532],[-111.9629350401504,41.365364380333794],[-112.03472092000919,41.3361563508535],[-112.23931067760677,41.3361563508535],[-112.4941505511055,41.076720324293234],[-112.7992405405054,41.00026401183011],[-113.20124146771467,41.00026401183011],[-114.04113626206261,41.00026401183011],[-114.04113626206261,41.99333701416013]]]}},{"type":"Feature","id":"49005","properties":{"name":"Cache","county_fips":"49005","state_abbr":"UT"},"geometry":{"type":"Polygon","coordinates":[[[-112.16393550375503,41.99677325292252],[-112.11009609386093,41.99763231261312],[-111.50709470304703,41.999350431994316],[-111.47120176311762,41.92804847767477],[-111.50350540905409,41.91344446293462],[-111.50709470304703,41.85245122490224],[-111.46043388113881,41.81722977758777],[-111.4424874111741,41.73647816667166],[-111.41736235322352,41.71242449533494],[-111.4245409412094,41.676343988329876],[-111.40300517725177,41.65916279451794],[-111.42813023520235,41.61792792936929],[-111.43171952919529,41.553498452574516],[-111.47838035110351,41.503672990519895],[-111.51068399703996,41.42292137960379],[-111.61836281682817,41.422062319913195],[-111.65425575675756,41.407458305173044],[-111.69732728467284,41.41690796176961],[-111.72604163661636,41.37567309662096],[-111.76193457654576,41.368800619096184],[-111.79782751647515,41.3919952307423],[-111.86961339633396,41.398867708267076],[-111.88397057230571,41.426357618366175],[-111.91627421824218,41.460720005990055],[-111.87679198431984,41.4744649610396],[-111.91268492424923,41.5320219603096],[-111.9449885701857,41.552639392883925],[-111.9808815101151,41.53374007969079],[-112.00600656806567,41.59215613865138],[-112.0167744500445,41.66259903328032],[-112.05266738997389,41.70039765966659],[-112.00959586205862,41.79489422563225],[-112.05266738997389,41.865337120261195],[-112.12086397583975,41.92804847767477],[-112.16393550375503,41.99677325292252]]]}},{"type":"Feature","id":"49007","properties":{"name":"Carbon","county_fips":"49007","state_abbr":"UT"},"geometry":{"type":"Polygon","coordinates":[[[-111.24866553555535,39.813043519425186],[-110.8574324903249,39.813043519425186],[-110.51644956099561,39.81132540004399],[-110.51644956099561,39.80703010159101],[-109.97805546205461,39.80617104190041],[-109.88473381823817,39.80617104190041],[-109.92062675816757,39.786412669016684],[-109.92780534615345,39.75033216201162],[-109.99241263802638,39.70308387902878],[-109.98523405004049,39.66442619295192],[-110.0390734599346,39.566493388223876],[-110.01394840198401,39.49175519514195],[-110.02471628396283,39.46941964318643],[-110.4985030910309,39.46941964318643],[-111.07637942389424,39.46941964318643],[-111.08355801188011,39.52182228431283],[-111.11586165781657,39.551889373483725],[-111.13380812778126,39.613741671206704],[-111.15893318573185,39.59570141770417],[-111.18764753767537,39.619755089040886],[-111.21995118361183,39.69191610305102],[-111.24866553555535,39.70394293871938],[-111.24866553555535,39.813043519425186]]]}},{"type":"Feature","id":"49009","properties":{"name":"Daggett","county_fips":"49009","state_abbr":"UT"},"geometry":{"type":"Polygon","coordinates":[[[-109.99959122601226,40.99768683275832],[-109.536572300923,40.99854589244892],[-109.04842831788318,41.00026401183011],[-109.04842831788318,40.66265355342553],[-109.12380349173492,40.66265355342553],[-109.15969643166432,40.68413004569045],[-109.16328572565725,40.78635814887148],[-109.20276795957959,40.78549908918089],[-109.20276795957959,40.85851916288162],[-109.39300054120541,40.85851916288162],[-109.39300054120541,40.790653447324466],[-109.4827328910289,40.740827985269846],[-109.51144724297242,40.75113670155701],[-109.52580441894419,40.826733954329534],[-109.57246524085241,40.81298899927999],[-109.63348323873238,40.81556617835178],[-109.67655476664766,40.794948745777454],[-109.7519299404994,40.802680282992824],[-109.76628711647116,40.782921910109096],[-109.87037664226642,40.764022596915964],[-109.97805546205461,40.8095527605176],[-109.99959122601226,40.813848058970585],[-109.99959122601226,40.99768683275832]]]}},{"type":"Feature","id":"49011","properties":{"name":"Davis","county_fips":"49011","state_abbr":"UT"},"geometry":{"type":"Polygon","coordinates":[[[-111.8552562203622,41.13943168170681],[-111.85166692636926,41.06641160800607],[-111.8373097503975,41.02259956378563],[-111.77629175251752,40.95902914668146],[-111.81577398643986,40.95988820637206],[-111.76911316453163,40.872264117931174],[-111.74039881258813,40.86109634195341],[-111.86961339633396,40.821579596185956],[-111.9449885701857,40.82243865587655],[-111.97011362813627,40.88686813267132],[-111.95934574615745,40.922089579985794],[-112.00959586205862,40.9212305202952],[-112.14957832778327,40.84649232721326],[-112.26084644156441,40.76917695505954],[-112.4941505511055,41.076720324293234],[-112.18547126771267,41.15317663675636],[-111.97011362813627,41.152317577065766],[-111.91268492424923,41.13513638325382],[-111.8552562203622,41.13943168170681]]]}},{"type":"Feature","id":"49013","properties":{"name":"Duchesne","county_fips":"49013","state_abbr":"UT"},"geometry":{"type":"Polygon","coordinates":[[[-110.90050401824017,40.67811662785627],[-110.8933254302543,40.7262239705297],[-110.8035930804308,40.71247901548015],[-110.7497536705367,40.74770046279462],[-110.65643202672027,40.73996892557925],[-110.6241283807838,40.76917695505954],[-110.6061819108191,40.757150119391184],[-110.52362814898149,40.76144541784417],[-110.48414591505914,40.779485671346706],[-110.37287780127801,40.78893532794327],[-110.34057415534154,40.82329771556715],[-110.29391333343332,40.833606431854314],[-110.16110945569456,40.82072053649536],[-110.10009145781457,40.8078346411364],[-109.99959122601226,40.813848058970585],[-109.97805546205461,40.8095527605176],[-109.97805546205461,39.80617104190041],[-110.51644956099561,39.80703010159101],[-110.51644956099561,39.81132540004399],[-110.8574324903249,39.813043519425186],[-110.8574324903249,39.89980854817548],[-110.8933254302543,39.89980854817548],[-110.89691472424724,40.082788262272615],[-110.89691472424724,40.43156649665496],[-110.90409331223312,40.43156649665496],[-110.90050401824017,40.67811662785627]]]}},{"type":"Feature","id":"49015","properties":{"name":"Emery","county_fips":"49015","state_abbr":"UT"},"geometry":{"type":"Polygon","coordinates":[[[-111.29891565145651,39.0321582606726],[-111.29891565145651,39.294171466304654],[-111.30250494544944,39.466842464114634],[-111.24866553555535,39.466842464114634],[-111.24866553555535,39.70394293871938],[-111.21995118361183,39.69191610305102],[-111.18764753767537,39.619755089040886],[-111.15893318573185,39.59570141770417],[-111.13380812778126,39.613741671206704],[-111.11586165781657,39.551889373483725],[-111.08355801188011,39.52182228431283],[-111.07637942389424,39.46941964318643],[-110.4985030910309,39.46941964318643],[-110.02471628396283,39.46941964318643],[-110.01035910799108,39.416157942369416],[-110.03548416594165,39.34915128650286],[-110.07855569385693,39.27613121280212],[-110.05343063590635,39.228023870128695],[-110.07855569385693,39.2263057507475],[-110.11444863378634,39.15242661735617],[-110.10009145781457,39.136104483234824],[-110.14675227972279,39.077688424274236],[-110.15752016170161,39.0330173203632],[-110.09650216382163,38.98662809707096],[-110.04266275392753,38.99350057459574],[-110.00318052000519,38.9496885303753],[-110.04266275392753,38.9496885303753],[-110.06778781187812,38.97889655985559],[-110.13957369173691,38.966010664496636],[-110.16110945569456,38.88783623265232],[-110.13598439774397,38.834574531835315],[-110.10368075180752,38.80708462173621],[-110.11444863378634,38.7821718907089],[-110.08573428184282,38.75124574184741],[-110.12162722177221,38.711728996079955],[-110.08573428184282,38.70571557824577],[-110.08932357583575,38.67393036969369],[-110.03548416594165,38.654171996809964],[-110.05343063590635,38.60520559444594],[-109.99959122601226,38.61723243011429],[-109.99600193201931,38.59489687815878],[-110.04625204792048,38.595755937849376],[-110.05343063590635,38.577715684346835],[-109.98882334403343,38.565688848678484],[-109.99959122601226,38.52187680445804],[-110.02471628396283,38.500400312193115],[-110.54516391293912,38.500400312193115],[-111.30609423944239,38.500400312193115],[-111.30609423944239,38.50984996878968],[-111.30609423944239,38.6722122503125],[-111.29891565145651,38.6722122503125],[-111.29891565145651,39.0321582606726]]]}},{"type":"Feature","id":"49017","properties":{"name":"Garfield","county_fips":"49017","state_abbr":"UT"},"geometry":{"type":"Polygon","coordinates":[[[-112.47979337513374,38.14732677935779],[-112.44390043520434,38.149903958429576],[-112.05984597795977,38.145608659976595],[-111.84448833838337,38.15162207781077],[-111.63630928679287,38.149903958429576],[-111.41377305923059,38.15419925688256],[-110.68873567265672,38.15162207781077],[-109.92780534615345,38.15162207781077],[-109.98882334403343,38.100078496374955],[-110.01753769597696,38.10609191420914],[-110.06419851788517,38.04166243741437],[-110.074966399864,38.00128663195631],[-110.13239510375104,38.0064409900999],[-110.20418098360983,37.93943433423333],[-110.21853815958158,37.8930451109411],[-110.26878827548275,37.89819946908469],[-110.2831454514545,37.8664142605326],[-110.30109192141921,37.88960887217871],[-110.40159215322153,37.881018275272744],[-110.43389579915798,37.81401161940619],[-110.47696732707327,37.80112572404723],[-110.4626101511015,37.77191769456694],[-110.43030650516505,37.77105863487634],[-110.48414591505914,37.70491103870038],[-110.4985030910309,37.65852181540815],[-110.56311038290383,37.634468144071434],[-110.60259261682616,37.60182387582875],[-110.61336049880498,37.564884309133085],[-110.64566414474145,37.54083063779637],[-111.01177213202132,37.53997157810578],[-111.81577398643986,37.53997157810578],[-111.84448833838337,37.53567627965279],[-112.16393550375503,37.53653533934339],[-112.36134667336673,37.54340781686816],[-112.68438313273133,37.54340781686816],[-112.68797242672426,37.80542102250022],[-112.58029360693607,37.80456196280962],[-112.57670431294312,37.88187733496334],[-112.58747219492194,37.89046793186931],[-112.46902549315493,37.89046793186931],[-112.46543619916199,37.9772329606196],[-112.47979337513374,37.9780920203102],[-112.47979337513374,38.14732677935779]]]}},{"type":"Feature","id":"49019","properties":{"name":"Grand","county_fips":"49019","state_abbr":"UT"},"geometry":{"type":"Polygon","coordinates":[[[-110.02471628396283,39.46941964318643],[-109.1058570217702,39.46168810597106],[-109.0879105518055,39.49261425483254],[-109.05201761187611,39.497768612976124],[-109.05201761187611,39.366332480314796],[-109.05201761187611,38.905017426464255],[-109.05919619986199,38.719460533295326],[-109.05919619986199,38.500400312193115],[-109.47555430304303,38.49954125250252],[-110.02471628396283,38.500400312193115],[-109.99959122601226,38.52187680445804],[-109.98882334403343,38.565688848678484],[-110.05343063590635,38.577715684346835],[-110.04625204792048,38.595755937849376],[-109.99600193201931,38.59489687815878],[-109.99959122601226,38.61723243011429],[-110.05343063590635,38.60520559444594],[-110.03548416594165,38.654171996809964],[-110.08932357583575,38.67393036969369],[-110.08573428184282,38.70571557824577],[-110.12162722177221,38.711728996079955],[-110.08573428184282,38.75124574184741],[-110.11444863378634,38.7821718907089],[-110.10368075180752,38.80708462173621],[-110.13598439774397,38.834574531835315],[-110.16110945569456,38.88783623265232],[-110.13957369173691,38.966010664496636],[-110.06778781187812,38.97889655985559],[-110.04266275392753,38.9496885303753],[-110.00318052000519,38.9496885303753],[-110.04266275392753,38.99350057459574],[-110.09650216382163,38.98662809707096],[-110.15752016170161,39.0330173203632],[-110.14675227972279,39.077688424274236],[-110.10009145781457,39.136104483234824],[-110.11444863378634,39.15242661735617],[-110.07855569385693,39.2263057507475],[-110.05343063590635,39.228023870128695],[-110.07855569385693,39.27613121280212],[-110.03548416594165,39.34915128650286],[-110.01035910799108,39.416157942369416],[-110.02471628396283,39.46941964318643]]]}},{"type":"Feature","id":"49021","properties":{"name":"Iron","county_fips":"49021","state_abbr":"UT"},"geometry":{"type":"Polygon","coordinates":[[[-114.0483148500485,38.14904489873898],[-113.25508087760878,38.14904489873898],[-112.47979337513374,38.14732677935779],[-112.47979337513374,37.9780920203102],[-112.46543619916199,37.9772329606196],[-112.46902549315493,37.89046793186931],[-112.58747219492194,37.89046793186931],[-112.57670431294312,37.88187733496334],[-112.58029360693607,37.80456196280962],[-112.68797242672426,37.80542102250022],[-112.68438313273133,37.54340781686816],[-112.89974077230772,37.54340781686816],[-112.89974077230772,37.49959577264772],[-113.03613394403943,37.49959577264772],[-113.03613394403943,37.47468304162041],[-113.25508087760878,37.48241457883578],[-113.25508087760878,37.52880380212802],[-113.4740278111781,37.52880380212802],[-113.4740278111781,37.618146009950095],[-113.58888521895219,37.618146009950095],[-113.58888521895219,37.60440105490054],[-114.05190414404143,37.60440105490054],[-114.0483148500485,37.76590427673276],[-114.05190414404143,37.99956851257512],[-114.0483148500485,38.14904489873898]]]}},{"type":"Feature","id":"49023","properties":{"name":"Juab","county_fips":"49023","state_abbr":"UT"},"geometry":{"type":"Polygon","coordinates":[[[-114.0483148500485,39.905821966009654],[-113.24790228962289,39.90496290631906],[-112.34340020340203,39.90410384662846],[-112.33981090940908,39.944479652086514],[-112.27161432354323,39.939325293942936],[-112.22495350163501,39.98915075599756],[-112.1782926797268,40.01148630795307],[-112.11009609386093,39.97368768156681],[-112.10291750587506,39.92901657765577],[-112.05266738997389,39.893795130341296],[-112.08138174191741,39.8654461605516],[-112.06702456594566,39.82936565354653],[-112.08856032990329,39.7821173705637],[-112.04548880198801,39.77696301242012],[-111.97011362813627,39.80703010159101],[-111.9090956302563,39.89465419003189],[-111.83372045640456,39.924721279202785],[-111.82654186841867,39.947915890848904],[-111.73680951859518,39.863728041170404],[-111.7655238705387,39.81046634035339],[-111.64348787477874,39.813043519425186],[-111.6219521108211,39.78383548994489],[-111.5860591708917,39.78383548994489],[-111.5860591708917,39.740023445724454],[-111.71886304863048,39.694493282122814],[-111.7116844606446,39.45996998658986],[-111.747577400574,39.45996998658986],[-111.747577400574,39.382654614436134],[-111.92345280622806,39.381795554745544],[-111.95934574615745,39.366332480314796],[-111.95934574615745,39.3371244508345],[-112.0167744500445,39.3371244508345],[-112.0167744500445,39.31478889887898],[-112.07061385993859,39.32939291361913],[-112.18906056170562,39.32939291361913],[-112.19264985569855,39.49003707576075],[-112.21059632566325,39.55360749286492],[-112.89256218432183,39.55274843317432],[-113.8150107405074,39.55274843317432],[-113.8150107405074,39.544157836268354],[-114.0483148500485,39.54243971688716],[-114.0483148500485,39.905821966009654]]]}},{"type":"Feature","id":"49025","properties":{"name":"Kane","county_fips":"49025","state_abbr":"UT"},"geometry":{"type":"Polygon","coordinates":[[[-112.89974077230772,37.49959577264772],[-112.89974077230772,37.54340781686816],[-112.68438313273133,37.54340781686816],[-112.36134667336673,37.54340781686816],[-112.16393550375503,37.53653533934339],[-111.84448833838337,37.53567627965279],[-111.81577398643986,37.53997157810578],[-111.01177213202132,37.53997157810578],[-110.64566414474145,37.54083063779637],[-110.66361061470614,37.4781192803828],[-110.71745002460024,37.48155551914518],[-110.73898578855788,37.445475012140115],[-110.69950355463554,37.429152878018776],[-110.75334296452964,37.39736766946669],[-110.72462861258612,37.3664415206052],[-110.76052155251551,37.33293819267192],[-110.80718237442373,37.322629476384755],[-110.86820037230372,37.349260326793264],[-110.8394860203602,37.31919323762237],[-110.86461107831077,37.290844267832675],[-110.86102178431784,37.25905905928059],[-110.88614684226842,37.25132752206522],[-110.90409331223312,37.17487120960209],[-110.95434342813428,37.149099418884184],[-110.9830577800778,37.11387797156971],[-111.14457600976009,37.0889652405424],[-111.18046894968948,37.09927395682956],[-111.2163618896189,37.05718003199031],[-111.24148694756947,37.064052509515086],[-111.23789765357652,37.02367670405703],[-111.30250494544944,37.06662968858688],[-111.28455847548474,37.037421659106585],[-111.34916576735766,37.00134115210152],[-112.53722207902078,37.00048209241092],[-112.89974077230772,37.00048209241092],[-112.89974077230772,37.49959577264772]]]}},{"type":"Feature","id":"49027","properties":{"name":"Millard","county_fips":"49027","state_abbr":"UT"},"geometry":{"type":"Polygon","coordinates":[[[-114.0483148500485,38.677366608456076],[-114.0483148500485,39.54243971688716],[-113.8150107405074,39.544157836268354],[-113.8150107405074,39.55274843317432],[-112.89256218432183,39.55274843317432],[-112.21059632566325,39.55360749286492],[-112.19264985569855,39.49003707576075],[-112.18906056170562,39.32939291361913],[-112.07061385993859,39.32939291361913],[-112.0167744500445,39.31478889887898],[-112.01318515605155,39.04590321572215],[-112.02036374403744,38.99607775366753],[-112.06702456594566,38.98834621645216],[-112.06343527195271,38.95913818697186],[-112.1352211518115,38.95913818697186],[-112.14957832778327,38.90673554584545],[-112.1711140917409,38.90587648615485],[-112.18906056170562,38.8646416210062],[-112.22495350163501,38.8646416210062],[-112.22854279562794,38.76413163720637],[-112.21777491364912,38.7271920705107],[-112.31109655746558,38.67650754876548],[-112.44748972919729,38.68166190690906],[-112.48338266912668,38.6447223402134],[-112.48338266912668,38.60091029599295],[-112.51568631506315,38.57256132620326],[-113.04690182601826,38.57256132620326],[-114.05190414404143,38.57256132620326],[-114.0483148500485,38.677366608456076]]]}},{"type":"Feature","id":"49029","properties":{"name":"Morgan","county_fips":"49029","state_abbr":"UT"},"geometry":{"type":"Polygon","coordinates":[[[-111.42095164721647,41.361069081880814],[-111.38505870728707,41.37395497723976],[-111.33121929739296,41.357632843118424],[-111.26302271152711,41.29663960508604],[-111.28096918149181,41.2253376507665],[-111.22354047760477,41.215028934479335],[-111.24148694756947,41.164344412734124],[-111.26661200552005,41.1437269801598],[-111.36711223732237,41.129982025110245],[-111.38146941329413,41.0870290405804],[-111.44607670516704,41.08187468243682],[-111.50709470304703,41.06297536924369],[-111.59323775887758,40.99339153430534],[-111.57888058290582,40.95817008699086],[-111.52504117301173,40.95387478853788],[-111.52863046700466,40.919512400914],[-111.47838035110351,40.85851916288162],[-111.51786258502584,40.81900241711416],[-111.51786258502584,40.791512507015064],[-111.55375552495525,40.7803447310373],[-111.61118422884228,40.81127087989879],[-111.6398985807858,40.799244044230434],[-111.66502363873639,40.84992856597565],[-111.74039881258813,40.86109634195341],[-111.76911316453163,40.872264117931174],[-111.81577398643986,40.95988820637206],[-111.77629175251752,40.95902914668146],[-111.8373097503975,41.02259956378563],[-111.85166692636926,41.06641160800607],[-111.8552562203622,41.13943168170681],[-111.87679198431984,41.1694987708777],[-111.85884551435514,41.1978477406674],[-111.8014168104681,41.21760611355113],[-111.747577400574,41.21416987478874],[-111.71886304863048,41.187539024380236],[-111.6578450507505,41.18582090499904],[-111.61118422884228,41.20987457633576],[-111.59682705287052,41.238223546125454],[-111.49632682106821,41.22705577014769],[-111.43889811718117,41.28976712756127],[-111.44966599915999,41.315538918279174],[-111.42095164721647,41.361069081880814]]]}},{"type":"Feature","id":"49031","properties":{"name":"Piute","county_fips":"49031","state_abbr":"UT"},"geometry":{"type":"Polygon","coordinates":[[[-112.51927560905608,38.51070902848028],[-112.12445326983269,38.51242714786147],[-112.06343527195271,38.50211843157431],[-111.7655238705387,38.50211843157431],[-111.84807763237632,38.42480305942059],[-111.84448833838337,38.15162207781077],[-112.05984597795977,38.145608659976595],[-112.44390043520434,38.149903958429576],[-112.42595396523964,38.180830107291065],[-112.3577573793738,38.22464215151151],[-112.37929314333142,38.24440052439524],[-112.3505787913879,38.2821991507815],[-112.33622161541615,38.33288367252672],[-112.40441820128201,38.415353402824024],[-112.44390043520434,38.40590374622746],[-112.45466831718316,38.42909835787357],[-112.51927560905608,38.47978287961879],[-112.51927560905608,38.51070902848028]]]}},{"type":"Feature","id":"49033","properties":{"name":"Rich","county_fips":"49033","state_abbr":"UT"},"geometry":{"type":"Polygon","coordinates":[[[-111.50709470304703,41.999350431994316],[-111.04766507195072,42.0019276110661],[-111.04407577795777,41.580129302983025],[-111.04766507195072,41.25196850117501],[-111.10150448184481,41.207297397263964],[-111.2343083595836,41.1428679204692],[-111.26661200552005,41.1437269801598],[-111.24148694756947,41.164344412734124],[-111.22354047760477,41.215028934479335],[-111.28096918149181,41.2253376507665],[-111.26302271152711,41.29663960508604],[-111.33121929739296,41.357632843118424],[-111.38505870728707,41.37395497723976],[-111.42095164721647,41.361069081880814],[-111.47838035110351,41.384263693526925],[-111.51068399703996,41.42292137960379],[-111.47838035110351,41.503672990519895],[-111.43171952919529,41.553498452574516],[-111.42813023520235,41.61792792936929],[-111.40300517725177,41.65916279451794],[-111.4245409412094,41.676343988329876],[-111.41736235322352,41.71242449533494],[-111.4424874111741,41.73647816667166],[-111.46043388113881,41.81722977758777],[-111.50709470304703,41.85245122490224],[-111.50350540905409,41.91344446293462],[-111.47120176311762,41.92804847767477],[-111.50709470304703,41.999350431994316]]]}},{"type":"Feature","id":"49035","properties":{"name":"Salt Lake","county_fips":"49035","state_abbr":"UT"},"geometry":{"type":"Polygon","coordinates":[[[-112.26084644156441,40.76917695505954],[-112.14957832778327,40.84649232721326],[-112.00959586205862,40.9212305202952],[-111.95934574615745,40.922089579985794],[-111.97011362813627,40.88686813267132],[-111.9449885701857,40.82243865587655],[-111.86961339633396,40.821579596185956],[-111.74039881258813,40.86109634195341],[-111.66502363873639,40.84992856597565],[-111.6398985807858,40.799244044230434],[-111.65066646276462,40.77347225351253],[-111.59323775887758,40.698734060430596],[-111.6040056408564,40.66694885187851],[-111.55375552495525,40.60939185260852],[-111.59323775887758,40.57674758436584],[-111.63630928679287,40.568156987459865],[-111.68297010870108,40.5312174207642],[-111.76193457654576,40.529499301383005],[-111.8373097503975,40.475378540875404],[-111.88397057230571,40.471942302113014],[-111.9449885701857,40.424694019130186],[-111.9808815101151,40.41438530284302],[-112.03831021400214,40.46421076489764],[-112.11368538785388,40.43929803387033],[-112.1423997397974,40.47022418273182],[-112.1711140917409,40.466787943969436],[-112.17470338573385,40.60423749446494],[-112.1962391496915,40.629150225492246],[-112.20700703167032,40.71591525424254],[-112.26084644156441,40.76917695505954]]]}},{"type":"Feature","id":"49037","properties":{"name":"San Juan","county_fips":"49037","state_abbr":"UT"},"geometry":{"type":"Polygon","coordinates":[[[-110.64566414474145,37.54083063779637],[-110.61336049880498,37.564884309133085],[-110.60259261682616,37.60182387582875],[-110.56311038290383,37.634468144071434],[-110.4985030910309,37.65852181540815],[-110.48414591505914,37.70491103870038],[-110.43030650516505,37.77105863487634],[-110.4626101511015,37.77191769456694],[-110.47696732707327,37.80112572404723],[-110.43389579915798,37.81401161940619],[-110.40159215322153,37.881018275272744],[-110.30109192141921,37.88960887217871],[-110.2831454514545,37.8664142605326],[-110.26878827548275,37.89819946908469],[-110.21853815958158,37.8930451109411],[-110.20418098360983,37.93943433423333],[-110.13239510375104,38.0064409900999],[-110.074966399864,38.00128663195631],[-110.06419851788517,38.04166243741437],[-110.01753769597696,38.10609191420914],[-109.98882334403343,38.100078496374955],[-109.92780534615345,38.15162207781077],[-109.88473381823817,38.18770258481584],[-109.92062675816757,38.22464215151151],[-109.88832311223112,38.23151462903628],[-109.92780534615345,38.25986359882598],[-109.9313946401464,38.283917270162696],[-109.98523405004049,38.357796403554026],[-109.97805546205461,38.388722552415516],[-110.01394840198401,38.364668881078806],[-110.03189487194871,38.38528631365313],[-110.00318052000519,38.41621246251462],[-110.00318052000519,38.480641939309386],[-110.02471628396283,38.500400312193115],[-109.47555430304303,38.49954125250252],[-109.05919619986199,38.500400312193115],[-109.05919619986199,38.27532667325673],[-109.04124972989729,38.153340197191966],[-109.04124972989729,37.881018275272744],[-109.04124972989729,37.53052192150921],[-109.04483902389023,37.48499175790757],[-109.04483902389023,36.998763973029725],[-109.6263046507465,36.99790491333913],[-109.99959122601226,36.99790491333913],[-110.46978873908739,36.99790491333913],[-110.49132450304502,37.0039183311733],[-110.7497536705367,37.003059271482705],[-111.34916576735766,37.00134115210152],[-111.28455847548474,37.037421659106585],[-111.30250494544944,37.06662968858688],[-111.23789765357652,37.02367670405703],[-111.24148694756947,37.064052509515086],[-111.2163618896189,37.05718003199031],[-111.18046894968948,37.09927395682956],[-111.14457600976009,37.0889652405424],[-110.9830577800778,37.11387797156971],[-110.95434342813428,37.149099418884184],[-110.90409331223312,37.17487120960209],[-110.88614684226842,37.25132752206522],[-110.86102178431784,37.25905905928059],[-110.86461107831077,37.290844267832675],[-110.8394860203602,37.31919323762237],[-110.86820037230372,37.349260326793264],[-110.80718237442373,37.322629476384755],[-110.76052155251551,37.33293819267192],[-110.72462861258612,37.3664415206052],[-110.75334296452964,37.39736766946669],[-110.69950355463554,37.429152878018776],[-110.73898578855788,37.445475012140115],[-110.71745002460024,37.48155551914518],[-110.66361061470614,37.4781192803828],[-110.64566414474145,37.54083063779637]]]}},{"type":"Feature","id":"49039","properties":{"name":"Sanpete","county_fips":"49039","state_abbr":"UT"},"geometry":{"type":"Polygon","coordinates":[[[-111.64348787477874,39.813043519425186],[-111.24866553555535,39.813043519425186],[-111.24866553555535,39.70394293871938],[-111.24866553555535,39.466842464114634],[-111.30250494544944,39.466842464114634],[-111.29891565145651,39.294171466304654],[-111.29891565145651,39.0321582606726],[-111.85166692636926,39.0330173203632],[-111.85166692636926,39.04590321572215],[-112.01318515605155,39.04590321572215],[-112.0167744500445,39.31478889887898],[-112.0167744500445,39.3371244508345],[-111.95934574615745,39.3371244508345],[-111.95934574615745,39.366332480314796],[-111.92345280622806,39.381795554745544],[-111.747577400574,39.382654614436134],[-111.747577400574,39.45996998658986],[-111.7116844606446,39.45996998658986],[-111.71886304863048,39.694493282122814],[-111.5860591708917,39.740023445724454],[-111.5860591708917,39.78383548994489],[-111.6219521108211,39.78383548994489],[-111.64348787477874,39.813043519425186]]]}},{"type":"Feature","id":"49041","properties":{"name":"Sevier","county_fips":"49041","state_abbr":"UT"},"geometry":{"type":"Polygon","coordinates":[[[-112.51568631506315,38.57256132620326],[-112.48338266912668,38.60091029599295],[-112.48338266912668,38.6447223402134],[-112.44748972919729,38.68166190690906],[-112.31109655746558,38.67650754876548],[-112.21777491364912,38.7271920705107],[-112.22854279562794,38.76413163720637],[-112.22495350163501,38.8646416210062],[-112.18906056170562,38.8646416210062],[-112.1711140917409,38.90587648615485],[-112.14957832778327,38.90673554584545],[-112.1352211518115,38.95913818697186],[-112.06343527195271,38.95913818697186],[-112.06702456594566,38.98834621645216],[-112.02036374403744,38.99607775366753],[-112.01318515605155,39.04590321572215],[-111.85166692636926,39.04590321572215],[-111.85166692636926,39.0330173203632],[-111.29891565145651,39.0321582606726],[-111.29891565145651,38.6722122503125],[-111.30609423944239,38.6722122503125],[-111.30609423944239,38.50984996878968],[-111.75475598855988,38.50984996878968],[-111.7655238705387,38.50211843157431],[-112.06343527195271,38.50211843157431],[-112.12445326983269,38.51242714786147],[-112.51927560905608,38.51070902848028],[-112.51568631506315,38.57256132620326]]]}},{"type":"Feature","id":"49043","properties":{"name":"Summit","county_fips":"49043","state_abbr":"UT"},"geometry":{"type":"Polygon","coordinates":[[[-111.6398985807858,40.799244044230434],[-111.61118422884228,40.81127087989879],[-111.55375552495525,40.7803447310373],[-111.51786258502584,40.791512507015064],[-111.51786258502584,40.81900241711416],[-111.47838035110351,40.85851916288162],[-111.52863046700466,40.919512400914],[-111.52504117301173,40.95387478853788],[-111.57888058290582,40.95817008699086],[-111.59323775887758,40.99339153430534],[-111.50709470304703,41.06297536924369],[-111.44607670516704,41.08187468243682],[-111.38146941329413,41.0870290405804],[-111.36711223732237,41.129982025110245],[-111.26661200552005,41.1437269801598],[-111.2343083595836,41.1428679204692],[-111.10150448184481,41.207297397263964],[-111.04766507195072,41.25196850117501],[-111.04766507195072,40.99768683275832],[-110.7138607306073,40.995968713377124],[-110.23648462954628,40.995109653686534],[-110.0498413419134,40.99768683275832],[-109.99959122601226,40.99768683275832],[-109.99959122601226,40.813848058970585],[-110.10009145781457,40.8078346411364],[-110.16110945569456,40.82072053649536],[-110.29391333343332,40.833606431854314],[-110.34057415534154,40.82329771556715],[-110.37287780127801,40.78893532794327],[-110.48414591505914,40.779485671346706],[-110.52362814898149,40.76144541784417],[-110.6061819108191,40.757150119391184],[-110.6241283807838,40.76917695505954],[-110.65643202672027,40.73996892557925],[-110.7497536705367,40.74770046279462],[-110.8035930804308,40.71247901548015],[-110.8933254302543,40.7262239705297],[-110.90050401824017,40.67811662785627],[-110.93280766417664,40.68069380692806],[-110.97587919209191,40.59306971848718],[-111.02612930799307,40.57760664405643],[-111.07996871788717,40.594787837868374],[-111.11945095180951,40.590492539415386],[-111.15175459774598,40.548398614576136],[-111.26661200552005,40.587056300652996],[-111.32763000340003,40.62313680765807],[-111.36711223732237,40.629150225492246],[-111.39582658926588,40.691002523215225],[-111.47479105711056,40.6437542402324],[-111.48914823308232,40.599083136321354],[-111.55375552495525,40.60939185260852],[-111.6040056408564,40.66694885187851],[-111.59323775887758,40.698734060430596],[-111.65066646276462,40.77347225351253],[-111.6398985807858,40.799244044230434]]]}},{"type":"Feature","id":"49045","properties":{"name":"Tooele","county_fips":"49045","state_abbr":"UT"},"geometry":{"type":"Polygon","coordinates":[[[-114.0483148500485,40.117150649896494],[-114.04472555605555,40.23226464843648],[-114.04472555605555,40.771754134131335],[-114.04113626206261,41.00026401183011],[-113.20124146771467,41.00026401183011],[-112.7992405405054,41.00026401183011],[-112.4941505511055,41.076720324293234],[-112.26084644156441,40.76917695505954],[-112.20700703167032,40.71591525424254],[-112.1962391496915,40.629150225492246],[-112.17470338573385,40.60423749446494],[-112.1711140917409,40.466787943969436],[-112.21418561965619,40.45476110830108],[-112.19982844368442,40.382600094290936],[-112.17470338573385,40.336210870998706],[-112.1962391496915,40.32590215471154],[-112.19264985569855,40.264049856988564],[-112.14957832778327,40.21164721586215],[-112.14598903379033,40.17298952978529],[-112.17470338573385,40.15409021659216],[-112.14957832778327,40.10770099329993],[-112.18188197371973,40.059593650626496],[-112.1782926797268,40.01148630795307],[-112.22495350163501,39.98915075599756],[-112.27161432354323,39.939325293942936],[-112.33981090940908,39.944479652086514],[-112.34340020340203,39.90410384662846],[-113.24790228962289,39.90496290631906],[-114.0483148500485,39.905821966009654],[-114.0483148500485,40.117150649896494]]]}},{"type":"Feature","id":"49047","properties":{"name":"Uintah","county_fips":"49047","state_abbr":"UT"},"geometry":{"type":"Polygon","coordinates":[[[-109.97805546205461,39.80617104190041],[-109.97805546205461,40.8095527605176],[-109.87037664226642,40.764022596915964],[-109.76628711647116,40.782921910109096],[-109.7519299404994,40.802680282992824],[-109.67655476664766,40.794948745777454],[-109.63348323873238,40.81556617835178],[-109.57246524085241,40.81298899927999],[-109.52580441894419,40.826733954329534],[-109.51144724297242,40.75113670155701],[-109.4827328910289,40.740827985269846],[-109.39300054120541,40.790653447324466],[-109.39300054120541,40.85851916288162],[-109.20276795957959,40.85851916288162],[-109.20276795957959,40.78549908918089],[-109.16328572565725,40.78635814887148],[-109.15969643166432,40.68413004569045],[-109.12380349173492,40.66265355342553],[-109.04842831788318,40.66265355342553],[-109.05201761187611,40.50029127190271],[-109.05201761187611,40.22281499183991],[-109.05201761187611,39.66013089449894],[-109.05201761187611,39.497768612976124],[-109.0879105518055,39.49261425483254],[-109.1058570217702,39.46168810597106],[-110.02471628396283,39.46941964318643],[-110.01394840198401,39.49175519514195],[-110.0390734599346,39.566493388223876],[-109.98523405004049,39.66442619295192],[-109.99241263802638,39.70308387902878],[-109.92780534615345,39.75033216201162],[-109.92062675816757,39.786412669016684],[-109.88473381823817,39.80617104190041],[-109.97805546205461,39.80617104190041]]]}},{"type":"Feature","id":"49049","properties":{"name":"Utah","county_fips":"49049","state_abbr":"UT"},"geometry":{"type":"Polygon","coordinates":[[[-112.1711140917409,40.466787943969436],[-112.1423997397974,40.47022418273182],[-112.11368538785388,40.43929803387033],[-112.03831021400214,40.46421076489764],[-111.9808815101151,40.41438530284302],[-111.9449885701857,40.424694019130186],[-111.88397057230571,40.471942302113014],[-111.8373097503975,40.475378540875404],[-111.76193457654576,40.529499301383005],[-111.68297010870108,40.5312174207642],[-111.63630928679287,40.568156987459865],[-111.59323775887758,40.57674758436584],[-111.568112700927,40.54753955488554],[-111.57529128891288,40.486546316853165],[-111.6219521108211,40.44960675015749],[-111.55375552495525,40.3662779601696],[-111.48196964509644,40.36198266171661],[-111.43889811718117,40.321606856258555],[-111.4424874111741,40.28982164770647],[-111.37429082530825,40.29669412523125],[-111.31327282742826,40.286385408944085],[-111.26302271152711,40.24257336472364],[-111.27379059350592,40.221955932149314],[-111.2271297715977,40.166976111951115],[-111.21995118361183,40.124882187111865],[-111.24866553555535,40.055298352173516],[-111.20559400764007,40.047566814958145],[-111.16611177371773,39.990868875378744],[-111.11945095180951,39.96853332342323],[-111.13021883378833,39.94705683115831],[-111.08355801188011,39.943620592395916],[-111.08355801188011,39.89980854817548],[-110.8933254302543,39.89980854817548],[-110.8574324903249,39.89980854817548],[-110.8574324903249,39.813043519425186],[-111.24866553555535,39.813043519425186],[-111.64348787477874,39.813043519425186],[-111.7655238705387,39.81046634035339],[-111.73680951859518,39.863728041170404],[-111.82654186841867,39.947915890848904],[-111.83372045640456,39.924721279202785],[-111.9090956302563,39.89465419003189],[-111.97011362813627,39.80703010159101],[-112.04548880198801,39.77696301242012],[-112.08856032990329,39.7821173705637],[-112.06702456594566,39.82936565354653],[-112.08138174191741,39.8654461605516],[-112.05266738997389,39.893795130341296],[-112.10291750587506,39.92901657765577],[-112.11009609386093,39.97368768156681],[-112.1782926797268,40.01148630795307],[-112.18188197371973,40.059593650626496],[-112.14957832778327,40.10770099329993],[-112.17470338573385,40.15409021659216],[-112.14598903379033,40.17298952978529],[-112.14957832778327,40.21164721586215],[-112.19264985569855,40.264049856988564],[-112.1962391496915,40.32590215471154],[-112.17470338573385,40.336210870998706],[-112.19982844368442,40.382600094290936],[-112.21418561965619,40.45476110830108],[-112.1711140917409,40.466787943969436]]]}},{"type":"Feature","id":"49051","properties":{"name":"Wasatch","county_fips":"49051","state_abbr":"UT"},"geometry":{"type":"Polygon","coordinates":[[[-111.59323775887758,40.57674758436584],[-111.55375552495525,40.60939185260852],[-111.48914823308232,40.599083136321354],[-111.47479105711056,40.6437542402324],[-111.39582658926588,40.691002523215225],[-111.36711223732237,40.629150225492246],[-111.32763000340003,40.62313680765807],[-111.26661200552005,40.587056300652996],[-111.15175459774598,40.548398614576136],[-111.11945095180951,40.590492539415386],[-111.07996871788717,40.594787837868374],[-111.02612930799307,40.57760664405643],[-110.97587919209191,40.59306971848718],[-110.93280766417664,40.68069380692806],[-110.90050401824017,40.67811662785627],[-110.90409331223312,40.43156649665496],[-110.89691472424724,40.43156649665496],[-110.89691472424724,40.082788262272615],[-110.8933254302543,39.89980854817548],[-111.08355801188011,39.89980854817548],[-111.08355801188011,39.943620592395916],[-111.13021883378833,39.94705683115831],[-111.11945095180951,39.96853332342323],[-111.16611177371773,39.990868875378744],[-111.20559400764007,40.047566814958145],[-111.24866553555535,40.055298352173516],[-111.21995118361183,40.124882187111865],[-111.2271297715977,40.166976111951115],[-111.27379059350592,40.221955932149314],[-111.26302271152711,40.24257336472364],[-111.31327282742826,40.286385408944085],[-111.37429082530825,40.29669412523125],[-111.4424874111741,40.28982164770647],[-111.43889811718117,40.321606856258555],[-111.48196964509644,40.36198266171661],[-111.55375552495525,40.3662779601696],[-111.6219521108211,40.44960675015749],[-111.57529128891288,40.486546316853165],[-111.568112700927,40.54753955488554],[-111.59323775887758,40.57674758436584]]]}},{"type":"Feature","id":"49053","properties":{"name":"Washington","county_fips":"49053","state_abbr":"UT"},"geometry":{"type":"Polygon","coordinates":[[[-114.05190414404143,37.60440105490054],[-113.58888521895219,37.60440105490054],[-113.58888521895219,37.618146009950095],[-113.4740278111781,37.618146009950095],[-113.4740278111781,37.52880380212802],[-113.25508087760878,37.52880380212802],[-113.25508087760878,37.48241457883578],[-113.03613394403943,37.47468304162041],[-113.03613394403943,37.49959577264772],[-112.89974077230772,37.49959577264772],[-112.89974077230772,37.00048209241092],[-113.33404534545345,37.00048209241092],[-114.05190414404143,37.00048209241092],[-114.05190414404143,37.60440105490054]]]}},{"type":"Feature","id":"49055","properties":{"name":"Wayne","county_fips":"49055","state_abbr":"UT"},"geometry":{"type":"Polygon","coordinates":[[[-111.7655238705387,38.50211843157431],[-111.75475598855988,38.50984996878968],[-111.30609423944239,38.50984996878968],[-111.30609423944239,38.500400312193115],[-110.54516391293912,38.500400312193115],[-110.02471628396283,38.500400312193115],[-110.00318052000519,38.480641939309386],[-110.00318052000519,38.41621246251462],[-110.03189487194871,38.38528631365313],[-110.01394840198401,38.364668881078806],[-109.97805546205461,38.388722552415516],[-109.98523405004049,38.357796403554026],[-109.9313946401464,38.283917270162696],[-109.92780534615345,38.25986359882598],[-109.88832311223112,38.23151462903628],[-109.92062675816757,38.22464215151151],[-109.88473381823817,38.18770258481584],[-109.92780534615345,38.15162207781077],[-110.68873567265672,38.15162207781077],[-111.41377305923059,38.15419925688256],[-111.63630928679287,38.149903958429576],[-111.84448833838337,38.15162207781077],[-111.84807763237632,38.42480305942059],[-111.7655238705387,38.50211843157431]]]}},{"type":"Feature","id":"49057","properties":{"name":"Weber","county_fips":"49057","state_abbr":"UT"},"geometry":{"type":"Polygon","coordinates":[[[-112.4941505511055,41.076720324293234],[-112.23931067760677,41.3361563508535],[-112.03472092000919,41.3361563508535],[-111.9629350401504,41.365364380333794],[-111.97370292212922,41.420344200532],[-111.91627421824218,41.41261266331663],[-111.88397057230571,41.426357618366175],[-111.86961339633396,41.398867708267076],[-111.79782751647515,41.3919952307423],[-111.76193457654576,41.368800619096184],[-111.72604163661636,41.37567309662096],[-111.69732728467284,41.41690796176961],[-111.65425575675756,41.407458305173044],[-111.61836281682817,41.422062319913195],[-111.51068399703996,41.42292137960379],[-111.47838035110351,41.384263693526925],[-111.42095164721647,41.361069081880814],[-111.44966599915999,41.315538918279174],[-111.43889811718117,41.28976712756127],[-111.49632682106821,41.22705577014769],[-111.59682705287052,41.238223546125454],[-111.61118422884228,41.20987457633576],[-111.6578450507505,41.18582090499904],[-111.71886304863048,41.187539024380236],[-111.747577400574,41.21416987478874],[-111.8014168104681,41.21760611355113],[-111.85884551435514,41.1978477406674],[-111.87679198431984,41.1694987708777],[-111.8552562203622,41.13943168170681],[-111.91268492424923,41.13513638325382],[-111.97011362813627,41.152317577065766],[-112.18547126771267,41.15317663675636],[-112.4941505511055,41.076720324293234]]]}}]}