{"type":"FeatureCollection","features":[{"type":"Feature","id":"78010","properties":{"name":"St. Croix","county_fips":"78010","state_abbr":"VI"},"geometry":{"type":"MultiPolygon","coordinates":[[[[-64.90729079270793,17.6810887105771],[-64.88216573475735,17.71201485943859],[-64.8965229107291,17.74637724706247],[-64.87139785277853,17.772149037780373],[-64.83550491284913,17.760981261802613],[-64.80679056090561,17.779880574995744],[-64.74577256302562,17.782457754067536],[-64.724236799068,17.75754502304023],[-64.58425433334334,17.76184032149321],[-64.57707574535745,17.74637724706247],[-64.69193315313153,17.705142381913817],[-64.83909420684206,17.679370591195905],[-64.90729079270793,17.6810887105771]]]]}},{"type":"Feature","id":"78020","properties":{"name":"St. John","county_fips":"78020","state_abbr":"VI"},"geometry":{"type":"MultiPolygon","coordinates":[[[[-64.79961197291973,18.337410314193136],[-64.75295115101152,18.370913642126418],[-64.71346891708917,18.367477403364028],[-64.65962950719508,18.34342373202732],[-64.7062903291033,18.33998749326493],[-64.70270103511035,18.29789356842568],[-64.7350046810468,18.31507476223762],[-64.78166550295502,18.310779463784634],[-64.79961197291973,18.337410314193136]]],[[[-64.84268350083501,18.36661834367343],[-64.79602267892679,18.371772701817015],[-64.80320126691267,18.352014328933286],[-64.84268350083501,18.35029620955209],[-64.84268350083501,18.36661834367343]]]]}},{"type":"Feature","id":"78030","properties":{"name":"St. Thomas","county_fips":"78030","state_abbr":"VI"},"geometry":{"type":"MultiPolygon","coordinates":[[[[-64.84268350083501,18.36661834367343],[-64.84268350083501,18.35029620955209],[-64.82114773687736,18.31249758316583],[-64.8785764407644,18.303047926569263],[-64.9324158506585,18.322806299452992],[-64.95754090860909,18.305625105641056],[-65.00061243652436,18.3477190304803],[-65.08675549235492,18.335692194811948],[-65.06163043440435,18.38208141810418],[-65.02573749447494,18.36232304522045],[-64.98266596655967,18.38465859717597],[-64.9144693806938,18.36661834367343],[-64.84268350083501,18.36661834367343]]]]}}]}