{"type":"FeatureCollection","features":[{"type":"Feature","id":"50001","properties":{"name":"Addison","county_fips":"50001","state_abbr":"VT"},"geometry":{"type":"Polygon","coordinates":[[[-73.31341732417324,44.263831776407756],[-73.19855991639916,44.26640895547955],[-72.97243439484394,44.29303980588805],[-72.9508986308863,44.16160367322672],[-72.9329521609216,44.16332179260792],[-72.90782710297103,44.072261465404644],[-72.7427195792958,44.0293084808748],[-72.79296969519694,43.96144276531765],[-72.86475557505575,43.86179184120841],[-72.87552345703457,43.90302670635705],[-72.95448792487925,43.87467773656736],[-72.97961298282982,43.88240927378273],[-72.95807721887219,43.82657039389393],[-73.01550592275923,43.80509390162901],[-73.02986309873098,43.84632876677766],[-73.2200956803568,43.836879110181094],[-73.20573850438504,43.76643621555215],[-73.3636674400744,43.75355032019319],[-73.34931026410264,43.77159057369573],[-73.37802461604616,43.8085301403914],[-73.37443532205322,43.875536796257954],[-73.41032826198261,43.933093795527945],[-73.40673896798968,44.02157694365943],[-73.43904261392613,44.044771555305545],[-73.41032826198261,44.1126372708627],[-73.39238179201791,44.18909358332583],[-73.31341732417324,44.263831776407756]]]}},{"type":"Feature","id":"50003","properties":{"name":"Bennington","county_fips":"50003","state_abbr":"VT"},"geometry":{"type":"Polygon","coordinates":[[[-73.2739350902509,42.943457031960314],[-73.2559886202862,43.31457081829818],[-72.86834486904868,43.300825863248626],[-72.82168404714047,43.29910774386743],[-72.81809475314753,43.255295699646986],[-72.84680910509105,43.262168177171766],[-72.86116628106281,43.205470237592365],[-72.86834486904868,43.1135508506985],[-72.99755945279452,43.116987089460885],[-73.00832733477334,42.92971207691076],[-72.9221842789428,42.92713489783897],[-72.92936286692867,42.73900082559825],[-73.02268451074511,42.74071894497944],[-73.26316720827208,42.74587330312303],[-73.2918815602156,42.80171218301182],[-73.27752438424385,42.83349739156391],[-73.2739350902509,42.943457031960314]]]}},{"type":"Feature","id":"50005","properties":{"name":"Caledonia","county_fips":"50005","state_abbr":"VT"},"geometry":{"type":"Polygon","coordinates":[[[-72.37302229802297,44.5842610410004],[-72.26175418424184,44.54216711616115],[-72.14689677646777,44.70367033799337],[-72.08946807258073,44.683911965109644],[-72.1145931305313,44.749200501595006],[-72.01409289872899,44.698515979849795],[-71.93871772487725,44.768958874478734],[-71.83821749307494,44.71655623335233],[-71.91000337293373,44.64697239841398],[-71.84180678706787,44.610891891408905],[-71.91000337293373,44.54732147430474],[-71.85616396303963,44.49577789286892],[-71.93153913689137,44.44079807267072],[-71.83821749307494,44.348019626086256],[-71.98178925279252,44.33771090979909],[-72.03203936869369,44.32052971598715],[-72.06793230862309,44.26812707486074],[-72.04639654466544,44.23891904538045],[-72.06793230862309,44.189952643016426],[-72.03921795667956,44.15816743446434],[-72.17561112841128,44.19252982208821],[-72.30482571215713,44.183080165491646],[-72.36943300403004,44.20369759806597],[-72.31559359413593,44.272422373313724],[-72.31918288812888,44.298194164031635],[-72.26893277222771,44.34028808887088],[-72.21868265632656,44.410730983499825],[-72.2222719503195,44.42447593854938],[-72.43404029590296,44.506086609156085],[-72.37302229802297,44.5842610410004]]]}},{"type":"Feature","id":"50007","properties":{"name":"Chittenden","county_fips":"50007","state_abbr":"VT"},"geometry":{"type":"Polygon","coordinates":[[[-73.36007814608146,44.56364360842608],[-73.26675650226503,44.591133518525176],[-73.23445285632856,44.649549577485764],[-73.22727426834268,44.722569651186504],[-73.03704168671686,44.65126769686696],[-72.92577357293573,44.633227443364426],[-72.82886263512636,44.552475832448316],[-72.83245192911929,44.51639532544325],[-72.80373757717577,44.506086609156085],[-72.83963051710516,44.45883832617326],[-72.80373757717577,44.45196584864848],[-72.83963051710516,44.402999446284454],[-72.80373757717577,44.3901135509255],[-72.82527334113341,44.359187402064016],[-72.85398769307693,44.36520081989819],[-72.91141639696397,44.28187202991029],[-72.8970592209922,44.275858612076114],[-72.9508986308863,44.16160367322672],[-72.97243439484394,44.29303980588805],[-73.19855991639916,44.26640895547955],[-73.31341732417324,44.263831776407756],[-73.33495308813087,44.372073297422965],[-73.2918815602156,44.44079807267072],[-73.30623873618735,44.5000731913219],[-73.33854238212382,44.54646241461414],[-73.36007814608146,44.56364360842608]]]}},{"type":"Feature","id":"50009","properties":{"name":"Essex","county_fips":"50009","state_abbr":"VT"},"geometry":{"type":"Polygon","coordinates":[[[-71.89923549095491,45.00863652815527],[-71.50082385773858,45.01379088629886],[-71.54030609166091,44.988019095580945],[-71.49364526975269,44.91156278311782],[-71.55825256162561,44.84713330632306],[-71.57260973759738,44.79215348612485],[-71.62644914749147,44.74748238221382],[-71.58696691356913,44.65985829377293],[-71.55107397363973,44.62721402553025],[-71.55825256162561,44.564502668116674],[-71.59773479554795,44.55333489213891],[-71.57619903159032,44.502650370393695],[-71.63362773547735,44.483751057200564],[-71.65875279342794,44.445093371123704],[-71.70900290932909,44.41159004319042],[-71.76643161321613,44.406435685046844],[-71.79514596515965,44.39956320752207],[-71.81309243512435,44.35489210361103],[-71.83821749307494,44.348019626086256],[-71.93153913689137,44.44079807267072],[-71.85616396303963,44.49577789286892],[-71.91000337293373,44.54732147430474],[-71.84180678706787,44.610891891408905],[-71.91000337293373,44.64697239841398],[-71.83821749307494,44.71655623335233],[-71.93871772487725,44.768958874478734],[-71.97461066480665,44.78614006829068],[-71.87411043300433,44.87634133580335],[-71.92794984289843,44.90726748466484],[-71.89923549095491,45.00863652815527]]]}},{"type":"Feature","id":"50011","properties":{"name":"Franklin","county_fips":"50011","state_abbr":"VT"},"geometry":{"type":"Polygon","coordinates":[[[-73.19138132841329,45.01379088629886],[-72.67452299342993,45.01550900568005],[-72.55607629166292,45.00863652815527],[-72.53812982169822,44.93561645445454],[-72.53095123371233,44.833388351273506],[-72.57761205562055,44.78184476983769],[-72.61350499554996,44.80160314272142],[-72.74630887328873,44.78614006829068],[-72.78220181321814,44.74060990468904],[-72.79655898918989,44.69250256201561],[-72.85039839908399,44.71140187520874],[-72.88988063300633,44.65728111470114],[-72.92577357293573,44.633227443364426],[-73.03704168671686,44.65126769686696],[-73.22727426834268,44.722569651186504],[-73.25957791427913,44.772395113241124],[-73.20932779837798,44.82307963498634],[-73.19138132841329,44.90898560404603],[-73.24163144431444,44.949361409504085],[-73.19138132841329,45.01379088629886]]]}},{"type":"Feature","id":"50013","properties":{"name":"Grand Isle","county_fips":"50013","state_abbr":"VT"},"geometry":{"type":"Polygon","coordinates":[[[-73.34213167611676,45.011213707227064],[-73.19138132841329,45.01379088629886],[-73.24163144431444,44.949361409504085],[-73.19138132841329,44.90898560404603],[-73.20932779837798,44.82307963498634],[-73.25957791427913,44.772395113241124],[-73.22727426834268,44.722569651186504],[-73.23445285632856,44.649549577485764],[-73.26675650226503,44.591133518525176],[-73.36007814608146,44.56364360842608],[-73.38879249802498,44.63580462243622],[-73.37443532205322,44.66243547284472],[-73.36725673406734,44.741468964379635],[-73.33136379413794,44.78871724736246],[-73.37802461604616,44.83768364972649],[-73.3636674400744,44.891804410234094],[-73.33854238212382,44.917576200952006],[-73.34213167611676,45.011213707227064]]]}},{"type":"Feature","id":"50015","properties":{"name":"Lamoille","county_fips":"50015","state_abbr":"VT"},"geometry":{"type":"Polygon","coordinates":[[[-72.57761205562055,44.78184476983769],[-72.41609382593826,44.722569651186504],[-72.48070111781118,44.63408650305502],[-72.36943300403004,44.59199257821577],[-72.37302229802297,44.5842610410004],[-72.43404029590296,44.506086609156085],[-72.49146899979,44.42275781916818],[-72.59555852558526,44.479455758747584],[-72.65298722947229,44.397845088140876],[-72.80373757717577,44.45196584864848],[-72.83963051710516,44.45883832617326],[-72.80373757717577,44.506086609156085],[-72.83245192911929,44.51639532544325],[-72.82886263512636,44.552475832448316],[-72.92577357293573,44.633227443364426],[-72.88988063300633,44.65728111470114],[-72.85039839908399,44.71140187520874],[-72.79655898918989,44.69250256201561],[-72.78220181321814,44.74060990468904],[-72.74630887328873,44.78614006829068],[-72.61350499554996,44.80160314272142],[-72.57761205562055,44.78184476983769]]]}},{"type":"Feature","id":"50017","properties":{"name":"Orange","county_fips":"50017","state_abbr":"VT"},"geometry":{"type":"Polygon","coordinates":[[[-72.79296969519694,43.96144276531765],[-72.7427195792958,44.0293084808748],[-72.68529087540875,44.01298634675346],[-72.58837993759937,44.159885553845534],[-72.55966558565585,44.16246273291732],[-72.44480817788178,44.128959404984045],[-72.4196831199312,44.22087879187791],[-72.36943300403004,44.20369759806597],[-72.30482571215713,44.183080165491646],[-72.17561112841128,44.19252982208821],[-72.03921795667956,44.15816743446434],[-72.05357513265132,44.11006009179091],[-72.03203936869369,44.09116077859778],[-72.07511089660896,44.03188565994659],[-72.11818242452425,43.99408703356033],[-72.11818242452425,43.921066959859594],[-72.1863790103901,43.863509960589596],[-72.18278971639717,43.8085301403914],[-72.2043254803548,43.770731514005135],[-72.45916535385354,43.83859722956229],[-72.78220181321814,43.928798497074965],[-72.79296969519694,43.96144276531765]]]}},{"type":"Feature","id":"50019","properties":{"name":"Orleans","county_fips":"50019","state_abbr":"VT"},"geometry":{"type":"Polygon","coordinates":[[[-72.55607629166292,45.00863652815527],[-72.30841500615006,45.003482170011694],[-71.89923549095491,45.00863652815527],[-71.92794984289843,44.90726748466484],[-71.87411043300433,44.87634133580335],[-71.97461066480665,44.78614006829068],[-71.93871772487725,44.768958874478734],[-72.01409289872899,44.698515979849795],[-72.1145931305313,44.749200501595006],[-72.08946807258073,44.683911965109644],[-72.14689677646777,44.70367033799337],[-72.26175418424184,44.54216711616115],[-72.37302229802297,44.5842610410004],[-72.36943300403004,44.59199257821577],[-72.48070111781118,44.63408650305502],[-72.41609382593826,44.722569651186504],[-72.57761205562055,44.78184476983769],[-72.53095123371233,44.833388351273506],[-72.53812982169822,44.93561645445454],[-72.55607629166292,45.00863652815527]]]}},{"type":"Feature","id":"50021","properties":{"name":"Rutland","county_fips":"50021","state_abbr":"VT"},"geometry":{"type":"Polygon","coordinates":[[[-73.3636674400744,43.75355032019319],[-73.20573850438504,43.76643621555215],[-73.2200956803568,43.836879110181094],[-73.02986309873098,43.84632876677766],[-73.01550592275923,43.80509390162901],[-72.95807721887219,43.82657039389393],[-72.87552345703457,43.85835560244602],[-72.87193416304163,43.83945628925289],[-72.78938040120401,43.82399321482214],[-72.78220181321814,43.80423484193841],[-72.82168404714047,43.71661075349753],[-72.6996480513805,43.68310742556425],[-72.75707675526755,43.58775179990799],[-72.77143393123932,43.59118803867038],[-72.78938040120401,43.49497335332352],[-72.72836240332403,43.46834250291502],[-72.7606660492605,43.35408756406564],[-72.82527334113341,43.38071841447414],[-72.85398769307693,43.37126875787757],[-72.86834486904868,43.300825863248626],[-73.2559886202862,43.31457081829818],[-73.24881003230033,43.55424847197471],[-73.29547085420855,43.57916120300202],[-73.30264944219442,43.624691366603656],[-73.37084602806028,43.624691366603656],[-73.39597108601086,43.56799342702426],[-73.43186402594026,43.590328978979784],[-73.40673896798968,43.68826178370783],[-73.3636674400744,43.75355032019319]]]}},{"type":"Feature","id":"50023","properties":{"name":"Washington","county_fips":"50023","state_abbr":"VT"},"geometry":{"type":"Polygon","coordinates":[[[-72.9508986308863,44.16160367322672],[-72.8970592209922,44.275858612076114],[-72.91141639696397,44.28187202991029],[-72.85398769307693,44.36520081989819],[-72.82527334113341,44.359187402064016],[-72.80373757717577,44.3901135509255],[-72.83963051710516,44.402999446284454],[-72.80373757717577,44.45196584864848],[-72.65298722947229,44.397845088140876],[-72.59555852558526,44.479455758747584],[-72.49146899979,44.42275781916818],[-72.43404029590296,44.506086609156085],[-72.2222719503195,44.42447593854938],[-72.21868265632656,44.410730983499825],[-72.26893277222771,44.34028808887088],[-72.31918288812888,44.298194164031635],[-72.31559359413593,44.272422373313724],[-72.36943300403004,44.20369759806597],[-72.4196831199312,44.22087879187791],[-72.44480817788178,44.128959404984045],[-72.55966558565585,44.16246273291732],[-72.58837993759937,44.159885553845534],[-72.68529087540875,44.01298634675346],[-72.7427195792958,44.0293084808748],[-72.90782710297103,44.072261465404644],[-72.9329521609216,44.16332179260792],[-72.9508986308863,44.16160367322672]]]}},{"type":"Feature","id":"50025","properties":{"name":"Windham","county_fips":"50025","state_abbr":"VT"},"geometry":{"type":"Polygon","coordinates":[[[-72.81809475314753,43.255295699646986],[-72.68529087540875,43.22265143140431],[-72.54889770367703,43.23553732676326],[-72.43404029590296,43.23296014769147],[-72.45198676586766,43.16165819337193],[-72.43404029590296,43.08348376152761],[-72.46634394183941,43.05513479173791],[-72.44480817788178,43.01046368782687],[-72.4735225298253,42.97180600175001],[-72.52018335173352,42.96321540484404],[-72.52377264572645,42.91424900248002],[-72.55607629166292,42.85153764506644],[-72.51300476374763,42.76391355662556],[-72.49146899979,42.77250415353153],[-72.45916535385354,42.726973989929895],[-72.92936286692867,42.73900082559825],[-72.9221842789428,42.92713489783897],[-73.00832733477334,42.92971207691076],[-72.99755945279452,43.116987089460885],[-72.86834486904868,43.1135508506985],[-72.86116628106281,43.205470237592365],[-72.84680910509105,43.262168177171766],[-72.81809475314753,43.255295699646986]]]}},{"type":"Feature","id":"50027","properties":{"name":"Windsor","county_fips":"50027","state_abbr":"VT"},"geometry":{"type":"Polygon","coordinates":[[[-72.79296969519694,43.96144276531765],[-72.78220181321814,43.928798497074965],[-72.45916535385354,43.83859722956229],[-72.2043254803548,43.770731514005135],[-72.27252206622066,43.73379194730946],[-72.30482571215713,43.6959933209232],[-72.3299507701077,43.59977863557635],[-72.38020088600886,43.57400684485844],[-72.39814735597356,43.51043642775427],[-72.38020088600886,43.48036933858338],[-72.41609382593826,43.3643962803528],[-72.39455806198062,43.312852698916984],[-72.43404029590296,43.23296014769147],[-72.54889770367703,43.23553732676326],[-72.68529087540875,43.22265143140431],[-72.81809475314753,43.255295699646986],[-72.82168404714047,43.29910774386743],[-72.86834486904868,43.300825863248626],[-72.85398769307693,43.37126875787757],[-72.82527334113341,43.38071841447414],[-72.7606660492605,43.35408756406564],[-72.72836240332403,43.46834250291502],[-72.78938040120401,43.49497335332352],[-72.77143393123932,43.59118803867038],[-72.75707675526755,43.58775179990799],[-72.6996480513805,43.68310742556425],[-72.82168404714047,43.71661075349753],[-72.78220181321814,43.80423484193841],[-72.78938040120401,43.82399321482214],[-72.87193416304163,43.83945628925289],[-72.87552345703457,43.85835560244602],[-72.95807721887219,43.82657039389393],[-72.97961298282982,43.88240927378273],[-72.95448792487925,43.87467773656736],[-72.87552345703457,43.90302670635705],[-72.86475557505575,43.86179184120841],[-72.79296969519694,43.96144276531765]]]}}]}