{"type":"FeatureCollection","features":[{"type":"Feature","id":"53001","properties":{"name":"Adams","county_fips":"53001","state_abbr":"WA"},"geometry":{"type":"Polygon","coordinates":[[[-118.98000479634796,47.26195009659096],[-117.96064530235302,47.26023197720976],[-117.97141318433184,46.86764169860698],[-118.0037168302683,46.84874238541385],[-118.01448471224711,46.785171968309676],[-118.04678835818358,46.76799077449774],[-118.09703847408474,46.7791585504755],[-118.16164576595764,46.747373341923414],[-118.21189588185881,46.738782745017446],[-118.4451999913999,46.73706462563625],[-119.36764854758547,46.73792368532685],[-119.36764854758547,46.91231280251802],[-118.98359409034089,46.91145374282742],[-118.98000479634796,47.26195009659096]]]}},{"type":"Feature","id":"53003","properties":{"name":"Asotin","county_fips":"53003","state_abbr":"WA"},"geometry":{"type":"Polygon","coordinates":[[[-117.22842932779326,46.462165524645236],[-117.20689356383562,46.423507838568376],[-117.15305415394153,46.43038031609316],[-117.08485756807568,46.4174944207342],[-117.03819674616746,46.42608501764017],[-117.05255392213921,46.343615287342864],[-116.99153592425924,46.299803243122426],[-116.96282157231572,46.25341401983019],[-116.96282157231572,46.19929325932259],[-116.91975004440044,46.16493087169871],[-116.98076804228042,46.085038320473195],[-116.95564298432984,46.07558866387663],[-116.9161607504075,45.99569611265112],[-117.47967990729907,45.99827329172291],[-117.47967990729907,46.12197788716887],[-117.41866190941909,46.12197788716887],[-117.41866190941909,46.38313203311032],[-117.35405461754617,46.39773604785047],[-117.3576439115391,46.412340062590616],[-117.22842932779326,46.41148100290002],[-117.22842932779326,46.462165524645236]]]}},{"type":"Feature","id":"53005","properties":{"name":"Benton","county_fips":"53005","state_abbr":"WA"},"geometry":{"type":"Polygon","coordinates":[[[-119.87373900059,46.627964044930444],[-119.75170300483003,46.635695582145814],[-119.70863147691476,46.64858147750477],[-119.61889912709125,46.64772241781417],[-119.51122030730306,46.727614969039685],[-119.45379160341602,46.67950762636626],[-119.41430936949368,46.65287677595775],[-119.40354148751487,46.61336003019029],[-119.27073760977609,46.51886346422464],[-119.25996972779727,46.435534674236735],[-119.27073760977609,46.37024613775137],[-119.24920184581845,46.31526631755317],[-119.26714831578315,46.28434016869168],[-119.20254102391023,46.235373766327655],[-119.12357655606556,46.224205990349894],[-119.04102279422793,46.19242078179781],[-118.97641550235502,46.139159080980804],[-118.94052256242563,46.06527994758947],[-118.94052256242563,46.027481321203204],[-118.98718338433383,45.999991411104105],[-119.02666561825617,45.969065262242616],[-119.1271658500585,45.93298475523755],[-119.19536243592435,45.92783039709396],[-119.25638043380434,45.93985723276232],[-119.43225583945838,45.9183807404974],[-119.48609524935249,45.90635390482904],[-119.57223830518305,45.92525321802217],[-119.6224884210842,45.90549484513844],[-119.66914924299243,45.85652844277442],[-119.86656041260412,45.83591101020009],[-119.86656041260412,46.04122627625276],[-119.86656041260412,46.21475633375333],[-119.87373900059,46.21475633375333],[-119.87373900059,46.627964044930444]]]}},{"type":"Feature","id":"53007","properties":{"name":"Chelan","county_fips":"53007","state_abbr":"WA"},"geometry":{"type":"Polygon","coordinates":[[[-121.00077731437314,48.29625796406963],[-121.07256319423193,48.317734456334556],[-121.04384884228841,48.364123679626786],[-121.06538460624606,48.39161358972589],[-121.03667025430254,48.43198939518395],[-121.06179531225311,48.460338364973644],[-121.03667025430254,48.495559812288114],[-120.95052719847197,48.4998551107411],[-120.95052719847197,48.529922199911994],[-120.90386637656376,48.52390878207781],[-120.85720555465554,48.54796245341453],[-120.8177233207332,48.51961348362483],[-120.7638839108391,48.50844570764707],[-120.70286591295911,48.53164031929318],[-120.64902650306502,48.53249937898378],[-120.63825862108621,48.49641887197871],[-120.66338367903678,48.451747768067676],[-120.63825862108621,48.39762700756007],[-120.57724062320622,48.37786863467634],[-120.58082991719917,48.31859351602515],[-120.50545474334743,48.302271381903815],[-120.46597250942509,48.27048617335173],[-120.351115101651,48.206915756247554],[-120.36188298362983,48.163962771717706],[-120.22548981189811,48.084070220492194],[-120.14293605006048,48.064311847608465],[-120.13934675606755,48.03510381812817],[-120.08909664016639,48.017922624316235],[-120.04961440624405,47.960365625046244],[-119.87014970659706,47.960365625046244],[-119.85938182461824,47.94232537154371],[-119.91681052850528,47.90109050639506],[-119.92039982249821,47.8624328203182],[-119.95988205642055,47.84611068619685],[-119.99577499634995,47.78168120940209],[-120.09268593415933,47.763640955899554],[-120.13216816808168,47.7765268512585],[-120.19318616596165,47.759345657446566],[-120.22190051790517,47.7232651504415],[-120.20036475394753,47.682030285292846],[-120.23625769387692,47.632204823238226],[-120.23266839988399,47.597842435614346],[-120.29368639776396,47.53856731696316],[-120.31881145571455,47.45695664635645],[-120.2865078097781,47.393386229252286],[-120.12857887408873,47.36589631915319],[-120.08550734617346,47.33926546874468],[-120.09268593415933,47.26195009659096],[-120.39059733557335,47.26195009659096],[-120.51622262532624,47.32036615555155],[-120.57006203522035,47.310057439264384],[-120.58441921119211,47.33840640905408],[-120.66697297302971,47.343560767197665],[-120.72440167691676,47.37190973698736],[-120.73158026490265,47.393386229252286],[-120.7818303808038,47.39939964708646],[-120.80336614476144,47.42259425873258],[-120.80336614476144,47.42259425873258],[-120.84284837868378,47.41228554244542],[-120.84284837868378,47.41228554244542],[-120.86079484864848,47.42001707966079],[-120.86079484864848,47.42001707966079],[-120.9254021405214,47.43290297501974],[-120.93258072850728,47.459533825428245],[-120.9971880203802,47.51880894407943],[-121.06179531225311,47.54200355572555],[-121.10845613416134,47.59182901778017],[-121.10845613416134,47.59268807747077],[-121.10845613416134,47.59182901778017],[-121.10845613416134,47.59268807747077],[-121.11204542815427,47.59698337592375],[-121.1335811921119,47.64594977828777],[-121.1228133101331,47.68546652405523],[-121.06538460624606,47.71381549384493],[-121.11922401614015,47.77996309002089],[-121.07615248822488,47.82291607455074],[-121.1228133101331,47.83494291021909],[-121.17665272002719,47.8882046110361],[-121.14793836808367,47.979264938239375],[-121.11922401614015,47.9990233111231],[-121.1515276620766,48.036821937509366],[-121.11922401614015,48.056580310393095],[-121.01154519635196,48.07719774296742],[-120.95052719847197,48.11671448873488],[-120.9612950804508,48.14592251821517],[-120.91104496454963,48.16138559264592],[-120.92181284652847,48.18801644305442],[-121.01154519635196,48.2773586508765],[-121.00077731437314,48.29625796406963]]]}},{"type":"Feature","id":"53009","properties":{"name":"Clallam","county_fips":"53009","state_abbr":"WA"},"geometry":{"type":"Polygon","coordinates":[[[-122.92822818858187,48.06517090729906],[-122.94976395253951,48.06517090729906],[-122.94976395253951,47.86672811877118],[-123.50610452144521,47.86672811877118],[-123.50610452144521,47.88133213351133],[-124.6116070712707,47.88047307382073],[-124.66903577515774,47.982701177001765],[-124.69775012710127,48.06946620575205],[-124.69416083310833,48.11499636935368],[-124.73364306703067,48.163103712027116],[-124.69057153911538,48.21292917408174],[-124.65826789317893,48.33147941138411],[-124.72646447904478,48.370996157151566],[-124.71569659706597,48.3898954703447],[-124.65467859918598,48.390754530035295],[-124.5111068394684,48.34350624705246],[-124.39624943169432,48.28852642685426],[-124.36035649176492,48.287667367163664],[-124.27062414194141,48.25416403923038],[-124.24908837798378,48.264472755517545],[-124.10192732427323,48.21722447253472],[-124.10551661826617,48.20004327872278],[-123.97989132851328,48.164821831408304],[-123.77889086490865,48.15537217481174],[-123.70351569105691,48.1665399507895],[-123.59224757727577,48.13475474223741],[-123.5599439313393,48.15107687635876],[-123.52405099140991,48.13561380192801],[-123.43790793557935,48.14162721976219],[-123.39483640766406,48.114137309663086],[-123.24767535395353,48.11585542904428],[-123.13281794617944,48.17684866707666],[-123.14358582815828,48.156231234502336],[-123.0646213603136,48.12015072749727],[-123.039496302363,48.08149304142041],[-122.97847830448305,48.09609705616055],[-122.91746030660306,48.09180175770757],[-122.92822818858187,48.06517090729906]]]}},{"type":"Feature","id":"53011","properties":{"name":"Clark","county_fips":"53011","state_abbr":"WA"},"geometry":{"type":"Polygon","coordinates":[[[-122.78465642886428,45.85051502494024],[-122.72004913699136,45.86769621875218],[-122.73799560695606,45.91494450173501],[-122.72004913699136,45.93212569554695],[-122.65903113911139,45.92783039709396],[-122.55853090730906,45.95360218781187],[-122.53340584935849,45.97937397852978],[-122.47597714547145,45.98796457543575],[-122.37188761967619,45.96047466533665],[-122.33240538575384,45.96476996378963],[-122.32881609176091,46.01030012739127],[-122.27138738787387,46.05926652975529],[-122.2462623299233,46.054112171611706],[-122.24985162391623,45.81872981638816],[-122.24985162391623,45.54812601385013],[-122.33240538575384,45.54812601385013],[-122.37906620766208,45.57561592394923],[-122.44008420554205,45.56358908828088],[-122.47956643946438,45.57991122240222],[-122.64467396313962,45.60997831157311],[-122.76312066490664,45.65636753486534],[-122.76312066490664,45.72852854887548],[-122.77029925289253,45.780931190001894],[-122.7954243108431,45.81013921948219],[-122.78465642886428,45.85051502494024]]]}},{"type":"Feature","id":"53013","properties":{"name":"Columbia","county_fips":"53013","state_abbr":"WA"},"geometry":{"type":"Polygon","coordinates":[[[-118.22984235182352,46.593601657306564],[-118.21548517585175,46.589306358853584],[-118.16523505995059,46.554943971229704],[-118.0934491800918,46.57470234411343],[-117.95346671436714,46.59188353792537],[-117.88168083450833,46.59188353792537],[-117.85296648256482,46.624527806168054],[-117.86373436454363,46.470756121551204],[-117.73810907479074,46.4716151812418],[-117.7165733108331,46.39773604785047],[-117.67350178291782,46.38313203311032],[-117.67350178291782,46.33760186950869],[-117.61248378503785,46.338460929199286],[-117.61248378503785,46.12111882747827],[-117.60171590305902,46.12111882747827],[-117.60171590305902,45.99913235141351],[-117.97859177231771,46.0008504707947],[-117.99653824228241,46.0008504707947],[-117.99294894828947,46.207883856228555],[-118.11498494404944,46.207883856228555],[-118.11498494404944,46.29550794466944],[-118.24061023380233,46.29464888497884],[-118.24419952779527,46.56009832937329],[-118.22984235182352,46.593601657306564]]]}},{"type":"Feature","id":"53015","properties":{"name":"Cowlitz","county_fips":"53015","state_abbr":"WA"},"geometry":{"type":"Polygon","coordinates":[[[-123.21896100201002,46.385709212182114],[-122.36470903169031,46.38742733156331],[-122.24267303593035,46.385709212182114],[-122.2390837419374,46.38313203311032],[-122.2462623299233,46.054112171611706],[-122.27138738787387,46.05926652975529],[-122.32881609176091,46.01030012739127],[-122.33240538575384,45.96476996378963],[-122.37188761967619,45.96047466533665],[-122.47597714547145,45.98796457543575],[-122.53340584935849,45.97937397852978],[-122.55853090730906,45.95360218781187],[-122.65903113911139,45.92783039709396],[-122.72004913699136,45.93212569554695],[-122.73799560695606,45.91494450173501],[-122.72004913699136,45.86769621875218],[-122.78465642886428,45.85051502494024],[-122.80978148681487,45.91236732266322],[-122.8133707808078,45.961333725027245],[-122.87797807268072,46.030917559965594],[-122.90310313063131,46.083320201092],[-123.11487147621474,46.185548304273034],[-123.16512159211592,46.188984543035424],[-123.21178241402413,46.17266240891408],[-123.21896100201002,46.385709212182114]]]}},{"type":"Feature","id":"53017","properties":{"name":"Douglas","county_fips":"53017","state_abbr":"WA"},"geometry":{"type":"Polygon","coordinates":[[[-119.87014970659706,47.960365625046244],[-119.87014970659706,48.01878168400683],[-119.89527476454764,48.04970783286832],[-119.84502464864647,48.07719774296742],[-119.68350641896419,48.09351987708877],[-119.66914924299243,48.067748086370855],[-119.694274300943,48.03166757936579],[-119.65120277302772,47.9998823708137],[-119.61530983309832,47.9998823708137],[-119.50045242532426,48.082352101111006],[-119.43584513345132,48.07633868327682],[-119.40354148751487,48.05056689255892],[-119.34252348963489,48.04970783286832],[-119.32816631366313,48.09695611585115],[-119.29945196171961,48.11585542904428],[-119.25638043380434,48.102110473994735],[-119.15229090800906,48.14592251821517],[-119.0553799701997,48.137331921309205],[-119.03025491224912,48.113278249972495],[-119.00154056030559,48.04283535534355],[-118.95129044440444,48.01878168400683],[-118.98359409034089,47.96208374442744],[-119.10563008610086,47.96208374442744],[-119.1271658500585,47.917412640516396],[-119.21330890588905,47.887345551345504],[-119.21330890588905,47.80058052259522],[-119.25638043380434,47.771372493114924],[-119.25638043380434,47.74216446363463],[-119.29945196171961,47.72841950858508],[-119.29945196171961,47.67000344962449],[-119.32098772567724,47.62705046509464],[-119.40354148751487,47.6124464503545],[-119.5327560712607,47.5273995409854],[-119.5327560712607,47.44149357192571],[-119.87732829458294,47.437198273472724],[-119.87732829458294,47.40799024399243],[-119.92039982249821,47.393386229252286],[-119.92039982249821,47.36417819977199],[-120.00295358433584,47.32036615555155],[-120.00654287832877,47.21985617175171],[-120.07473946419464,47.22586958958589],[-120.09268593415933,47.26195009659096],[-120.08550734617346,47.33926546874468],[-120.12857887408873,47.36589631915319],[-120.2865078097781,47.393386229252286],[-120.31881145571455,47.45695664635645],[-120.29368639776396,47.53856731696316],[-120.23266839988399,47.597842435614346],[-120.23625769387692,47.632204823238226],[-120.20036475394753,47.682030285292846],[-120.22190051790517,47.7232651504415],[-120.19318616596165,47.759345657446566],[-120.13216816808168,47.7765268512585],[-120.09268593415933,47.763640955899554],[-119.99577499634995,47.78168120940209],[-119.95988205642055,47.84611068619685],[-119.92039982249821,47.8624328203182],[-119.91681052850528,47.90109050639506],[-119.85938182461824,47.94232537154371],[-119.87014970659706,47.960365625046244]]]}},{"type":"Feature","id":"53019","properties":{"name":"Ferry","county_fips":"53019","state_abbr":"WA"},"geometry":{"type":"Polygon","coordinates":[[[-118.83643303663035,49.00068691035909],[-118.19753870588704,49.00068691035909],[-118.22266376383763,48.937975552945524],[-118.21189588185881,48.8898682102721],[-118.13293141401414,48.756713958229575],[-118.1042170620706,48.65190867597675],[-118.15087788397884,48.52047254331543],[-118.17959223592234,48.51531818517184],[-118.20471729387293,48.47322426033259],[-118.20112799987999,48.40535854477544],[-118.17241364793648,48.317734456334556],[-118.14011000200001,48.26962711366113],[-118.19036011790118,48.21550635315352],[-118.20112799987999,48.140768160071595],[-118.25137811578115,48.13217756316563],[-118.23343164581645,48.064311847608465],[-118.28368176171762,48.04111723596235],[-118.35546764157641,48.04970783286832],[-118.40212846348463,48.029090400293995],[-118.35187834758347,47.97496963978639],[-118.34111046560466,47.894218028870284],[-118.35546764157641,47.84181538774387],[-118.39136058150581,47.83064761176611],[-118.4451999913999,47.845251626506254],[-118.46673575535755,47.882191193201926],[-118.54570022320223,47.88390931258312],[-118.5349323412234,47.9148354614446],[-118.5708252811528,47.93201665525655],[-118.65337904299042,47.92686229711296],[-118.68927198291982,47.94232537154371],[-118.72875421684216,47.90023144670446],[-118.81130797867978,47.91998981958819],[-118.85079021260212,47.95778844597445],[-118.84720091860918,47.963801863808634],[-118.84361162461624,48.48181485723856],[-118.86873668256682,48.48181485723856],[-118.86873668256682,48.653626795357944],[-118.83643303663035,48.653626795357944],[-118.83643303663035,49.00068691035909]]]}},{"type":"Feature","id":"53021","properties":{"name":"Franklin","county_fips":"53021","state_abbr":"WA"},"geometry":{"type":"Polygon","coordinates":[[[-119.45379160341602,46.67950762636626],[-119.36764854758547,46.677789506985064],[-119.36764854758547,46.73792368532685],[-118.4451999913999,46.73706462563625],[-118.21189588185881,46.738782745017446],[-118.24778882178822,46.73448744656446],[-118.21907446984468,46.67950762636626],[-118.22984235182352,46.65717207441074],[-118.20112799987999,46.624527806168054],[-118.21548517585175,46.589306358853584],[-118.22984235182352,46.593601657306564],[-118.30521752567525,46.60562849297492],[-118.39136058150581,46.58071576194761],[-118.47032504935049,46.597037896068954],[-118.54928951719516,46.5558030309203],[-118.61389680906808,46.504259449484486],[-118.63543257302572,46.41405818197181],[-118.70362915889157,46.35993742146421],[-118.74670068680686,46.35993742146421],[-118.7682364507645,46.29808512374123],[-118.82925444864448,46.281762989619885],[-118.86514738857389,46.251695900449],[-118.97282620836208,46.238810005090045],[-119.04102279422793,46.19242078179781],[-119.12357655606556,46.224205990349894],[-119.20254102391023,46.235373766327655],[-119.26714831578315,46.28434016869168],[-119.24920184581845,46.31526631755317],[-119.27073760977609,46.37024613775137],[-119.25996972779727,46.435534674236735],[-119.27073760977609,46.51886346422464],[-119.40354148751487,46.61336003019029],[-119.41430936949368,46.65287677595775],[-119.45379160341602,46.67950762636626]]]}},{"type":"Feature","id":"53023","properties":{"name":"Garfield","county_fips":"53023","state_abbr":"WA"},"geometry":{"type":"Polygon","coordinates":[[[-117.85296648256482,46.624527806168054],[-117.79912707267073,46.62538686585865],[-117.74169836878369,46.694970700797],[-117.64837672496725,46.70012505894058],[-117.59812660906609,46.67263514884148],[-117.51557284722847,46.67693044729447],[-117.4653227313273,46.69926599924999],[-117.42942979139791,46.65717207441074],[-117.39353685146851,46.65373583564835],[-117.38994755747557,46.62538686585865],[-117.33610814758147,46.581574821638206],[-117.25355438574385,46.54549431463314],[-117.22842932779326,46.462165524645236],[-117.22842932779326,46.41148100290002],[-117.3576439115391,46.412340062590616],[-117.35405461754617,46.39773604785047],[-117.41866190941909,46.38313203311032],[-117.41866190941909,46.12197788716887],[-117.47967990729907,46.12197788716887],[-117.47967990729907,45.99827329172291],[-117.60171590305902,45.99913235141351],[-117.60171590305902,46.12111882747827],[-117.61248378503785,46.12111882747827],[-117.61248378503785,46.338460929199286],[-117.67350178291782,46.33760186950869],[-117.67350178291782,46.38313203311032],[-117.7165733108331,46.39773604785047],[-117.73810907479074,46.4716151812418],[-117.86373436454363,46.470756121551204],[-117.85296648256482,46.624527806168054]]]}},{"type":"Feature","id":"53025","properties":{"name":"Grant","county_fips":"53025","state_abbr":"WA"},"geometry":{"type":"Polygon","coordinates":[[[-120.00654287832877,47.21985617175171],[-120.00295358433584,47.32036615555155],[-119.92039982249821,47.36417819977199],[-119.92039982249821,47.393386229252286],[-119.87732829458294,47.40799024399243],[-119.87732829458294,47.437198273472724],[-119.5327560712607,47.44149357192571],[-119.5327560712607,47.5273995409854],[-119.40354148751487,47.6124464503545],[-119.32098772567724,47.62705046509464],[-119.29945196171961,47.67000344962449],[-119.29945196171961,47.72841950858508],[-119.25638043380434,47.74216446363463],[-119.25638043380434,47.771372493114924],[-119.21330890588905,47.80058052259522],[-119.21330890588905,47.887345551345504],[-119.1271658500585,47.917412640516396],[-119.10563008610086,47.96208374442744],[-118.98359409034089,47.96208374442744],[-118.97282620836208,47.94318443123431],[-118.98000479634796,47.26195009659096],[-118.98359409034089,46.91145374282742],[-119.36764854758547,46.91231280251802],[-119.36764854758547,46.73792368532685],[-119.36764854758547,46.677789506985064],[-119.45379160341602,46.67950762636626],[-119.51122030730306,46.727614969039685],[-119.61889912709125,46.64772241781417],[-119.70863147691476,46.64858147750477],[-119.75170300483003,46.635695582145814],[-119.87373900059,46.627964044930444],[-119.9455248804488,46.67607138760387],[-119.9742392323923,46.73706462563625],[-119.9275784104841,46.81695717686176],[-119.9634713504135,46.859051101701006],[-119.96706064440644,46.9440980110701],[-120.01013217232172,47.03945363672636],[-120.04243581825818,47.071238845278444],[-120.00295358433584,47.12621866547665],[-120.00654287832877,47.21985617175171]]]}},{"type":"Feature","id":"53027","properties":{"name":"Grays Harbor","county_fips":"53027","state_abbr":"WA"},"geometry":{"type":"Polygon","coordinates":[[[-124.35317790377903,47.53341295881958],[-124.04808791437914,47.53341295881958],[-124.04808791437914,47.51880894407943],[-123.50610452144521,47.517949884388834],[-123.50610452144521,47.25851385782857],[-123.49174734547344,47.25851385782857],[-123.4881580514805,47.082406621256204],[-123.20101453204532,47.084983800328],[-123.20460382603825,46.997359711887114],[-123.15794300413003,46.99564159250592],[-123.16153229812298,46.793762565215644],[-123.3697113497135,46.79204444583445],[-123.83990886278862,46.79204444583445],[-124.0983380302803,46.793762565215644],[-124.13782026420263,46.90544032499324],[-124.10910591225911,46.91231280251802],[-124.08757014830147,46.86764169860698],[-124.04808791437914,46.89427254901548],[-123.86144462674626,46.94839330952309],[-123.89733756667566,46.9715879211692],[-124.01937356243562,46.99134629405293],[-124.0265521504215,47.03000398012979],[-124.12346308823088,47.04203081579815],[-124.1521774401744,47.02141338322382],[-124.12346308823088,46.9440980110701],[-124.1808917921179,46.92605775756757],[-124.1701239101391,46.95870202581025],[-124.18448108611085,47.135668322073215],[-124.23473120201201,47.28686282761827],[-124.32087425784258,47.355587602866024],[-124.35317790377903,47.53341295881958]]]}},{"type":"Feature","id":"53029","properties":{"name":"Island","county_fips":"53029","state_abbr":"WA"},"geometry":{"type":"MultiPolygon","coordinates":[[[[-122.40419126561264,48.252445919849194],[-122.39701267762678,48.22839224851248],[-122.45085208752087,48.232687546965465],[-122.44008420554205,48.21207011439114],[-122.47956643946438,48.18801644305442],[-122.44367349953498,48.13045944378443],[-122.37906620766208,48.087506459254584],[-122.37547691366913,48.05743937008369],[-122.46879855748557,48.13045944378443],[-122.51187008540084,48.133895682546814],[-122.53699514335142,48.183721144601435],[-122.52981655536556,48.2498687407774],[-122.46520926349262,48.27048617335173],[-122.40419126561264,48.252445919849194]]],[[[-122.77029925289253,48.22753318882188],[-122.7236384309843,48.303989501285],[-122.67338831508314,48.35467402303022],[-122.66620972709725,48.401922306013056],[-122.60878102321023,48.41137196260962],[-122.58365596525965,48.395049828488276],[-122.58365596525965,48.352955903649026],[-122.51545937939379,48.32031163540635],[-122.50469149741497,48.29797608345083],[-122.55853090730906,48.28165394932949],[-122.61954890518905,48.29453984468844],[-122.623138199182,48.26962711366113],[-122.6697990210902,48.240419084180836],[-122.72004913699136,48.23440566634665],[-122.70928125501254,48.21378823377233],[-122.62672749317493,48.2223788306783],[-122.58724525925258,48.18629832367323],[-122.55853090730906,48.114137309663086],[-122.57288808328082,48.102110473994735],[-122.53699514335142,48.01620450493504],[-122.50828079140791,48.03939911658116],[-122.52622726137261,48.09695611585115],[-122.49033432144321,48.09437893677936],[-122.43290561755617,48.045412534415334],[-122.37547691366913,48.03424475843757],[-122.35035185571854,47.95349314752147],[-122.37906620766208,47.90366768546685],[-122.42931632356323,47.9148354614446],[-122.47238785147852,47.98871459483594],[-122.54776302533026,47.96723810257102],[-122.54058443734436,47.99300989328893],[-122.60878102321023,48.03080851967519],[-122.5980131412314,48.1107010709007],[-122.6159596111961,48.15880841357413],[-122.68056690306902,48.15537217481174],[-122.69133478504784,48.18114396552965],[-122.77029925289253,48.22753318882188]]]]}},{"type":"Feature","id":"53031","properties":{"name":"Jefferson","county_fips":"53031","state_abbr":"WA"},"geometry":{"type":"Polygon","coordinates":[[[-124.6116070712707,47.88047307382073],[-123.50610452144521,47.88133213351133],[-123.50610452144521,47.86672811877118],[-122.94976395253951,47.86672811877118],[-122.94976395253951,48.06517090729906],[-122.92822818858187,48.06517090729906],[-122.87797807268072,48.04713065379653],[-122.87438877868777,47.99644613205131],[-122.83849583875838,48.001600490194896],[-122.82772795677957,48.04713065379653],[-122.87797807268072,48.07633868327682],[-122.87797807268072,48.1107010709007],[-122.83490654476543,48.13475474223741],[-122.75953137091369,48.14334533914338],[-122.74876348893488,48.11671448873488],[-122.80260289882898,48.087506459254584],[-122.76670995889958,48.04455347472474],[-122.741584900949,48.04970783286832],[-122.73440631296313,48.090942698016974],[-122.69851337303372,48.10296953368533],[-122.6697990210902,48.01706356462564],[-122.7236384309843,48.00847296771967],[-122.68415619706195,47.9723924607146],[-122.65544184511845,47.90538580484804],[-122.60878102321023,47.887345551345504],[-122.63749537515375,47.86586905908058],[-122.69492407904079,47.867587178461775],[-122.6877454910549,47.83150667145671],[-122.74876348893488,47.80058052259522],[-122.78106713487134,47.70350677755777],[-122.8313172507725,47.69577524034239],[-122.79183501685016,47.79284898537985],[-122.8133707808078,47.80745300011999],[-122.88156736667366,47.720687971369706],[-122.89592454264542,47.67515780776807],[-122.97847830448305,47.606433032520314],[-123.36612205572055,47.60729209221091],[-123.50610452144521,47.60471491313913],[-123.50610452144521,47.517949884388834],[-124.04808791437914,47.51880894407943],[-124.04808791437914,47.53341295881958],[-124.35317790377903,47.53341295881958],[-124.37112437374373,47.59956055499554],[-124.42496378363782,47.73872822487224],[-124.47521389953899,47.76965437373373],[-124.48957107551075,47.81690265671656],[-124.5398211914119,47.836661029600286],[-124.5577676613766,47.863291880008795],[-124.6116070712707,47.88047307382073]]]}},{"type":"Feature","id":"53033","properties":{"name":"King","county_fips":"53033","state_abbr":"WA"},"geometry":{"type":"MultiPolygon","coordinates":[[[[-122.39701267762678,47.7782449706397],[-121.99142245642456,47.775667791567905],[-121.58583223522234,47.7773859109491],[-121.4566176514765,47.78082214971149],[-121.11922401614015,47.77996309002089],[-121.06538460624606,47.71381549384493],[-121.1228133101331,47.68546652405523],[-121.1335811921119,47.64594977828777],[-121.11204542815427,47.59698337592375],[-121.21613495394953,47.56949346582465],[-121.30227800978008,47.486164675836754],[-121.42790329953299,47.420876139351385],[-121.43867118151181,47.37190973698736],[-121.46738553345533,47.367614438534375],[-121.43149259352593,47.3349701702917],[-121.42790329953299,47.28944000669006],[-121.34176024370242,47.28084940978409],[-121.33817094970948,47.24734608185081],[-121.36688530165301,47.224151470204696],[-121.31663518575185,47.21212463453634],[-121.30227800978008,47.1391045608356],[-121.39559965359652,47.13309114300142],[-121.38124247762477,47.08756097939979],[-121.44584976949768,47.084983800328],[-121.48892129741296,47.115909949189486],[-121.58942152921529,47.12020524764247],[-121.66120740907408,47.159721993409924],[-121.68633246702467,47.14941327712276],[-121.79401128681286,47.17346694845948],[-121.84426140271401,47.143399859288586],[-121.905279400594,47.15370857557575],[-121.93758304653045,47.138245501145],[-121.99860104441044,47.17260788876888],[-122.04526186631865,47.17174882907828],[-122.10986915819157,47.20868839577395],[-122.14217280412802,47.25679573844738],[-122.33599467974679,47.25765479813797],[-122.4185484415844,47.32036615555155],[-122.32522679776797,47.34871512534124],[-122.32522679776797,47.39166810987109],[-122.35394114971149,47.44149357192571],[-122.38265550165501,47.45094322852228],[-122.36111973769738,47.48101031769317],[-122.39701267762678,47.51537270531705],[-122.42213773557735,47.57636594334942],[-122.34317326773267,47.60901021159211],[-122.42931632356323,47.65883567364673],[-122.37188761967619,47.729278568275674],[-122.39701267762678,47.7782449706397]]],[[[-122.52622726137261,47.35902384162841],[-122.51187008540084,47.44922510914108],[-122.47597714547145,47.51107740686406],[-122.43290561755617,47.46640630295302],[-122.44008420554205,47.4165808408984],[-122.37188761967619,47.3890909307993],[-122.4364949115491,47.36589631915319],[-122.45444138151382,47.343560767197665],[-122.51904867338672,47.3332520509105],[-122.52622726137261,47.35902384162841]]]]}},{"type":"Feature","id":"53035","properties":{"name":"Kitsap","county_fips":"53035","state_abbr":"WA"},"geometry":{"type":"MultiPolygon","coordinates":[[[[-122.54776302533026,47.40369494553945],[-122.80260289882898,47.40369494553945],[-122.80260289882898,47.52052706346063],[-123.01796053840538,47.52052706346063],[-122.96771042250421,47.58581559994599],[-122.85644230872308,47.64938601705016],[-122.75235278292783,47.67343968838688],[-122.741584900949,47.73615104580045],[-122.68415619706195,47.798862403214024],[-122.57288808328082,47.85727846217461],[-122.60519172921728,47.940607252162515],[-122.52622726137261,47.906244864538635],[-122.47597714547145,47.74560070239701],[-122.55494161331612,47.74560070239701],[-122.54417373133731,47.71123831477314],[-122.50469149741497,47.69921147910478],[-122.51904867338672,47.65110413643136],[-122.49392361543615,47.63478200231002],[-122.49392361543615,47.58925183870838],[-122.54417373133731,47.556607570465694],[-122.54776302533026,47.52396330222302],[-122.49392361543615,47.51021834717346],[-122.52981655536556,47.46898348202481],[-122.54776302533026,47.40369494553945]]]]}},{"type":"Feature","id":"53037","properties":{"name":"Kittitas","county_fips":"53037","state_abbr":"WA"},"geometry":{"type":"Polygon","coordinates":[[[-121.11204542815427,47.59698337592375],[-121.10845613416134,47.59268807747077],[-121.10845613416134,47.59182901778017],[-121.10845613416134,47.59268807747077],[-121.10845613416134,47.59182901778017],[-121.06179531225311,47.54200355572555],[-120.9971880203802,47.51880894407943],[-120.93258072850728,47.459533825428245],[-120.9254021405214,47.43290297501974],[-120.86079484864848,47.42001707966079],[-120.86079484864848,47.42001707966079],[-120.84284837868378,47.41228554244542],[-120.84284837868378,47.41228554244542],[-120.80336614476144,47.42259425873258],[-120.80336614476144,47.42259425873258],[-120.7818303808038,47.39939964708646],[-120.73158026490265,47.393386229252286],[-120.72440167691676,47.37190973698736],[-120.66697297302971,47.343560767197665],[-120.58441921119211,47.33840640905408],[-120.57006203522035,47.310057439264384],[-120.51622262532624,47.32036615555155],[-120.39059733557335,47.26195009659096],[-120.09268593415933,47.26195009659096],[-120.07473946419464,47.22586958958589],[-120.00654287832877,47.21985617175171],[-120.00295358433584,47.12621866547665],[-120.04243581825818,47.071238845278444],[-120.01013217232172,47.03945363672636],[-119.96706064440644,46.9440980110701],[-119.9634713504135,46.859051101701006],[-119.9275784104841,46.81695717686176],[-119.9742392323923,46.73706462563625],[-120.50904403734037,46.73792368532685],[-120.50904403734037,46.82468871407713],[-120.63466932709326,46.82554777376773],[-120.63466932709326,46.91231280251802],[-121.02590237232371,46.91145374282742],[-121.09050966419663,46.96901074209741],[-121.09050966419663,46.99134629405293],[-121.22331354193541,47.06694354682546],[-121.28074224582245,47.08842003909038],[-121.35970671366712,47.070379785587846],[-121.38124247762477,47.08756097939979],[-121.39559965359652,47.13309114300142],[-121.30227800978008,47.1391045608356],[-121.31663518575185,47.21212463453634],[-121.36688530165301,47.224151470204696],[-121.33817094970948,47.24734608185081],[-121.34176024370242,47.28084940978409],[-121.42790329953299,47.28944000669006],[-121.43149259352593,47.3349701702917],[-121.46738553345533,47.367614438534375],[-121.43867118151181,47.37190973698736],[-121.42790329953299,47.420876139351385],[-121.30227800978008,47.486164675836754],[-121.21613495394953,47.56949346582465],[-121.11204542815427,47.59698337592375]]]}},{"type":"Feature","id":"53039","properties":{"name":"Klickitat","county_fips":"53039","state_abbr":"WA"},"geometry":{"type":"Polygon","coordinates":[[[-121.52122494334942,46.04380345532454],[-121.1335811921119,46.04466251501514],[-121.068973900239,46.042085335943355],[-120.57365132921328,46.04122627625276],[-119.86656041260412,46.04122627625276],[-119.86656041260412,45.83591101020009],[-119.9993642903429,45.81271639855398],[-120.07115017020169,45.785226488454875],[-120.17165040200402,45.76203187680876],[-120.21113263592636,45.72595136980369],[-120.28291851578516,45.72165607135071],[-120.4049545115451,45.69932051939519],[-120.48391897938978,45.69416616125161],[-120.59159779917798,45.746568802378015],[-120.65261579705796,45.73711914578145],[-120.68850873698736,45.715642653516525],[-120.85720555465554,45.67183060929609],[-120.91463425854258,45.6409044604346],[-120.9433486104861,45.65636753486534],[-121.06538460624606,45.652931296102956],[-121.1335811921119,45.60997831157311],[-121.18383130801308,45.60654207281072],[-121.21613495394953,45.67097154960549],[-121.33817094970948,45.70533393722936],[-121.44226047550475,45.69760240001399],[-121.52481423734237,45.72509231011309],[-121.53917141331412,45.76976341402413],[-121.51763564935649,45.78179024969249],[-121.61095729317293,45.78264930938309],[-121.61095729317293,46.04380345532454],[-121.52122494334942,46.04380345532454]]]}},{"type":"Feature","id":"53041","properties":{"name":"Lewis","county_fips":"53041","state_abbr":"WA"},"geometry":{"type":"Polygon","coordinates":[[[-123.3697113497135,46.79204444583445],[-123.16153229812298,46.793762565215644],[-123.16153229812298,46.76455453573535],[-122.6159596111961,46.76197735666356],[-122.20319080200801,46.762836416354155],[-122.04167257232572,46.74221898377983],[-121.95552951649515,46.755104879138784],[-121.93040445854459,46.74050086439863],[-121.8334935207352,46.73019214811147],[-121.75811834688346,46.78345384892848],[-121.4566176514765,46.78345384892848],[-121.43149259352593,46.74221898377983],[-121.37047459564596,46.72589684965849],[-121.37765318363182,46.68638010389103],[-121.40995682956829,46.68380292481924],[-121.41354612356122,46.64858147750477],[-121.38842106561066,46.621091567405664],[-121.41354612356122,46.558380209992094],[-121.45302835748356,46.53346747896478],[-121.43508188751886,46.47591047969479],[-121.38483177161771,46.41062194320943],[-121.39559965359652,46.38828639125391],[-121.52122494334942,46.38828639125391],[-122.24267303593035,46.385709212182114],[-122.36470903169031,46.38742733156331],[-123.21896100201002,46.385709212182114],[-123.35894346773466,46.38399109280092],[-123.35894346773466,46.56181644875448],[-123.36612205572055,46.562675508445075],[-123.3697113497135,46.79204444583445]]]}},{"type":"Feature","id":"53043","properties":{"name":"Lincoln","county_fips":"53043","state_abbr":"WA"},"geometry":{"type":"Polygon","coordinates":[[[-118.97282620836208,47.94318443123431],[-118.85079021260212,47.95778844597445],[-118.81130797867978,47.91998981958819],[-118.72875421684216,47.90023144670446],[-118.68927198291982,47.94232537154371],[-118.65337904299042,47.92686229711296],[-118.5708252811528,47.93201665525655],[-118.5349323412234,47.9148354614446],[-118.54570022320223,47.88390931258312],[-118.46673575535755,47.882191193201926],[-118.4451999913999,47.845251626506254],[-118.39136058150581,47.83064761176611],[-118.35546764157641,47.84181538774387],[-118.34111046560466,47.894218028870284],[-118.24778882178822,47.94318443123431],[-118.21189588185881,47.94576161030609],[-118.14369929599295,47.88476837227371],[-118.11857423804237,47.832365731147306],[-118.04678835818358,47.79198992568925],[-117.98935965429654,47.8340838505285],[-117.93552024440244,47.82291607455074],[-117.88168083450833,47.84782880557805],[-117.82066283662836,47.825493253622525],[-117.82425213062129,47.26023197720976],[-117.96064530235302,47.26023197720976],[-118.98000479634796,47.26195009659096],[-118.97282620836208,47.94318443123431]]]}},{"type":"Feature","id":"53045","properties":{"name":"Mason","county_fips":"53045","state_abbr":"WA"},"geometry":{"type":"Polygon","coordinates":[[[-122.97847830448305,47.606433032520314],[-123.10769288822888,47.45781570604705],[-123.15435371013709,47.355587602866024],[-123.11128218222181,47.3624600803908],[-123.0287284203842,47.351292304413036],[-122.98565689246891,47.374486916059155],[-122.91028171861717,47.3890909307993],[-122.89951383663836,47.42173519904198],[-123.05744277232772,47.36847349822497],[-123.11846077020769,47.39166810987109],[-123.01796053840538,47.52052706346063],[-122.80260289882898,47.52052706346063],[-122.80260289882898,47.40369494553945],[-122.80260289882898,47.35301042379423],[-122.86362089670897,47.270540693496926],[-122.83849583875838,47.20868839577395],[-122.86003160271602,47.1674535306253],[-122.90310313063131,47.15714481433814],[-122.93540677656776,47.189789082580816],[-123.00360336243361,47.151131396503956],[-123.01437124441244,47.12364148640486],[-123.07538924229242,47.10646029259292],[-123.07538924229242,47.084983800328],[-123.20101453204532,47.084983800328],[-123.4881580514805,47.082406621256204],[-123.49174734547344,47.25851385782857],[-123.50610452144521,47.25851385782857],[-123.50610452144521,47.517949884388834],[-123.50610452144521,47.60471491313913],[-123.36612205572055,47.60729209221091],[-122.97847830448305,47.606433032520314]]]}},{"type":"Feature","id":"53047","properties":{"name":"Okanogan","county_fips":"53047","state_abbr":"WA"},"geometry":{"type":"Polygon","coordinates":[[[-120.85002696666966,49.00068691035909],[-120.0352572302723,48.999827850668495],[-119.42866654546545,48.999827850668495],[-118.83643303663035,49.00068691035909],[-118.83643303663035,48.653626795357944],[-118.86873668256682,48.653626795357944],[-118.86873668256682,48.48181485723856],[-118.84361162461624,48.48181485723856],[-118.84720091860918,47.963801863808634],[-118.85079021260212,47.95778844597445],[-118.97282620836208,47.94318443123431],[-118.98359409034089,47.96208374442744],[-118.95129044440444,48.01878168400683],[-119.00154056030559,48.04283535534355],[-119.03025491224912,48.113278249972495],[-119.0553799701997,48.137331921309205],[-119.15229090800906,48.14592251821517],[-119.25638043380434,48.102110473994735],[-119.29945196171961,48.11585542904428],[-119.32816631366313,48.09695611585115],[-119.34252348963489,48.04970783286832],[-119.40354148751487,48.05056689255892],[-119.43584513345132,48.07633868327682],[-119.50045242532426,48.082352101111006],[-119.61530983309832,47.9998823708137],[-119.65120277302772,47.9998823708137],[-119.694274300943,48.03166757936579],[-119.66914924299243,48.067748086370855],[-119.68350641896419,48.09351987708877],[-119.84502464864647,48.07719774296742],[-119.89527476454764,48.04970783286832],[-119.87014970659706,48.01878168400683],[-119.87014970659706,47.960365625046244],[-120.04961440624405,47.960365625046244],[-120.08909664016639,48.017922624316235],[-120.13934675606755,48.03510381812817],[-120.14293605006048,48.064311847608465],[-120.22548981189811,48.084070220492194],[-120.36188298362983,48.163962771717706],[-120.351115101651,48.206915756247554],[-120.46597250942509,48.27048617335173],[-120.50545474334743,48.302271381903815],[-120.58082991719917,48.31859351602515],[-120.57724062320622,48.37786863467634],[-120.63825862108621,48.39762700756007],[-120.66338367903678,48.451747768067676],[-120.63825862108621,48.49641887197871],[-120.64902650306502,48.53249937898378],[-120.70286591295911,48.53164031929318],[-120.68850873698736,48.57545236351363],[-120.72081238292382,48.59606979608795],[-120.76029461684615,48.583183900729],[-120.78900896878969,48.62527782556825],[-120.75311602886029,48.657063034120334],[-120.67774085500855,48.73523746596465],[-120.73516955889559,48.78678104740047],[-120.73516955889559,48.86409641955419],[-120.76747320483204,48.876123255222545],[-120.79259826278262,48.95945204521045],[-120.83566979069789,48.93969367232672],[-120.88591990659906,48.97491511964119],[-120.85002696666966,49.00068691035909]]]}},{"type":"Feature","id":"53049","properties":{"name":"Pacific","county_fips":"53049","state_abbr":"WA"},"geometry":{"type":"Polygon","coordinates":[[[-124.0983380302803,46.793762565215644],[-123.83990886278862,46.79204444583445],[-123.3697113497135,46.79204444583445],[-123.36612205572055,46.562675508445075],[-123.35894346773466,46.56181644875448],[-123.35894346773466,46.38399109280092],[-123.72505145501455,46.384850152491516],[-123.72864074900748,46.28949452683526],[-123.76094439494395,46.27489051209511],[-123.80760521685215,46.28348110900108],[-123.87580180271803,46.23966906478064],[-123.90810544865448,46.24568248261482],[-123.98348062250622,46.30925289971899],[-124.01937356243562,46.316125377243765],[-124.0444986203862,46.27574957178571],[-124.0803915603156,46.26715897487974],[-124.05885579635796,46.38656827187271],[-124.05526650236501,46.493091673506726],[-124.06962367833677,46.63483652245522],[-124.02296285642856,46.582433881328804],[-124.03014144441443,46.496527912269116],[-124.01578426844267,46.37883673465734],[-123.9547662705627,46.37883673465734],[-123.95117697656976,46.41062194320943],[-123.98706991649917,46.4449843308333],[-123.98706991649917,46.49738697195971],[-123.94399838858388,46.465601763407626],[-123.89374827268273,46.53690371772717],[-123.96194485854858,46.63655464183641],[-123.92246262462623,46.67263514884148],[-123.83273027480274,46.71816531244312],[-123.89374827268273,46.7499505209952],[-123.91528403664036,46.72675590934909],[-123.97989132851328,46.72503778996789],[-123.96553415254152,46.705279417084164],[-124.02296285642856,46.708715655846554],[-124.09474873628736,46.746514282232816],[-124.0983380302803,46.793762565215644]]]}},{"type":"Feature","id":"53051","properties":{"name":"Pend Oreille","county_fips":"53051","state_abbr":"WA"},"geometry":{"type":"Polygon","coordinates":[[[-117.42942979139791,49.00068691035909],[-117.03101815818158,48.998968790977905],[-117.03101815818158,48.84691522574225],[-117.03460745217451,48.7498414807048],[-117.03460745217451,48.370996157151566],[-117.04178604016039,48.045412534415334],[-117.43660837938378,48.04713065379653],[-117.43660837938378,48.13475474223741],[-117.5012156712567,48.13475474223741],[-117.5012156712567,48.65620397442974],[-117.63043025500255,48.65620397442974],[-117.63043025500255,48.74296900318002],[-117.56223366913667,48.74296900318002],[-117.56223366913667,48.83660650945509],[-117.49762637726377,48.83660650945509],[-117.49762637726377,48.92337153820537],[-117.42942979139791,48.92337153820537],[-117.42942979139791,49.00068691035909]]]}},{"type":"Feature","id":"53053","properties":{"name":"Pierce","county_fips":"53053","state_abbr":"WA"},"geometry":{"type":"MultiPolygon","coordinates":[[[[-122.69492407904079,47.10388311352113],[-122.63749537515375,47.135668322073215],[-122.63749537515375,47.16401729186291],[-122.59083455324551,47.17776224691246],[-122.56212020130201,47.24562796246962],[-122.52622726137261,47.29115812607125],[-122.53340584935849,47.316929916789164],[-122.44367349953498,47.26710445473454],[-122.40778055960558,47.28858094699946],[-122.44367349953498,47.30060778266782],[-122.4185484415844,47.32036615555155],[-122.33599467974679,47.25765479813797],[-122.14217280412802,47.25679573844738],[-122.10986915819157,47.20868839577395],[-122.04526186631865,47.17174882907828],[-121.99860104441044,47.17260788876888],[-121.93758304653045,47.138245501145],[-121.905279400594,47.15370857557575],[-121.84426140271401,47.143399859288586],[-121.79401128681286,47.17346694845948],[-121.68633246702467,47.14941327712276],[-121.66120740907408,47.159721993409924],[-121.58942152921529,47.12020524764247],[-121.48892129741296,47.115909949189486],[-121.44584976949768,47.084983800328],[-121.38124247762477,47.08756097939979],[-121.37406388963889,47.0566348305383],[-121.40636753557536,46.9990778312683],[-121.44584976949768,46.98017851807517],[-121.4566176514765,46.92348057849578],[-121.52481423734237,46.87279605675056],[-121.49609988539885,46.862487340463396],[-121.4566176514765,46.78345384892848],[-121.75811834688346,46.78345384892848],[-121.8334935207352,46.73019214811147],[-121.93040445854459,46.74050086439863],[-121.95552951649515,46.755104879138784],[-122.04167257232572,46.74221898377983],[-122.20319080200801,46.762836416354155],[-122.27138738787387,46.76713171480714],[-122.30728032780327,46.78946726676266],[-122.30369103381034,46.828124952839524],[-122.45085208752087,46.85217862417623],[-122.49033432144321,46.86764169860698],[-122.49392361543615,46.90544032499324],[-122.56212020130201,46.93378929478294],[-122.56570949529495,46.966433563025625],[-122.63749537515375,46.97846039869398],[-122.67338831508314,47.01454090569905],[-122.70928125501254,47.084983800328],[-122.69492407904079,47.10388311352113]]],[[[-122.80260289882898,47.35301042379423],[-122.80260289882898,47.40369494553945],[-122.54776302533026,47.40369494553945],[-122.53699514335142,47.37620503544035],[-122.57288808328082,47.32723863307632],[-122.54776302533026,47.28514470823708],[-122.60160243522435,47.21727899267992],[-122.69851337303372,47.28428564854648],[-122.6697990210902,47.366755378843784],[-122.72722772497724,47.33067487183871],[-122.74876348893488,47.27655411133111],[-122.6410846691467,47.205252157011564],[-122.67697760907609,47.19150720196201],[-122.67338831508314,47.15027233681336],[-122.71287054900549,47.12793678485784],[-122.77029925289253,47.1674535306253],[-122.84208513275132,47.25765479813797],[-122.79901360483603,47.28944000669006],[-122.80260289882898,47.35301042379423]]]]}},{"type":"Feature","id":"53055","properties":{"name":"San Juan","county_fips":"53055","state_abbr":"WA"},"geometry":{"type":"MultiPolygon","coordinates":[[[[-122.97847830448305,48.79365352492524],[-122.9389960705607,48.79021728616286],[-122.81696007480073,48.74468712256122],[-122.84567442674427,48.737814645036444],[-122.92463889458894,48.75499583884838],[-122.97847830448305,48.79365352492524]]],[[[-123.07179994829949,48.70001601865018],[-123.0107819504195,48.722351570605696],[-123.00360336243361,48.694002600816],[-123.07179994829949,48.70001601865018]]],[[[-123.20460382603825,48.59606979608795],[-123.17947876808768,48.62184158680586],[-123.10769288822888,48.622700646496455],[-123.10051430024299,48.59778791546915],[-123.0466748903489,48.56943894567945],[-122.98565689246891,48.56170740846407],[-123.05026418434184,48.62098252711527],[-122.91746030660306,48.71376097369973],[-122.87438877868777,48.71204285431853],[-122.741584900949,48.66221739226391],[-122.80978148681487,48.61926440773407],[-122.77029925289253,48.56256646815467],[-122.7774778408784,48.50930476733767],[-122.81696007480073,48.487828275072744],[-122.80260289882898,48.42855315642156],[-122.87438877868777,48.418244440134394],[-122.92822818858187,48.46119742466424],[-122.96053183451833,48.45088870837708],[-123.039496302363,48.460338364973644],[-123.15076441614416,48.51360006579065],[-123.17230018010179,48.57888860227602],[-123.20460382603825,48.59606979608795]]],[[[-123.23690747197472,48.68884824267242],[-123.17230018010179,48.68025764576645],[-123.10769288822888,48.633868422474215],[-123.21537170801707,48.66908986978869],[-123.23690747197472,48.68884824267242]]]]}},{"type":"Feature","id":"53057","properties":{"name":"Skagit","county_fips":"53057","state_abbr":"WA"},"geometry":{"type":"MultiPolygon","coordinates":[[[[-122.6518525511255,48.548821513105125],[-122.6518525511255,48.583183900729],[-122.5800666712667,48.54796245341453],[-122.6410846691467,48.525626901459006],[-122.6518525511255,48.548821513105125]]],[[[-122.49033432144321,48.645036198451976],[-121.5642964712647,48.64245901938018],[-120.9074556705567,48.640740899998995],[-120.9074556705567,48.657063034120334],[-120.75311602886029,48.657063034120334],[-120.78900896878969,48.62527782556825],[-120.76029461684615,48.583183900729],[-120.72081238292382,48.59606979608795],[-120.68850873698736,48.57545236351363],[-120.70286591295911,48.53164031929318],[-120.7638839108391,48.50844570764707],[-120.8177233207332,48.51961348362483],[-120.85720555465554,48.54796245341453],[-120.90386637656376,48.52390878207781],[-120.95052719847197,48.529922199911994],[-120.95052719847197,48.4998551107411],[-121.03667025430254,48.495559812288114],[-121.06179531225311,48.460338364973644],[-121.03667025430254,48.43198939518395],[-121.06538460624606,48.39161358972589],[-121.04384884228841,48.364123679626786],[-121.07256319423193,48.317734456334556],[-121.00077731437314,48.29625796406963],[-121.96629739847398,48.29711702376023],[-122.37906620766208,48.29797608345083],[-122.40778055960558,48.326325053240524],[-122.50828079140791,48.364982739317384],[-122.55494161331612,48.406217604466036],[-122.55135231932319,48.43972093239932],[-122.65544184511845,48.41137196260962],[-122.68056690306902,48.43972093239932],[-122.66620972709725,48.47837861847618],[-122.71287054900549,48.46377460373603],[-122.70210266702667,48.49727793166931],[-122.6159596111961,48.521331603006026],[-122.56929878928788,48.50844570764707],[-122.53699514335142,48.46635178280782],[-122.46879855748557,48.472365200641995],[-122.50469149741497,48.56514364722646],[-122.44367349953498,48.57029800537005],[-122.42572702957028,48.59950603485034],[-122.49033432144321,48.645036198451976]]],[[[-122.741584900949,48.584042960419595],[-122.71287054900549,48.60895569144691],[-122.6697990210902,48.568579885988854],[-122.7236384309843,48.54023091619916],[-122.741584900949,48.584042960419595]]]]}},{"type":"Feature","id":"53059","properties":{"name":"Skamania","county_fips":"53059","state_abbr":"WA"},"geometry":{"type":"Polygon","coordinates":[[[-122.2462623299233,46.054112171611706],[-122.2390837419374,46.38313203311032],[-122.24267303593035,46.385709212182114],[-121.52122494334942,46.38828639125391],[-121.52122494334942,46.04380345532454],[-121.61095729317293,46.04380345532454],[-121.61095729317293,45.78264930938309],[-121.51763564935649,45.78179024969249],[-121.53917141331412,45.76976341402413],[-121.52481423734237,45.72509231011309],[-121.63249305713057,45.704474877538765],[-121.73658258292582,45.69416616125161],[-121.81195775677756,45.70705205661056],[-121.86579716667165,45.69330710156101],[-121.9232258705587,45.649495057340566],[-122.1026905702057,45.58334746116461],[-122.18524433204331,45.577334043330424],[-122.24985162391623,45.54812601385013],[-122.24985162391623,45.81872981638816],[-122.2462623299233,46.054112171611706]]]}},{"type":"Feature","id":"53061","properties":{"name":"Snohomish","county_fips":"53061","state_abbr":"WA"},"geometry":{"type":"MultiPolygon","coordinates":[[[[-122.40419126561264,48.252445919849194],[-122.37906620766208,48.29797608345083],[-121.96629739847398,48.29711702376023],[-121.00077731437314,48.29625796406963],[-121.01154519635196,48.2773586508765],[-120.92181284652847,48.18801644305442],[-120.91104496454963,48.16138559264592],[-120.9612950804508,48.14592251821517],[-120.95052719847197,48.11671448873488],[-121.01154519635196,48.07719774296742],[-121.11922401614015,48.056580310393095],[-121.1515276620766,48.036821937509366],[-121.11922401614015,47.9990233111231],[-121.14793836808367,47.979264938239375],[-121.17665272002719,47.8882046110361],[-121.1228133101331,47.83494291021909],[-121.07615248822488,47.82291607455074],[-121.11922401614015,47.77996309002089],[-121.4566176514765,47.78082214971149],[-121.58583223522234,47.7773859109491],[-121.99142245642456,47.775667791567905],[-122.39701267762678,47.7782449706397],[-122.39342338363383,47.80745300011999],[-122.33958397373974,47.84696974588745],[-122.30728032780327,47.94919784906848],[-122.2283158599586,47.97067434133341],[-122.23190515395153,48.02994945998459],[-122.2821552698527,48.04970783286832],[-122.36470903169031,48.12358696625965],[-122.36111973769738,48.187157383363825],[-122.39701267762678,48.22839224851248],[-122.40419126561264,48.252445919849194]]]]}},{"type":"Feature","id":"53063","properties":{"name":"Spokane","county_fips":"53063","state_abbr":"WA"},"geometry":{"type":"Polygon","coordinates":[[[-117.82066283662836,47.825493253622525],[-117.79194848468484,47.81174829857298],[-117.66632319493195,47.88047307382073],[-117.65914460694606,47.843533507125066],[-117.60171590305902,47.80315770166701],[-117.53351931719317,47.79456710476104],[-117.53351931719317,48.04798971348713],[-117.43660837938378,48.04713065379653],[-117.04178604016039,48.045412534415334],[-117.04178604016039,47.97754681885818],[-117.04178604016039,47.36589631915319],[-117.04178604016039,47.259372917519165],[-117.82425213062129,47.26023197720976],[-117.82066283662836,47.825493253622525]]]}},{"type":"Feature","id":"53065","properties":{"name":"Stevens","county_fips":"53065","state_abbr":"WA"},"geometry":{"type":"Polygon","coordinates":[[[-118.19753870588704,49.00068691035909],[-117.42942979139791,49.00068691035909],[-117.42942979139791,48.92337153820537],[-117.49762637726377,48.92337153820537],[-117.49762637726377,48.83660650945509],[-117.56223366913667,48.83660650945509],[-117.56223366913667,48.74296900318002],[-117.63043025500255,48.74296900318002],[-117.63043025500255,48.65620397442974],[-117.5012156712567,48.65620397442974],[-117.5012156712567,48.13475474223741],[-117.43660837938378,48.13475474223741],[-117.43660837938378,48.04713065379653],[-117.53351931719317,48.04798971348713],[-117.53351931719317,47.79456710476104],[-117.60171590305902,47.80315770166701],[-117.65914460694606,47.843533507125066],[-117.66632319493195,47.88047307382073],[-117.79194848468484,47.81174829857298],[-117.82066283662836,47.825493253622525],[-117.88168083450833,47.84782880557805],[-117.93552024440244,47.82291607455074],[-117.98935965429654,47.8340838505285],[-118.04678835818358,47.79198992568925],[-118.11857423804237,47.832365731147306],[-118.14369929599295,47.88476837227371],[-118.21189588185881,47.94576161030609],[-118.24778882178822,47.94318443123431],[-118.34111046560466,47.894218028870284],[-118.35187834758347,47.97496963978639],[-118.40212846348463,48.029090400293995],[-118.35546764157641,48.04970783286832],[-118.28368176171762,48.04111723596235],[-118.23343164581645,48.064311847608465],[-118.25137811578115,48.13217756316563],[-118.20112799987999,48.140768160071595],[-118.19036011790118,48.21550635315352],[-118.14011000200001,48.26962711366113],[-118.17241364793648,48.317734456334556],[-118.20112799987999,48.40535854477544],[-118.20471729387293,48.47322426033259],[-118.17959223592234,48.51531818517184],[-118.15087788397884,48.52047254331543],[-118.1042170620706,48.65190867597675],[-118.13293141401414,48.756713958229575],[-118.21189588185881,48.8898682102721],[-118.22266376383763,48.937975552945524],[-118.19753870588704,49.00068691035909]]]}},{"type":"Feature","id":"53067","properties":{"name":"Thurston","county_fips":"53067","state_abbr":"WA"},"geometry":{"type":"Polygon","coordinates":[[[-123.20101453204532,47.084983800328],[-123.07538924229242,47.084983800328],[-123.07538924229242,47.10646029259292],[-123.01437124441244,47.12364148640486],[-123.00360336243361,47.151131396503956],[-122.93540677656776,47.189789082580816],[-122.90310313063131,47.15714481433814],[-122.86003160271602,47.1674535306253],[-122.8133707808078,47.17948036629365],[-122.77388854688546,47.12278242671426],[-122.69492407904079,47.10388311352113],[-122.70928125501254,47.084983800328],[-122.67338831508314,47.01454090569905],[-122.63749537515375,46.97846039869398],[-122.56570949529495,46.966433563025625],[-122.56212020130201,46.93378929478294],[-122.49392361543615,46.90544032499324],[-122.49033432144321,46.86764169860698],[-122.45085208752087,46.85217862417623],[-122.30369103381034,46.828124952839524],[-122.30728032780327,46.78946726676266],[-122.27138738787387,46.76713171480714],[-122.20319080200801,46.762836416354155],[-122.6159596111961,46.76197735666356],[-123.16153229812298,46.76455453573535],[-123.16153229812298,46.793762565215644],[-123.15794300413003,46.99564159250592],[-123.20460382603825,46.997359711887114],[-123.20101453204532,47.084983800328]]]}},{"type":"Feature","id":"53069","properties":{"name":"Wahkiakum","county_fips":"53069","state_abbr":"WA"},"geometry":{"type":"Polygon","coordinates":[[[-123.35894346773466,46.38399109280092],[-123.21896100201002,46.385709212182114],[-123.21178241402413,46.17266240891408],[-123.27997899988999,46.14517249881498],[-123.3625327617276,46.14603155850558],[-123.43072934759347,46.182112065510644],[-123.42714005360054,46.22936034849348],[-123.47380087550874,46.26801803457034],[-123.54917604936048,46.25942743766437],[-123.67121204512044,46.26715897487974],[-123.68197992709926,46.296367004360036],[-123.72864074900748,46.28949452683526],[-123.72505145501455,46.384850152491516],[-123.35894346773466,46.38399109280092]]]}},{"type":"Feature","id":"53071","properties":{"name":"Walla Walla","county_fips":"53071","state_abbr":"WA"},"geometry":{"type":"Polygon","coordinates":[[[-118.22984235182352,46.593601657306564],[-118.24419952779527,46.56009832937329],[-118.24061023380233,46.29464888497884],[-118.11498494404944,46.29550794466944],[-118.11498494404944,46.207883856228555],[-117.99294894828947,46.207883856228555],[-117.99653824228241,46.0008504707947],[-118.98718338433383,45.999991411104105],[-118.94052256242563,46.027481321203204],[-118.94052256242563,46.06527994758947],[-118.97641550235502,46.139159080980804],[-119.04102279422793,46.19242078179781],[-118.97282620836208,46.238810005090045],[-118.86514738857389,46.251695900449],[-118.82925444864448,46.281762989619885],[-118.7682364507645,46.29808512374123],[-118.74670068680686,46.35993742146421],[-118.70362915889157,46.35993742146421],[-118.63543257302572,46.41405818197181],[-118.61389680906808,46.504259449484486],[-118.54928951719516,46.5558030309203],[-118.47032504935049,46.597037896068954],[-118.39136058150581,46.58071576194761],[-118.30521752567525,46.60562849297492],[-118.22984235182352,46.593601657306564]]]}},{"type":"Feature","id":"53073","properties":{"name":"Whatcom","county_fips":"53073","state_abbr":"WA"},"geometry":{"type":"MultiPolygon","coordinates":[[[[-122.7236384309843,48.73180122720226],[-122.70210266702667,48.74382806287062],[-122.60878102321023,48.645036198451976],[-122.67338831508314,48.68111670545704],[-122.7236384309843,48.73180122720226]]],[[[-120.85002696666966,49.00068691035909],[-120.88591990659906,48.97491511964119],[-120.83566979069789,48.93969367232672],[-120.79259826278262,48.95945204521045],[-120.76747320483204,48.876123255222545],[-120.73516955889559,48.86409641955419],[-120.73516955889559,48.78678104740047],[-120.67774085500855,48.73523746596465],[-120.75311602886029,48.657063034120334],[-120.9074556705567,48.657063034120334],[-120.9074556705567,48.640740899998995],[-121.5642964712647,48.64245901938018],[-122.49033432144321,48.645036198451976],[-122.51904867338672,48.71290191400913],[-122.49033432144321,48.75070054039539],[-122.53699514335142,48.776472331113304],[-122.5980131412314,48.77131797296972],[-122.63749537515375,48.73609652565525],[-122.60519172921728,48.69829789926899],[-122.67338831508314,48.73266028689286],[-122.64467396313962,48.78162668925688],[-122.68056690306902,48.803103181521806],[-122.71287054900549,48.79107634585345],[-122.71645984299843,48.84691522574225],[-122.79183501685016,48.89330444903448],[-122.75235278292783,48.911344702537015],[-122.77029925289253,48.942270851398504],[-122.81696007480073,48.95601580644806],[-122.75953137091369,49.00240502974029],[-122.09910127621276,49.00240502974029],[-121.75093975889757,48.99725067159671],[-121.23049212992129,49.00154597004969],[-120.85002696666966,49.00068691035909]]],[[[-123.08974641826418,49.00240502974029],[-123.03590700837007,49.00240502974029],[-123.0215498323983,48.97749229871298],[-123.0825678302783,48.975774179331786],[-123.08974641826418,49.00240502974029]]]]}},{"type":"Feature","id":"53075","properties":{"name":"Whitman","county_fips":"53075","state_abbr":"WA"},"geometry":{"type":"Polygon","coordinates":[[[-118.21189588185881,46.738782745017446],[-118.16164576595764,46.747373341923414],[-118.09703847408474,46.7791585504755],[-118.04678835818358,46.76799077449774],[-118.01448471224711,46.785171968309676],[-118.0037168302683,46.84874238541385],[-117.97141318433184,46.86764169860698],[-117.96064530235302,47.26023197720976],[-117.82425213062129,47.26023197720976],[-117.04178604016039,47.259372917519165],[-117.03819674616746,47.12707772516725],[-117.03819674616746,46.54205807587075],[-117.03819674616746,46.42608501764017],[-117.08485756807568,46.4174944207342],[-117.15305415394153,46.43038031609316],[-117.20689356383562,46.423507838568376],[-117.22842932779326,46.462165524645236],[-117.25355438574385,46.54549431463314],[-117.33610814758147,46.581574821638206],[-117.38994755747557,46.62538686585865],[-117.39353685146851,46.65373583564835],[-117.42942979139791,46.65717207441074],[-117.4653227313273,46.69926599924999],[-117.51557284722847,46.67693044729447],[-117.59812660906609,46.67263514884148],[-117.64837672496725,46.70012505894058],[-117.74169836878369,46.694970700797],[-117.79912707267073,46.62538686585865],[-117.85296648256482,46.624527806168054],[-117.88168083450833,46.59188353792537],[-117.95346671436714,46.59188353792537],[-118.0934491800918,46.57470234411343],[-118.16523505995059,46.554943971229704],[-118.21548517585175,46.589306358853584],[-118.20112799987999,46.624527806168054],[-118.22984235182352,46.65717207441074],[-118.21907446984468,46.67950762636626],[-118.24778882178822,46.73448744656446],[-118.21189588185881,46.738782745017446]]]}},{"type":"Feature","id":"53077","properties":{"name":"Yakima","county_fips":"53077","state_abbr":"WA"},"geometry":{"type":"Polygon","coordinates":[[[-121.38124247762477,47.08756097939979],[-121.35970671366712,47.070379785587846],[-121.28074224582245,47.08842003909038],[-121.22331354193541,47.06694354682546],[-121.09050966419663,46.99134629405293],[-121.09050966419663,46.96901074209741],[-121.02590237232371,46.91145374282742],[-120.63466932709326,46.91231280251802],[-120.63466932709326,46.82554777376773],[-120.50904403734037,46.82468871407713],[-120.50904403734037,46.73792368532685],[-119.9742392323923,46.73706462563625],[-119.9455248804488,46.67607138760387],[-119.87373900059,46.627964044930444],[-119.87373900059,46.21475633375333],[-119.86656041260412,46.21475633375333],[-119.86656041260412,46.04122627625276],[-120.57365132921328,46.04122627625276],[-121.068973900239,46.042085335943355],[-121.1335811921119,46.04466251501514],[-121.52122494334942,46.04380345532454],[-121.52122494334942,46.38828639125391],[-121.39559965359652,46.38828639125391],[-121.38483177161771,46.41062194320943],[-121.43508188751886,46.47591047969479],[-121.45302835748356,46.53346747896478],[-121.41354612356122,46.558380209992094],[-121.38842106561066,46.621091567405664],[-121.41354612356122,46.64858147750477],[-121.40995682956829,46.68380292481924],[-121.37765318363182,46.68638010389103],[-121.37047459564596,46.72589684965849],[-121.43149259352593,46.74221898377983],[-121.4566176514765,46.78345384892848],[-121.49609988539885,46.862487340463396],[-121.52481423734237,46.87279605675056],[-121.4566176514765,46.92348057849578],[-121.44584976949768,46.98017851807517],[-121.40636753557536,46.9990778312683],[-121.37406388963889,47.0566348305383],[-121.38124247762477,47.08756097939979]]]}}]}