{"type":"FeatureCollection","features":[{"type":"Feature","id":"55001","properties":{"name":"Adams","county_fips":"55001","state_abbr":"WI"},"geometry":{"type":"Polygon","coordinates":[[[-89.9031341595416,44.24922776166761],[-89.7236694598946,44.24750964228642],[-89.59804417014169,44.24579152290522],[-89.59804417014169,43.98206019789197],[-89.59804417014169,43.6427316201062],[-89.78468745777458,43.641013500725],[-89.82058039770398,43.69255708216082],[-89.86365192561925,43.78361740936408],[-89.96056286342863,43.86436902028019],[-89.98209862738626,43.91591260171601],[-89.95338427544274,43.92450319862198],[-89.97492003940039,43.99580515294152],[-90.00722368533685,44.00869104830048],[-90.02517015530155,44.08944265921659],[-89.97850933339333,44.12294598714986],[-89.97133074540746,44.16675803137031],[-89.92466992349924,44.152154016630156],[-89.9031341595416,44.191670762397614],[-89.92466992349924,44.21314725466254],[-89.9031341595416,44.24922776166761]]]}},{"type":"Feature","id":"55003","properties":{"name":"Ashland","county_fips":"55003","state_abbr":"WI"},"geometry":{"type":"MultiPolygon","coordinates":[[[[-90.46665331643317,47.00251407003069],[-90.43793896448965,47.073816024350236],[-90.39486743657436,47.07725226311263],[-90.41281390653906,47.012822786317855],[-90.46665331643317,47.00251407003069]]],[[[-90.5240820203202,46.87623229551295],[-90.44870684646845,46.904581265302646],[-90.49895696236962,46.86420545984459],[-90.5240820203202,46.87623229551295]]],[[[-90.65329660406604,46.92519869787697],[-90.63535013410134,46.943238951379506],[-90.52767131431314,46.96815168240682],[-90.50972484434844,46.95698390642906],[-90.54920707827078,46.91574904128041],[-90.63535013410134,46.90629938468384],[-90.65329660406604,46.92519869787697]]],[[[-90.76097542385423,46.83929272881728],[-90.75020754187541,46.862487340463396],[-90.67842166201662,46.89770878777787],[-90.67483236802367,46.88138665365653],[-90.76097542385423,46.83929272881728]]],[[[-90.73943965989659,46.96385638395383],[-90.68918954399544,46.9174671606616],[-90.73585036590366,46.91488998158981],[-90.76456471784718,46.946675190141896],[-90.73943965989659,46.96385638395383]]],[[[-90.775332599826,47.023990562295616],[-90.6497073100731,47.054916711157105],[-90.61022507615075,47.00766842817428],[-90.5599749602496,47.03687645765457],[-90.55279637226371,46.9990778312683],[-90.61022507615075,46.99134629405293],[-90.67124307403074,46.94925236921368],[-90.71072530795307,46.985332876218756],[-90.76815401184011,47.00251407003069],[-90.775332599826,47.023990562295616]]],[[[-90.7932790697907,46.785171968309676],[-90.73226107191071,46.80063504274042],[-90.61740366413663,46.874514176131754],[-90.56715354823548,46.847024266032655],[-90.67483236802367,46.81867529624296],[-90.65688589805897,46.788608207072066],[-90.71790389593896,46.785171968309676],[-90.78968977579775,46.75338675975759],[-90.7932790697907,46.785171968309676]]],[[[-90.92608294752947,46.585011060400596],[-90.7932790697907,46.624527806168054],[-90.75379683586836,46.64600429843298],[-90.73585036590366,46.69239352172521],[-90.69636813198132,46.66404455193551],[-90.54920707827078,46.58415200071],[-90.55279637226371,46.24052812447124],[-90.42717108251082,46.24052812447124],[-90.42717108251082,46.15376309572095],[-90.30154579275792,46.154622155411545],[-90.30154579275792,45.981092097910974],[-90.67842166201662,45.98195115760157],[-90.92608294752947,45.981092097910974],[-90.92608294752947,46.154622155411545],[-90.92608294752947,46.585011060400596]]]]}},{"type":"Feature","id":"55005","properties":{"name":"Barron","county_fips":"55005","state_abbr":"WI"},"geometry":{"type":"Polygon","coordinates":[[[-92.15362149311493,45.640045400744],[-92.03158549735497,45.640045400744],[-91.5398522203222,45.63746822167221],[-91.5398522203222,45.292126226052254],[-91.54344151431513,45.206220256992566],[-91.66547751007509,45.207938376373754],[-92.15721078710787,45.20965649575495],[-92.15362149311493,45.640045400744]]]}},{"type":"Feature","id":"55007","properties":{"name":"Bayfield","county_fips":"55007","state_abbr":"WI"},"geometry":{"type":"MultiPolygon","coordinates":[[[[-90.9835116514165,46.98619193590935],[-90.92967224152241,47.0007959506495],[-90.93326153551536,46.962997324263235],[-90.9835116514165,46.98619193590935]]],[[[-91.55062010230102,46.75596393882938],[-91.51113786837868,46.75768205821058],[-91.33885175671756,46.81781623655236],[-91.24911940689407,46.84101084819847],[-91.22758364293642,46.86334640015399],[-91.16656564505645,46.84444708696086],[-91.14144058710586,46.87279605675056],[-91.05170823728237,46.88138665365653],[-90.97274376943768,46.94152083199831],[-90.92249365353653,46.93121211571115],[-90.87224353763537,46.96127920488204],[-90.83635059770597,46.95784296611966],[-90.75020754187541,46.88825913118131],[-90.80045765777658,46.82297059469594],[-90.88660071360714,46.75596393882938],[-90.85429706767067,46.693252581415805],[-90.91172577155771,46.663185492244914],[-90.95120800548005,46.597037896068954],[-90.92608294752947,46.585011060400596],[-90.92608294752947,46.154622155411545],[-91.23835152491525,46.158058394173935],[-91.55062010230102,46.15719933448334],[-91.55062010230102,46.75596393882938]]]]}},{"type":"Feature","id":"55009","properties":{"name":"Brown","county_fips":"55009","state_abbr":"WI"},"geometry":{"type":"Polygon","coordinates":[[[-88.24129104081041,44.679616666656656],[-88.23052315883159,44.67274418913188],[-87.99004046130462,44.67789854727547],[-87.99721904929049,44.60917377202771],[-88.04387987119871,44.56622078749787],[-87.9720939913399,44.530140280492795],[-87.92902246342463,44.53615369832698],[-87.90389740547405,44.58168386192861],[-87.81057576165762,44.636663682126816],[-87.7639149397494,44.64439521934219],[-87.76750423374233,44.32740219351193],[-87.88595093550936,44.32740219351193],[-87.88954022950229,44.240637164761644],[-88.04387987119871,44.240637164761644],[-88.19104092490925,44.24235528414283],[-88.19104092490925,44.586838220072195],[-88.24488033480334,44.585120100691],[-88.24129104081041,44.679616666656656]]]}},{"type":"Feature","id":"55011","properties":{"name":"Buffalo","county_fips":"55011","state_abbr":"WI"},"geometry":{"type":"Polygon","coordinates":[[[-91.65112033410334,44.59628787666876],[-91.52908433834338,44.59628787666876],[-91.52908433834338,44.24665058259582],[-91.60087021820218,44.21142913528134],[-91.611638100181,44.171912389513885],[-91.56497727827278,44.14871777786777],[-91.53267363233633,44.09631513674136],[-91.57215586625865,44.03789907778077],[-91.5577986902869,44.025013182421816],[-91.5936916302163,44.031026600256],[-91.70854903799038,44.10404667395673],[-91.7193169199692,44.128959404984045],[-91.81622785777857,44.164180852298514],[-91.85929938569386,44.19338888177881],[-91.89160303163031,44.23118750816507],[-91.89519232562326,44.274999552385516],[-91.92390667756678,44.28788544774447],[-91.92390667756678,44.333415611346105],[-91.97415679346793,44.367777998969984],[-92.08542490724906,44.40729474473744],[-92.04594267332673,44.510381907609066],[-92.02440690936909,44.59027445883458],[-91.99928185141852,44.59628787666876],[-91.65112033410334,44.59628787666876]]]}},{"type":"Feature","id":"55013","properties":{"name":"Burnett","county_fips":"55013","state_abbr":"WI"},"geometry":{"type":"Polygon","coordinates":[[[-92.84276593975939,45.730246668256676],[-92.78533723587235,45.76460905588055],[-92.71355135601355,45.891749890088896],[-92.64176547615476,45.93212569554695],[-92.55203312633125,45.95188406843068],[-92.52331877438775,45.98452833667336],[-92.47306865848658,45.973360560695596],[-92.43717571855719,46.02146790336903],[-92.35103266272662,46.015454485534846],[-92.32949689876898,46.066139007280064],[-92.29360395883958,46.07472960418603],[-92.29360395883958,46.15719933448334],[-92.04953196731967,46.15719933448334],[-92.04953196731967,45.98366927698276],[-92.03517479134791,45.98366927698276],[-92.03158549735497,45.640045400744],[-92.15362149311493,45.640045400744],[-92.15362149311493,45.72595136980369],[-92.52690806838068,45.72852854887548],[-92.53049736237362,45.641763520125195],[-92.88583746767468,45.64434069919699],[-92.86430170371703,45.722515131041305],[-92.84276593975939,45.730246668256676]]]}},{"type":"Feature","id":"55015","properties":{"name":"Calumet","county_fips":"55015","state_abbr":"WI"},"geometry":{"type":"Polygon","coordinates":[[[-88.4028092704927,44.24407340352403],[-88.19104092490925,44.24235528414283],[-88.04387987119871,44.240637164761644],[-88.04387987119871,43.97948301882018],[-88.04029057720577,43.8918589303793],[-88.16232657296572,43.8918589303793],[-88.16232657296572,43.93738909398093],[-88.4028092704927,43.93824815367153],[-88.4028092704927,44.24407340352403]]]}},{"type":"Feature","id":"55017","properties":{"name":"Chippewa","county_fips":"55017","state_abbr":"WI"},"geometry":{"type":"Polygon","coordinates":[[[-91.66547751007509,45.207938376373754],[-91.54344151431513,45.206220256992566],[-91.5398522203222,45.292126226052254],[-90.92608294752947,45.292126226052254],[-90.92249365353653,45.03097208011079],[-90.92249365353653,44.85744202261022],[-91.65112033410334,44.85572390322903],[-91.65112033410334,45.12117334762347],[-91.66547751007509,45.12117334762347],[-91.66547751007509,45.207938376373754]]]}},{"type":"Feature","id":"55019","properties":{"name":"Clark","county_fips":"55019","state_abbr":"WI"},"geometry":{"type":"Polygon","coordinates":[[[-90.92249365353653,45.03097208011079],[-90.4343496704967,45.03097208011079],[-90.31590296872969,45.033549259182585],[-90.31590296872969,44.68477102480024],[-90.31590296872969,44.42447593854938],[-90.5599749602496,44.421898759477585],[-90.80045765777658,44.42275781916818],[-90.80045765777658,44.50952284791847],[-90.92249365353653,44.50952284791847],[-90.92249365353653,44.59628787666876],[-90.92249365353653,44.85744202261022],[-90.92249365353653,45.03097208011079]]]}},{"type":"Feature","id":"55021","properties":{"name":"Columbia","county_fips":"55021","state_abbr":"WI"},"geometry":{"type":"Polygon","coordinates":[[[-89.78468745777458,43.641013500725],[-89.59804417014169,43.6427316201062],[-89.24629335883358,43.6427316201062],[-89.12784665706657,43.64359067979679],[-89.12784665706657,43.631563844128436],[-89.00581066130661,43.63328196350963],[-89.00581066130661,43.37126875787757],[-89.00939995529954,43.28450372912729],[-89.3647400606006,43.2810674903649],[-89.3647400606006,43.29395338572385],[-89.72008016590165,43.293094326033255],[-89.72008016590165,43.31972517644176],[-89.67700863798638,43.36096004159041],[-89.60163346413464,43.38071841447414],[-89.59804417014169,43.5576847107371],[-89.73084804788047,43.57142966578665],[-89.71649087190872,43.59720145650456],[-89.77391957579576,43.612664530935305],[-89.78468745777458,43.641013500725]]]}},{"type":"Feature","id":"55023","properties":{"name":"Crawford","county_fips":"55023","state_abbr":"WI"},"geometry":{"type":"Polygon","coordinates":[[[-91.20604787897878,43.42281233931339],[-90.6676537800378,43.42281233931339],[-90.6676537800378,43.17196690965909],[-90.68918954399544,43.17282596934969],[-90.74302895388954,43.123859566985665],[-90.79686836378363,43.109255552245514],[-90.8471184796848,43.07747034369343],[-90.94044012350123,43.062007269262686],[-90.95479729947299,43.04396701576015],[-91.06247611926119,42.99242343432434],[-91.13785129311293,42.99929591184911],[-91.15579776307763,42.98812813587135],[-91.17733352703527,43.08004752276522],[-91.17733352703527,43.131591104201036],[-91.14502988109881,43.15220853677536],[-91.12349411714116,43.1968796406864],[-91.05888682526825,43.24842322212221],[-91.10554764717646,43.31371175860758],[-91.20245858498585,43.34893320592205],[-91.20604787897878,43.42281233931339]]]}},{"type":"Feature","id":"55025","properties":{"name":"Dane","county_fips":"55025","state_abbr":"WI"},"geometry":{"type":"Polygon","coordinates":[[[-89.83852686766868,43.20632929728296],[-89.80622322173221,43.23897356552565],[-89.73084804788047,43.2518594608846],[-89.72008016590165,43.293094326033255],[-89.3647400606006,43.29395338572385],[-89.3647400606006,43.2810674903649],[-89.00939995529954,43.28450372912729],[-89.00939995529954,43.197738700376995],[-89.01298924929249,42.847242346613456],[-89.36832935459354,42.84466516754167],[-89.36832935459354,42.85669200321003],[-89.83852686766868,42.85755106290062],[-89.83852686766868,43.20632929728296]]]}},{"type":"Feature","id":"55027","properties":{"name":"Dodge","county_fips":"55027","state_abbr":"WI"},"geometry":{"type":"Polygon","coordinates":[[[-89.00581066130661,43.63328196350963],[-88.8873639595396,43.63328196350963],[-88.4028092704927,43.63070478443784],[-88.39921997649977,43.543939755687546],[-88.4028092704927,43.370409698186975],[-88.41716644646446,43.370409698186975],[-88.41716644646446,43.19430246161461],[-88.53561314823148,43.1960205809958],[-89.00939995529954,43.197738700376995],[-89.00939995529954,43.28450372912729],[-89.00581066130661,43.37126875787757],[-89.00581066130661,43.63328196350963]]]}},{"type":"Feature","id":"55029","properties":{"name":"Door","county_fips":"55029","state_abbr":"WI"},"geometry":{"type":"MultiPolygon","coordinates":[[[[-86.95632379133791,45.35226040439404],[-86.93478802738026,45.42098517964179],[-86.82351991359913,45.40638116490164],[-86.90607367543674,45.296421524505234],[-86.95632379133791,45.35226040439404]]],[[[-87.37627118851188,45.199347779467786],[-87.3331996605966,45.211374615136144],[-87.32602107261073,45.157253854628536],[-87.37627118851188,45.177012227512265],[-87.37627118851188,45.199347779467786]]],[[[-87.37268189451895,44.675321368203676],[-87.73520058780588,44.67703948758487],[-87.72084341183411,44.7242877705677],[-87.60957529805297,44.838542709417084],[-87.51625365423654,44.86946885827857],[-87.4767714203142,44.8634554404444],[-87.43728918639187,44.89266346992469],[-87.38344977649776,44.86517355982559],[-87.4049855404554,44.90469030559305],[-87.36191401254013,44.988019095580945],[-87.26500307473074,45.08165660185601],[-87.23987801678017,45.1675625709157],[-87.19680648886488,45.16326727246272],[-87.12143131501314,45.19075718256182],[-87.11784202102021,45.241441704307036],[-87.05682402314022,45.29298528574285],[-86.97785955529555,45.29040810667106],[-86.98503814328143,45.21566991358913],[-87.04246684716847,45.211374615136144],[-87.04964543515435,45.08938813907138],[-87.09271696306963,45.05502575144751],[-87.12143131501314,45.05846199020989],[-87.13937778497785,45.01293182660826],[-87.189627900879,44.96826072269722],[-87.1716814309143,44.93132115600155],[-87.21834225282252,44.89781782806827],[-87.20398507685077,44.875482276112756],[-87.26859236872369,44.84713330632306],[-87.3152531906319,44.79387160550605],[-87.37268189451895,44.675321368203676]]]]}},{"type":"Feature","id":"55031","properties":{"name":"Douglas","county_fips":"55031","state_abbr":"WI"},"geometry":{"type":"Polygon","coordinates":[[[-92.29360395883958,46.4174944207342],[-92.29360395883958,46.663185492244914],[-92.21463949099491,46.64944053719537],[-92.17515725707257,46.68638010389103],[-92.20746090300902,46.70270223801237],[-92.15003219912198,46.71472907368073],[-92.13926431714317,46.739641804708036],[-92.08901420124201,46.74909146130461],[-92.01363902739027,46.70613847677476],[-91.94185314753148,46.68036668605685],[-91.81981715177152,46.689816342653415],[-91.55062010230102,46.75596393882938],[-91.55062010230102,46.15719933448334],[-92.04953196731967,46.15719933448334],[-92.29360395883958,46.15719933448334],[-92.29360395883958,46.4174944207342]]]}},{"type":"Feature","id":"55033","properties":{"name":"Dunn","county_fips":"55033","state_abbr":"WI"},"geometry":{"type":"Polygon","coordinates":[[[-92.15721078710787,45.20965649575495],[-91.66547751007509,45.207938376373754],[-91.66547751007509,45.12117334762347],[-91.65112033410334,45.12117334762347],[-91.65112033410334,44.85572390322903],[-91.65112033410334,44.683911965109644],[-92.13567502315023,44.68477102480024],[-92.13567502315023,44.85744202261022],[-92.13567502315023,45.12117334762347],[-92.15721078710787,45.122032407314066],[-92.15721078710787,45.20965649575495]]]}},{"type":"Feature","id":"55035","properties":{"name":"Eau Claire","county_fips":"55035","state_abbr":"WI"},"geometry":{"type":"Polygon","coordinates":[[[-91.65112033410334,44.85572390322903],[-90.92249365353653,44.85744202261022],[-90.92249365353653,44.59628787666876],[-91.16656564505645,44.59714693635936],[-91.52908433834338,44.59628787666876],[-91.65112033410334,44.59628787666876],[-91.65112033410334,44.683911965109644],[-91.65112033410334,44.85572390322903]]]}},{"type":"Feature","id":"55037","properties":{"name":"Florence","county_fips":"55037","state_abbr":"WI"},"geometry":{"type":"Polygon","coordinates":[[[-88.68277420194201,46.01459542584425],[-88.66482773197731,45.993118933579325],[-88.61457761607616,45.988823635126344],[-88.60380973409734,46.016313545225444],[-88.50689879628796,46.01803166460664],[-88.49972020830208,45.996555172341715],[-88.42434503445034,45.97851491883918],[-88.38127350653507,45.99140081419814],[-88.2951304507045,45.95102500874008],[-88.24488033480334,45.96305184440843],[-88.1156657510575,45.92181697925979],[-88.07618351713516,45.8634009202992],[-88.13720151501515,45.81872981638816],[-88.10489786907868,45.79123990628906],[-88.05823704717046,45.780931190001894],[-88.05823704717046,45.71306547444474],[-88.42434503445034,45.722515131041305],[-88.67559561395613,45.722515131041305],[-88.67559561395613,45.98195115760157],[-88.68277420194201,46.01459542584425]]]}},{"type":"Feature","id":"55039","properties":{"name":"Fond du Lac","county_fips":"55039","state_abbr":"WI"},"geometry":{"type":"Polygon","coordinates":[[[-88.8873639595396,43.89529516914168],[-88.4028092704927,43.89271799006989],[-88.4028092704927,43.93824815367153],[-88.16232657296572,43.93738909398093],[-88.16232657296572,43.8918589303793],[-88.16232657296572,43.543080695996956],[-88.39921997649977,43.543939755687546],[-88.4028092704927,43.63070478443784],[-88.8873639595396,43.63328196350963],[-88.8873639595396,43.89529516914168]]]}},{"type":"Feature","id":"55041","properties":{"name":"Forest","county_fips":"55041","state_abbr":"WI"},"geometry":{"type":"Polygon","coordinates":[[[-88.93402478144782,46.073870544495435],[-88.81198878568786,46.02146790336903],[-88.74020290582905,46.027481321203204],[-88.68277420194201,46.01459542584425],[-88.67559561395613,45.98195115760157],[-88.67559561395613,45.722515131041305],[-88.42434503445034,45.722515131041305],[-88.42793432844329,45.377173135421344],[-88.67918490794908,45.37889125480254],[-88.92684619346193,45.37889125480254],[-88.923256899469,45.464797223862234],[-89.04529289522895,45.464797223862234],[-89.04888218922189,45.89518612885128],[-89.04888218922189,45.98195115760157],[-88.93402478144782,45.98195115760157],[-88.93402478144782,46.073870544495435]]]}},{"type":"Feature","id":"55043","properties":{"name":"Grant","county_fips":"55043","state_abbr":"WI"},"geometry":{"type":"Polygon","coordinates":[[[-91.15579776307763,42.98812813587135],[-91.13785129311293,42.99929591184911],[-91.06247611926119,42.99242343432434],[-90.95479729947299,43.04396701576015],[-90.94044012350123,43.062007269262686],[-90.8471184796848,43.07747034369343],[-90.79686836378363,43.109255552245514],[-90.74302895388954,43.123859566985665],[-90.68918954399544,43.17282596934969],[-90.6676537800378,43.17196690965909],[-90.54561778427784,43.21148365542655],[-90.43076037650376,43.201174939139385],[-90.42717108251082,42.81287995898958],[-90.42717108251082,42.50705470913709],[-90.64252872208722,42.508772828518275],[-90.64252872208722,42.54055803707036],[-90.70713601396014,42.63419554334543],[-90.89736859558595,42.67543040849408],[-90.97992235742358,42.69862502014019],[-91.06606541325412,42.751027661266605],[-91.10195835318353,42.88332285361853],[-91.14502988109881,42.904799345883454],[-91.15579776307763,42.98812813587135]]]}},{"type":"Feature","id":"55045","properties":{"name":"Green","county_fips":"55045","state_abbr":"WI"},"geometry":{"type":"Polygon","coordinates":[[[-89.83852686766868,42.85755106290062],[-89.36832935459354,42.85669200321003],[-89.36832935459354,42.84466516754167],[-89.3647400606006,42.50018223161231],[-89.40063300053001,42.50018223161231],[-89.83852686766868,42.50533658975589],[-89.83852686766868,42.81373901868018],[-89.83852686766868,42.85755106290062]]]}},{"type":"Feature","id":"55047","properties":{"name":"Green Lake","county_fips":"55047","state_abbr":"WI"},"geometry":{"type":"Polygon","coordinates":[[[-89.16732889098891,43.982919257582566],[-88.8873639595396,43.982919257582566],[-88.8873639595396,43.89529516914168],[-88.8873639595396,43.63328196350963],[-89.00581066130661,43.63328196350963],[-89.12784665706657,43.631563844128436],[-89.12784665706657,43.64359067979679],[-89.24629335883358,43.6427316201062],[-89.24629335883358,43.759563738027374],[-89.16732889098891,43.76557715586155],[-89.16732889098891,43.81024825977259],[-89.19963253692536,43.81196637915379],[-89.19963253692536,43.87639585594855],[-89.16732889098891,43.87639585594855],[-89.16732889098891,43.982919257582566]]]}},{"type":"Feature","id":"55049","properties":{"name":"Iowa","county_fips":"55049","state_abbr":"WI"},"geometry":{"type":"Polygon","coordinates":[[[-90.43076037650376,43.201174939139385],[-90.35179590865908,43.20976553604535],[-90.26206355883558,43.197738700376995],[-90.19386697296973,43.16423537244372],[-90.0825988591886,43.16079913368133],[-89.99645580335803,43.19516152130521],[-89.9031341595416,43.18828904378043],[-89.83852686766868,43.20632929728296],[-89.83852686766868,42.85755106290062],[-89.83852686766868,42.81373901868018],[-90.42717108251082,42.81287995898958],[-90.43076037650376,43.201174939139385]]]}},{"type":"Feature","id":"55051","properties":{"name":"Iron","county_fips":"55051","state_abbr":"WI"},"geometry":{"type":"Polygon","coordinates":[[[-90.54920707827078,46.58415200071],[-90.5061355503555,46.589306358853584],[-90.416403200532,46.566111747207465],[-90.39486743657436,46.53260841927418],[-90.35179590865908,46.53776277741777],[-90.35179590865908,46.53776277741777],[-90.31590296872969,46.51714534484344],[-90.2189920309203,46.50340038979389],[-90.11849179911799,46.35993742146421],[-90.12208109311092,46.33674280981809],[-89.92825921749217,46.299803243122426],[-89.92825921749217,45.98195115760157],[-90.04311662526625,45.98195115760157],[-90.30154579275792,45.981092097910974],[-90.30154579275792,46.154622155411545],[-90.42717108251082,46.15376309572095],[-90.42717108251082,46.24052812447124],[-90.55279637226371,46.24052812447124],[-90.54920707827078,46.58415200071]]]}},{"type":"Feature","id":"55053","properties":{"name":"Jackson","county_fips":"55053","state_abbr":"WI"},"geometry":{"type":"Polygon","coordinates":[[[-91.16656564505645,44.59714693635936],[-90.92249365353653,44.59628787666876],[-90.92249365353653,44.50952284791847],[-90.80045765777658,44.50952284791847],[-90.80045765777658,44.42275781916818],[-90.5599749602496,44.421898759477585],[-90.31590296872969,44.42447593854938],[-90.31949226272262,44.25438211981119],[-90.31231367473674,44.248368701977014],[-90.31231367473674,44.155590255392546],[-90.4343496704967,44.16074461353613],[-90.89377930159301,44.15816743446434],[-90.97633306343063,44.12981846467464],[-90.97274376943768,44.070543346023456],[-91.15220846908468,44.07140240571405],[-91.15220846908468,44.07999300262002],[-91.15220846908468,44.24750964228642],[-91.16656564505645,44.24750964228642],[-91.16656564505645,44.59714693635936]]]}},{"type":"Feature","id":"55055","properties":{"name":"Jefferson","county_fips":"55055","state_abbr":"WI"},"geometry":{"type":"Polygon","coordinates":[[[-89.00939995529954,43.197738700376995],[-88.53561314823148,43.1960205809958],[-88.54279173621735,43.01905428473284],[-88.54279173621735,42.842947048160475],[-88.77609584575845,42.842947048160475],[-89.01298924929249,42.847242346613456],[-89.00939995529954,43.197738700376995]]]}},{"type":"Feature","id":"55057","properties":{"name":"Juneau","county_fips":"55057","state_abbr":"WI"},"geometry":{"type":"Polygon","coordinates":[[[-90.31231367473674,44.155590255392546],[-90.31231367473674,44.248368701977014],[-89.9031341595416,44.24922776166761],[-89.92466992349924,44.21314725466254],[-89.9031341595416,44.191670762397614],[-89.92466992349924,44.152154016630156],[-89.97133074540746,44.16675803137031],[-89.97850933339333,44.12294598714986],[-90.02517015530155,44.08944265921659],[-90.00722368533685,44.00869104830048],[-89.97492003940039,43.99580515294152],[-89.95338427544274,43.92450319862198],[-89.98209862738626,43.91591260171601],[-89.96056286342863,43.86436902028019],[-89.86365192561925,43.78361740936408],[-89.82058039770398,43.69255708216082],[-89.78468745777458,43.641013500725],[-90.31231367473674,43.641013500725],[-90.31231367473674,43.73121476823768],[-90.31231367473674,44.155590255392546]]]}},{"type":"Feature","id":"55059","properties":{"name":"Kenosha","county_fips":"55059","state_abbr":"WI"},"geometry":{"type":"Polygon","coordinates":[[[-88.30589833268333,42.61100093169931],[-88.1874516309163,42.611859991389906],[-88.1874516309163,42.6694169906599],[-87.80698646766467,42.6676988712787],[-87.82134364363644,42.616155289842894],[-87.7998078796788,42.49159163470634],[-88.19821951289512,42.495886933159326],[-88.30589833268333,42.49502787346873],[-88.30589833268333,42.61100093169931]]]}},{"type":"Feature","id":"55061","properties":{"name":"Kewaunee","county_fips":"55061","state_abbr":"WI"},"geometry":{"type":"Polygon","coordinates":[[[-87.7639149397494,44.64439521934219],[-87.73520058780588,44.67703948758487],[-87.37268189451895,44.675321368203676],[-87.43728918639187,44.60487847357473],[-87.46959283232832,44.55161677275772],[-87.54137871218713,44.32740219351193],[-87.76750423374233,44.32740219351193],[-87.7639149397494,44.64439521934219]]]}},{"type":"Feature","id":"55063","properties":{"name":"La Crosse","county_fips":"55063","state_abbr":"WI"},"geometry":{"type":"Polygon","coordinates":[[[-91.42499481254812,43.98463737696376],[-91.32090528675286,43.98463737696376],[-91.33885175671756,44.03789907778077],[-91.26706587685877,44.072261465404644],[-91.22040505495055,44.05336215221151],[-91.1988692909929,44.08772453983539],[-91.15220846908468,44.07999300262002],[-91.15220846908468,44.07140240571405],[-90.97274376943768,44.070543346023456],[-90.91172577155771,44.07140240571405],[-90.91172577155771,43.725201350403495],[-91.25629799487994,43.72606041009409],[-91.24553011290112,43.77330869307692],[-91.28501234682346,43.84718782646826],[-91.38551257862578,43.95457028779287],[-91.42499481254812,43.98463737696376]]]}},{"type":"Feature","id":"55065","properties":{"name":"Lafayette","county_fips":"55065","state_abbr":"WI"},"geometry":{"type":"Polygon","coordinates":[[[-90.42717108251082,42.81287995898958],[-89.83852686766868,42.81373901868018],[-89.83852686766868,42.50533658975589],[-89.92825921749217,42.50619564944649],[-90.42717108251082,42.50705470913709],[-90.42717108251082,42.81287995898958]]]}},{"type":"Feature","id":"55067","properties":{"name":"Langlade","county_fips":"55067","state_abbr":"WI"},"geometry":{"type":"Polygon","coordinates":[[[-89.42575805848058,45.46737440293402],[-89.3647400606006,45.46995158200581],[-89.04529289522895,45.464797223862234],[-88.923256899469,45.464797223862234],[-88.92684619346193,45.37889125480254],[-88.67918490794908,45.37889125480254],[-88.67918490794908,45.20536119730197],[-88.63970267402674,45.20450213761137],[-88.63970267402674,45.11773710886108],[-88.98068560335604,45.11773710886108],[-88.98068560335604,45.0292539607296],[-89.22475759487594,45.0292539607296],[-89.22475759487594,45.118596168551676],[-89.42575805848058,45.11945522824227],[-89.42575805848058,45.46737440293402]]]}},{"type":"Feature","id":"55069","properties":{"name":"Lincoln","county_fips":"55069","state_abbr":"WI"},"geometry":{"type":"Polygon","coordinates":[[[-90.04311662526625,45.38146843387433],[-90.04311662526625,45.5549984913749],[-89.42934735247353,45.5549984913749],[-89.42575805848058,45.46737440293402],[-89.42575805848058,45.11945522824227],[-90.04311662526625,45.12031428793287],[-90.04670591925918,45.34023356872568],[-90.04311662526625,45.38146843387433]]]}},{"type":"Feature","id":"55071","properties":{"name":"Manitowoc","county_fips":"55071","state_abbr":"WI"},"geometry":{"type":"Polygon","coordinates":[[[-88.04387987119871,44.240637164761644],[-87.88954022950229,44.240637164761644],[-87.88595093550936,44.32740219351193],[-87.76750423374233,44.32740219351193],[-87.54137871218713,44.32740219351193],[-87.54137871218713,44.29303980588805],[-87.5126643602436,44.240637164761644],[-87.51984294822948,44.17964392672926],[-87.56291447614475,44.144422479414786],[-87.64546823798237,44.10490573364733],[-87.65623611996119,44.05164403283032],[-87.68495047190471,44.01985882427824],[-87.73161129381293,43.8918589303793],[-88.04029057720577,43.8918589303793],[-88.04387987119871,43.97948301882018],[-88.04387987119871,44.240637164761644]]]}},{"type":"Feature","id":"55073","properties":{"name":"Marathon","county_fips":"55073","state_abbr":"WI"},"geometry":{"type":"Polygon","coordinates":[[[-90.31590296872969,45.033549259182585],[-90.19745626696266,45.033549259182585],[-90.19745626696266,45.12031428793287],[-90.04311662526625,45.12031428793287],[-89.42575805848058,45.11945522824227],[-89.22475759487594,45.118596168551676],[-89.22475759487594,45.0292539607296],[-89.22475759487594,44.68133478603785],[-89.4903653503535,44.68563008449084],[-89.84570545565455,44.68477102480024],[-90.31590296872969,44.68477102480024],[-90.31590296872969,45.033549259182585]]]}},{"type":"Feature","id":"55075","properties":{"name":"Marinette","county_fips":"55075","state_abbr":"WI"},"geometry":{"type":"Polygon","coordinates":[[[-88.42434503445034,45.722515131041305],[-88.05823704717046,45.71306547444474],[-88.05823704717046,45.780931190001894],[-87.99721904929049,45.79553520474204],[-87.96491540335403,45.75859563804637],[-87.87877234752347,45.75515939928398],[-87.84646870158701,45.722515131041305],[-87.81057576165762,45.711347355063545],[-87.7818614097141,45.67354872867728],[-87.82493293762937,45.66238095269952],[-87.77468282172822,45.59795147590475],[-87.80339717367173,45.538676357253564],[-87.79262929169292,45.49830055179551],[-87.81416505565055,45.46393816417164],[-87.86082587755877,45.43473013469134],[-87.85005799557995,45.40208586644866],[-87.87518305353053,45.38146843387433],[-87.85005799557995,45.34109262841628],[-87.85005799557995,45.34109262841628],[-87.75314705777058,45.349683225322245],[-87.69571835388354,45.3900590307803],[-87.65623611996119,45.368582538515376],[-87.64905753197532,45.33937450903508],[-87.68853976589766,45.29813964388643],[-87.74237917579175,45.19677060039599],[-87.73520058780588,45.17185786936869],[-87.68853976589766,45.14780419803197],[-87.65982541395414,45.107428392573915],[-87.59162882808828,45.095401556905564],[-87.62752176801767,45.045576094850944],[-87.63111106201062,44.97685131960319],[-87.7639149397494,44.96568354362543],[-87.76032564575645,44.99059627465274],[-87.9433796393964,44.99317345372453],[-87.9433796393964,45.02066336382363],[-88.12284433904338,45.02324054289542],[-88.11925504505045,45.11000557164571],[-88.19104092490925,45.1117236910269],[-88.1874516309163,45.19762966008659],[-88.30948762667626,45.20192495853958],[-88.30589833268333,45.37459595634956],[-88.42793432844329,45.377173135421344],[-88.42434503445034,45.722515131041305]]]}},{"type":"Feature","id":"55077","properties":{"name":"Marquette","county_fips":"55077","state_abbr":"WI"},"geometry":{"type":"Polygon","coordinates":[[[-89.59804417014169,43.98206019789197],[-89.16732889098891,43.982919257582566],[-89.16732889098891,43.87639585594855],[-89.19963253692536,43.87639585594855],[-89.19963253692536,43.81196637915379],[-89.16732889098891,43.81024825977259],[-89.16732889098891,43.76557715586155],[-89.24629335883358,43.759563738027374],[-89.24629335883358,43.6427316201062],[-89.59804417014169,43.6427316201062],[-89.59804417014169,43.98206019789197]]]}},{"type":"Feature","id":"55078","properties":{"name":"Menominee","county_fips":"55078","state_abbr":"WI"},"geometry":{"type":"Polygon","coordinates":[[[-88.63970267402674,45.11773710886108],[-88.48536303233033,45.11687804917048],[-88.48895232632326,44.85572390322903],[-88.73661361183612,44.856582962919624],[-88.73661361183612,44.94334799166991],[-88.98068560335604,44.94248893197931],[-88.98068560335604,45.0292539607296],[-88.98068560335604,45.11773710886108],[-88.63970267402674,45.11773710886108]]]}},{"type":"Feature","id":"55079","properties":{"name":"Milwaukee","county_fips":"55079","state_abbr":"WI"},"geometry":{"type":"Polygon","coordinates":[[[-88.06182634116341,43.19172528254282],[-87.89312952349523,43.19172528254282],[-87.90030811148111,43.13760452203521],[-87.87159375953759,43.06458444833448],[-87.89671881748818,43.015618045970456],[-87.84646870158701,42.962356345153445],[-87.84646870158701,42.889336271452706],[-87.82852223162232,42.84208798846988],[-88.06900492914929,42.842947048160475],[-88.06900492914929,43.016477105661046],[-88.06182634116341,43.19172528254282]]]}},{"type":"Feature","id":"55081","properties":{"name":"Monroe","county_fips":"55081","state_abbr":"WI"},"geometry":{"type":"Polygon","coordinates":[[[-90.31231367473674,44.155590255392546],[-90.31231367473674,43.73121476823768],[-90.4343496704967,43.72606041009409],[-90.91172577155771,43.725201350403495],[-90.91172577155771,44.07140240571405],[-90.97274376943768,44.070543346023456],[-90.97633306343063,44.12981846467464],[-90.89377930159301,44.15816743446434],[-90.4343496704967,44.16074461353613],[-90.31231367473674,44.155590255392546]]]}},{"type":"Feature","id":"55083","properties":{"name":"Oconto","county_fips":"55083","state_abbr":"WI"},"geometry":{"type":"Polygon","coordinates":[[[-88.67918490794908,45.37889125480254],[-88.42793432844329,45.377173135421344],[-88.30589833268333,45.37459595634956],[-88.30948762667626,45.20192495853958],[-88.1874516309163,45.19762966008659],[-88.19104092490925,45.1117236910269],[-88.11925504505045,45.11000557164571],[-88.12284433904338,45.02324054289542],[-87.9433796393964,45.02066336382363],[-87.9433796393964,44.99317345372453],[-87.76032564575645,44.99059627465274],[-87.7639149397494,44.96568354362543],[-87.83929011360114,44.93132115600155],[-87.82852223162232,44.8909453505435],[-87.86800446554466,44.84026082879828],[-87.90030811148111,44.82737493343933],[-87.93979034540345,44.756072979119786],[-87.98286187331873,44.71999247211471],[-87.99004046130462,44.67789854727547],[-88.23052315883159,44.67274418913188],[-88.24129104081041,44.679616666656656],[-88.25205892278922,44.76638169540695],[-88.24846962879629,44.853146724157234],[-88.48895232632326,44.85572390322903],[-88.48536303233033,45.11687804917048],[-88.63970267402674,45.11773710886108],[-88.63970267402674,45.20450213761137],[-88.67918490794908,45.20536119730197],[-88.67918490794908,45.37889125480254]]]}},{"type":"Feature","id":"55085","properties":{"name":"Oneida","county_fips":"55085","state_abbr":"WI"},"geometry":{"type":"Polygon","coordinates":[[[-90.04311662526625,45.896904248232474],[-89.42575805848058,45.89862236761367],[-89.30013276872768,45.90119954668546],[-89.30013276872768,45.86082374122741],[-89.17450747897479,45.85652844277442],[-89.17809677296772,45.899481427304266],[-89.04888218922189,45.89518612885128],[-89.04529289522895,45.464797223862234],[-89.3647400606006,45.46995158200581],[-89.42575805848058,45.46737440293402],[-89.42934735247353,45.5549984913749],[-90.04311662526625,45.5549984913749],[-90.04311662526625,45.896904248232474]]]}},{"type":"Feature","id":"55087","properties":{"name":"Outagamie","county_fips":"55087","state_abbr":"WI"},"geometry":{"type":"Polygon","coordinates":[[[-88.60739902809027,44.59027445883458],[-88.24488033480334,44.585120100691],[-88.19104092490925,44.586838220072195],[-88.19104092490925,44.24235528414283],[-88.4028092704927,44.24407340352403],[-88.74020290582905,44.24321434383343],[-88.73661361183612,44.59027445883458],[-88.60739902809027,44.59027445883458]]]}},{"type":"Feature","id":"55089","properties":{"name":"Ozaukee","county_fips":"55089","state_abbr":"WI"},"geometry":{"type":"Polygon","coordinates":[[[-88.04029057720577,43.54222163630636],[-87.79262929169292,43.543080695996956],[-87.80698646766467,43.46147002539025],[-87.87877234752347,43.36955063849638],[-87.91107599345993,43.25014134150341],[-87.89312952349523,43.19172528254282],[-88.06182634116341,43.19172528254282],[-88.06182634116341,43.366973459424585],[-88.04029057720577,43.366973459424585],[-88.04029057720577,43.54222163630636]]]}},{"type":"Feature","id":"55091","properties":{"name":"Pepin","county_fips":"55091","state_abbr":"WI"},"geometry":{"type":"Polygon","coordinates":[[[-92.31513972279723,44.541308056470555],[-92.13567502315023,44.53958993708936],[-92.13567502315023,44.68477102480024],[-91.65112033410334,44.683911965109644],[-91.65112033410334,44.59628787666876],[-91.99928185141852,44.59628787666876],[-92.02440690936909,44.59027445883458],[-92.04594267332673,44.510381907609066],[-92.08542490724906,44.40729474473744],[-92.21463949099491,44.43822089359893],[-92.24335384293842,44.45454302772027],[-92.3043718408184,44.50350943008429],[-92.31513972279723,44.541308056470555]]]}},{"type":"Feature","id":"55093","properties":{"name":"Pierce","county_fips":"55093","state_abbr":"WI"},"geometry":{"type":"Polygon","coordinates":[[[-92.76739076590765,44.8617373210632],[-92.3761577206772,44.8625963807538],[-92.13567502315023,44.85744202261022],[-92.13567502315023,44.68477102480024],[-92.13567502315023,44.53958993708936],[-92.31513972279723,44.541308056470555],[-92.33667548675486,44.55419395182951],[-92.43358642456424,44.56536172780727],[-92.54126524435245,44.56707984718847],[-92.5735688902889,44.60487847357473],[-92.62381900619006,44.61862342862428],[-92.62022971219712,44.6392408611986],[-92.73149782597825,44.713979054280536],[-92.80328370583706,44.74576426283262],[-92.80687299982999,44.768099814788144],[-92.76380147191472,44.836824590035896],[-92.76739076590765,44.8617373210632]]]}},{"type":"Feature","id":"55095","properties":{"name":"Polk","county_fips":"55095","state_abbr":"WI"},"geometry":{"type":"Polygon","coordinates":[[[-92.88583746767468,45.64434069919699],[-92.53049736237362,45.641763520125195],[-92.52690806838068,45.72852854887548],[-92.15362149311493,45.72595136980369],[-92.15362149311493,45.640045400744],[-92.15721078710787,45.20965649575495],[-92.75662288392884,45.20965649575495],[-92.76021217792177,45.291267166361656],[-92.74585500195002,45.295562464814644],[-92.6991941800418,45.333361091200906],[-92.70278347403473,45.35827382222821],[-92.64894406414064,45.39864962768627],[-92.64535477014769,45.441602612216116],[-92.72790853198532,45.514622685916855],[-92.72431923799238,45.54125353632536],[-92.77456935389354,45.568743446424456],[-92.81046229382294,45.561011909209086],[-92.88583746767468,45.57905216271162],[-92.88583746767468,45.64434069919699]]]}},{"type":"Feature","id":"55097","properties":{"name":"Portage","county_fips":"55097","state_abbr":"WI"},"geometry":{"type":"Polygon","coordinates":[[[-89.84570545565455,44.68477102480024],[-89.4903653503535,44.68563008449084],[-89.22475759487594,44.68133478603785],[-89.22475759487594,44.24321434383343],[-89.59804417014169,44.24579152290522],[-89.7236694598946,44.24750964228642],[-89.72725875388754,44.51124096729966],[-89.84570545565455,44.51124096729966],[-89.84570545565455,44.68477102480024]]]}},{"type":"Feature","id":"55099","properties":{"name":"Price","county_fips":"55099","state_abbr":"WI"},"geometry":{"type":"Polygon","coordinates":[[[-90.67842166201662,45.638327281362805],[-90.67842166201662,45.98195115760157],[-90.30154579275792,45.981092097910974],[-90.04311662526625,45.98195115760157],[-90.04311662526625,45.896904248232474],[-90.04311662526625,45.5549984913749],[-90.04311662526625,45.38146843387433],[-90.45947472844728,45.377173135421344],[-90.67842166201662,45.37803219511194],[-90.67842166201662,45.638327281362805]]]}},{"type":"Feature","id":"55101","properties":{"name":"Racine","county_fips":"55101","state_abbr":"WI"},"geometry":{"type":"Polygon","coordinates":[[[-88.30589833268333,42.84208798846988],[-88.06900492914929,42.842947048160475],[-87.82852223162232,42.84208798846988],[-87.76750423374233,42.78453098919989],[-87.7818614097141,42.70807467673676],[-87.80698646766467,42.6676988712787],[-88.1874516309163,42.6694169906599],[-88.1874516309163,42.611859991389906],[-88.30589833268333,42.61100093169931],[-88.30589833268333,42.84208798846988]]]}},{"type":"Feature","id":"55103","properties":{"name":"Richland","county_fips":"55103","state_abbr":"WI"},"geometry":{"type":"Polygon","coordinates":[[[-90.31231367473674,43.55424847197471],[-90.19027767897678,43.55510753166531],[-90.19386697296973,43.16423537244372],[-90.26206355883558,43.197738700376995],[-90.35179590865908,43.20976553604535],[-90.43076037650376,43.201174939139385],[-90.54561778427784,43.21148365542655],[-90.6676537800378,43.17196690965909],[-90.6676537800378,43.42281233931339],[-90.67124307403074,43.55253035259352],[-90.31231367473674,43.55424847197471]]]}},{"type":"Feature","id":"55105","properties":{"name":"Rock","county_fips":"55105","state_abbr":"WI"},"geometry":{"type":"Polygon","coordinates":[[[-89.36832935459354,42.84466516754167],[-89.01298924929249,42.847242346613456],[-88.77609584575845,42.842947048160475],[-88.7796851397514,42.754463900028995],[-88.77609584575845,42.492450694396936],[-88.9412033694337,42.49502787346873],[-89.3647400606006,42.50018223161231],[-89.36832935459354,42.84466516754167]]]}},{"type":"Feature","id":"55107","properties":{"name":"Rusk","county_fips":"55107","state_abbr":"WI"},"geometry":{"type":"Polygon","coordinates":[[[-91.5398522203222,45.63746822167221],[-90.67842166201662,45.638327281362805],[-90.67842166201662,45.37803219511194],[-90.92608294752947,45.37975031449314],[-90.92608294752947,45.292126226052254],[-91.5398522203222,45.292126226052254],[-91.5398522203222,45.63746822167221]]]}},{"type":"Feature","id":"55111","properties":{"name":"Sauk","county_fips":"55111","state_abbr":"WI"},"geometry":{"type":"Polygon","coordinates":[[[-90.31231367473674,43.641013500725],[-89.78468745777458,43.641013500725],[-89.77391957579576,43.612664530935305],[-89.71649087190872,43.59720145650456],[-89.73084804788047,43.57142966578665],[-89.59804417014169,43.5576847107371],[-89.60163346413464,43.38071841447414],[-89.67700863798638,43.36096004159041],[-89.72008016590165,43.31972517644176],[-89.72008016590165,43.293094326033255],[-89.73084804788047,43.2518594608846],[-89.80622322173221,43.23897356552565],[-89.83852686766868,43.20632929728296],[-89.9031341595416,43.18828904378043],[-89.99645580335803,43.19516152130521],[-90.0825988591886,43.16079913368133],[-90.19386697296973,43.16423537244372],[-90.19027767897678,43.55510753166531],[-90.31231367473674,43.55424847197471],[-90.31231367473674,43.641013500725]]]}},{"type":"Feature","id":"55113","properties":{"name":"Sawyer","county_fips":"55113","state_abbr":"WI"},"geometry":{"type":"Polygon","coordinates":[[[-91.55062010230102,46.15719933448334],[-91.23835152491525,46.158058394173935],[-90.92608294752947,46.154622155411545],[-90.92608294752947,45.981092097910974],[-90.67842166201662,45.98195115760157],[-90.67842166201662,45.638327281362805],[-91.5398522203222,45.63746822167221],[-91.54344151431513,45.98281021729217],[-91.55062010230102,45.98366927698276],[-91.55062010230102,46.15719933448334]]]}},{"type":"Feature","id":"55115","properties":{"name":"Shawano","county_fips":"55115","state_abbr":"WI"},"geometry":{"type":"Polygon","coordinates":[[[-89.22475759487594,45.0292539607296],[-88.98068560335604,45.0292539607296],[-88.98068560335604,44.94248893197931],[-88.73661361183612,44.94334799166991],[-88.73661361183612,44.856582962919624],[-88.48895232632326,44.85572390322903],[-88.24846962879629,44.853146724157234],[-88.25205892278922,44.76638169540695],[-88.24129104081041,44.679616666656656],[-88.24488033480334,44.585120100691],[-88.60739902809027,44.59027445883458],[-88.60380973409734,44.67875760696606],[-89.22475759487594,44.68133478603785],[-89.22475759487594,45.0292539607296]]]}},{"type":"Feature","id":"55117","properties":{"name":"Sheboygan","county_fips":"55117","state_abbr":"WI"},"geometry":{"type":"Polygon","coordinates":[[[-88.16232657296572,43.8918589303793],[-88.04029057720577,43.8918589303793],[-87.73161129381293,43.8918589303793],[-87.72802199982,43.81024825977259],[-87.69930764787648,43.767295275242745],[-87.70648623586236,43.67967118680186],[-87.7818614097141,43.578302143311426],[-87.79262929169292,43.543080695996956],[-88.04029057720577,43.54222163630636],[-88.16232657296572,43.543080695996956],[-88.16232657296572,43.8918589303793]]]}},{"type":"Feature","id":"55109","properties":{"name":"St. Croix","county_fips":"55109","state_abbr":"WI"},"geometry":{"type":"Polygon","coordinates":[[[-92.75662288392884,45.20965649575495],[-92.15721078710787,45.20965649575495],[-92.15721078710787,45.122032407314066],[-92.13567502315023,45.12117334762347],[-92.13567502315023,44.85744202261022],[-92.3761577206772,44.8625963807538],[-92.76739076590765,44.8617373210632],[-92.77456935389354,44.90125406683066],[-92.74944429594295,44.937334573835734],[-92.7709800599006,44.972556021150204],[-92.76380147191472,45.028394901039],[-92.80328370583706,45.057602930519295],[-92.74585500195002,45.107428392573915],[-92.76739076590765,45.18560282441824],[-92.75662288392884,45.20965649575495]]]}},{"type":"Feature","id":"55119","properties":{"name":"Taylor","county_fips":"55119","state_abbr":"WI"},"geometry":{"type":"Polygon","coordinates":[[[-90.92608294752947,45.292126226052254],[-90.92608294752947,45.37975031449314],[-90.67842166201662,45.37803219511194],[-90.45947472844728,45.377173135421344],[-90.04311662526625,45.38146843387433],[-90.04670591925918,45.34023356872568],[-90.04311662526625,45.12031428793287],[-90.19745626696266,45.12031428793287],[-90.19745626696266,45.033549259182585],[-90.31590296872969,45.033549259182585],[-90.4343496704967,45.03097208011079],[-90.92249365353653,45.03097208011079],[-90.92608294752947,45.292126226052254]]]}},{"type":"Feature","id":"55121","properties":{"name":"Trempealeau","county_fips":"55121","state_abbr":"WI"},"geometry":{"type":"Polygon","coordinates":[[[-91.52908433834338,44.59628787666876],[-91.16656564505645,44.59714693635936],[-91.16656564505645,44.24750964228642],[-91.15220846908468,44.24750964228642],[-91.15220846908468,44.07999300262002],[-91.1988692909929,44.08772453983539],[-91.22040505495055,44.05336215221151],[-91.26706587685877,44.072261465404644],[-91.33885175671756,44.03789907778077],[-91.32090528675286,43.98463737696376],[-91.42499481254812,43.98463737696376],[-91.43935198851987,44.0018185707757],[-91.5577986902869,44.025013182421816],[-91.57215586625865,44.03789907778077],[-91.53267363233633,44.09631513674136],[-91.56497727827278,44.14871777786777],[-91.611638100181,44.171912389513885],[-91.60087021820218,44.21142913528134],[-91.52908433834338,44.24665058259582],[-91.52908433834338,44.59628787666876]]]}},{"type":"Feature","id":"55123","properties":{"name":"Vernon","county_fips":"55123","state_abbr":"WI"},"geometry":{"type":"Polygon","coordinates":[[[-91.25629799487994,43.72606041009409],[-90.91172577155771,43.725201350403495],[-90.4343496704967,43.72606041009409],[-90.31231367473674,43.73121476823768],[-90.31231367473674,43.641013500725],[-90.31231367473674,43.55424847197471],[-90.67124307403074,43.55253035259352],[-90.6676537800378,43.42281233931339],[-91.20604787897878,43.42281233931339],[-91.2347622309223,43.455456607556066],[-91.2168157609576,43.50012771146711],[-91.24553011290112,43.54565787506874],[-91.23117293692937,43.58345650145501],[-91.26706587685877,43.61524171000709],[-91.27424446484464,43.67623494803947],[-91.25629799487994,43.72606041009409]]]}},{"type":"Feature","id":"55125","properties":{"name":"Vilas","county_fips":"55125","state_abbr":"WI"},"geometry":{"type":"Polygon","coordinates":[[[-90.04311662526625,45.98195115760157],[-89.92825921749217,45.98195115760157],[-89.92825921749217,46.299803243122426],[-89.09195371713717,46.138300021290206],[-88.99145348533484,46.097065156141554],[-88.93402478144782,46.073870544495435],[-88.93402478144782,45.98195115760157],[-89.04888218922189,45.98195115760157],[-89.04888218922189,45.89518612885128],[-89.17809677296772,45.899481427304266],[-89.17450747897479,45.85652844277442],[-89.30013276872768,45.86082374122741],[-89.30013276872768,45.90119954668546],[-89.42575805848058,45.89862236761367],[-90.04311662526625,45.896904248232474],[-90.04311662526625,45.98195115760157]]]}},{"type":"Feature","id":"55127","properties":{"name":"Walworth","county_fips":"55127","state_abbr":"WI"},"geometry":{"type":"Polygon","coordinates":[[[-88.77609584575845,42.842947048160475],[-88.54279173621735,42.842947048160475],[-88.30589833268333,42.84208798846988],[-88.30589833268333,42.61100093169931],[-88.30589833268333,42.49502787346873],[-88.7078992598926,42.493309754087534],[-88.77609584575845,42.492450694396936],[-88.7796851397514,42.754463900028995],[-88.77609584575845,42.842947048160475]]]}},{"type":"Feature","id":"55129","properties":{"name":"Washburn","county_fips":"55129","state_abbr":"WI"},"geometry":{"type":"Polygon","coordinates":[[[-92.04953196731967,46.15719933448334],[-91.55062010230102,46.15719933448334],[-91.55062010230102,45.98366927698276],[-91.54344151431513,45.98281021729217],[-91.5398522203222,45.63746822167221],[-92.03158549735497,45.640045400744],[-92.03517479134791,45.98366927698276],[-92.04953196731967,45.98366927698276],[-92.04953196731967,46.15719933448334]]]}},{"type":"Feature","id":"55131","properties":{"name":"Washington","county_fips":"55131","state_abbr":"WI"},"geometry":{"type":"Polygon","coordinates":[[[-88.39921997649977,43.543939755687546],[-88.16232657296572,43.543080695996956],[-88.04029057720577,43.54222163630636],[-88.04029057720577,43.366973459424585],[-88.06182634116341,43.366973459424585],[-88.06182634116341,43.19172528254282],[-88.41716644646446,43.19430246161461],[-88.41716644646446,43.370409698186975],[-88.4028092704927,43.370409698186975],[-88.39921997649977,43.543939755687546]]]}},{"type":"Feature","id":"55133","properties":{"name":"Waukesha","county_fips":"55133","state_abbr":"WI"},"geometry":{"type":"Polygon","coordinates":[[[-88.53561314823148,43.1960205809958],[-88.41716644646446,43.19430246161461],[-88.06182634116341,43.19172528254282],[-88.06900492914929,43.016477105661046],[-88.06900492914929,42.842947048160475],[-88.30589833268333,42.84208798846988],[-88.54279173621735,42.842947048160475],[-88.54279173621735,43.01905428473284],[-88.53561314823148,43.1960205809958]]]}},{"type":"Feature","id":"55135","properties":{"name":"Waupaca","county_fips":"55135","state_abbr":"WI"},"geometry":{"type":"Polygon","coordinates":[[[-89.22475759487594,44.68133478603785],[-88.60380973409734,44.67875760696606],[-88.60739902809027,44.59027445883458],[-88.73661361183612,44.59027445883458],[-88.74020290582905,44.24321434383343],[-88.8873639595396,44.24235528414283],[-89.22475759487594,44.24321434383343],[-89.22475759487594,44.68133478603785]]]}},{"type":"Feature","id":"55137","properties":{"name":"Waushara","county_fips":"55137","state_abbr":"WI"},"geometry":{"type":"Polygon","coordinates":[[[-89.59804417014169,44.24579152290522],[-89.22475759487594,44.24321434383343],[-88.8873639595396,44.24235528414283],[-88.8873639595396,43.982919257582566],[-89.16732889098891,43.982919257582566],[-89.59804417014169,43.98206019789197],[-89.59804417014169,44.24579152290522]]]}},{"type":"Feature","id":"55139","properties":{"name":"Winnebago","county_fips":"55139","state_abbr":"WI"},"geometry":{"type":"Polygon","coordinates":[[[-88.8873639595396,44.24235528414283],[-88.74020290582905,44.24321434383343],[-88.4028092704927,44.24407340352403],[-88.4028092704927,43.93824815367153],[-88.4028092704927,43.89271799006989],[-88.8873639595396,43.89529516914168],[-88.8873639595396,43.982919257582566],[-88.8873639595396,44.24235528414283]]]}},{"type":"Feature","id":"55141","properties":{"name":"Wood","county_fips":"55141","state_abbr":"WI"},"geometry":{"type":"Polygon","coordinates":[[[-90.31590296872969,44.42447593854938],[-90.31590296872969,44.68477102480024],[-89.84570545565455,44.68477102480024],[-89.84570545565455,44.51124096729966],[-89.72725875388754,44.51124096729966],[-89.7236694598946,44.24750964228642],[-89.9031341595416,44.24922776166761],[-90.31231367473674,44.248368701977014],[-90.31949226272262,44.25438211981119],[-90.31590296872969,44.42447593854938]]]}}]}