{"type":"FeatureCollection","features":[{"type":"Feature","id":"54001","properties":{"name":"Barbour","county_fips":"54001","state_abbr":"WV"},"geometry":{"type":"Polygon","coordinates":[[[-80.16537955669557,39.242627884868845],[-80.02180779697797,39.24778224301242],[-79.960789799098,39.26839967558675],[-79.9356647411474,39.297607705067044],[-79.89618250722506,39.29932582444824],[-79.86028956729567,39.28472180970809],[-79.84952168531684,39.246923183321826],[-79.81003945139452,39.23060104920049],[-79.83875380333804,39.130950125091246],[-79.82439662736627,39.1154870506605],[-79.86387886128861,39.07253406613066],[-79.89618250722506,38.973742201712014],[-80.08641508885088,38.947111351303505],[-80.05411144291443,38.9754603210932],[-80.05411144291443,39.03731261881618],[-80.12948661676616,39.03817167850678],[-80.1689688506885,39.0879971405614],[-80.22639755457554,39.11290987158871],[-80.22639755457554,39.1713259305493],[-80.16537955669557,39.242627884868845]]]}},{"type":"Feature","id":"54003","properties":{"name":"Berkeley","county_fips":"54003","state_abbr":"WV"},"geometry":{"type":"Polygon","coordinates":[[[-78.02257104291043,39.619755089040886],[-78.00821386693866,39.601714835538345],[-77.94360657506574,39.61889602935029],[-77.88258857718577,39.59913765646656],[-77.8323384612846,39.60257389522894],[-77.8323384612846,39.57078868667686],[-77.88976716517165,39.55790279131791],[-77.86105281322813,39.51409074709746],[-77.82515987329873,39.52955382152821],[-77.82515987329873,39.494332374213734],[-77.84669563725637,39.44622503154031],[-77.92924939909399,39.38093649505495],[-77.96873163301633,39.36719154000539],[-78.03333892488925,39.26496343682436],[-78.227160800508,39.39124521134211],[-78.13742845068451,39.593983298322975],[-78.09435692276922,39.58195646265462],[-78.02257104291043,39.619755089040886]]]}},{"type":"Feature","id":"54005","properties":{"name":"Boone","county_fips":"54005","state_abbr":"WV"},"geometry":{"type":"Polygon","coordinates":[[[-81.93131220122201,38.02534030329303],[-81.97079443514434,38.050253034320335],[-81.95284796517964,38.11897780956809],[-81.92772290722907,38.15248113750137],[-81.8774727913279,38.13701806307063],[-81.88824067330673,38.16794421193211],[-81.85234773337733,38.173098570075695],[-81.83440126341263,38.20917907708076],[-81.76620467754677,38.2272193305833],[-81.73749032560325,38.198011301103],[-81.72672244362444,38.22120591274912],[-81.64416868178681,38.22034685305852],[-81.64775797577975,38.18512540574405],[-81.60109715387154,38.17395762976629],[-81.56879350793507,38.13701806307063],[-81.51495409804097,38.11210533204331],[-81.53648986199862,38.076024825038246],[-81.4898290400904,38.06743422813228],[-81.46111468814688,38.02705842267422],[-81.45752539415393,37.987541676906766],[-81.5077755100551,37.98840073659736],[-81.54007915599156,37.97121954278542],[-81.56161491994919,37.918816901659014],[-81.56161491994919,37.84150152950529],[-81.51495409804097,37.818306917859175],[-81.51495409804097,37.79081700776007],[-81.57597209592096,37.76332709766097],[-81.60827574185741,37.78909888837888],[-81.64775797577975,37.831192813218124],[-81.7231331496315,37.8097163209532],[-81.78056185351853,37.8672733202232],[-81.75902608956089,37.88617263341633],[-81.78056185351853,37.934279976089755],[-81.8595263213632,37.94802493113931],[-81.90977643726437,37.97465578154781],[-81.98156231712316,37.98668261721617],[-81.93131220122201,38.02534030329303]]]}},{"type":"Feature","id":"54007","properties":{"name":"Braxton","county_fips":"54007","state_abbr":"WV"},"geometry":{"type":"Polygon","coordinates":[[[-80.98373858708587,38.71774241391413],[-80.67147000970009,38.892990590795904],[-80.64275565775658,38.884399993889936],[-80.60686271782717,38.904158366773665],[-80.5817376598766,38.858628203172024],[-80.52430895598955,38.862064441934415],[-80.4740588400884,38.83285641245412],[-80.48482672206721,38.800212144211436],[-80.44534448814488,38.777876592255915],[-80.4561123701237,38.739218906179055],[-80.5099517800178,38.645581399903996],[-80.64993424574246,38.52617210291102],[-80.71813083160832,38.53648081919818],[-80.75043447754477,38.52617210291102],[-80.78632741747417,38.557957311463106],[-80.8796490612906,38.50727278971789],[-80.91913129521295,38.54507141610416],[-80.92630988319883,38.57943380372803],[-80.96938141111411,38.59317875877758],[-80.97655999909999,38.62496396732967],[-81.03039940899409,38.66791695185951],[-80.98373858708587,38.71774241391413]]]}},{"type":"Feature","id":"54009","properties":{"name":"Brooke","county_fips":"54009","state_abbr":"WV"},"geometry":{"type":"Polygon","coordinates":[[[-80.62839848178481,40.394626929959294],[-80.51713036800368,40.39978128810287],[-80.52071966199662,40.15924457473574],[-80.59609483584836,40.17728482823828],[-80.68223789167891,40.185875425144246],[-80.65352353973539,40.24515054379543],[-80.61763059980599,40.26490891667916],[-80.5996841298413,40.32074779656796],[-80.60686271782717,40.36971419893198],[-80.62839848178481,40.394626929959294]]]}},{"type":"Feature","id":"54011","properties":{"name":"Cabell","county_fips":"54011","state_abbr":"WV"},"geometry":{"type":"Polygon","coordinates":[[[-82.50918853408534,38.41105810437104],[-82.40509900829008,38.439407074160734],[-82.32254524645246,38.4488567307573],[-82.30459877648777,38.49095065559655],[-82.28665230652307,38.58287004249042],[-82.2184557206572,38.59146063939639],[-82.05334819698197,38.47462852147521],[-82.04616960899608,38.37411853767537],[-82.09641972489725,38.36724606015059],[-82.11795548885489,38.34405144850448],[-82.17538419274193,38.33975615005149],[-82.20768783867838,38.289071628306274],[-82.23999148461485,38.27103137480374],[-82.26511654256542,38.22893744996449],[-82.30100948249482,38.24010522594225],[-82.30459877648777,38.29508504614046],[-82.27588442454424,38.303675643046425],[-82.31536665846659,38.331165553145524],[-82.34767030440304,38.30625282211822],[-82.50918853408534,38.41105810437104]]]}},{"type":"Feature","id":"54013","properties":{"name":"Calhoun","county_fips":"54013","state_abbr":"WV"},"geometry":{"type":"Polygon","coordinates":[[[-81.16320328673287,39.03044014129141],[-81.13448893478935,39.04504415603155],[-81.10218528885288,39.02184954438544],[-81.03398870298703,39.00982270871708],[-81.00527435104351,38.96085630635306],[-81.01245293902939,38.923057679966796],[-81.00168505705057,38.84574230781307],[-81.05552446694466,38.79333966668666],[-80.99809576305763,38.746950443394425],[-80.98373858708587,38.71774241391413],[-81.03039940899409,38.66791695185951],[-81.08423881888818,38.612078071970714],[-81.10218528885288,38.638708922379216],[-81.15961399273992,38.6438632805228],[-81.17038187471874,38.74007796586965],[-81.22781057860578,38.79333966668666],[-81.2206319906199,38.84402418843188],[-81.2385784605846,38.880963755127546],[-81.27806069450695,38.91446708306082],[-81.274471400514,38.935943575325744],[-81.16320328673287,39.03044014129141]]]}},{"type":"Feature","id":"54015","properties":{"name":"Clay","county_fips":"54015","state_abbr":"WV"},"geometry":{"type":"Polygon","coordinates":[[[-81.19550693266932,38.527890222292214],[-81.1308996407964,38.565688848678484],[-81.08423881888818,38.612078071970714],[-81.03039940899409,38.66791695185951],[-80.97655999909999,38.62496396732967],[-80.96938141111411,38.59317875877758],[-80.92630988319883,38.57943380372803],[-80.91913129521295,38.54507141610416],[-80.8796490612906,38.50727278971789],[-80.81863106341063,38.47892381992819],[-80.91195270722707,38.41449434313343],[-81.23139987259873,38.26329983758837],[-81.25293563655636,38.37240041829418],[-81.28164998849988,38.472910402094016],[-81.19550693266932,38.527890222292214]]]}},{"type":"Feature","id":"54017","properties":{"name":"Doddridge","county_fips":"54017","state_abbr":"WV"},"geometry":{"type":"Polygon","coordinates":[[[-80.89041694326943,39.294171466304654],[-80.82939894538946,39.34313786866868],[-80.73248800758007,39.39554050979509],[-80.71454153761537,39.42990289741897],[-80.65711283372833,39.43333913618135],[-80.61763059980599,39.450520329993296],[-80.5458447199472,39.42904383772837],[-80.5458447199472,39.366332480314796],[-80.53148754397543,39.36031906248062],[-80.60327342383424,39.28643992908928],[-80.5458447199472,39.23489634765347],[-80.56738048390484,39.22115139260392],[-80.5278982499825,39.19537960188601],[-80.59609483584836,39.16703063209631],[-80.65711283372833,39.14125884137841],[-80.70018436164361,39.09057431963319],[-80.72889871358713,39.09572867777677],[-80.81145247542476,39.10947363282632],[-80.91554200122,39.27269497403974],[-80.89041694326943,39.294171466304654]]]}},{"type":"Feature","id":"54019","properties":{"name":"Fayette","county_fips":"54019","state_abbr":"WV"},"geometry":{"type":"Polygon","coordinates":[[[-81.3821502203022,37.969501423404225],[-81.33190010440104,38.16107173440734],[-81.23139987259873,38.26329983758837],[-81.15243540475404,38.226360270892705],[-81.13448893478935,38.23495086779867],[-81.07347093690936,38.19629318172181],[-81.0591137609376,38.222924032130315],[-81.00886364503644,38.20574283831838],[-80.98373858708587,38.222924032130315],[-80.94425635316352,38.19371600265002],[-80.95143494114942,38.16794421193211],[-80.88323835528355,38.103514735137345],[-80.89400623726237,38.07946106380063],[-80.86529188531885,38.05798457153571],[-80.80068459344594,38.06313892967929],[-80.82939894538946,38.0313537211272],[-80.79709529945299,38.02534030329303],[-80.76838094750947,37.98496449783497],[-80.81145247542476,37.9488839908299],[-80.75043447754477,37.864696141151406],[-80.80786318143181,37.86899143960439],[-80.94425635316352,37.81916597754977],[-80.97655999909999,37.83291093259932],[-81.05552446694466,37.83548811167111],[-81.07347093690936,37.875863917129166],[-81.29600716447165,37.88960887217871],[-81.30318575245752,37.93342091639916],[-81.3462572803728,37.976373900929005],[-81.3821502203022,37.969501423404225]]]}},{"type":"Feature","id":"54021","properties":{"name":"Gilmer","county_fips":"54021","state_abbr":"WV"},"geometry":{"type":"Polygon","coordinates":[[[-81.03398870298703,39.00982270871708],[-80.91195270722707,39.04590321572215],[-80.83657753337533,39.08198372272722],[-80.81145247542476,39.10947363282632],[-80.72889871358713,39.09572867777677],[-80.71813083160832,39.008104589335886],[-80.60686271782717,38.904158366773665],[-80.64275565775658,38.884399993889936],[-80.67147000970009,38.892990590795904],[-80.98373858708587,38.71774241391413],[-80.99809576305763,38.746950443394425],[-81.05552446694466,38.79333966668666],[-81.00168505705057,38.84574230781307],[-81.01245293902939,38.923057679966796],[-81.00527435104351,38.96085630635306],[-81.03398870298703,39.00982270871708]]]}},{"type":"Feature","id":"54023","properties":{"name":"Grant","county_fips":"54023","state_abbr":"WV"},"geometry":{"type":"Polygon","coordinates":[[[-79.48700299202991,39.20568831817317],[-79.45111005210052,39.211701736007356],[-79.3326633503335,39.30018488413884],[-79.28959182241822,39.29932582444824],[-79.27164535245352,39.32939291361913],[-79.1352521807218,39.312211719807195],[-78.98091253902538,39.23747352672526],[-79.03475194891949,39.14984943828438],[-79.0275733609336,39.14211790106901],[-79.08859135881359,39.03817167850678],[-79.0455198308983,38.928212038110374],[-79.1352521807218,38.81309803957039],[-79.3506098202982,38.95742006759067],[-79.35778840828408,38.96429254511544],[-79.33984193831938,38.969446903259026],[-79.29677041040411,39.073393125821255],[-79.35419911429113,39.086279021180204],[-79.3326633503335,39.14813131890318],[-79.28959182241822,39.189366184051835],[-79.30753829238292,39.20998361662616],[-79.46905652206522,39.17905746776467],[-79.48700299202991,39.19452054219541],[-79.48700299202991,39.20568831817317]]]}},{"type":"Feature","id":"54025","properties":{"name":"Greenbrier","county_fips":"54025","state_abbr":"WV"},"geometry":{"type":"Polygon","coordinates":[[[-80.88323835528355,38.103514735137345],[-80.71095224362243,38.07946106380063],[-80.53148754397543,38.1988703607936],[-80.43816590015899,38.26759513604135],[-80.35920143231432,38.22550121120211],[-80.36279072630727,38.114682511115106],[-80.26587978849788,38.04681679555795],[-80.1689688506885,38.03650807927079],[-80.10795085280853,38.05626645215452],[-79.960789799098,38.06399798936989],[-80.01103991499915,37.98582355752557],[-80.05770073690736,37.95232022959229],[-80.18332602666027,37.85266930548305],[-80.25870120051201,37.756454620136196],[-80.25152261252612,37.72552847127471],[-80.2945941404414,37.692025143341425],[-80.3843264902649,37.69288420303202],[-80.39509437224372,37.71693787436874],[-80.44893378213781,37.68343454643546],[-80.50636248602486,37.69116608365083],[-80.66429142171421,37.73154188910888],[-80.66788071570716,37.76332709766097],[-80.75043447754477,37.83548811167111],[-80.80786318143181,37.86899143960439],[-80.75043447754477,37.864696141151406],[-80.81145247542476,37.9488839908299],[-80.76838094750947,37.98496449783497],[-80.79709529945299,38.02534030329303],[-80.82939894538946,38.0313537211272],[-80.80068459344594,38.06313892967929],[-80.86529188531885,38.05798457153571],[-80.89400623726237,38.07946106380063],[-80.88323835528355,38.103514735137345]]]}},{"type":"Feature","id":"54027","properties":{"name":"Hampshire","county_fips":"54027","state_abbr":"WV"},"geometry":{"type":"Polygon","coordinates":[[[-78.6578760796608,39.53470817967179],[-78.59326878778788,39.535567239362386],[-78.5681437298373,39.520104164931645],[-78.46764349803497,39.516667926169255],[-78.34560750227502,39.46598340442404],[-78.35996467824678,39.412721703607026],[-78.34201820828208,39.38866803227032],[-78.36355397223971,39.35774188340883],[-78.33842891428914,39.34829222681226],[-78.42098267612675,39.25723189960899],[-78.39944691216913,39.24434600425003],[-78.43892914609145,39.1979567809578],[-78.40303620616206,39.16703063209631],[-78.4604649100491,39.1137689312793],[-78.50712573195732,39.088856200251996],[-78.56096514185141,39.131809184781844],[-78.6040366697667,39.14039978168781],[-78.6219831397314,39.11892328942289],[-78.69735831358314,39.14813131890318],[-78.73325125351253,39.14984943828438],[-78.89835877718777,39.1988158406484],[-78.98091253902538,39.23747352672526],[-78.92707312913129,39.27870839187391],[-78.88400160121601,39.32853385392853],[-78.85169795527955,39.33025197330973],[-78.76914419344193,39.447084091230906],[-78.72966195951959,39.463406225352244],[-78.6578760796608,39.53470817967179]]]}},{"type":"Feature","id":"54029","properties":{"name":"Hancock","county_fips":"54029","state_abbr":"WV"},"geometry":{"type":"Polygon","coordinates":[[[-80.66788071570716,40.582761002200016],[-80.63557706977069,40.6162643301333],[-80.58532695386954,40.6154052704427],[-80.52071966199662,40.63859988208881],[-80.52071966199662,40.4770966602566],[-80.51713036800368,40.39978128810287],[-80.62839848178481,40.394626929959294],[-80.59609483584836,40.463351705207046],[-80.62839848178481,40.53551271921719],[-80.66788071570716,40.582761002200016]]]}},{"type":"Feature","id":"54031","properties":{"name":"Hardy","county_fips":"54031","state_abbr":"WV"},"geometry":{"type":"Polygon","coordinates":[[[-78.98091253902538,39.23747352672526],[-78.89835877718777,39.1988158406484],[-78.73325125351253,39.14984943828438],[-78.69735831358314,39.14813131890318],[-78.6219831397314,39.11892328942289],[-78.6040366697667,39.14039978168781],[-78.56096514185141,39.131809184781844],[-78.50712573195732,39.088856200251996],[-78.54301867188671,39.05621193200931],[-78.57173302383023,39.0321582606726],[-78.55019725987259,39.01841330562305],[-78.60044737577375,38.96429254511544],[-78.62557243372433,38.98233279861798],[-78.67941184361844,38.92563485903858],[-78.71530478354784,38.905017426464255],[-78.71530478354784,38.935943575325744],[-78.79785854538545,38.87495033729336],[-78.86964442524425,38.76327257751577],[-78.99526971499715,38.850037606266056],[-79.05628771287712,38.761554458134576],[-79.1352521807218,38.81309803957039],[-79.0455198308983,38.928212038110374],[-79.08859135881359,39.03817167850678],[-79.0275733609336,39.14211790106901],[-79.03475194891949,39.14984943828438],[-78.98091253902538,39.23747352672526]]]}},{"type":"Feature","id":"54033","properties":{"name":"Harrison","county_fips":"54033","state_abbr":"WV"},"geometry":{"type":"Polygon","coordinates":[[[-80.5458447199472,39.42904383772837],[-80.51713036800368,39.43505725556255],[-80.49559460404603,39.46941964318643],[-80.28382625846258,39.43505725556255],[-80.19768320263202,39.3929633307233],[-80.20127249662497,39.27097685465854],[-80.16537955669557,39.242627884868845],[-80.22639755457554,39.1713259305493],[-80.22639755457554,39.11290987158871],[-80.30177272842728,39.10346021499215],[-80.59609483584836,39.16703063209631],[-80.5278982499825,39.19537960188601],[-80.56738048390484,39.22115139260392],[-80.5458447199472,39.23489634765347],[-80.60327342383424,39.28643992908928],[-80.53148754397543,39.36031906248062],[-80.5458447199472,39.366332480314796],[-80.5458447199472,39.42904383772837]]]}},{"type":"Feature","id":"54035","properties":{"name":"Jackson","county_fips":"54035","state_abbr":"WV"},"geometry":{"type":"Polygon","coordinates":[[[-81.90977643726437,38.87838657605575],[-81.85593702737027,38.892990590795904],[-81.84516914539145,38.92907109780097],[-81.81286549945499,38.94625229161291],[-81.78056185351853,38.924775799347984],[-81.76620467754677,39.020131425004244],[-81.80209761747618,39.04504415603155],[-81.81286549945499,39.08198372272722],[-81.74825820758207,39.09572867777677],[-81.58315068390684,39.02614484283842],[-81.53290056800567,39.005527410264094],[-81.55084703797037,38.966869724187234],[-81.50418621606215,38.91790332182321],[-81.5257219800198,38.90158118770187],[-81.52213268602685,38.82512487523874],[-81.54725774397744,38.6722122503125],[-81.52213268602685,38.61293713166131],[-81.633400799808,38.55452107270072],[-81.69800809168092,38.62668208671086],[-81.74825820758207,38.68338002629026],[-81.77338326553266,38.680802847218466],[-81.81286549945499,38.715165234842345],[-81.79132973549736,38.73320548834488],[-81.90977643726437,38.87838657605575]]]}},{"type":"Feature","id":"54037","properties":{"name":"Jefferson","county_fips":"54037","state_abbr":"WV"},"geometry":{"type":"Polygon","coordinates":[[[-77.82515987329873,39.494332374213734],[-77.79644552135521,39.481446478854785],[-77.78567763937639,39.43505725556255],[-77.75337399343994,39.424748539275384],[-77.73542752347524,39.38780897257972],[-77.75696328743287,39.33368821207211],[-77.72107034750347,39.32166137640376],[-77.75337399343994,39.28300369032689],[-77.82874916729168,39.13266824447244],[-78.03333892488925,39.26496343682436],[-77.96873163301633,39.36719154000539],[-77.92924939909399,39.38093649505495],[-77.84669563725637,39.44622503154031],[-77.82515987329873,39.494332374213734]]]}},{"type":"Feature","id":"54039","properties":{"name":"Kanawha","county_fips":"54039","state_abbr":"WV"},"geometry":{"type":"Polygon","coordinates":[[[-81.69800809168092,38.62668208671086],[-81.633400799808,38.55452107270072],[-81.52213268602685,38.61293713166131],[-81.46470398213982,38.550225774247735],[-81.30318575245752,38.534762699816994],[-81.274471400514,38.52187680445804],[-81.19550693266932,38.527890222292214],[-81.28164998849988,38.472910402094016],[-81.25293563655636,38.37240041829418],[-81.23139987259873,38.26329983758837],[-81.33190010440104,38.16107173440734],[-81.3821502203022,37.969501423404225],[-81.4359896301963,37.96778330402304],[-81.45752539415393,37.987541676906766],[-81.46111468814688,38.02705842267422],[-81.4898290400904,38.06743422813228],[-81.53648986199862,38.076024825038246],[-81.51495409804097,38.11210533204331],[-81.56879350793507,38.13701806307063],[-81.60109715387154,38.17395762976629],[-81.64775797577975,38.18512540574405],[-81.64416868178681,38.22034685305852],[-81.72672244362444,38.22120591274912],[-81.73749032560325,38.198011301103],[-81.76620467754677,38.2272193305833],[-81.83440126341263,38.20917907708076],[-81.80927620546206,38.22034685305852],[-81.80209761747618,38.26415889727897],[-81.81645479344793,38.31570247871478],[-81.91695502525025,38.326011195001946],[-81.89900855528555,38.39903126870268],[-81.85234773337733,38.4222258803488],[-81.72672244362444,38.46603792456924],[-81.75543679556796,38.523594923839234],[-81.75543679556796,38.581151923109225],[-81.69800809168092,38.62668208671086]]]}},{"type":"Feature","id":"54041","properties":{"name":"Lewis","county_fips":"54041","state_abbr":"WV"},"geometry":{"type":"Polygon","coordinates":[[[-80.72889871358713,39.09572867777677],[-80.70018436164361,39.09057431963319],[-80.65711283372833,39.14125884137841],[-80.59609483584836,39.16703063209631],[-80.30177272842728,39.10346021499215],[-80.31971919839198,39.01325894747947],[-80.31971919839198,38.95570194820947],[-80.3484335503355,38.94023887377873],[-80.3663800203002,38.88697717296172],[-80.38791578425784,38.87495033729336],[-80.40945154821549,38.76842693565935],[-80.39150507825077,38.7271920705107],[-80.4561123701237,38.739218906179055],[-80.44534448814488,38.777876592255915],[-80.48482672206721,38.800212144211436],[-80.4740588400884,38.83285641245412],[-80.52430895598955,38.862064441934415],[-80.5817376598766,38.858628203172024],[-80.60686271782717,38.904158366773665],[-80.71813083160832,39.008104589335886],[-80.72889871358713,39.09572867777677]]]}},{"type":"Feature","id":"54043","properties":{"name":"Lincoln","county_fips":"54043","state_abbr":"WV"},"geometry":{"type":"Polygon","coordinates":[[[-82.30459877648777,37.94372963268632],[-82.19333066270663,38.045957735867354],[-82.26152724857248,38.10781003359033],[-82.28665230652307,38.144749600286],[-82.26511654256542,38.22893744996449],[-82.23999148461485,38.27103137480374],[-82.20768783867838,38.289071628306274],[-82.17538419274193,38.33975615005149],[-82.11795548885489,38.34405144850448],[-82.09641972489725,38.36724606015059],[-82.04616960899608,38.37411853767537],[-82.04975890298903,38.28993068799687],[-81.99591949309493,38.26673607635076],[-81.91695502525025,38.326011195001946],[-81.81645479344793,38.31570247871478],[-81.80209761747618,38.26415889727897],[-81.80927620546206,38.22034685305852],[-81.83440126341263,38.20917907708076],[-81.85234773337733,38.173098570075695],[-81.88824067330673,38.16794421193211],[-81.8774727913279,38.13701806307063],[-81.92772290722907,38.15248113750137],[-81.95284796517964,38.11897780956809],[-81.97079443514434,38.050253034320335],[-81.93131220122201,38.02534030329303],[-82.04616960899608,38.015031587005865],[-82.18974136871368,37.97465578154781],[-82.30459877648777,37.94372963268632]]]}},{"type":"Feature","id":"54045","properties":{"name":"Logan","county_fips":"54045","state_abbr":"WV"},"geometry":{"type":"Polygon","coordinates":[[[-82.18974136871368,37.97465578154781],[-82.04616960899608,38.015031587005865],[-81.93131220122201,38.02534030329303],[-81.98156231712316,37.98668261721617],[-81.90977643726437,37.97465578154781],[-81.8595263213632,37.94802493113931],[-81.78056185351853,37.934279976089755],[-81.75902608956089,37.88617263341633],[-81.78056185351853,37.8672733202232],[-81.7231331496315,37.8097163209532],[-81.64775797577975,37.831192813218124],[-81.60827574185741,37.78909888837888],[-81.69441879768797,37.77449487363873],[-81.76620467754677,37.75130026199261],[-81.70159738567385,37.70147479993799],[-81.80209761747618,37.66023993478934],[-81.8667049093491,37.67913924798248],[-81.9025978492785,37.661098994479936],[-81.91336573125731,37.67999830767307],[-81.97797302313023,37.667971472004716],[-81.99233019910199,37.64735403943039],[-82.04258031500315,37.70147479993799],[-82.08206254892549,37.70147479993799],[-82.10718760687607,37.750441202302014],[-82.10718760687607,37.80112572404723],[-82.14666984079841,37.83978341012409],[-82.11077690086901,37.85954178300782],[-82.12513407684077,37.89905852877528],[-82.16461631076311,37.911944424134234],[-82.18974136871368,37.97465578154781]]]}},{"type":"Feature","id":"54049","properties":{"name":"Marion","county_fips":"54049","state_abbr":"WV"},"geometry":{"type":"Polygon","coordinates":[[[-80.39509437224372,39.63693628285282],[-80.3484335503355,39.61202355182551],[-80.15461167471675,39.61030543244432],[-79.96796838708387,39.463406225352244],[-79.93925403514035,39.452238449374484],[-80.02539709097091,39.40155392762927],[-80.08641508885088,39.386090853198525],[-80.12230802878028,39.40155392762927],[-80.19768320263202,39.3929633307233],[-80.28382625846258,39.43505725556255],[-80.49559460404603,39.46941964318643],[-80.47046954609546,39.48660083699836],[-80.49918389803898,39.563057149461486],[-80.47764813408133,39.597419537085365],[-80.45252307613076,39.59570141770417],[-80.43457660616606,39.639513461924615],[-80.39509437224372,39.63693628285282]]]}},{"type":"Feature","id":"54051","properties":{"name":"Marshall","county_fips":"54051","state_abbr":"WV"},"geometry":{"type":"Polygon","coordinates":[[[-80.82222035740357,39.84998308612086],[-80.78991671146711,39.867164279932794],[-80.80427388743887,39.91870786136861],[-80.75761306553065,39.909258204772044],[-80.76479165351654,39.95392930868308],[-80.73966659556595,39.971110502495016],[-80.73248800758007,40.032962800217994],[-80.52071966199662,40.016640666096656],[-80.52071966199662,39.96251990558905],[-80.51713036800368,39.8912179512695],[-80.52071966199662,39.721124132531315],[-80.83298823938239,39.721124132531315],[-80.86888117931178,39.75720463953639],[-80.82580965139651,39.79843950468504],[-80.82222035740357,39.84998308612086]]]}},{"type":"Feature","id":"54053","properties":{"name":"Mason","county_fips":"54053","state_abbr":"WV"},"geometry":{"type":"Polygon","coordinates":[[[-82.10000901889019,38.958279127281266],[-82.02822313903138,39.02872202191021],[-81.98156231712316,38.99435963428633],[-81.94208008320084,38.99350057459574],[-81.89900855528555,38.92563485903858],[-81.92772290722907,38.90158118770187],[-81.90977643726437,38.87838657605575],[-81.79132973549736,38.73320548834488],[-81.81286549945499,38.715165234842345],[-81.77338326553266,38.680802847218466],[-81.95643725917259,38.65674917588175],[-82.0641160789608,38.60778277351773],[-82.05334819698197,38.47462852147521],[-82.2184557206572,38.59146063939639],[-82.17179489874898,38.61895054949549],[-82.1825627807278,38.70571557824577],[-82.2184557206572,38.79591684575845],[-82.14308054680546,38.84058794966949],[-82.14308054680546,38.89814494893948],[-82.10000901889019,38.958279127281266]]]}},{"type":"Feature","id":"54047","properties":{"name":"McDowell","county_fips":"54047","state_abbr":"WV"},"geometry":{"type":"Polygon","coordinates":[[[-81.92772290722907,37.51248166800667],[-81.85593702737027,37.548562175011746],[-81.81645479344793,37.506468250172496],[-81.70877597365974,37.495300474194735],[-81.66211515175152,37.52193132460324],[-81.62622221182211,37.518495085840854],[-81.60109715387154,37.49272329512294],[-81.52931127401274,37.47554210131101],[-81.46111468814688,37.48327363852638],[-81.43240033620336,37.448911250902505],[-81.39650739627396,37.464374325333246],[-81.37497163231632,37.44375689275892],[-81.3103643404434,37.42485757956579],[-81.36061445634456,37.3380925508155],[-81.38932880828808,37.32005229731297],[-81.4180431602316,37.272804014330134],[-81.50059692206922,37.25819999958999],[-81.5077755100551,37.23242820887208],[-81.55443633196332,37.20751547784477],[-81.67647232772327,37.2015020600106],[-81.73749032560325,37.23844162670626],[-81.74466891358914,37.26335435773357],[-81.78774044150441,37.28483084999849],[-81.85234773337733,37.287408029070285],[-81.8774727913279,37.33207913298132],[-81.92772290722907,37.35870998338983],[-81.93490149521494,37.43602535554355],[-81.98874090510905,37.45492466873668],[-81.99233019910199,37.48327363852638],[-81.92772290722907,37.51248166800667]]]}},{"type":"Feature","id":"54055","properties":{"name":"Mercer","county_fips":"54055","state_abbr":"WV"},"geometry":{"type":"Polygon","coordinates":[[[-81.36061445634456,37.3380925508155],[-81.3103643404434,37.42485757956579],[-81.28164998849988,37.41970322142221],[-81.30677504645047,37.45921996718967],[-81.26370351853518,37.495300474194735],[-81.2206319906199,37.51076354862548],[-81.19909622666226,37.57519302542025],[-81.13448893478935,37.59752857737577],[-81.095006700867,37.5889379804698],[-80.85811329733298,37.429152878018776],[-80.88323835528355,37.383622714417136],[-80.85093470934709,37.34668314772147],[-80.91913129521295,37.306307342263416],[-80.98014929309292,37.29256238721386],[-80.98014929309292,37.30201204381043],[-81.1129531708317,37.27881743216432],[-81.22422128461284,37.23500538794387],[-81.32113222242222,37.29943486473864],[-81.36061445634456,37.3380925508155]]]}},{"type":"Feature","id":"54057","properties":{"name":"Mineral","county_fips":"54057","state_abbr":"WV"},"geometry":{"type":"Polygon","coordinates":[[[-79.06705559485594,39.474574001330005],[-78.95578748107481,39.44021161370613],[-78.91630524715247,39.48660083699836],[-78.77991207542075,39.62233226811267],[-78.73325125351253,39.613741671206704],[-78.77991207542075,39.601714835538345],[-78.73325125351253,39.586251761107604],[-78.72607266552666,39.56391620915208],[-78.6578760796608,39.53470817967179],[-78.72966195951959,39.463406225352244],[-78.76914419344193,39.447084091230906],[-78.85169795527955,39.33025197330973],[-78.88400160121601,39.32853385392853],[-78.92707312913129,39.27870839187391],[-78.98091253902538,39.23747352672526],[-79.1352521807218,39.312211719807195],[-79.27164535245352,39.32939291361913],[-79.25369888248882,39.35688282371823],[-79.14243076870768,39.408426405154046],[-79.09576994679946,39.47285588194881],[-79.06705559485594,39.474574001330005]]]}},{"type":"Feature","id":"54059","properties":{"name":"Mingo","county_fips":"54059","state_abbr":"WV"},"geometry":{"type":"Polygon","coordinates":[[[-82.42304547825478,37.85438742486424],[-82.30459877648777,37.94372963268632],[-82.18974136871368,37.97465578154781],[-82.16461631076311,37.911944424134234],[-82.12513407684077,37.89905852877528],[-82.11077690086901,37.85954178300782],[-82.14666984079841,37.83978341012409],[-82.10718760687607,37.80112572404723],[-82.10718760687607,37.750441202302014],[-82.08206254892549,37.70147479993799],[-82.04258031500315,37.70147479993799],[-81.99233019910199,37.64735403943039],[-81.97797302313023,37.667971472004716],[-81.91336573125731,37.67999830767307],[-81.9025978492785,37.661098994479936],[-81.8667049093491,37.67913924798248],[-81.80209761747618,37.66023993478934],[-81.79491902949029,37.63189096499964],[-81.85593702737027,37.548562175011746],[-81.92772290722907,37.51248166800667],[-81.96720514115141,37.537394399033985],[-82.01745525705256,37.533958160271595],[-82.11795548885489,37.55972995098951],[-82.12872337083371,37.591515159541586],[-82.15743772277723,37.592374219232184],[-82.1825627807278,37.62673660685606],[-82.21486642666426,37.62501848747487],[-82.23999148461485,37.661098994479936],[-82.29383089450894,37.6705486510765],[-82.33331312843129,37.74099154570545],[-82.34049171641716,37.78566264961649],[-82.37638465634656,37.80198478373783],[-82.42304547825478,37.85438742486424]]]}},{"type":"Feature","id":"54061","properties":{"name":"Monongalia","county_fips":"54061","state_abbr":"WV"},"geometry":{"type":"Polygon","coordinates":[[[-80.4202194301943,39.721124132531315],[-79.91771827118271,39.721124132531315],[-79.7633786294863,39.721124132531315],[-79.78850368743687,39.62405038749387],[-79.89977180121801,39.482305538545376],[-79.89618250722506,39.435916315253145],[-79.93925403514035,39.452238449374484],[-79.96796838708387,39.463406225352244],[-80.15461167471675,39.61030543244432],[-80.3484335503355,39.61202355182551],[-80.39509437224372,39.63693628285282],[-80.40586225422254,39.71768789376893],[-80.4202194301943,39.721124132531315]]]}},{"type":"Feature","id":"54063","properties":{"name":"Monroe","county_fips":"54063","state_abbr":"WV"},"geometry":{"type":"Polygon","coordinates":[[[-80.85811329733298,37.42829381832818],[-80.66070212772128,37.714360695296946],[-80.66429142171421,37.73154188910888],[-80.50636248602486,37.69116608365083],[-80.44893378213781,37.68343454643546],[-80.39509437224372,37.71693787436874],[-80.3843264902649,37.69288420303202],[-80.2945941404414,37.692025143341425],[-80.28023696446964,37.656803696026955],[-80.21921896658966,37.62759566654666],[-80.26229049450494,37.59323327892278],[-80.32689778637786,37.56402524944249],[-80.3304870803708,37.53653533934339],[-80.28382625846258,37.533099100581],[-80.29818343443434,37.50818636955369],[-80.4740588400884,37.42399851987519],[-80.49559460404603,37.43516629585295],[-80.5099517800178,37.48155551914518],[-80.55302330793307,37.47382398192981],[-80.62121989379894,37.43344817647176],[-80.76838094750947,37.372454938439375],[-80.78273812348124,37.3947904903949],[-80.85811329733298,37.42829381832818]]]}},{"type":"Feature","id":"54065","properties":{"name":"Morgan","county_fips":"54065","state_abbr":"WV"},"geometry":{"type":"Polygon","coordinates":[[[-78.3348396202962,39.636077223162225],[-78.26664303443034,39.61889602935029],[-78.18408927259273,39.69535234181341],[-78.09794621676217,39.678171148001475],[-78.02257104291043,39.619755089040886],[-78.09435692276922,39.58195646265462],[-78.13742845068451,39.593983298322975],[-78.227160800508,39.39124521134211],[-78.34560750227502,39.46598340442404],[-78.46764349803497,39.516667926169255],[-78.41739338213382,39.54931219441194],[-78.4425184400844,39.59140611925118],[-78.39585761817618,39.59054705956059],[-78.43533985209852,39.61803696965969],[-78.38508973619736,39.608587313063126],[-78.38150044220441,39.62920474563745],[-78.3348396202962,39.636077223162225]]]}},{"type":"Feature","id":"54067","properties":{"name":"Nicholas","county_fips":"54067","state_abbr":"WV"},"geometry":{"type":"Polygon","coordinates":[[[-81.23139987259873,38.26329983758837],[-80.91195270722707,38.41449434313343],[-80.81863106341063,38.47892381992819],[-80.8796490612906,38.50727278971789],[-80.78632741747417,38.557957311463106],[-80.75043447754477,38.52617210291102],[-80.71813083160832,38.53648081919818],[-80.64993424574246,38.52617210291102],[-80.67864859768598,38.503836550955505],[-80.63916636376364,38.42394399972999],[-80.66070212772128,38.41277622375223],[-80.62480918779187,38.35436016479164],[-80.61045201182012,38.358655463244624],[-80.43816590015899,38.26759513604135],[-80.53148754397543,38.1988703607936],[-80.71095224362243,38.07946106380063],[-80.88323835528355,38.103514735137345],[-80.95143494114942,38.16794421193211],[-80.94425635316352,38.19371600265002],[-80.98373858708587,38.222924032130315],[-81.00886364503644,38.20574283831838],[-81.0591137609376,38.222924032130315],[-81.07347093690936,38.19629318172181],[-81.13448893478935,38.23495086779867],[-81.15243540475404,38.226360270892705],[-81.23139987259873,38.26329983758837]]]}},{"type":"Feature","id":"54069","properties":{"name":"Ohio","county_fips":"54069","state_abbr":"WV"},"geometry":{"type":"Polygon","coordinates":[[[-80.70377365563655,40.15752645535455],[-80.68223789167891,40.185875425144246],[-80.59609483584836,40.17728482823828],[-80.52071966199662,40.15924457473574],[-80.52071966199662,40.016640666096656],[-80.73248800758007,40.032962800217994],[-80.73966659556595,40.07591578474784],[-80.7073629496295,40.101687575465746],[-80.70377365563655,40.15752645535455]]]}},{"type":"Feature","id":"54071","properties":{"name":"Pendleton","county_fips":"54071","state_abbr":"WV"},"geometry":{"type":"Polygon","coordinates":[[[-79.62698545775457,38.66448071309713],[-79.50853875598756,38.78045377132771],[-79.54084240192401,38.84144700936009],[-79.50853875598756,38.87580939698396],[-79.44393146411464,38.89900400863008],[-79.45469934609346,38.92993015749157],[-79.37573487824878,38.920480500895],[-79.3506098202982,38.95742006759067],[-79.1352521807218,38.81309803957039],[-79.05628771287712,38.761554458134576],[-79.08859135881359,38.72031959298592],[-79.09218065280652,38.65932635495354],[-79.12089500475004,38.66018541464414],[-79.2249845305453,38.478064760237594],[-79.31112758637586,38.411917164061634],[-79.47623511005109,38.45744732766327],[-79.53725310793108,38.55108483393833],[-79.64852122171222,38.59146063939639],[-79.6198068697687,38.62066866887668],[-79.62698545775457,38.66448071309713]]]}},{"type":"Feature","id":"54073","properties":{"name":"Pleasants","county_fips":"54073","state_abbr":"WV"},"geometry":{"type":"Polygon","coordinates":[[[-81.37138233832339,39.34227880897809],[-81.27088210652106,39.386090853198525],[-81.20986410864109,39.3929633307233],[-81.17038187471874,39.439352554015535],[-81.12013175881758,39.45739280751807],[-81.06270305493055,39.4762921207112],[-81.02681011500114,39.46168810597106],[-81.00886364503644,39.350869405884055],[-81.04475658496585,39.32853385392853],[-81.12013175881758,39.31392983918838],[-81.2206319906199,39.30791642135421],[-81.2385784605846,39.26839967558675],[-81.26011422454225,39.292453346923466],[-81.32472151641517,39.29846676475764],[-81.37138233832339,39.34227880897809]]]}},{"type":"Feature","id":"54075","properties":{"name":"Pocahontas","county_fips":"54075","state_abbr":"WV"},"geometry":{"type":"Polygon","coordinates":[[[-80.35920143231432,38.22550121120211],[-80.35202284432845,38.34491050819508],[-80.3304870803708,38.33546085159851],[-80.24434402454024,38.388722552415516],[-80.1151294407944,38.47376946178461],[-80.02898638496384,38.45916544704446],[-79.86387886128861,38.55194389362893],[-79.80286086340863,38.70915181700816],[-79.7741465114651,38.739218906179055],[-79.73107498354983,38.71086993638936],[-79.74184286552865,38.68252096659966],[-79.68082486764867,38.66448071309713],[-79.66287839768397,38.689393444124434],[-79.62698545775457,38.66448071309713],[-79.6198068697687,38.62066866887668],[-79.64852122171222,38.59146063939639],[-79.69877133761338,38.48751441683416],[-79.68800345563456,38.43167553694536],[-79.73107498354983,38.38013195550955],[-79.81003945139452,38.30539376242762],[-79.79568227542275,38.26673607635076],[-79.83157521535215,38.24955488253882],[-79.92130756517565,38.17997104760047],[-79.94643262312623,38.13186370492704],[-79.92489685916858,38.106950973899735],[-79.960789799098,38.06399798936989],[-80.10795085280853,38.05626645215452],[-80.1689688506885,38.03650807927079],[-80.26587978849788,38.04681679555795],[-80.36279072630727,38.114682511115106],[-80.35920143231432,38.22550121120211]]]}},{"type":"Feature","id":"54077","properties":{"name":"Preston","county_fips":"54077","state_abbr":"WV"},"geometry":{"type":"Polygon","coordinates":[[[-79.7633786294863,39.721124132531315],[-79.47623511005109,39.721124132531315],[-79.48700299202991,39.20568831817317],[-79.48700299202991,39.19452054219541],[-79.50853875598756,39.21599703446034],[-79.68441416164161,39.270117794967945],[-79.81003945139452,39.23060104920049],[-79.84952168531684,39.246923183321826],[-79.86028956729567,39.28472180970809],[-79.89618250722506,39.29932582444824],[-79.89618250722506,39.435916315253145],[-79.89977180121801,39.482305538545376],[-79.78850368743687,39.62405038749387],[-79.7633786294863,39.721124132531315]]]}},{"type":"Feature","id":"54079","properties":{"name":"Putnam","county_fips":"54079","state_abbr":"WV"},"geometry":{"type":"Polygon","coordinates":[[[-81.77338326553266,38.680802847218466],[-81.74825820758207,38.68338002629026],[-81.69800809168092,38.62668208671086],[-81.75543679556796,38.581151923109225],[-81.75543679556796,38.523594923839234],[-81.72672244362444,38.46603792456924],[-81.85234773337733,38.4222258803488],[-81.89900855528555,38.39903126870268],[-81.91695502525025,38.326011195001946],[-81.99591949309493,38.26673607635076],[-82.04975890298903,38.28993068799687],[-82.04616960899608,38.37411853767537],[-82.05334819698197,38.47462852147521],[-82.0641160789608,38.60778277351773],[-81.95643725917259,38.65674917588175],[-81.77338326553266,38.680802847218466]]]}},{"type":"Feature","id":"54081","properties":{"name":"Raleigh","county_fips":"54081","state_abbr":"WV"},"geometry":{"type":"Polygon","coordinates":[[[-81.45752539415393,37.987541676906766],[-81.4359896301963,37.96778330402304],[-81.3821502203022,37.969501423404225],[-81.3462572803728,37.976373900929005],[-81.30318575245752,37.93342091639916],[-81.29600716447165,37.88960887217871],[-81.07347093690936,37.875863917129166],[-81.05552446694466,37.83548811167111],[-80.97655999909999,37.83291093259932],[-80.94425635316352,37.81916597754977],[-80.89400623726237,37.76676333642336],[-80.9227205892059,37.741850605396046],[-80.8975955312553,37.7289647100371],[-80.8796490612906,37.68257548674486],[-80.94784564715647,37.715219754987544],[-81.06629234892348,37.642199681286804],[-81.06270305493055,37.611273532425315],[-81.095006700867,37.5889379804698],[-81.13448893478935,37.59752857737577],[-81.19909622666226,37.57519302542025],[-81.2206319906199,37.51076354862548],[-81.3103643404434,37.55285747346473],[-81.32113222242222,37.59752857737577],[-81.45752539415393,37.783944530235296],[-81.51495409804097,37.79081700776007],[-81.51495409804097,37.818306917859175],[-81.56161491994919,37.84150152950529],[-81.56161491994919,37.918816901659014],[-81.54007915599156,37.97121954278542],[-81.5077755100551,37.98840073659736],[-81.45752539415393,37.987541676906766]]]}},{"type":"Feature","id":"54083","properties":{"name":"Randolph","county_fips":"54083","state_abbr":"WV"},"geometry":{"type":"Polygon","coordinates":[[[-80.08641508885088,38.947111351303505],[-79.89618250722506,38.973742201712014],[-79.86387886128861,39.07253406613066],[-79.82439662736627,39.1154870506605],[-79.7741465114651,39.07682936458364],[-79.78491439344393,39.03731261881618],[-79.50853875598756,38.9754603210932],[-79.40803852418524,38.973742201712014],[-79.35778840828408,38.96429254511544],[-79.3506098202982,38.95742006759067],[-79.37573487824878,38.920480500895],[-79.45469934609346,38.92993015749157],[-79.44393146411464,38.89900400863008],[-79.50853875598756,38.87580939698396],[-79.54084240192401,38.84144700936009],[-79.50853875598756,38.78045377132771],[-79.62698545775457,38.66448071309713],[-79.66287839768397,38.689393444124434],[-79.68082486764867,38.66448071309713],[-79.74184286552865,38.68252096659966],[-79.73107498354983,38.71086993638936],[-79.7741465114651,38.739218906179055],[-79.80286086340863,38.70915181700816],[-79.86387886128861,38.55194389362893],[-80.02898638496384,38.45916544704446],[-80.1151294407944,38.47376946178461],[-80.24434402454024,38.388722552415516],[-80.18332602666027,38.52531304322043],[-80.28023696446964,38.69454780226802],[-80.23716543655436,38.74351420463204],[-80.12589732277323,38.74609138370383],[-80.0971829708297,38.84058794966949],[-80.10795085280853,38.89642682955829],[-80.08641508885088,38.947111351303505]]]}},{"type":"Feature","id":"54085","properties":{"name":"Ritchie","county_fips":"54085","state_abbr":"WV"},"geometry":{"type":"Polygon","coordinates":[[[-81.29959645846458,39.185929945289445],[-81.30318575245752,39.20225207941079],[-81.26011422454225,39.26754061589615],[-81.2385784605846,39.26839967558675],[-81.2206319906199,39.30791642135421],[-81.12013175881758,39.31392983918838],[-81.04475658496585,39.32853385392853],[-81.00886364503644,39.350869405884055],[-80.96220282312822,39.339701629906294],[-80.9334884711847,39.389527091960915],[-80.88323835528355,39.36031906248062],[-80.89041694326943,39.294171466304654],[-80.91554200122,39.27269497403974],[-80.81145247542476,39.10947363282632],[-80.83657753337533,39.08198372272722],[-80.91195270722707,39.04590321572215],[-81.03398870298703,39.00982270871708],[-81.10218528885288,39.02184954438544],[-81.13448893478935,39.04504415603155],[-81.16320328673287,39.03044014129141],[-81.18114975669756,39.04160791726917],[-81.24934634256343,39.03473543974439],[-81.26370351853518,39.10689645375453],[-81.3283108104081,39.150708497974975],[-81.29959645846458,39.185929945289445]]]}},{"type":"Feature","id":"54087","properties":{"name":"Roane","county_fips":"54087","state_abbr":"WV"},"geometry":{"type":"Polygon","coordinates":[[[-81.50418621606215,38.91790332182321],[-81.44675751217513,38.94195699315993],[-81.34266798637987,38.89642682955829],[-81.27806069450695,38.91446708306082],[-81.2385784605846,38.880963755127546],[-81.2206319906199,38.84402418843188],[-81.22781057860578,38.79333966668666],[-81.17038187471874,38.74007796586965],[-81.15961399273992,38.6438632805228],[-81.10218528885288,38.638708922379216],[-81.08423881888818,38.612078071970714],[-81.1308996407964,38.565688848678484],[-81.19550693266932,38.527890222292214],[-81.274471400514,38.52187680445804],[-81.30318575245752,38.534762699816994],[-81.46470398213982,38.550225774247735],[-81.52213268602685,38.61293713166131],[-81.54725774397744,38.6722122503125],[-81.52213268602685,38.82512487523874],[-81.5257219800198,38.90158118770187],[-81.50418621606215,38.91790332182321]]]}},{"type":"Feature","id":"54089","properties":{"name":"Summers","county_fips":"54089","state_abbr":"WV"},"geometry":{"type":"Polygon","coordinates":[[[-80.94425635316352,37.81916597754977],[-80.80786318143181,37.86899143960439],[-80.75043447754477,37.83548811167111],[-80.66788071570716,37.76332709766097],[-80.66429142171421,37.73154188910888],[-80.66070212772128,37.714360695296946],[-80.85811329733298,37.42829381832818],[-80.85811329733298,37.429152878018776],[-81.095006700867,37.5889379804698],[-81.06270305493055,37.611273532425315],[-81.06629234892348,37.642199681286804],[-80.94784564715647,37.715219754987544],[-80.8796490612906,37.68257548674486],[-80.8975955312553,37.7289647100371],[-80.9227205892059,37.741850605396046],[-80.89400623726237,37.76676333642336],[-80.94425635316352,37.81916597754977]]]}},{"type":"Feature","id":"54091","properties":{"name":"Taylor","county_fips":"54091","state_abbr":"WV"},"geometry":{"type":"Polygon","coordinates":[[[-80.19768320263202,39.3929633307233],[-80.12230802878028,39.40155392762927],[-80.08641508885088,39.386090853198525],[-80.02539709097091,39.40155392762927],[-79.93925403514035,39.452238449374484],[-79.89618250722506,39.435916315253145],[-79.89618250722506,39.29932582444824],[-79.9356647411474,39.297607705067044],[-79.960789799098,39.26839967558675],[-80.02180779697797,39.24778224301242],[-80.16537955669557,39.242627884868845],[-80.20127249662497,39.27097685465854],[-80.19768320263202,39.3929633307233]]]}},{"type":"Feature","id":"54093","properties":{"name":"Tucker","county_fips":"54093","state_abbr":"WV"},"geometry":{"type":"Polygon","coordinates":[[[-79.81003945139452,39.23060104920049],[-79.68441416164161,39.270117794967945],[-79.50853875598756,39.21599703446034],[-79.48700299202991,39.19452054219541],[-79.46905652206522,39.17905746776467],[-79.30753829238292,39.20998361662616],[-79.28959182241822,39.189366184051835],[-79.3326633503335,39.14813131890318],[-79.35419911429113,39.086279021180204],[-79.29677041040411,39.073393125821255],[-79.33984193831938,38.969446903259026],[-79.35778840828408,38.96429254511544],[-79.40803852418524,38.973742201712014],[-79.50853875598756,38.9754603210932],[-79.78491439344393,39.03731261881618],[-79.7741465114651,39.07682936458364],[-79.82439662736627,39.1154870506605],[-79.83875380333804,39.130950125091246],[-79.81003945139452,39.23060104920049]]]}},{"type":"Feature","id":"54095","properties":{"name":"Tyler","county_fips":"54095","state_abbr":"WV"},"geometry":{"type":"Polygon","coordinates":[[[-81.03757799697996,39.539862537815374],[-80.94425635316352,39.60686919368193],[-80.88682764927648,39.58023834327343],[-80.84375612136121,39.58367458203581],[-80.73966659556595,39.513231687406865],[-80.71095224362243,39.4762921207112],[-80.65352353973539,39.470278702877025],[-80.61763059980599,39.450520329993296],[-80.65711283372833,39.43333913618135],[-80.71454153761537,39.42990289741897],[-80.73248800758007,39.39554050979509],[-80.82939894538946,39.34313786866868],[-80.89041694326943,39.294171466304654],[-80.88323835528355,39.36031906248062],[-80.9334884711847,39.389527091960915],[-80.96220282312822,39.339701629906294],[-81.00886364503644,39.350869405884055],[-81.02681011500114,39.46168810597106],[-81.06270305493055,39.4762921207112],[-81.12013175881758,39.45739280751807],[-81.10218528885288,39.48745989668896],[-81.03757799697996,39.539862537815374]]]}},{"type":"Feature","id":"54097","properties":{"name":"Upshur","county_fips":"54097","state_abbr":"WV"},"geometry":{"type":"Polygon","coordinates":[[[-80.30177272842728,39.10346021499215],[-80.22639755457554,39.11290987158871],[-80.1689688506885,39.0879971405614],[-80.12948661676616,39.03817167850678],[-80.05411144291443,39.03731261881618],[-80.05411144291443,38.9754603210932],[-80.08641508885088,38.947111351303505],[-80.10795085280853,38.89642682955829],[-80.0971829708297,38.84058794966949],[-80.12589732277323,38.74609138370383],[-80.23716543655436,38.74351420463204],[-80.28023696446964,38.69454780226802],[-80.31971919839198,38.684239085980856],[-80.35202284432845,38.73062830927309],[-80.39150507825077,38.7271920705107],[-80.40945154821549,38.76842693565935],[-80.38791578425784,38.87495033729336],[-80.3663800203002,38.88697717296172],[-80.3484335503355,38.94023887377873],[-80.31971919839198,38.95570194820947],[-80.31971919839198,39.01325894747947],[-80.30177272842728,39.10346021499215]]]}},{"type":"Feature","id":"54099","properties":{"name":"Wayne","county_fips":"54099","state_abbr":"WV"},"geometry":{"type":"Polygon","coordinates":[[[-82.60609947189472,38.24697770346703],[-82.57379582595826,38.26415889727897],[-82.57020653196531,38.31398435933359],[-82.59892088390883,38.34491050819508],[-82.5953315899159,38.4222258803488],[-82.55226006200061,38.403326567155666],[-82.50918853408534,38.41105810437104],[-82.34767030440304,38.30625282211822],[-82.31536665846659,38.331165553145524],[-82.27588442454424,38.303675643046425],[-82.30459877648777,38.29508504614046],[-82.30100948249482,38.24010522594225],[-82.26511654256542,38.22893744996449],[-82.28665230652307,38.144749600286],[-82.26152724857248,38.10781003359033],[-82.19333066270663,38.045957735867354],[-82.30459877648777,37.94372963268632],[-82.42304547825478,37.85438742486424],[-82.41945618426183,37.88359545434454],[-82.47329559415594,37.899917588465875],[-82.49842065210652,37.945447752067516],[-82.46252771217712,37.980669199381985],[-82.51636712207122,37.99956851257512],[-82.54867076800768,38.06829328782287],[-82.58456370793708,38.106950973899735],[-82.63840311783117,38.138736182451815],[-82.63840311783117,38.1713804506945],[-82.60968876588765,38.1713804506945],[-82.60609947189472,38.24697770346703]]]}},{"type":"Feature","id":"54101","properties":{"name":"Webster","county_fips":"54101","state_abbr":"WV"},"geometry":{"type":"Polygon","coordinates":[[[-80.64993424574246,38.52617210291102],[-80.5099517800178,38.645581399903996],[-80.4561123701237,38.739218906179055],[-80.39150507825077,38.7271920705107],[-80.35202284432845,38.73062830927309],[-80.31971919839198,38.684239085980856],[-80.28023696446964,38.69454780226802],[-80.18332602666027,38.52531304322043],[-80.24434402454024,38.388722552415516],[-80.3304870803708,38.33546085159851],[-80.35202284432845,38.34491050819508],[-80.35920143231432,38.22550121120211],[-80.43816590015899,38.26759513604135],[-80.61045201182012,38.358655463244624],[-80.62480918779187,38.35436016479164],[-80.66070212772128,38.41277622375223],[-80.63916636376364,38.42394399972999],[-80.67864859768598,38.503836550955505],[-80.64993424574246,38.52617210291102]]]}},{"type":"Feature","id":"54103","properties":{"name":"Wetzel","county_fips":"54103","state_abbr":"WV"},"geometry":{"type":"Polygon","coordinates":[[[-80.83298823938239,39.721124132531315],[-80.52071966199662,39.721124132531315],[-80.4202194301943,39.721124132531315],[-80.40586225422254,39.71768789376893],[-80.39509437224372,39.63693628285282],[-80.43457660616606,39.639513461924615],[-80.45252307613076,39.59570141770417],[-80.47764813408133,39.597419537085365],[-80.49918389803898,39.563057149461486],[-80.47046954609546,39.48660083699836],[-80.49559460404603,39.46941964318643],[-80.51713036800368,39.43505725556255],[-80.5458447199472,39.42904383772837],[-80.61763059980599,39.450520329993296],[-80.65352353973539,39.470278702877025],[-80.71095224362243,39.4762921207112],[-80.73966659556595,39.513231687406865],[-80.84375612136121,39.58367458203581],[-80.88682764927648,39.58023834327343],[-80.94425635316352,39.60686919368193],[-80.8796490612906,39.620614148731484],[-80.86529188531885,39.69191610305102],[-80.83298823938239,39.721124132531315]]]}},{"type":"Feature","id":"54105","properties":{"name":"Wirt","county_fips":"54105","state_abbr":"WV"},"geometry":{"type":"Polygon","coordinates":[[[-81.29959645846458,39.185929945289445],[-81.3283108104081,39.150708497974975],[-81.26370351853518,39.10689645375453],[-81.24934634256343,39.03473543974439],[-81.18114975669756,39.04160791726917],[-81.16320328673287,39.03044014129141],[-81.274471400514,38.935943575325744],[-81.27806069450695,38.91446708306082],[-81.34266798637987,38.89642682955829],[-81.44675751217513,38.94195699315993],[-81.50418621606215,38.91790332182321],[-81.55084703797037,38.966869724187234],[-81.53290056800567,39.005527410264094],[-81.58315068390684,39.02614484283842],[-81.42522174821748,39.136104483234824],[-81.4000966902669,39.13782260261602],[-81.29959645846458,39.185929945289445]]]}},{"type":"Feature","id":"54107","properties":{"name":"Wood","county_fips":"54107","state_abbr":"WV"},"geometry":{"type":"Polygon","coordinates":[[[-81.75543679556796,39.18077558714587],[-81.72672244362444,39.21599703446034],[-81.69082950369503,39.2263057507475],[-81.68006162171622,39.27355403373033],[-81.56879350793507,39.26754061589615],[-81.55802562595626,39.3388425702157],[-81.46829327613275,39.40413110670106],[-81.4359896301963,39.408426405154046],[-81.37138233832339,39.34227880897809],[-81.32472151641517,39.29846676475764],[-81.26011422454225,39.292453346923466],[-81.2385784605846,39.26839967558675],[-81.26011422454225,39.26754061589615],[-81.30318575245752,39.20225207941079],[-81.29959645846458,39.185929945289445],[-81.4000966902669,39.13782260261602],[-81.42522174821748,39.136104483234824],[-81.58315068390684,39.02614484283842],[-81.74825820758207,39.09572867777677],[-81.75543679556796,39.18077558714587]]]}},{"type":"Feature","id":"54109","properties":{"name":"Wyoming","county_fips":"54109","state_abbr":"WV"},"geometry":{"type":"Polygon","coordinates":[[[-81.80209761747618,37.66023993478934],[-81.70159738567385,37.70147479993799],[-81.76620467754677,37.75130026199261],[-81.69441879768797,37.77449487363873],[-81.60827574185741,37.78909888837888],[-81.57597209592096,37.76332709766097],[-81.51495409804097,37.79081700776007],[-81.45752539415393,37.783944530235296],[-81.32113222242222,37.59752857737577],[-81.3103643404434,37.55285747346473],[-81.2206319906199,37.51076354862548],[-81.26370351853518,37.495300474194735],[-81.30677504645047,37.45921996718967],[-81.28164998849988,37.41970322142221],[-81.3103643404434,37.42485757956579],[-81.37497163231632,37.44375689275892],[-81.39650739627396,37.464374325333246],[-81.43240033620336,37.448911250902505],[-81.46111468814688,37.48327363852638],[-81.52931127401274,37.47554210131101],[-81.60109715387154,37.49272329512294],[-81.62622221182211,37.518495085840854],[-81.66211515175152,37.52193132460324],[-81.70877597365974,37.495300474194735],[-81.81645479344793,37.506468250172496],[-81.85593702737027,37.548562175011746],[-81.79491902949029,37.63189096499964],[-81.80209761747618,37.66023993478934]]]}}]}