{"type":"FeatureCollection","features":[{"type":"Feature","id":"56001","properties":{"name":"Albany","county_fips":"56001","state_abbr":"WY"},"geometry":{"type":"Polygon","coordinates":[[[-106.07290359773597,42.43317557574575],[-105.55604526275262,42.43059839667396],[-105.57399173271732,42.377336695856954],[-105.61347396663966,42.377336695856954],[-105.61347396663966,42.304316622156215],[-105.5273309108091,42.28885354772547],[-105.37658056310562,42.289712607416064],[-105.35863409314092,42.318920636896365],[-105.36222338713387,42.376477636166356],[-105.33350903519035,42.431457456364555],[-105.28325891928918,42.431457456364555],[-105.27249103731037,42.088692639816394],[-105.27966962529625,41.65658561544615],[-105.27966962529625,41.11623707006069],[-105.2760803313033,40.99854589244892],[-105.7247420804208,40.99682777306772],[-106.19135029950299,40.99768683275832],[-106.32056488324882,40.999404952139514],[-106.32415417724177,41.395431469504686],[-106.06931430374303,41.395431469504686],[-106.07290359773597,41.545766915359145],[-106.07290359773597,42.073229565385645],[-106.07649289172892,42.0869745204352],[-106.07290359773597,42.43317557574575]]]}},{"type":"Feature","id":"56003","properties":{"name":"Big Horn","county_fips":"56003","state_abbr":"WY"},"geometry":{"type":"Polygon","coordinates":[[[-108.62130233272332,45.0000459312493],[-108.24801575745757,44.999186871558706],[-107.91062212212121,45.0009049909399],[-107.88549706417064,44.988019095580945],[-107.88190777017769,44.93991175290752],[-107.84960412424124,44.906408424974245],[-107.86037200622006,44.867750738897385],[-107.81730047830477,44.81191185900858],[-107.83165765427654,44.79644878457784],[-107.75269318643186,44.76552263571635],[-107.74551459844598,44.71569717366173],[-107.68090730657306,44.70109315892158],[-107.67372871858718,44.68219384572845],[-107.61988930869308,44.6976569201592],[-107.53015695886958,44.66673077129771],[-107.47272825498254,44.6134690704807],[-107.38299590515905,44.59371069759697],[-107.36863872918728,44.56020736966369],[-107.29326355533554,44.5009322510125],[-107.30403143731436,44.463992684316835],[-107.24301343943439,44.43822089359893],[-107.20353120551205,44.4468114905049],[-107.1999419115191,44.39956320752207],[-107.16045967759678,44.36863705866058],[-107.18917402954028,44.348019626086256],[-107.14610250162501,44.32396595474954],[-107.14610250162501,44.16589897167971],[-107.7203895404954,44.167617091060904],[-108.54951645286452,44.1684761507515],[-108.5746415108151,44.1684761507515],[-108.5746415108151,44.52069062389623],[-108.5925879807798,44.52069062389623],[-108.5925879807798,44.87118697765977],[-108.62130233272332,44.87118697765977],[-108.62130233272332,45.0000459312493]]]}},{"type":"Feature","id":"56005","properties":{"name":"Campbell","county_fips":"56005","state_abbr":"WY"},"geometry":{"type":"Polygon","coordinates":[[[-106.02624277582775,44.99403251341513],[-105.84677807618075,45.0000459312493],[-105.07507986769868,45.0000459312493],[-105.07507986769868,44.78614006829068],[-105.0858477496775,44.786999127981275],[-105.0858477496775,44.52756310142101],[-105.08225845568455,44.17964392672926],[-105.07866916169161,44.17620768796687],[-105.08225845568455,43.96659712346123],[-105.08225845568455,43.5027048905389],[-105.07866916169161,43.49840959208591],[-105.68525984649845,43.49583241301412],[-106.01906418784188,43.49497335332352],[-106.01906418784188,43.82141603575035],[-106.00829630586306,43.82141603575035],[-106.01547489384893,44.1693352104421],[-106.01547489384893,44.52069062389623],[-106.00829630586306,44.56364360842608],[-106.01547489384893,44.70710657675576],[-106.01547489384893,44.85744202261022],[-106.02624277582775,44.99403251341513]]]}},{"type":"Feature","id":"56007","properties":{"name":"Carbon","county_fips":"56007","state_abbr":"WY"},"geometry":{"type":"Polygon","coordinates":[[[-107.5229783708837,42.26136363762637],[-107.5229783708837,42.43403463543635],[-106.62565487264872,42.43059839667396],[-106.07649289172892,42.43317557574575],[-106.07290359773597,42.43317557574575],[-106.07649289172892,42.0869745204352],[-106.07290359773597,42.073229565385645],[-106.07290359773597,41.545766915359145],[-106.06931430374303,41.395431469504686],[-106.32415417724177,41.395431469504686],[-106.32056488324882,40.999404952139514],[-106.85895898218982,41.002841190901904],[-107.31838861328613,41.002841190901904],[-107.9178007101071,41.00198213121131],[-107.9178007101071,41.398867708267076],[-107.92856859208591,41.398867708267076],[-107.92856859208591,41.654008436374355],[-107.50862119491194,41.657444675136745],[-107.50503190091901,42.087833580125796],[-107.5229783708837,42.087833580125796],[-107.5229783708837,42.26136363762637]]]}},{"type":"Feature","id":"56009","properties":{"name":"Converse","county_fips":"56009","state_abbr":"WY"},"geometry":{"type":"Polygon","coordinates":[[[-106.07649289172892,43.494114293632926],[-106.01906418784188,43.49497335332352],[-105.68525984649845,43.49583241301412],[-105.07866916169161,43.49840959208591],[-104.89920446204461,43.49926865177651],[-104.89920446204461,42.78796722796227],[-104.89202587405873,42.78281286981869],[-104.89202587405873,42.60928281231811],[-105.28684821328213,42.60584657355573],[-105.28325891928918,42.431457456364555],[-105.33350903519035,42.431457456364555],[-105.36222338713387,42.376477636166356],[-105.35863409314092,42.318920636896365],[-105.37658056310562,42.289712607416064],[-105.5273309108091,42.28885354772547],[-105.61347396663966,42.304316622156215],[-105.61347396663966,42.377336695856954],[-105.57399173271732,42.377336695856954],[-105.55604526275262,42.43059839667396],[-106.07290359773597,42.43317557574575],[-106.07649289172892,42.43317557574575],[-106.07649289172892,42.77765851167511],[-106.07290359773597,42.778517571365704],[-106.07290359773597,43.47263780136801],[-106.07649289172892,43.494114293632926]]]}},{"type":"Feature","id":"56011","properties":{"name":"Crook","county_fips":"56011","state_abbr":"WY"},"geometry":{"type":"Polygon","coordinates":[[[-105.07507986769868,45.0000459312493],[-105.03918692776928,45.0000459312493],[-104.47207847688476,44.99832781186811],[-104.05930966769667,44.99746875217751],[-104.05572037370374,44.87462321642216],[-104.05572037370374,44.57137514564145],[-104.05572037370374,44.18050298641986],[-104.37516753907539,44.18136204611045],[-105.07866916169161,44.17620768796687],[-105.08225845568455,44.17964392672926],[-105.0858477496775,44.52756310142101],[-105.0858477496775,44.786999127981275],[-105.07507986769868,44.78614006829068],[-105.07507986769868,45.0000459312493]]]}},{"type":"Feature","id":"56013","properties":{"name":"Fremont","county_fips":"56013","state_abbr":"WY"},"geometry":{"type":"Polygon","coordinates":[[[-110.05343063590635,44.00783198860988],[-110.03189487194871,44.002677630466295],[-109.99600193201931,43.95027498933989],[-109.85601946629465,43.95457028779287],[-109.86678734827348,43.92708037769377],[-109.8237158203582,43.886704572235715],[-109.82012652636526,43.85749654275542],[-109.85601946629465,43.84890594584945],[-109.85243017230172,43.82399321482214],[-109.78782288042879,43.80423484193841],[-109.7339834705347,43.83258381172811],[-109.66578688466885,43.84976500554005],[-109.67296547265472,43.870382438114376],[-109.6263046507465,43.92622131800317],[-109.56169735887359,43.95457028779287],[-109.51144724297242,43.93910721336213],[-109.47555430304303,43.94855686995869],[-109.40017912919129,43.88412739316392],[-109.36787548325482,43.84289252801527],[-109.31403607336073,43.813684498534975],[-109.23507160551605,43.763859036480355],[-109.17046431364314,43.69942955968559],[-109.17046431364314,43.61953700846008],[-108.9335709101091,43.61953700846008],[-108.9335709101091,43.60493299371993],[-108.81512420834208,43.60493299371993],[-108.81512420834208,43.57572496423963],[-108.69308821258213,43.57572496423963],[-108.69667750657506,43.531912920019195],[-108.5746415108151,43.53277197970979],[-108.5746415108151,43.5035639502295],[-108.45619480904809,43.5035639502295],[-108.45619480904809,43.4743559207492],[-108.33774810728107,43.4743559207492],[-108.33774810728107,43.45975190600905],[-108.15469411364113,43.45975190600905],[-108.15469411364113,43.470919681986814],[-107.5947642507425,43.47263780136801],[-107.5947642507425,43.500986771157706],[-107.53374625286253,43.500986771157706],[-107.51579978289783,43.47263780136801],[-107.51579978289783,43.128154865438646],[-107.50144260692606,43.128154865438646],[-107.50144260692606,42.7810947504375],[-107.54451413484134,42.781953810128094],[-107.5409248408484,42.43403463543635],[-107.5229783708837,42.43403463543635],[-107.5229783708837,42.26136363762637],[-108.44183763307632,42.26308175700756],[-109.04483902389023,42.26394081669816],[-109.04483902389023,42.43403463543635],[-109.06996408184081,42.43317557574575],[-109.07355337583375,42.693470661996614],[-109.13457137371373,42.69432972168721],[-109.1309820797208,42.73728270621706],[-109.19558937159371,42.76820885507854],[-109.23507160551605,42.76820885507854],[-109.20994654756547,42.79398064579645],[-109.32480395533955,42.8635644807348],[-109.37146477724777,42.94517515134151],[-109.39658983519834,42.939161733507326],[-109.5006793609936,43.01046368782687],[-109.55092947689477,43.012181807208066],[-109.55092947689477,43.059430090190894],[-109.59041171081711,43.1152689700797],[-109.65142970869708,43.166812551515505],[-109.66937617866178,43.228664849238484],[-109.69450123661235,43.26474535624356],[-109.67296547265472,43.31027551984519],[-109.6980905306053,43.33089295241952],[-109.69450123661235,43.36611439973399],[-109.75551923449234,43.36611439973399],[-109.75551923449234,43.46318814477144],[-110.0498413419134,43.46490626415263],[-110.0498413419134,43.81454355822557],[-110.05343063590635,44.00783198860988]]]}},{"type":"Feature","id":"56015","properties":{"name":"Goshen","county_fips":"56015","state_abbr":"WY"},"geometry":{"type":"Polygon","coordinates":[[[-104.6551324705247,42.60928281231811],[-104.05213107971079,42.611859991389906],[-104.05213107971079,42.0019276110661],[-104.05213107971079,41.6978204805948],[-104.05213107971079,41.56466622855228],[-104.65154317653176,41.56466622855228],[-104.6551324705247,41.65314937668376],[-104.6551324705247,42.60928281231811]]]}},{"type":"Feature","id":"56017","properties":{"name":"Hot Springs","county_fips":"56017","state_abbr":"WY"},"geometry":{"type":"Polygon","coordinates":[[[-109.31403607336073,43.813684498534975],[-109.0950891397914,43.81797979698796],[-109.09149984579845,43.90474482573825],[-108.91203514615145,43.90474482573825],[-108.9156244401444,43.99065079479794],[-108.7899991503915,43.99065079479794],[-108.79358844438444,44.07999300262002],[-108.54951645286452,44.079133942929424],[-108.48849845498454,44.07999300262002],[-108.48849845498454,43.99150985448854],[-108.42748045710456,43.99236891417913],[-108.43106975109751,43.90302670635705],[-108.30903375533755,43.90302670635705],[-108.30903375533755,43.84632876677766],[-108.1869977595776,43.848046886158855],[-108.17622987759877,43.81883885667856],[-107.95728294402943,43.81883885667856],[-107.95728294402943,43.73379194730946],[-107.71680024650246,43.73293288761887],[-107.71680024650246,43.64616785886858],[-107.5947642507425,43.64616785886858],[-107.5947642507425,43.500986771157706],[-107.5947642507425,43.47263780136801],[-108.15469411364113,43.470919681986814],[-108.15469411364113,43.45975190600905],[-108.33774810728107,43.45975190600905],[-108.33774810728107,43.4743559207492],[-108.45619480904809,43.4743559207492],[-108.45619480904809,43.5035639502295],[-108.5746415108151,43.5035639502295],[-108.5746415108151,43.53277197970979],[-108.69667750657506,43.531912920019195],[-108.69308821258213,43.57572496423963],[-108.81512420834208,43.57572496423963],[-108.81512420834208,43.60493299371993],[-108.9335709101091,43.60493299371993],[-108.9335709101091,43.61953700846008],[-109.17046431364314,43.61953700846008],[-109.17046431364314,43.69942955968559],[-109.23507160551605,43.763859036480355],[-109.31403607336073,43.813684498534975]]]}},{"type":"Feature","id":"56019","properties":{"name":"Johnson","county_fips":"56019","state_abbr":"WY"},"geometry":{"type":"Polygon","coordinates":[[[-107.36863872918728,44.56020736966369],[-106.55027969879698,44.5567711309013],[-106.42824370303703,44.56192548904488],[-106.00829630586306,44.56364360842608],[-106.01547489384893,44.52069062389623],[-106.01547489384893,44.1693352104421],[-106.00829630586306,43.82141603575035],[-106.01906418784188,43.82141603575035],[-106.01906418784188,43.49497335332352],[-106.07649289172892,43.494114293632926],[-106.44619017300172,43.49239617425174],[-107.11020956169561,43.49239617425174],[-107.11020956169561,43.50012771146711],[-107.11379885568856,43.81626167760677],[-107.12815603166031,43.81626167760677],[-107.12815603166031,44.16589897167971],[-107.14610250162501,44.16589897167971],[-107.14610250162501,44.32396595474954],[-107.18917402954028,44.348019626086256],[-107.16045967759678,44.36863705866058],[-107.1999419115191,44.39956320752207],[-107.20353120551205,44.4468114905049],[-107.24301343943439,44.43822089359893],[-107.30403143731436,44.463992684316835],[-107.29326355533554,44.5009322510125],[-107.36863872918728,44.56020736966369]]]}},{"type":"Feature","id":"56021","properties":{"name":"Laramie","county_fips":"56021","state_abbr":"WY"},"geometry":{"type":"Polygon","coordinates":[[[-105.27966962529625,41.65658561544615],[-104.6551324705247,41.65314937668376],[-104.65154317653176,41.56466622855228],[-104.05213107971079,41.56466622855228],[-104.05213107971079,41.3928542904329],[-104.05213107971079,41.00112307152071],[-104.49720353483534,41.00198213121131],[-104.9422759899599,40.99768683275832],[-105.2760803313033,40.99854589244892],[-105.27966962529625,41.11623707006069],[-105.27966962529625,41.65658561544615]]]}},{"type":"Feature","id":"56023","properties":{"name":"Lincoln","county_fips":"56023","state_abbr":"WY"},"geometry":{"type":"Polygon","coordinates":[[[-111.04766507195072,42.51392718666186],[-111.04407577795777,42.72267869147691],[-111.04407577795777,43.01905428473284],[-111.04407577795777,43.31542987798877],[-110.81436096240962,43.31371175860758],[-110.81436096240962,43.23553732676326],[-110.57746755887558,43.23553732676326],[-110.57746755887558,43.12643674605745],[-110.5882354408544,43.12643674605745],[-110.5882354408544,42.7793766310563],[-110.6241283807838,42.7793766310563],[-110.6241283807838,42.70979279611795],[-110.59182473484734,42.70979279611795],[-110.59182473484734,42.4486386501765],[-110.54157461894619,42.4486386501765],[-110.54157461894619,42.27768577174771],[-110.20777027760278,42.276826712057115],[-110.05343063590635,42.27081329422293],[-110.05343063590635,42.030276580855805],[-110.04625204792048,42.007081969209686],[-110.04625204792048,41.57841118360183],[-110.58105685286853,41.57927024329243],[-111.04407577795777,41.580129302983025],[-111.04766507195072,42.0019276110661],[-111.04766507195072,42.51392718666186]]]}},{"type":"Feature","id":"56025","properties":{"name":"Natrona","county_fips":"56025","state_abbr":"WY"},"geometry":{"type":"Polygon","coordinates":[[[-107.53374625286253,43.500986771157706],[-107.11020956169561,43.50012771146711],[-107.11020956169561,43.49239617425174],[-106.44619017300172,43.49239617425174],[-106.07649289172892,43.494114293632926],[-106.07290359773597,43.47263780136801],[-106.07290359773597,42.778517571365704],[-106.07649289172892,42.77765851167511],[-106.07649289172892,42.43317557574575],[-106.62565487264872,42.43059839667396],[-107.5229783708837,42.43403463543635],[-107.5409248408484,42.43403463543635],[-107.54451413484134,42.781953810128094],[-107.50144260692606,42.7810947504375],[-107.50144260692606,43.128154865438646],[-107.51579978289783,43.128154865438646],[-107.51579978289783,43.47263780136801],[-107.53374625286253,43.500986771157706]]]}},{"type":"Feature","id":"56027","properties":{"name":"Niobrara","county_fips":"56027","state_abbr":"WY"},"geometry":{"type":"Polygon","coordinates":[[[-104.89920446204461,43.49926865177651],[-104.05572037370374,43.5035639502295],[-104.05572037370374,43.47779215951159],[-104.05213107971079,43.297389624486236],[-104.05213107971079,43.001014031230305],[-104.05213107971079,42.611859991389906],[-104.6551324705247,42.60928281231811],[-104.89202587405873,42.60928281231811],[-104.89202587405873,42.78281286981869],[-104.89920446204461,42.78796722796227],[-104.89920446204461,43.49926865177651]]]}},{"type":"Feature","id":"56029","properties":{"name":"Park","county_fips":"56029","state_abbr":"WY"},"geometry":{"type":"Polygon","coordinates":[[[-111.04407577795777,45.0017640506305],[-110.7856466104661,45.002623110321096],[-110.70668214262142,44.99231439403393],[-110.40159215322153,44.99403251341513],[-110.36210991929919,45.0009049909399],[-110.20059168961689,44.99660969248692],[-110.1108593397934,45.003482170011694],[-109.79859076240761,45.0017640506305],[-109.10226772777727,45.006059349083486],[-109.06278549385493,45.0000459312493],[-108.62130233272332,45.0000459312493],[-108.62130233272332,44.87118697765977],[-108.5925879807798,44.87118697765977],[-108.5925879807798,44.52069062389623],[-108.5746415108151,44.52069062389623],[-108.5746415108151,44.1684761507515],[-108.54951645286452,44.1684761507515],[-108.54951645286452,44.079133942929424],[-108.79358844438444,44.07999300262002],[-108.7899991503915,43.99065079479794],[-108.9156244401444,43.99065079479794],[-108.91203514615145,43.90474482573825],[-109.09149984579845,43.90474482573825],[-109.0950891397914,43.81797979698796],[-109.31403607336073,43.813684498534975],[-109.36787548325482,43.84289252801527],[-109.40017912919129,43.88412739316392],[-109.47555430304303,43.94855686995869],[-109.51144724297242,43.93910721336213],[-109.56169735887359,43.95457028779287],[-109.6263046507465,43.92622131800317],[-109.67296547265472,43.870382438114376],[-109.66578688466885,43.84976500554005],[-109.7339834705347,43.83258381172811],[-109.78782288042879,43.80423484193841],[-109.85243017230172,43.82399321482214],[-109.85601946629465,43.84890594584945],[-109.82012652636526,43.85749654275542],[-109.8237158203582,43.886704572235715],[-109.86678734827348,43.92708037769377],[-109.85601946629465,43.95457028779287],[-109.99600193201931,43.95027498933989],[-110.03189487194871,44.002677630466295],[-110.05343063590635,44.00783198860988],[-110.05343063590635,44.11006009179091],[-110.12521651576515,44.14184530034299],[-110.10727004580045,44.18050298641986],[-110.14675227972279,44.287026388053874],[-110.20059168961689,44.31967065629656],[-110.20059168961689,44.32052971598715],[-110.20059168961689,44.32052971598715],[-110.20059168961689,44.31967065629656],[-110.20059168961689,44.32052971598715],[-110.2293060415604,44.37636859587595],[-110.29750262742627,44.43134841607415],[-110.27596686346862,44.51897250451504],[-110.29391333343332,44.54732147430474],[-110.38005638926388,44.56278454873548],[-110.38005638926388,44.583401981309805],[-110.66719990869908,44.58254292161921],[-110.66719990869908,44.66587171160711],[-111.0548436599366,44.66587171160711],[-111.05843295392954,44.86689167920679],[-111.0548436599366,45.0009049909399],[-111.04407577795777,45.0017640506305]]]}},{"type":"Feature","id":"56031","properties":{"name":"Platte","county_fips":"56031","state_abbr":"WY"},"geometry":{"type":"Polygon","coordinates":[[[-104.89202587405873,42.60928281231811],[-104.6551324705247,42.60928281231811],[-104.6551324705247,41.65314937668376],[-105.27966962529625,41.65658561544615],[-105.27249103731037,42.088692639816394],[-105.28325891928918,42.431457456364555],[-105.28684821328213,42.60584657355573],[-104.89202587405873,42.60928281231811]]]}},{"type":"Feature","id":"56033","properties":{"name":"Sheridan","county_fips":"56033","state_abbr":"WY"},"geometry":{"type":"Polygon","coordinates":[[[-107.91062212212121,45.0009049909399],[-107.13533461964619,45.0000459312493],[-107.08508450374504,44.99660969248692],[-106.2631361793618,44.99403251341513],[-106.02624277582775,44.99403251341513],[-106.01547489384893,44.85744202261022],[-106.01547489384893,44.70710657675576],[-106.00829630586306,44.56364360842608],[-106.42824370303703,44.56192548904488],[-106.55027969879698,44.5567711309013],[-107.36863872918728,44.56020736966369],[-107.38299590515905,44.59371069759697],[-107.47272825498254,44.6134690704807],[-107.53015695886958,44.66673077129771],[-107.61988930869308,44.6976569201592],[-107.67372871858718,44.68219384572845],[-107.68090730657306,44.70109315892158],[-107.74551459844598,44.71569717366173],[-107.75269318643186,44.76552263571635],[-107.83165765427654,44.79644878457784],[-107.81730047830477,44.81191185900858],[-107.86037200622006,44.867750738897385],[-107.84960412424124,44.906408424974245],[-107.88190777017769,44.93991175290752],[-107.88549706417064,44.988019095580945],[-107.91062212212121,45.0009049909399]]]}},{"type":"Feature","id":"56035","properties":{"name":"Sublette","county_fips":"56035","state_abbr":"WY"},"geometry":{"type":"Polygon","coordinates":[[[-110.57746755887558,43.23553732676326],[-110.57746755887558,43.29137620665206],[-110.34416344933449,43.29137620665206],[-110.34416344933449,43.378141235402346],[-110.0570199298993,43.378141235402346],[-110.0498413419134,43.46490626415263],[-109.75551923449234,43.46318814477144],[-109.75551923449234,43.36611439973399],[-109.69450123661235,43.36611439973399],[-109.6980905306053,43.33089295241952],[-109.67296547265472,43.31027551984519],[-109.69450123661235,43.26474535624356],[-109.66937617866178,43.228664849238484],[-109.65142970869708,43.166812551515505],[-109.59041171081711,43.1152689700797],[-109.55092947689477,43.059430090190894],[-109.55092947689477,43.012181807208066],[-109.5006793609936,43.01046368782687],[-109.39658983519834,42.939161733507326],[-109.37146477724777,42.94517515134151],[-109.32480395533955,42.8635644807348],[-109.20994654756547,42.79398064579645],[-109.23507160551605,42.76820885507854],[-109.19558937159371,42.76820885507854],[-109.1309820797208,42.73728270621706],[-109.13457137371373,42.69432972168721],[-109.07355337583375,42.693470661996614],[-109.06996408184081,42.43317557574575],[-109.04483902389023,42.43403463543635],[-109.04483902389023,42.26394081669816],[-109.54375088890889,42.26394081669816],[-110.05343063590635,42.27081329422293],[-110.20777027760278,42.276826712057115],[-110.54157461894619,42.27768577174771],[-110.54157461894619,42.4486386501765],[-110.59182473484734,42.4486386501765],[-110.59182473484734,42.70979279611795],[-110.6241283807838,42.70979279611795],[-110.6241283807838,42.7793766310563],[-110.5882354408544,42.7793766310563],[-110.5882354408544,43.12643674605745],[-110.57746755887558,43.12643674605745],[-110.57746755887558,43.23553732676326]]]}},{"type":"Feature","id":"56037","properties":{"name":"Sweetwater","county_fips":"56037","state_abbr":"WY"},"geometry":{"type":"Polygon","coordinates":[[[-110.05343063590635,42.27081329422293],[-109.54375088890889,42.26394081669816],[-109.04483902389023,42.26394081669816],[-108.44183763307632,42.26308175700756],[-107.5229783708837,42.26136363762637],[-107.5229783708837,42.087833580125796],[-107.50503190091901,42.087833580125796],[-107.50862119491194,41.657444675136745],[-107.92856859208591,41.654008436374355],[-107.92856859208591,41.398867708267076],[-107.9178007101071,41.398867708267076],[-107.9178007101071,41.00198213121131],[-108.17981917159172,41.00026401183011],[-109.04842831788318,41.00026401183011],[-109.536572300923,40.99854589244892],[-109.99959122601226,40.99768683275832],[-110.0498413419134,40.99768683275832],[-110.04625204792048,41.57841118360183],[-110.04625204792048,42.007081969209686],[-110.05343063590635,42.030276580855805],[-110.05343063590635,42.27081329422293]]]}},{"type":"Feature","id":"56039","properties":{"name":"Teton","county_fips":"56039","state_abbr":"WY"},"geometry":{"type":"Polygon","coordinates":[[[-111.0548436599366,44.66587171160711],[-110.66719990869908,44.66587171160711],[-110.66719990869908,44.58254292161921],[-110.38005638926388,44.583401981309805],[-110.38005638926388,44.56278454873548],[-110.29391333343332,44.54732147430474],[-110.27596686346862,44.51897250451504],[-110.29750262742627,44.43134841607415],[-110.2293060415604,44.37636859587595],[-110.20059168961689,44.32052971598715],[-110.20059168961689,44.31967065629656],[-110.20059168961689,44.32052971598715],[-110.20059168961689,44.32052971598715],[-110.20059168961689,44.31967065629656],[-110.14675227972279,44.287026388053874],[-110.10727004580045,44.18050298641986],[-110.12521651576515,44.14184530034299],[-110.05343063590635,44.11006009179091],[-110.05343063590635,44.00783198860988],[-110.0498413419134,43.81454355822557],[-110.0498413419134,43.46490626415263],[-110.0570199298993,43.378141235402346],[-110.34416344933449,43.378141235402346],[-110.34416344933449,43.29137620665206],[-110.57746755887558,43.29137620665206],[-110.57746755887558,43.23553732676326],[-110.81436096240962,43.23553732676326],[-110.81436096240962,43.31371175860758],[-111.04407577795777,43.31542987798877],[-111.04407577795777,43.500986771157706],[-111.04766507195072,43.68138930618306],[-111.04766507195072,43.98377831727316],[-111.05125436594365,44.35403304392043],[-111.04766507195072,44.474301400604],[-111.0548436599366,44.66587171160711]]]}},{"type":"Feature","id":"56041","properties":{"name":"Uinta","county_fips":"56041","state_abbr":"WY"},"geometry":{"type":"Polygon","coordinates":[[[-111.04766507195072,41.25196850117501],[-111.04407577795777,41.580129302983025],[-110.58105685286853,41.57927024329243],[-110.04625204792048,41.57841118360183],[-110.0498413419134,40.99768683275832],[-110.23648462954628,40.995109653686534],[-110.7138607306073,40.995968713377124],[-111.04766507195072,40.99768683275832],[-111.04766507195072,41.25196850117501]]]}},{"type":"Feature","id":"56043","properties":{"name":"Washakie","county_fips":"56043","state_abbr":"WY"},"geometry":{"type":"Polygon","coordinates":[[[-108.54951645286452,44.1684761507515],[-107.7203895404954,44.167617091060904],[-107.14610250162501,44.16589897167971],[-107.12815603166031,44.16589897167971],[-107.12815603166031,43.81626167760677],[-107.11379885568856,43.81626167760677],[-107.11020956169561,43.50012771146711],[-107.53374625286253,43.500986771157706],[-107.5947642507425,43.500986771157706],[-107.5947642507425,43.64616785886858],[-107.71680024650246,43.64616785886858],[-107.71680024650246,43.73293288761887],[-107.95728294402943,43.73379194730946],[-107.95728294402943,43.81883885667856],[-108.17622987759877,43.81883885667856],[-108.1869977595776,43.848046886158855],[-108.30903375533755,43.84632876677766],[-108.30903375533755,43.90302670635705],[-108.43106975109751,43.90302670635705],[-108.42748045710456,43.99236891417913],[-108.48849845498454,43.99150985448854],[-108.48849845498454,44.07999300262002],[-108.54951645286452,44.079133942929424],[-108.54951645286452,44.1684761507515]]]}},{"type":"Feature","id":"56045","properties":{"name":"Weston","county_fips":"56045","state_abbr":"WY"},"geometry":{"type":"Polygon","coordinates":[[[-105.07866916169161,44.17620768796687],[-104.37516753907539,44.18136204611045],[-104.05572037370374,44.18050298641986],[-104.05572037370374,44.1409862406524],[-104.05572037370374,43.85320124430243],[-104.05572037370374,43.5035639502295],[-104.89920446204461,43.49926865177651],[-105.07866916169161,43.49840959208591],[-105.08225845568455,43.5027048905389],[-105.08225845568455,43.96659712346123],[-105.07866916169161,44.17620768796687]]]}}]}