<?xml version="1.0" encoding="UTF-8"?>
<kml xmlns="http://www.opengis.net/kml/2.2">
  <Document>
    <name>Bob Dylan - Highway 61 Timeline</name>
    <description>Bob Dylan's Highway 61 tour and key locations. This network link will load the data from your DevConnect Labs server.</description>
    <NetworkLink>
      <name>Bob Dylan - Highway 61</name>
      <description>View Bob Dylan's Highway 61 locations and timeline</description>
      <refreshVisibility>0</refreshVisibility>
      <flyToView>1</flyToView>
      <Link>
        <href>http://localhost:3000/data/bob-dylan-highway-61.kml</href>
        <refreshMode>onInterval</refreshMode>
        <refreshInterval>3600</refreshInterval>
      </Link>
    </NetworkLink>
  </Document>
</kml>

