<?xml version="1.0" encoding="UTF-8"?>
<kml xmlns="http://www.opengis.net/kml/2.2">
  <Document>
    <name>Legendary Music Venues & Historic Performances</name>
    <description>Iconic music venues and the legendary performances that made history - PERFECTLY CHRONOLOGICALLY ORDERED</description>
    
    <Style id="venueIcon">
      <IconStyle>
        <scale>1.2</scale>
        <Icon>
          <href>http://maps.google.com/mapfiles/kml/paddle/purple-circle.png</href>
        </Icon>
      </IconStyle>
      <LabelStyle>
        <scale>1.0</scale>
      </LabelStyle>
    </Style>

    <!-- 1. 1927 Cotton Club -->
    <Placemark>
      <name>The Cotton Club - Harlem Renaissance Jewel</name>
      <description>
        <![CDATA[
          <b>Location:</b> 644 Lenox Avenue (original), Harlem, New York<br/>
          <b>Era:</b> 1923-1940 (original)<br/>
          <b>Artists:</b> Duke Ellington, Cab Calloway, Louis Armstrong, Ella Fitzgerald<br/>
          <b>Significance:</b> The most famous jazz club of the Harlem Renaissance. Duke Ellington's orchestra was the house band (1927-1931).<br/>
          <b>Era:</b> Harlem Renaissance peak
        ]]>
      </description>
      <styleUrl>#venueIcon</styleUrl>
      <Point>
        <coordinates>-73.9418,40.8116,0</coordinates>
      </Point>
      <TimeStamp>
        <when>1927</when>
      </TimeStamp>
    </Placemark>

    <!-- 2. 1935 Village Vanguard -->
    <Placemark>
      <name>Village Vanguard - Jazz's Sacred Space</name>
      <description>
        <![CDATA[
          <b>Location:</b> 178 7th Avenue South, Greenwich Village, NYC<br/>
          <b>Opened:</b> 1935<br/>
          <b>Legendary Recordings:</b> John Coltrane, Bill Evans<br/>
          <b>Significance:</b> The oldest jazz club in NYC still in operation.<br/>
          <b>Status:</b> Still operating
        ]]>
      </description>
      <styleUrl>#venueIcon</styleUrl>
      <Point>
        <coordinates>-74.0017,40.7357,0</coordinates>
      </Point>
      <TimeStamp>
        <when>1935</when>
      </TimeStamp>
    </Placemark>

    <!-- 3. 1941 Minton's -->
    <Placemark>
      <name>Minton's Playhouse - Bebop Birthplace</name>
      <description>
        <![CDATA[
          <b>Location:</b> 206 West 118th Street, Harlem<br/>
          <b>Founded:</b> 1938<br/>
          <b>Significance:</b> Where bebop was invented. Charlie Parker, Dizzy Gillespie, Thelonious Monk revolutionized jazz here.<br/>
          <b>Bebop:</b> Charlie Parker's laboratory
        ]]>
      </description>
      <styleUrl>#venueIcon</styleUrl>
      <Point>
        <coordinates>-73.9476,40.8029,0</coordinates>
      </Point>
      <TimeStamp>
        <when>1941</when>
      </TimeStamp>
    </Placemark>

    <!-- 4. 1943 Ryman -->
    <Placemark>
      <name>Ryman Auditorium - The Mother Church</name>
      <description>
        <![CDATA[
          <b>Location:</b> 116 5th Avenue North, Nashville<br/>
          <b>Built:</b> 1892<br/>
          <b>Grand Ole Opry Era:</b> 1943-1974<br/>
          <b>Significance:</b> "The Mother Church of Country Music."
        ]]>
      </description>
      <styleUrl>#venueIcon</styleUrl>
      <Point>
        <coordinates>-86.7786,36.1612,0</coordinates>
      </Point>
      <TimeStamp>
        <when>1943</when>
      </TimeStamp>
    </Placemark>

    <!-- 5. 1953-07-05 Sun Studio -->
    <Placemark>
      <name>Sun Studio - The Birthplace of Rock 'n' Roll</name>
      <description>
        <![CDATA[
          <b>Location:</b> 706 Union Avenue, Memphis, Tennessee<br/>
          <b>Founded:</b> 1950 by Sam Phillips<br/>
          <b>Legendary Sessions:</b> Elvis Presley's first recordings (1953-1955)<br/>
          <b>Significance:</b> Where rock 'n' roll was born.
        ]]>
      </description>
      <styleUrl>#venueIcon</styleUrl>
      <Point>
        <coordinates>-90.0253,35.1398,0</coordinates>
      </Point>
      <TimeStamp>
        <when>1953-07-05</when>
      </TimeStamp>
    </Placemark>

    <!-- 6. 1957 Troubadour -->
    <Placemark>
      <name>The Troubadour - West Coast Singer-Songwriter Shrine</name>
      <description>
        <![CDATA[
          <b>Location:</b> 9081 Santa Monica Boulevard, West Hollywood<br/>
          <b>Opened:</b> 1957<br/>
          <b>Significance:</b> The cradle of the California singer-songwriter movement.
        ]]>
      </description>
      <styleUrl>#venueIcon</styleUrl>
      <Point>
        <coordinates>-118.3888,34.0906,0</coordinates>
      </Point>
      <TimeStamp>
        <when>1957</when>
      </TimeStamp>
    </Placemark>

    <!-- 7. 1959 Motown -->
    <Placemark>
      <name>Hitsville U.S.A. - Motown Records</name>
      <description>
        <![CDATA[
          <b>Location:</b> 2648 West Grand Boulevard, Detroit<br/>
          <b>Founded:</b> 1959 by Berry Gordy<br/>
          <b>Artists:</b> Diana Ross & The Supremes, Marvin Gaye, Stevie Wonder<br/>
          <b>Significance:</b> The most successful independent record label in history.
        ]]>
      </description>
      <styleUrl>#venueIcon</styleUrl>
      <Point>
        <coordinates>-83.0884,42.3641,0</coordinates>
      </Point>
      <TimeStamp>
        <when>1959</when>
      </TimeStamp>
    </Placemark>

    <!-- 8. 1960 Stax -->
    <Placemark>
      <name>Stax Records - Soul Music Capital</name>
      <description>
        <![CDATA[
          <b>Location:</b> 926 East McLemore Avenue, Memphis<br/>
          <b>Era:</b> 1957-1975<br/>
          <b>Artists:</b> Otis Redding, Isaac Hayes, Booker T. & the MG's<br/>
          <b>Significance:</b> Memphis soul at its finest.
        ]]>
      </description>
      <styleUrl>#venueIcon</styleUrl>
      <Point>
        <coordinates>-90.0255,35.0870,0</coordinates>
      </Point>
      <TimeStamp>
        <when>1960</when>
      </TimeStamp>
    </Placemark>

    <!-- 9. 1961 Preservation Hall -->
    <Placemark>
      <name>Preservation Hall - New Orleans Jazz Temple</name>
      <description>
        <![CDATA[
          <b>Location:</b> 726 St Peter Street, French Quarter, New Orleans<br/>
          <b>Founded:</b> 1961<br/>
          <b>Significance:</b> Dedicated to preserving traditional New Orleans jazz.
        ]]>
      </description>
      <styleUrl>#venueIcon</styleUrl>
      <Point>
        <coordinates>-90.0651,29.9584,0</coordinates>
      </Point>
      <TimeStamp>
        <when>1961</when>
      </TimeStamp>
    </Placemark>

    <!-- 10. 1961-02-09 Cavern Club -->
    <Placemark>
      <name>The Cavern Club - Where The Beatles Were Born</name>
      <description>
        <![CDATA[
          <b>Location:</b> 10 Mathew Street, Liverpool, England<br/>
          <b>Opened:</b> 1957<br/>
          <b>Legendary Performance:</b> The Beatles performed 292 times here (1961-1963)<br/>
          <b>Significance:</b> The birthplace of Beatlemania.
        ]]>
      </description>
      <styleUrl>#venueIcon</styleUrl>
      <Point>
        <coordinates>-2.9867,53.4063,0</coordinates>
      </Point>
      <TimeStamp>
        <when>1961-02-09</when>
      </TimeStamp>
    </Placemark>

    <!-- 11. 1962 Abbey Road -->
    <Placemark>
      <name>Abbey Road Studios - Where The Beatles Made History</name>
      <description>
        <![CDATA[
          <b>Location:</b> 3 Abbey Road, St John's Wood, London<br/>
          <b>Opened:</b> 1931<br/>
          <b>Legendary Sessions:</b> The Beatles recorded almost all their albums here (1962-1970)<br/>
          <b>Significance:</b> The most famous recording studio in the world.
        ]]>
      </description>
      <styleUrl>#venueIcon</styleUrl>
      <Point>
        <coordinates>-0.1776,51.5319,0</coordinates>
      </Point>
      <TimeStamp>
        <when>1962</when>
      </TimeStamp>
    </Placemark>

    <!-- 12. 1962-10-24 Apollo -->
    <Placemark>
      <name>Apollo Theater - Harlem's Crown Jewel</name>
      <description>
        <![CDATA[
          <b>Location:</b> 253 West 125th Street, Harlem, New York<br/>
          <b>Opened:</b> 1914 (as music venue 1934)<br/>
          <b>Legendary Performance:</b> James Brown "Live at the Apollo" (October 24, 1962)<br/>
          <b>Significance:</b> The most famous theater in African-American culture.
        ]]>
      </description>
      <styleUrl>#venueIcon</styleUrl>
      <Point>
        <coordinates>-73.9502,40.8101,0</coordinates>
      </Point>
      <TimeStamp>
        <when>1962-10-24</when>
      </TimeStamp>
    </Placemark>

    <!-- 13. 1965 Fillmore -->
    <Placemark>
      <name>The Fillmore - Bill Graham's Palace</name>
      <description>
        <![CDATA[
          <b>Location:</b> 1805 Geary Boulevard, San Francisco<br/>
          <b>Era:</b> 1965-1968 (original), reopened 1994<br/>
          <b>Legendary Performances:</b> Grateful Dead, Jefferson Airplane, Jimi Hendrix<br/>
          <b>Significance:</b> Ground zero for psychedelic rock.
        ]]>
      </description>
      <styleUrl>#venueIcon</styleUrl>
      <Point>
        <coordinates>-122.4331,37.7837,0</coordinates>
      </Point>
      <TimeStamp>
        <when>1965</when>
      </TimeStamp>
    </Placemark>

    <!-- 14. 1965-08-15 Shea Stadium -->
    <Placemark>
      <name>Shea Stadium - Beatles Stadium Pioneer</name>
      <description>
        <![CDATA[
          <b>Location:</b> Flushing, Queens, New York (demolished 2009)<br/>
          <b>Legendary Concert:</b> The Beatles (August 15, 1965)<br/>
          <b>Significance:</b> First major stadium rock concert. 55,600 screaming fans.
        ]]>
      </description>
      <styleUrl>#venueIcon</styleUrl>
      <Point>
        <coordinates>-73.8458,40.7571,0</coordinates>
      </Point>
      <TimeStamp>
        <when>1965-08-15</when>
      </TimeStamp>
    </Placemark>

    <!-- 15. 1966 Whisky -->
    <Placemark>
      <name>The Whisky a Go Go - Sunset Strip Legend</name>
      <description>
        <![CDATA[
          <b>Location:</b> 8901 Sunset Boulevard, West Hollywood<br/>
          <b>Opened:</b> 1964<br/>
          <b>Legendary Moments:</b> The Doors were house band (1966)<br/>
          <b>Significance:</b> The birthplace of go-go dancing.
        ]]>
      </description>
      <styleUrl>#venueIcon</styleUrl>
      <Point>
        <coordinates>-118.3885,34.0908,0</coordinates>
      </Point>
      <TimeStamp>
        <when>1966</when>
      </TimeStamp>
    </Placemark>

    <!-- 16. 1966-06-30 Budokan -->
    <Placemark>
      <name>Nippon Budokan - Martial Arts to Rock Temple</name>
      <description>
        <![CDATA[
          <b>Location:</b> 2-3 Kitanomaru Park, Chiyoda, Tokyo<br/>
          <b>Built:</b> 1964 (for Olympics judo)<br/>
          <b>Legendary Concert:</b> The Beatles first concert (June 30, 1966)<br/>
          <b>Significance:</b> First rock concert at Budokan.
        ]]>
      </description>
      <styleUrl>#venueIcon</styleUrl>
      <Point>
        <coordinates>139.7507,35.6936,0</coordinates>
      </Point>
      <TimeStamp>
        <when>1966-06-30</when>
      </TimeStamp>
    </Placemark>

    <!-- 17. 1966-08-29 Hollywood Bowl -->
    <Placemark>
      <name>Hollywood Bowl - Natural Amphitheater</name>
      <description>
        <![CDATA[
          <b>Location:</b> 2301 North Highland Avenue, Los Angeles<br/>
          <b>Opened:</b> 1922<br/>
          <b>Legendary Performance:</b> The Beatles final paid concert (August 29, 1966)<br/>
          <b>Significance:</b> Most famous outdoor amphitheater in America.
        ]]>
      </description>
      <styleUrl>#venueIcon</styleUrl>
      <Point>
        <coordinates>-118.3387,34.1128,0</coordinates>
      </Point>
      <TimeStamp>
        <when>1966-08-29</when>
      </TimeStamp>
    </Placemark>

    <!-- 18. 1968 Kingston Mines -->
    <Placemark>
      <name>Kingston Mines - Chicago Blues Institution</name>
      <description>
        <![CDATA[
          <b>Opened:</b> 1968<br/>
          <b>Location:</b> 2548 North Halsted Street, Chicago<br/>
          <b>Significance:</b> One of Chicago's last remaining authentic blues clubs.
        ]]>
      </description>
      <styleUrl>#venueIcon</styleUrl>
      <Point>
        <coordinates>-87.6492,41.9273,0</coordinates>
      </Point>
      <TimeStamp>
        <when>1968</when>
      </TimeStamp>
    </Placemark>

    <!-- 19. 1970-08-25 Troubadour Elton John -->
    <Placemark>
      <name>The Troubadour - Elton John's U.S. Breakthrough</name>
      <description>
        <![CDATA[
          <b>Location:</b> 9081 Santa Monica Boulevard, West Hollywood<br/>
          <b>Date:</b> August 25, 1970<br/>
          <b>Significance:</b> Elton John's legendary U.S. debut residency.
        ]]>
      </description>
      <styleUrl>#venueIcon</styleUrl>
      <Point>
        <coordinates>-118.3888,34.0906,0</coordinates>
      </Point>
      <TimeStamp>
        <when>1970-08-25</when>
      </TimeStamp>
    </Placemark>

    <!-- 20. 1971 Exit/In -->
    <Placemark>
      <name>Exit/In - Nashville's Alternative Heart</name>
      <description>
        <![CDATA[
          <b>Location:</b> 2208 Elliston Place, Nashville<br/>
          <b>Opened:</b> 1971<br/>
          <b>Significance:</b> Nashville's rock club amid the country scene.
        ]]>
      </description>
      <styleUrl>#venueIcon</styleUrl>
      <Point>
        <coordinates>-86.7980,36.1520,0</coordinates>
      </Point>
      <TimeStamp>
        <when>1971</when>
      </TimeStamp>
    </Placemark>

    <!-- 21. 1971-08-01 Madison Square Garden -->
    <Placemark>
      <name>Madison Square Garden - The World's Most Famous Arena</name>
      <description>
        <![CDATA[
          <b>Location:</b> 4 Pennsylvania Plaza, New York City<br/>
          <b>Current Building:</b> 1968-present (4th MSG)<br/>
          <b>Legendary Concerts:</b> Concert for Bangladesh (1971)<br/>
          <b>Significance:</b> 20,000-seat arena that's hosted every major artist.
        ]]>
      </description>
      <styleUrl>#venueIcon</styleUrl>
      <Point>
        <coordinates>-73.9934,40.7505,0</coordinates>
      </Point>
      <TimeStamp>
        <when>1971-08-01</when>
      </TimeStamp>
    </Placemark>

    <!-- 22. 1974 CBGB -->
    <Placemark>
      <name>CBGB - Birthplace of Punk Rock</name>
      <description>
        <![CDATA[
          <b>Location:</b> 315 Bowery, New York City<br/>
          <b>Operated:</b> 1973-2006<br/>
          <b>Legendary Performance:</b> Ramones residency (1974)<br/>
          <b>Significance:</b> The grimy Bowery club where punk rock was born.
        ]]>
      </description>
      <styleUrl>#venueIcon</styleUrl>
      <Point>
        <coordinates>-73.9924,40.7255,0</coordinates>
      </Point>
      <TimeStamp>
        <when>1974</when>
      </TimeStamp>
    </Placemark>

    <!-- 23. 1974 Stone Pony -->
    <Placemark>
      <name>The Stone Pony - The Boss's Home</name>
      <description>
        <![CDATA[
          <b>Location:</b> 913 Ocean Avenue, Asbury Park, New Jersey<br/>
          <b>Opened:</b> 1974<br/>
          <b>Significance:</b> Bruce Springsteen's home club.
        ]]>
      </description>
      <styleUrl>#venueIcon</styleUrl>
      <Point>
        <coordinates>-74.0071,40.2205,0</coordinates>
      </Point>
      <TimeStamp>
        <when>1974</when>
      </TimeStamp>
    </Placemark>

    <!-- 24. 1975 Antone's -->
    <Placemark>
      <name>Antone's - Austin's Home of the Blues</name>
      <description>
        <![CDATA[
          <b>Opened:</b> 1975<br/>
          <b>Location:</b> Austin, Texas<br/>
          <b>Significance:</b> Clifford Antone brought Chicago blues to Texas.
        ]]>
      </description>
      <styleUrl>#venueIcon</styleUrl>
      <Point>
        <coordinates>-97.7431,30.2672,0</coordinates>
      </Point>
      <TimeStamp>
        <when>1975</when>
      </TimeStamp>
    </Placemark>

    <!-- 25. 1976-09-20 The 100 Club -->
    <Placemark>
      <name>The 100 Club - London Punk Ground Zero</name>
      <description>
        <![CDATA[
          <b>Location:</b> 100 Oxford Street, London<br/>
          <b>Opened:</b> 1942<br/>
          <b>Legendary Event:</b> The Punk Festival (September 20-21, 1976)<br/>
          <b>Significance:</b> This two-night festival launched British punk.
        ]]>
      </description>
      <styleUrl>#venueIcon</styleUrl>
      <Point>
        <coordinates>-0.1345,51.5165,0</coordinates>
      </Point>
      <TimeStamp>
        <when>1976-09-20</when>
      </TimeStamp>
    </Placemark>

    <!-- 26. 1977 The Warehouse -->
    <Placemark>
      <name>The Warehouse - Birthplace of House Music</name>
      <description>
        <![CDATA[
          <b>Location:</b> 206 South Jefferson Street, Chicago<br/>
          <b>Era:</b> 1977-1983<br/>
          <b>Significance:</b> Where house music was born. DJ Frankie Knuckles.
        ]]>
      </description>
      <styleUrl>#venueIcon</styleUrl>
      <Point>
        <coordinates>-87.6422,41.8756,0</coordinates>
      </Point>
      <TimeStamp>
        <when>1977</when>
      </TimeStamp>
    </Placemark>

    <!-- 27. 1977 Paradise Garage -->
    <Placemark>
      <name>Paradise Garage - House Music Mecca</name>
      <description>
        <![CDATA[
          <b>Location:</b> 84 King Street, SoHo, New York<br/>
          <b>Era:</b> 1977-1987<br/>
          <b>Significance:</b> Larry Levan's legendary Saturday night parties.
        ]]>
      </description>
      <styleUrl>#venueIcon</styleUrl>
      <Point>
        <coordinates>-74.0048,40.7215,0</coordinates>
      </Point>
      <TimeStamp>
        <when>1977</when>
      </TimeStamp>
    </Placemark>

    <!-- 28. 1979 Olympia Dublin -->
    <Placemark>
      <name>Olympia Theatre - U2's Birthplace</name>
      <description>
        <![CDATA[
          <b>Location:</b> 72 Dame Street, Dublin, Ireland<br/>
          <b>Opened:</b> 1879<br/>
          <b>Significance:</b> U2 played early shows here.
        ]]>
      </description>
      <styleUrl>#venueIcon</styleUrl>
      <Point>
        <coordinates>-6.2649,53.3445,0</coordinates>
      </Point>
      <TimeStamp>
        <when>1979</when>
      </TimeStamp>
    </Placemark>

    <!-- 29. 1980 9:30 Club -->
    <Placemark>
      <name>9:30 Club - Washington D.C. Indie Temple</name>
      <description>
        <![CDATA[
          <b>Location:</b> 815 V Street NW, Washington D.C. (moved 1996)<br/>
          <b>Original:</b> 930 F Street (1980-1996)<br/>
          <b>Significance:</b> D.C. punk and indie rock headquarters.
        ]]>
      </description>
      <styleUrl>#venueIcon</styleUrl>
      <Point>
        <coordinates>-77.0223,38.9177,0</coordinates>
      </Point>
      <TimeStamp>
        <when>1980</when>
      </TimeStamp>
    </Placemark>

    <!-- 30. 1980 The Palladium -->
    <Placemark>
      <name>The Palladium - New York Rock Palace</name>
      <description>
        <![CDATA[
          <b>Location:</b> 126 East 14th Street, New York<br/>
          <b>Era:</b> 1976-1997 (as concert venue)<br/>
          <b>Significance:</b> Mid-sized venue that hosted everyone from Clash to U2 to Nirvana.
        ]]>
      </description>
      <styleUrl>#venueIcon</styleUrl>
      <Point>
        <coordinates>-73.9898,40.7335,0</coordinates>
      </Point>
      <TimeStamp>
        <when>1980</when>
      </TimeStamp>
    </Placemark>

    <!-- 31. 1981 Blue Note -->
    <Placemark>
      <name>Blue Note Jazz Club</name>
      <description>
        <![CDATA[
          <b>Location:</b> 131 West 3rd Street, Greenwich Village, NYC<br/>
          <b>Opened:</b> 1981 (current location)<br/>
          <b>Significance:</b> "The Jazz Capital of the World."
        ]]>
      </description>
      <styleUrl>#venueIcon</styleUrl>
      <Point>
        <coordinates>-74.0006,40.7307,0</coordinates>
      </Point>
      <TimeStamp>
        <when>1981</when>
      </TimeStamp>
    </Placemark>

    <!-- 32. 1982 Bluebird Cafe -->
    <Placemark>
      <name>Bluebird Cafe - Nashville's Songwriter Haven</name>
      <description>
        <![CDATA[
          <b>Location:</b> 4104 Hillsboro Pike, Nashville<br/>
          <b>Opened:</b> 1982<br/>
          <b>Significance:</b> The most important songwriter venue in Nashville.
        ]]>
      </description>
      <styleUrl>#venueIcon</styleUrl>
      <Point>
        <coordinates>-86.8028,36.1030,0</coordinates>
      </Point>
      <TimeStamp>
        <when>1982</when>
      </TimeStamp>
    </Placemark>

    <!-- 33. 1982 The Hacienda -->
    <Placemark>
      <name>The Hacienda - Madchester Central</name>
      <description>
        <![CDATA[
          <b>Location:</b> 11-13 Whitworth Street West, Manchester, England<br/>
          <b>Era:</b> 1982-1997<br/>
          <b>Significance:</b> Factory Records' legendary club. Birth of "Madchester" scene.
        ]]>
      </description>
      <styleUrl>#venueIcon</styleUrl>
      <Point>
        <coordinates>-2.2503,53.4757,0</coordinates>
      </Point>
      <TimeStamp>
        <when>1982</when>
      </TimeStamp>
    </Placemark>

    <!-- 34. 1983-06-05 Red Rocks -->
    <Placemark>
      <name>Red Rocks Amphitheatre - Nature's Perfect Venue</name>
      <description>
        <![CDATA[
          <b>Location:</b> Morrison, Colorado (near Denver)<br/>
          <b>Opened:</b> 1941<br/>
          <b>Legendary Performance:</b> U2 "Under a Blood Red Sky" (1983)<br/>
          <b>Significance:</b> The most beautiful concert venue in America.
        ]]>
      </description>
      <styleUrl>#venueIcon</styleUrl>
      <Point>
        <coordinates>-105.2057,39.6654,0</coordinates>
      </Point>
      <TimeStamp>
        <when>1983-06-05</when>
      </TimeStamp>
    </Placemark>

    <!-- 35. 1984 First Avenue -->
    <Placemark>
      <name>First Avenue - Prince's Purple Palace</name>
      <description>
        <![CDATA[
          <b>Location:</b> 701 First Avenue North, Minneapolis<br/>
          <b>Opened:</b> 1970 (as music venue)<br/>
          <b>Legendary Connection:</b> Featured in "Purple Rain" (1984)<br/>
          <b>Significance:</b> Prince's home club.
        ]]>
      </description>
      <styleUrl>#venueIcon</styleUrl>
      <Point>
        <coordinates>-93.2758,44.9813,0</coordinates>
      </Point>
      <TimeStamp>
        <when>1984</when>
      </TimeStamp>
    </Placemark>

    <!-- 36. 1985-07-13 Wembley Stadium -->
    <Placemark>
      <name>Wembley Stadium - Stadium Rock Peak</name>
      <description>
        <![CDATA[
          <b>Location:</b> Wembley, London<br/>
          <b>Original Stadium:</b> 1923-2003<br/>
          <b>Legendary Concerts:</b> Live Aid (July 13, 1985), Queen (July 11-12, 1986)<br/>
          <b>Significance:</b> Live Aid was watched by 1.9 billion people.
        ]]>
      </description>
      <styleUrl>#venueIcon</styleUrl>
      <Point>
        <coordinates>-0.2795,51.5560,0</coordinates>
      </Point>
      <TimeStamp>
        <when>1985-07-13</when>
      </TimeStamp>
    </Placemark>

    <!-- 37. 1989 Buddy Guy's Legends -->
    <Placemark>
      <name>Buddy Guy's Legends</name>
      <description>
        <![CDATA[
          <b>Opened:</b> 1989<br/>
          <b>Location:</b> 700 South Wabash Avenue, Chicago<br/>
          <b>Significance:</b> Buddy Guy's own club. Living blues legend.
        ]]>
      </description>
      <styleUrl>#venueIcon</styleUrl>
      <Point>
        <coordinates>-87.6264,41.8722,0</coordinates>
      </Point>
      <TimeStamp>
        <when>1989</when>
      </TimeStamp>
    </Placemark>

    <!-- 38. 2004 Berghain -->
    <Placemark>
      <name>Berghain - Techno Cathedral</name>
      <description>
        <![CDATA[
          <b>Location:</b> Am Wriezener Bahnhof, Berlin, Germany<br/>
          <b>Opened:</b> 2004<br/>
          <b>Significance:</b> The most famous techno club in the world.
        ]]>
      </description>
      <styleUrl>#venueIcon</styleUrl>
      <Point>
        <coordinates>13.4429,52.5107,0</coordinates>
      </Point>
      <TimeStamp>
        <when>2004</when>
      </TimeStamp>
    </Placemark>

  </Document>
</kml>

