<?xml version="1.0" encoding="UTF-8"?>
<kml xmlns="http://www.opengis.net/kml/2.2">
  <Document>
    <name>Taylor Swift Life Events Timeline</name>
    <description>Twenty significant events from Taylor Swift's life and career</description>
    
    <Style id="swiftIcon">
      <IconStyle>
        <scale>1.2</scale>
        <Icon>
          <href>http://maps.google.com/mapfiles/kml/paddle/pink-stars.png</href>
        </Icon>
      </IconStyle>
      <LabelStyle>
        <scale>1.0</scale>
      </LabelStyle>
      <BalloonStyle>
        <text><![CDATA[
          <b>$[name]</b><br/>
          $[description]
        ]]></text>
      </BalloonStyle>
    </Style>

    <!-- Event 1: Birth -->
    <Placemark>
      <name>Birth</name>
      <description>
        <![CDATA[
          <b>Date:</b> December 13, 1989<br/>
          <b>Event:</b> Taylor Alison Swift was born in Reading, Pennsylvania at Reading Hospital.<br/>
          <b>Significance:</b> The beginning of a future global superstar's journey.
        ]]>
      </description>
      <styleUrl>#swiftIcon</styleUrl>
      <LookAt>
        <longitude>-75.9270</longitude>
        <latitude>40.3356</latitude>
        <altitude>0</altitude>
        <heading>0</heading>
        <tilt>0</tilt>
        <range>2000</range>
      </LookAt>
      <Point>
        <coordinates>-75.9270,40.3356,0</coordinates>
      </Point>
    </Placemark>

    <!-- Event 2: Move to Nashville -->
    <Placemark>
      <name>Move to Nashville</name>
      <description>
        <![CDATA[
          <b>Date:</b> 2004<br/>
          <b>Event:</b> At age 14, Taylor and her family moved to Hendersonville, Tennessee (Nashville area) to pursue her music career.<br/>
          <b>Significance:</b> This move was pivotal in launching her country music career.
        ]]>
      </description>
      <styleUrl>#swiftIcon</styleUrl>
      <Point>
        <coordinates>-86.6200,36.3048,0</coordinates>
      </Point>
      <TimeStamp>
        <when>2004</when>
      </TimeStamp>
    </Placemark>

    <!-- Event 3: First Album Release -->
    <Placemark>
      <name>Debut Album Release</name>
      <description>
        <![CDATA[
          <b>Date:</b> October 24, 2006<br/>
          <b>Event:</b> Released self-titled debut album "Taylor Swift" through Big Machine Records in Nashville.<br/>
          <b>Significance:</b> The album peaked at #5 on Billboard 200 and established her as a rising country star.
        ]]>
      </description>
      <styleUrl>#swiftIcon</styleUrl>
      <Point>
        <coordinates>-86.7816,36.1627,0</coordinates>
      </Point>
      <TimeStamp>
        <when>2006-10-24</when>
      </TimeStamp>
    </Placemark>

    <!-- Event 4: Fearless Album Release -->
    <Placemark>
      <name>Fearless Album Release</name>
      <description>
        <![CDATA[
          <b>Date:</b> November 11, 2008<br/>
          <b>Event:</b> Released "Fearless" album in Nashville, which would become her breakthrough album.<br/>
          <b>Significance:</b> The best-selling album of 2009 in the US, establishing her as a crossover superstar.
        ]]>
      </description>
      <styleUrl>#swiftIcon</styleUrl>
      <Point>
        <coordinates>-86.7816,36.1627,0</coordinates>
      </Point>
      <TimeStamp>
        <when>2008-11-11</when>
      </TimeStamp>
    </Placemark>

    <!-- Event 5: 2009 VMAs Incident -->
    <Placemark>
      <name>2009 MTV VMAs Incident</name>
      <description>
        <![CDATA[
          <b>Date:</b> September 13, 2009<br/>
          <b>Event:</b> Kanye West interrupted Taylor's acceptance speech for Best Female Video at MTV VMAs in New York City.<br/>
          <b>Significance:</b> A pivotal cultural moment that became one of the most talked-about events in VMA history.
        ]]>
      </description>
      <styleUrl>#swiftIcon</styleUrl>
      <Point>
        <coordinates>-74.0060,40.7128,0</coordinates>
      </Point>
      <TimeStamp>
        <when>2009-09-13</when>
      </TimeStamp>
    </Placemark>

    <!-- Event 6: First Grammy Win -->
    <Placemark>
      <name>First Grammy Win</name>
      <description>
        <![CDATA[
          <b>Date:</b> January 31, 2010<br/>
          <b>Event:</b> Won Album of the Year for "Fearless" at the 52nd Grammy Awards in Los Angeles, becoming the youngest artist to win this award at age 20.<br/>
          <b>Significance:</b> Historic win that cemented her status as a major artist.
        ]]>
      </description>
      <styleUrl>#swiftIcon</styleUrl>
      <Point>
        <coordinates>-118.2437,34.0522,0</coordinates>
      </Point>
      <TimeStamp>
        <when>2010-01-31</when>
      </TimeStamp>
    </Placemark>

    <!-- Event 7: Speak Now World Tour -->
    <Placemark>
      <name>Speak Now World Tour Launch</name>
      <description>
        <![CDATA[
          <b>Date:</b> February 9, 2011<br/>
          <b>Event:</b> Kicked off her first solo world tour in Singapore.<br/>
          <b>Significance:</b> 110 shows across Asia, Europe, North America, and Oceania, grossing over $123 million.
        ]]>
      </description>
      <styleUrl>#swiftIcon</styleUrl>
      <Point>
        <coordinates>103.8198,1.3521,0</coordinates>
      </Point>
      <TimeStamp>
        <when>2011-02-09</when>
      </TimeStamp>
    </Placemark>

    <!-- Event 8: Red Album Release -->
    <Placemark>
      <name>Red Album Release</name>
      <description>
        <![CDATA[
          <b>Date:</b> October 22, 2012<br/>
          <b>Event:</b> Released "Red" album, marking her transition from country to pop music.<br/>
          <b>Significance:</b> Sold 1.21 million copies in its first week, showcasing her crossover appeal.
        ]]>
      </description>
      <styleUrl>#swiftIcon</styleUrl>
      <Point>
        <coordinates>-86.7816,36.1627,0</coordinates>
      </Point>
      <TimeStamp>
        <when>2012-10-22</when>
      </TimeStamp>
    </Placemark>

    <!-- Event 9: Move to New York -->
    <Placemark>
      <name>Move to New York City</name>
      <description>
        <![CDATA[
          <b>Date:</b> March 2014<br/>
          <b>Event:</b> Officially moved to New York City and became Global Welcome Ambassador for NYC Tourism.<br/>
          <b>Significance:</b> Marked her transition from Nashville country star to NYC pop icon.
        ]]>
      </description>
      <styleUrl>#swiftIcon</styleUrl>
      <Point>
        <coordinates>-74.0060,40.7128,0</coordinates>
      </Point>
      <TimeStamp>
        <when>2014-03</when>
      </TimeStamp>
    </Placemark>

    <!-- Event 10: 1989 Album Release -->
    <Placemark>
      <name>1989 Album Release</name>
      <description>
        <![CDATA[
          <b>Date:</b> October 27, 2014<br/>
          <b>Event:</b> Released "1989", her first official pop album, in New York City.<br/>
          <b>Significance:</b> Sold over 10 million copies worldwide and won Album of the Year at the Grammys.
        ]]>
      </description>
      <styleUrl>#swiftIcon</styleUrl>
      <Point>
        <coordinates>-74.0060,40.7128,0</coordinates>
      </Point>
      <TimeStamp>
        <when>2014-10-27</when>
      </TimeStamp>
    </Placemark>

    <!-- Event 11: 1989 World Tour -->
    <Placemark>
      <name>1989 World Tour</name>
      <description>
        <![CDATA[
          <b>Date:</b> May 5, 2015<br/>
          <b>Event:</b> Launched the 1989 World Tour in Tokyo, Japan.<br/>
          <b>Significance:</b> Highest-grossing tour of 2015, earning $250 million from 85 shows worldwide.
        ]]>
      </description>
      <styleUrl>#swiftIcon</styleUrl>
      <Point>
        <coordinates>139.6917,35.6895,0</coordinates>
      </Point>
      <TimeStamp>
        <when>2015-05-05</when>
      </TimeStamp>
    </Placemark>

    <!-- Event 12: Reputation Album Release -->
    <Placemark>
      <name>Reputation Album Release</name>
      <description>
        <![CDATA[
          <b>Date:</b> November 10, 2017<br/>
          <b>Event:</b> Released "Reputation" after a year-long hiatus from public life, in New York.<br/>
          <b>Significance:</b> Sold 1.2 million copies in first week, addressing media controversies and personal struggles.
        ]]>
      </description>
      <styleUrl>#swiftIcon</styleUrl>
      <Point>
        <coordinates>-74.0060,40.7128,0</coordinates>
      </Point>
      <TimeStamp>
        <when>2017-11-10</when>
      </TimeStamp>
    </Placemark>

    <!-- Event 13: Reputation Stadium Tour -->
    <Placemark>
      <name>Reputation Stadium Tour Opening</name>
      <description>
        <![CDATA[
          <b>Date:</b> May 8, 2018<br/>
          <b>Event:</b> Kicked off the Reputation Stadium Tour at the University of Phoenix Stadium in Glendale, Arizona.<br/>
          <b>Significance:</b> Became the highest-grossing tour in US history at the time, earning $345 million.
        ]]>
      </description>
      <styleUrl>#swiftIcon</styleUrl>
      <Point>
        <coordinates>-112.2626,33.5276,0</coordinates>
      </Point>
      <TimeStamp>
        <when>2018-05-08</when>
      </TimeStamp>
    </Placemark>

    <!-- Event 14: Lover Album & Glastonbury -->
    <Placemark>
      <name>Glastonbury Festival Headliner</name>
      <description>
        <![CDATA[
          <b>Date:</b> June 28, 2019<br/>
          <b>Event:</b> Headlined Glastonbury Festival in Pilton, England - her only UK festival performance to date.<br/>
          <b>Significance:</b> Performance featured surprise duets and drew one of the festival's largest crowds.
        ]]>
      </description>
      <styleUrl>#swiftIcon</styleUrl>
      <Point>
        <coordinates>-2.5847,51.1537,0</coordinates>
      </Point>
      <TimeStamp>
        <when>2019-06-28</when>
      </TimeStamp>
    </Placemark>

    <!-- Event 15: Folklore Surprise Release -->
    <Placemark>
      <name>Folklore Surprise Release</name>
      <description>
        <![CDATA[
          <b>Date:</b> July 24, 2020<br/>
          <b>Event:</b> Surprise-released "Folklore" album during the COVID-19 pandemic, recorded remotely.<br/>
          <b>Significance:</b> Won Album of the Year at the Grammys, making her the first woman to win this award three times.
        ]]>
      </description>
      <styleUrl>#swiftIcon</styleUrl>
      <Point>
        <coordinates>-74.0060,40.7128,0</coordinates>
      </Point>
      <TimeStamp>
        <when>2020-07-24</when>
      </TimeStamp>
    </Placemark>

    <!-- Event 16: Evermore Surprise Release -->
    <Placemark>
      <name>Evermore Album Release</name>
      <description>
        <![CDATA[
          <b>Date:</b> December 11, 2020<br/>
          <b>Event:</b> Surprise-released "Evermore", sister album to Folklore, just 5 months later.<br/>
          <b>Significance:</b> Continued her indie-folk era with critical acclaim and another #1 debut.
        ]]>
      </description>
      <styleUrl>#swiftIcon</styleUrl>
      <Point>
        <coordinates>-74.0060,40.7128,0</coordinates>
      </Point>
      <TimeStamp>
        <when>2020-12-11</when>
      </TimeStamp>
    </Placemark>

    <!-- Event 17: Re-recording Masters -->
    <Placemark>
      <name>Fearless (Taylor's Version) Release</name>
      <description>
        <![CDATA[
          <b>Date:</b> April 9, 2021<br/>
          <b>Event:</b> Released "Fearless (Taylor's Version)", the first of her re-recorded albums to reclaim ownership of her masters.<br/>
          <b>Significance:</b> Groundbreaking move in artist rights and music ownership.
        ]]>
      </description>
      <styleUrl>#swiftIcon</styleUrl>
      <Point>
        <coordinates>-86.7816,36.1627,0</coordinates>
      </Point>
      <TimeStamp>
        <when>2021-04-09</when>
      </TimeStamp>
    </Placemark>

    <!-- Event 18: Midnights Album Release -->
    <Placemark>
      <name>Midnights Album Release</name>
      <description>
        <![CDATA[
          <b>Date:</b> October 21, 2022<br/>
          <b>Event:</b> Released "Midnights", her 10th studio album, breaking multiple streaming records.<br/>
          <b>Significance:</b> All 10 tracks from the album charted in the Billboard Hot 100 top 10 simultaneously.
        ]]>
      </description>
      <styleUrl>#swiftIcon</styleUrl>
      <Point>
        <coordinates>-74.0060,40.7128,0</coordinates>
      </Point>
      <TimeStamp>
        <when>2022-10-21</when>
      </TimeStamp>
    </Placemark>

    <!-- Event 19: The Eras Tour -->
    <Placemark>
      <name>The Eras Tour Opening Night</name>
      <description>
        <![CDATA[
          <b>Date:</b> March 17, 2023<br/>
          <b>Event:</b> Launched The Eras Tour at State Farm Stadium in Glendale, Arizona.<br/>
          <b>Significance:</b> Became the highest-grossing tour of all time, surpassing $2 billion in revenue.
        ]]>
      </description>
      <styleUrl>#swiftIcon</styleUrl>
      <Point>
        <coordinates>-112.2626,33.5276,0</coordinates>
      </Point>
      <TimeStamp>
        <when>2023-03-17</when>
      </TimeStamp>
    </Placemark>

    <!-- Event 20: Fourth Album of the Year Grammy -->
    <Placemark>
      <name>Record-Breaking Fourth Grammy AOTY Win</name>
      <description>
        <![CDATA[
          <b>Date:</b> February 4, 2024<br/>
          <b>Event:</b> Won Album of the Year for "Midnights" at the 66th Grammy Awards in Los Angeles.<br/>
          <b>Significance:</b> Became the first artist ever to win Album of the Year four times, breaking her own record.
        ]]>
      </description>
      <styleUrl>#swiftIcon</styleUrl>
      <Point>
        <coordinates>-118.2437,34.0522,0</coordinates>
      </Point>
      <TimeStamp>
        <when>2024-02-04</when>
      </TimeStamp>
    </Placemark>

  </Document>
</kml>

